{"type":"FeatureCollection","features":[{"type":"Feature","properties":{"kind":"boundary","province_code":"20","name":"Tỉnh Lạng Sơn","source":"VNSDI","valid_from":"16/6/2025","simplify_tolerance_deg":0.0005},"geometry":{"type":"Polygon","coordinates":[[[106.4136,21.43248],[106.4056,21.42846],[106.40535,21.4266],[106.40736,21.42056],[106.41353,21.41764],[106.41497,21.41598],[106.41582,21.40895],[106.41504,21.4073],[106.41273,21.40603],[106.40498,21.40402],[106.39917,21.40536],[106.39619,21.40524],[106.38693,21.39779],[106.3774,21.39435],[106.37182,21.39519],[106.36764,21.39845],[106.35904,21.39601],[106.3514,21.39707],[106.34638,21.4007],[106.33947,21.39961],[106.33734,21.40034],[106.33362,21.40381],[106.32479,21.40962],[106.32389,21.41149],[106.33141,21.43953],[106.32911,21.44606],[106.3258,21.44734],[106.31948,21.44687],[106.31581,21.44752],[106.31459,21.448],[106.31232,21.45113],[106.31033,21.45177],[106.30484,21.44837],[106.30454,21.44345],[106.30167,21.44208],[106.29265,21.4442],[106.28798,21.44997],[106.28416,21.45161],[106.2842,21.4589],[106.2862,21.46818],[106.28602,21.47095],[106.2845,21.47278],[106.28414,21.47814],[106.28673,21.48761],[106.28648,21.49046],[106.27337,21.49338],[106.26199,21.4909],[106.25973,21.48805],[106.25793,21.48735],[106.24617,21.48576],[106.24254,21.48633],[106.23731,21.49431],[106.21434,21.49627],[106.20911,21.49745],[106.18207,21.50793],[106.17641,21.50869],[106.17091,21.51116],[106.16895,21.51476],[106.16807,21.51993],[106.16817,21.52664],[106.16954,21.53206],[106.16737,21.54109],[106.16758,21.54371],[106.1706,21.54881],[106.16851,21.55542],[106.16869,21.56498],[106.16744,21.57544],[106.16967,21.58629],[106.16954,21.59461],[106.17047,21.59661],[106.18063,21.60084],[106.18443,21.60368],[106.19676,21.61802],[106.19756,21.6216],[106.19677,21.62317],[106.19617,21.62985],[106.193,21.63612],[106.19135,21.64154],[106.19138,21.64514],[106.19241,21.64778],[106.20296,21.6534],[106.20443,21.65518],[106.20697,21.6647],[106.20921,21.66733],[106.21977,21.67228],[106.22512,21.67933],[106.22557,21.68693],[106.22707,21.69251],[106.2329,21.70216],[106.23659,21.71152],[106.23787,21.71688],[106.23774,21.72025],[106.23557,21.7268],[106.22985,21.73035],[106.22633,21.73138],[106.22364,21.73126],[106.21793,21.72757],[106.21617,21.7278],[106.20768,21.73209],[106.19742,21.73511],[106.1956,21.73741],[106.19357,21.74259],[106.18867,21.74327],[106.18505,21.74186],[106.18244,21.74181],[106.18022,21.74262],[106.17816,21.74392],[106.17308,21.7496],[106.16542,21.75333],[106.15549,21.76014],[106.15066,21.76104],[106.14922,21.76241],[106.14379,21.77299],[106.13649,21.78437],[106.13496,21.78524],[106.1179,21.78206],[106.11323,21.78381],[106.10708,21.79253],[106.10722,21.80127],[106.10656,21.80436],[106.09935,21.8131],[106.09561,21.82007],[106.09601,21.82185],[106.10122,21.82964],[106.10245,21.83063],[106.10599,21.83097],[106.10753,21.83196],[106.10834,21.83719],[106.10943,21.83926],[106.11659,21.84108],[106.1179,21.84236],[106.11792,21.84415],[106.11197,21.84993],[106.11129,21.85151],[106.11146,21.86334],[106.11488,21.86877],[106.11559,21.87141],[106.11582,21.88109],[106.11393,21.89047],[106.11619,21.89386],[106.1215,21.89723],[106.12757,21.89966],[106.1292,21.90215],[106.12968,21.90452],[106.12774,21.91199],[106.12899,21.91399],[106.13131,21.91555],[106.13209,21.91734],[106.13211,21.92013],[106.13106,21.92265],[106.12884,21.92446],[106.12185,21.92443],[106.11092,21.93268],[106.10617,21.93393],[106.0978,21.93815],[106.10814,21.94487],[106.11041,21.94727],[106.1106,21.95065],[106.10897,21.95236],[106.10119,21.95227],[106.09844,21.95444],[106.09838,21.95688],[106.0997,21.95952],[106.10457,21.96207],[106.11265,21.96323],[106.11382,21.96588],[106.1132,21.98834],[106.11472,21.9924],[106.11435,21.99377],[106.11045,21.99695],[106.10947,21.99939],[106.11071,22.01552],[106.10883,22.02151],[106.09793,22.02845],[106.0961,22.03259],[106.09619,22.03611],[106.10101,22.04051],[106.102,22.04549],[106.10052,22.05622],[106.098,22.06245],[106.09829,22.06627],[106.10152,22.06989],[106.1073,22.07326],[106.10936,22.07277],[106.11185,22.07078],[106.11435,22.07124],[106.11844,22.07725],[106.12086,22.08386],[106.12279,22.08528],[106.13357,22.08575],[106.14502,22.08208],[106.15636,22.08159],[106.1572,22.08218],[106.1606,22.09058],[106.16235,22.1003],[106.16968,22.11149],[106.17097,22.11249],[106.17784,22.11322],[106.18558,22.11842],[106.18486,22.12404],[106.1815,22.12897],[106.18209,22.1307],[106.18641,22.13323],[106.18791,22.13609],[106.18852,22.13973],[106.19053,22.14235],[106.19323,22.14346],[106.19701,22.14284],[106.19856,22.1439],[106.20246,22.15068],[106.21462,22.16217],[106.23192,22.17496],[106.23296,22.1768],[106.2326,22.17902],[106.22554,22.18588],[106.2232,22.19014],[106.22182,22.19421],[106.2212,22.2042],[106.2261,22.21414],[106.23186,22.21929],[106.23714,22.22158],[106.24241,22.23708],[106.24223,22.24527],[106.24675,22.25539],[106.24524,22.26645],[106.24206,22.27143],[106.23635,22.27757],[106.23206,22.27946],[106.22668,22.2801],[106.22508,22.28101],[106.22419,22.28245],[106.2241,22.28597],[106.22195,22.28975],[106.22028,22.2906],[106.21462,22.28891],[106.2134,22.28922],[106.21054,22.29277],[106.20816,22.29965],[106.20344,22.3031],[106.20179,22.30544],[106.19959,22.31065],[106.20009,22.31692],[106.20135,22.32145],[106.20424,22.32824],[106.20991,22.3383],[106.21975,22.34778],[106.21984,22.35017],[106.21816,22.35646],[106.2137,22.36109],[106.21146,22.36165],[106.21044,22.36273],[106.20818,22.36884],[106.19997,22.37466],[106.1911,22.37622],[106.18799,22.38049],[106.18542,22.38617],[106.18763,22.39989],[106.19286,22.40781],[106.19268,22.41383],[106.19371,22.41662],[106.2159,22.45029],[106.22104,22.45527],[106.22961,22.45679],[106.23928,22.45994],[106.24298,22.45969],[106.25091,22.45727],[106.26026,22.45089],[106.26721,22.45183],[106.27106,22.4508],[106.27796,22.4468],[106.2842,22.43786],[106.28758,22.42801],[106.28865,22.42686],[106.30005,22.4249],[106.30607,22.4169],[106.31386,22.40952],[106.3184,22.40798],[106.32296,22.40902],[106.32839,22.41263],[106.33238,22.41123],[106.33367,22.4085],[106.33308,22.40298],[106.34003,22.39654],[106.34269,22.39258],[106.34366,22.38934],[106.34414,22.38246],[106.3432,22.37343],[106.35215,22.36398],[106.35631,22.36062],[106.36177,22.35788],[106.37757,22.35935],[106.38005,22.36037],[106.38781,22.36569],[106.39385,22.3716],[106.39676,22.37238],[106.40044,22.37097],[106.41293,22.36913],[106.42383,22.35993],[106.42666,22.35939],[106.42888,22.35988],[106.43527,22.36361],[106.43749,22.36365],[106.44859,22.35799],[106.4529,22.35749],[106.46606,22.35955],[106.48049,22.36567],[106.4876,22.36907],[106.48897,22.37049],[106.48989,22.37228],[106.48978,22.37467],[106.48409,22.37675],[106.48289,22.37909],[106.48316,22.37993],[106.48897,22.38292],[106.48983,22.3847],[106.48979,22.38721],[106.48601,22.38874],[106.48475,22.39061],[106.48508,22.3918],[106.49224,22.39436],[106.49393,22.39578],[106.4932,22.40033],[106.49387,22.40217],[106.50485,22.40381],[106.51087,22.40209],[106.51688,22.39893],[106.51904,22.39874],[106.52053,22.39919],[106.53086,22.40827],[106.53403,22.41563],[106.53641,22.41888],[106.56438,22.42323],[106.56466,22.4197],[106.57187,22.40398],[106.57755,22.39788],[106.58497,22.39497],[106.58616,22.38967],[106.58358,22.38337],[106.5855,22.37953],[106.58519,22.37774],[106.58002,22.37193],[106.5716,22.36909],[106.56986,22.366],[106.56774,22.3656],[106.56454,22.36659],[106.56172,22.36428],[106.562,22.35783],[106.56015,22.34979],[106.56076,22.34727],[106.56974,22.34223],[106.57113,22.34211],[106.57404,22.34463],[106.57652,22.34539],[106.57824,22.34409],[106.58016,22.34041],[106.58177,22.33971],[106.58587,22.34054],[106.58917,22.34283],[106.59741,22.33881],[106.6016,22.33794],[106.61432,22.33911],[106.61784,22.33359],[106.61903,22.33307],[106.62073,22.33306],[106.62499,22.33538],[106.63552,22.33922],[106.64129,22.33869],[106.64782,22.33988],[106.64977,22.33918],[106.65876,22.33371],[106.65893,22.33192],[106.65731,22.32831],[106.65916,22.31833],[106.66518,22.31253],[106.66744,22.30835],[106.66613,22.30238],[106.66786,22.29548],[106.66637,22.29001],[106.66751,22.28505],[106.67035,22.28398],[106.67714,22.28528],[106.68043,22.28356],[106.68228,22.28056],[106.68829,22.28068],[106.69051,22.27908],[106.69086,22.27313],[106.6858,22.26908],[106.68496,22.26516],[106.69001,22.25708],[106.68966,22.25031],[106.69213,22.24716],[106.69265,22.24235],[106.69493,22.23993],[106.69495,22.23548],[106.69665,22.22973],[106.70164,22.2196],[106.69857,22.21798],[106.69867,22.21021],[106.69774,22.20801],[106.69541,22.20589],[106.69186,22.20413],[106.688,22.20333],[106.6807,22.20484],[106.68042,22.19786],[106.67855,22.19275],[106.6753,22.18773],[106.67181,22.18594],[106.6708,22.18434],[106.67571,22.17984],[106.67782,22.17598],[106.67917,22.17038],[106.68285,22.16891],[106.68638,22.16478],[106.69007,22.16439],[106.69332,22.16235],[106.7028,22.16357],[106.70602,22.15992],[106.7065,22.15827],[106.70597,22.1554],[106.69939,22.15522],[106.69714,22.15378],[106.69544,22.14411],[106.69077,22.13958],[106.69002,22.13754],[106.69397,22.13313],[106.69258,22.12038],[106.69546,22.11644],[106.69562,22.11049],[106.69968,22.10611],[106.70902,22.10214],[106.71263,22.09558],[106.71169,22.091],[106.70571,22.083],[106.70617,22.06619],[106.70309,22.06288],[106.69726,22.05402],[106.69897,22.04997],[106.69725,22.04547],[106.69732,22.04323],[106.70487,22.03824],[106.70809,22.02831],[106.70767,22.02484],[106.70314,22.02245],[106.69886,22.01493],[106.68467,22.00465],[106.68299,22.00219],[106.68359,21.98505],[106.68426,21.98322],[106.68666,21.97973],[106.6899,21.97743],[106.69188,21.97382],[106.69475,21.97281],[106.6943,21.9698],[106.69099,21.9661],[106.69132,21.9646],[106.6941,21.96382],[106.69765,21.96059],[106.69915,21.96069],[106.70138,21.96211],[106.7026,21.96487],[106.70772,21.97058],[106.70812,21.97401],[106.70928,21.97439],[106.71484,21.97247],[106.71917,21.974],[106.7242,21.98029],[106.72738,21.98259],[106.72927,21.99282],[106.7335,21.99905],[106.73683,22.00138],[106.73716,22.00596],[106.73817,22.00742],[106.74942,22.00906],[106.75872,22.01236],[106.76514,22.01265],[106.77131,22.01108],[106.77562,22.00802],[106.77918,22.00422],[106.78527,22.00236],[106.78708,21.99905],[106.78835,21.99018],[106.7903,21.98919],[106.79261,21.99257],[106.79599,21.99282],[106.79719,21.99048],[106.79754,21.98416],[106.79885,21.98178],[106.80034,21.98123],[106.80285,21.98188],[106.80376,21.98123],[106.80615,21.97561],[106.80971,21.97428],[106.81619,21.97367],[106.82829,21.97581],[106.83266,21.97495],[106.83375,21.97659],[106.83319,21.98243],[106.83566,21.98392],[106.83973,21.9838],[106.84457,21.98114],[106.84674,21.98088],[106.85426,21.98288],[106.86662,21.98256],[106.87345,21.98081],[106.87948,21.9817],[106.88676,21.97982],[106.89133,21.97702],[106.89708,21.97564],[106.90319,21.972],[106.90744,21.97233],[106.91353,21.9758],[106.91789,21.97522],[106.92362,21.96356],[106.92408,21.95968],[106.92197,21.95504],[106.92221,21.95349],[106.92463,21.94772],[106.92735,21.94518],[106.92865,21.94188],[106.9308,21.93062],[106.93374,21.92995],[106.94372,21.93167],[106.95134,21.93135],[106.95367,21.92972],[106.9553,21.92406],[106.96119,21.92005],[106.96364,21.92068],[106.96597,21.9231],[106.97354,21.92391],[106.97818,21.92636],[106.98496,21.93942],[106.9875,21.94255],[106.98802,21.9481],[106.99081,21.95064],[106.9933,21.94995],[106.99742,21.94685],[107.00125,21.94585],[107.00843,21.9466],[107.02032,21.94544],[107.02191,21.94416],[107.02478,21.93899],[107.02674,21.93765],[107.02942,21.93672],[107.03441,21.93672],[107.03924,21.9316],[107.0475,21.92932],[107.04884,21.9281],[107.05433,21.92132],[107.05673,21.91682],[107.05659,21.9116],[107.05877,21.90781],[107.05917,21.90398],[107.06328,21.89616],[107.06326,21.89491],[107.06305,21.89372],[107.05843,21.89025],[107.05291,21.88255],[107.04814,21.88052],[107.04069,21.87882],[107.03076,21.86897],[107.02573,21.86605],[107.02213,21.86501],[107.0169,21.86167],[107.0124,21.85444],[107.00594,21.84816],[107.00482,21.84566],[107.00532,21.84417],[107.00457,21.83466],[107.00503,21.83213],[107.00969,21.82731],[107.01863,21.82582],[107.02476,21.82053],[107.02927,21.81778],[107.0386,21.81576],[107.0422,21.81279],[107.04956,21.81329],[107.0522,21.81198],[107.06837,21.80906],[107.07878,21.80988],[107.08356,21.80883],[107.08502,21.80792],[107.08597,21.80468],[107.08907,21.80237],[107.09044,21.80012],[107.09693,21.79809],[107.10107,21.79452],[107.11184,21.79363],[107.12253,21.7799],[107.12756,21.77643],[107.13404,21.77533],[107.13587,21.77178],[107.1355,21.7685],[107.13829,21.76674],[107.13993,21.76301],[107.1453,21.76309],[107.14799,21.76097],[107.15964,21.75747],[107.16194,21.75505],[107.16304,21.75175],[107.16535,21.75055],[107.16689,21.75053],[107.16996,21.75259],[107.17219,21.75229],[107.1754,21.74887],[107.18418,21.74753],[107.18644,21.74621],[107.19095,21.74105],[107.19275,21.73515],[107.19771,21.73279],[107.19891,21.7269],[107.19784,21.72357],[107.19842,21.7209],[107.20741,21.71535],[107.21382,21.7132],[107.21922,21.70917],[107.22227,21.70799],[107.23674,21.70706],[107.24027,21.70569],[107.24383,21.70536],[107.24764,21.70599],[107.25157,21.71804],[107.25687,21.72347],[107.26165,21.72702],[107.26742,21.73055],[107.27568,21.73319],[107.27925,21.73371],[107.28653,21.73241],[107.29135,21.73848],[107.29545,21.74135],[107.29749,21.74235],[107.30251,21.74171],[107.30714,21.73195],[107.30986,21.72907],[107.31403,21.72632],[107.31831,21.72596],[107.32136,21.72473],[107.32171,21.72287],[107.31984,21.71794],[107.31981,21.71585],[107.32017,21.71423],[107.32398,21.7088],[107.3247,21.70586],[107.33278,21.7004],[107.33469,21.69751],[107.3356,21.69285],[107.33769,21.68932],[107.34378,21.68677],[107.34766,21.68351],[107.34823,21.68109],[107.34596,21.67728],[107.34619,21.67607],[107.35275,21.67248],[107.35705,21.66875],[107.35918,21.66402],[107.36119,21.64834],[107.36189,21.64592],[107.36459,21.64216],[107.36334,21.6369],[107.36165,21.6348],[107.35651,21.63195],[107.35501,21.63031],[107.35474,21.62836],[107.3548,21.62458],[107.35569,21.62313],[107.35928,21.62119],[107.36112,21.61521],[107.36049,21.61169],[107.35759,21.60612],[107.35776,21.6048],[107.36026,21.60172],[107.36246,21.6007],[107.35866,21.59559],[107.35622,21.59479],[107.3481,21.59443],[107.34617,21.59374],[107.34189,21.5898],[107.33612,21.5882],[107.33134,21.58881],[107.32686,21.5924],[107.32363,21.59381],[107.3182,21.59347],[107.31549,21.592],[107.31053,21.59358],[107.30961,21.59544],[107.30846,21.59588],[107.29527,21.59325],[107.29371,21.59202],[107.29052,21.58418],[107.28457,21.57883],[107.2839,21.56916],[107.28084,21.56538],[107.27589,21.56306],[107.27327,21.5627],[107.26774,21.5646],[107.25846,21.56317],[107.24899,21.55763],[107.24775,21.55585],[107.24702,21.54977],[107.24604,21.54877],[107.24419,21.54855],[107.23278,21.55396],[107.22655,21.5519],[107.22115,21.55358],[107.21633,21.55156],[107.21255,21.54659],[107.20735,21.54457],[107.20514,21.54209],[107.20611,21.53855],[107.21093,21.53215],[107.21729,21.53058],[107.22112,21.52634],[107.22319,21.51957],[107.22612,21.51947],[107.23062,21.5212],[107.2329,21.5201],[107.2383,21.50581],[107.23698,21.49913],[107.23725,21.49591],[107.23867,21.49296],[107.24518,21.48457],[107.24598,21.48217],[107.24594,21.48008],[107.2409,21.47247],[107.24201,21.46801],[107.23956,21.46145],[107.24163,21.44985],[107.24529,21.44264],[107.24437,21.43558],[107.2487,21.42501],[107.25467,21.42168],[107.25627,21.41936],[107.25746,21.41046],[107.25922,21.40585],[107.26453,21.39956],[107.2618,21.39434],[107.26037,21.38361],[107.25549,21.37145],[107.25273,21.36742],[107.24685,21.36693],[107.24035,21.36525],[107.23522,21.37339],[107.22925,21.377],[107.22731,21.38051],[107.2231,21.38478],[107.21693,21.38859],[107.21161,21.38775],[107.2096,21.38668],[107.20435,21.37977],[107.20254,21.3785],[107.19973,21.37811],[107.1953,21.37884],[107.18462,21.37401],[107.16977,21.3634],[107.15754,21.36796],[107.15573,21.36817],[107.14721,21.36522],[107.14477,21.36544],[107.13892,21.3703],[107.13526,21.37082],[107.12708,21.36987],[107.11114,21.37543],[107.10391,21.37628],[107.0989,21.37548],[107.09734,21.37388],[107.09519,21.3589],[107.092,21.35674],[107.08276,21.35275],[107.07849,21.34687],[107.06646,21.34769],[107.06278,21.34716],[107.06011,21.34576],[107.05072,21.33039],[107.03812,21.32692],[107.03178,21.3233],[107.02411,21.32984],[107.02291,21.33139],[107.02186,21.33656],[107.01512,21.34391],[107.00825,21.34848],[107.00185,21.35095],[106.99945,21.35394],[106.9955,21.35637],[106.98941,21.35864],[106.98862,21.36076],[106.99095,21.36675],[106.99065,21.37507],[106.99212,21.37792],[106.99216,21.38126],[106.98679,21.39127],[106.986,21.40084],[106.99149,21.40727],[106.99221,21.4151],[106.99428,21.41718],[107.00187,21.41948],[107.00353,21.42127],[107.00214,21.42473],[106.99122,21.43212],[106.98935,21.4374],[106.98774,21.43914],[106.98428,21.43976],[106.9685,21.43564],[106.96331,21.42901],[106.95712,21.42412],[106.95466,21.42338],[106.95171,21.42427],[106.9494,21.42707],[106.94622,21.43332],[106.94348,21.43469],[106.94133,21.43481],[106.93546,21.43039],[106.93239,21.42995],[106.93077,21.4314],[106.92882,21.43802],[106.92751,21.43918],[106.92546,21.43901],[106.92248,21.43742],[106.91525,21.431],[106.91069,21.43144],[106.89775,21.44315],[106.89154,21.45288],[106.89128,21.45622],[106.89234,21.45926],[106.8983,21.46347],[106.9011,21.46731],[106.90145,21.47075],[106.90011,21.47363],[106.89236,21.47802],[106.88893,21.48566],[106.88899,21.48967],[106.88657,21.49228],[106.87406,21.49672],[106.85336,21.4963],[106.84579,21.49428],[106.84298,21.49482],[106.84226,21.49621],[106.84229,21.50355],[106.83897,21.50754],[106.83976,21.51212],[106.84038,21.51298],[106.84535,21.51338],[106.85006,21.51677],[106.84999,21.52159],[106.85119,21.52433],[106.8542,21.52498],[106.8584,21.52247],[106.86012,21.52268],[106.86504,21.52882],[106.86538,21.53174],[106.86493,21.53427],[106.8622,21.53636],[106.85824,21.5387],[106.8524,21.53992],[106.8509,21.54185],[106.84886,21.55038],[106.84667,21.55528],[106.84395,21.55818],[106.84009,21.55965],[106.82845,21.56035],[106.82296,21.56299],[106.81949,21.56303],[106.81107,21.56007],[106.80647,21.55964],[106.80209,21.56083],[106.79146,21.56859],[106.78863,21.57121],[106.78713,21.57428],[106.78399,21.57632],[106.77352,21.57242],[106.76483,21.57261],[106.76124,21.57131],[106.75638,21.56686],[106.75584,21.56391],[106.7596,21.55373],[106.75723,21.54353],[106.75598,21.54163],[106.75249,21.54081],[106.74371,21.54109],[106.73821,21.54348],[106.72658,21.55476],[106.71084,21.56084],[106.70001,21.5722],[106.69947,21.57634],[106.70223,21.58511],[106.70232,21.59266],[106.69909,21.59512],[106.68832,21.60006],[106.66967,21.60685],[106.65514,21.60341],[106.64582,21.60573],[106.63703,21.60158],[106.63412,21.60147],[106.6267,21.6029],[106.61824,21.60765],[106.61479,21.60732],[106.59599,21.59954],[106.59254,21.599],[106.5887,21.59861],[106.57094,21.60143],[106.5659,21.59617],[106.56228,21.59427],[106.55598,21.59304],[106.55318,21.58905],[106.55181,21.58261],[106.54305,21.57337],[106.53883,21.5661],[106.5362,21.5639],[106.52998,21.56224],[106.52803,21.55953],[106.52708,21.55603],[106.52732,21.54993],[106.52211,21.53571],[106.51216,21.52892],[106.50852,21.52544],[106.50778,21.52093],[106.50905,21.51711],[106.5187,21.50262],[106.5195,21.49823],[106.51521,21.49096],[106.50674,21.48666],[106.49637,21.48353],[106.49444,21.48204],[106.49113,21.47374],[106.48935,21.4714],[106.48824,21.46783],[106.4882,21.46424],[106.48269,21.44967],[106.4813,21.44824],[106.47387,21.44781],[106.47224,21.44603],[106.46942,21.43946],[106.4651,21.4367],[106.45418,21.43952],[106.44894,21.43641],[106.44565,21.43637],[106.44351,21.43717],[106.43919,21.44202],[106.43782,21.44217],[106.42982,21.43901],[106.42508,21.43948],[106.41893,21.43738],[106.4136,21.43248]]]}},{"type":"Feature","properties":{"kind":"buffer","province_code":"20","buffer_m":5000,"source":"derived","simplify_tolerance_deg":0.0005},"geometry":{"type":"Polygon","coordinates":[[[106.0508,21.94809],[106.05,21.95587],[106.05103,21.96622],[106.0559,21.97872],[106.06278,21.98846],[106.06164,21.99253],[106.06129,21.99913],[106.05555,22.00655],[106.05051,22.01721],[106.04772,22.03165],[106.04802,22.04036],[106.05099,22.05172],[106.04962,22.06144],[106.05028,22.07225],[106.05239,22.0806],[106.05519,22.08683],[106.06081,22.09547],[106.0668,22.10153],[106.07733,22.10935],[106.08341,22.11239],[106.0929,22.12084],[106.10141,22.12585],[106.11086,22.12911],[106.12594,22.13084],[106.13171,22.13951],[106.13558,22.14322],[106.13926,22.15173],[106.15123,22.16873],[106.15901,22.17665],[106.16914,22.18308],[106.17408,22.18784],[106.17282,22.2035],[106.17536,22.21892],[106.17922,22.22801],[106.18332,22.23527],[106.19297,22.24723],[106.17898,22.25744],[106.17023,22.26764],[106.1671,22.27337],[106.16137,22.28058],[106.15457,22.29387],[106.15189,22.30304],[106.15121,22.30993],[106.1516,22.31924],[106.15452,22.33282],[106.15848,22.34309],[106.15553,22.34552],[106.14797,22.3548],[106.1434,22.36291],[106.13814,22.37655],[106.13706,22.38483],[106.13974,22.40634],[106.14795,22.43132],[106.15954,22.4514],[106.17414,22.47314],[106.18127,22.48221],[106.19291,22.49207],[106.20061,22.49627],[106.20901,22.49907],[106.22985,22.50429],[106.24268,22.50504],[106.25806,22.50266],[106.26598,22.50024],[106.27606,22.49591],[106.28443,22.49426],[106.29654,22.48924],[106.30963,22.48099],[106.31761,22.473],[106.32398,22.46402],[106.33348,22.4576],[106.34487,22.45552],[106.35422,22.45166],[106.3631,22.44617],[106.36884,22.44096],[106.37359,22.43494],[106.37988,22.4219],[106.3839,22.41615],[106.39216,22.4174],[106.4003,22.41748],[106.42129,22.41367],[106.43014,22.4114],[106.43567,22.40885],[106.44038,22.40856],[106.44654,22.41914],[106.45204,22.42468],[106.45902,22.43355],[106.46591,22.43908],[106.47378,22.44331],[106.48697,22.44724],[106.50017,22.44886],[106.5075,22.45515],[106.51779,22.46062],[106.52919,22.46359],[106.55673,22.46788],[106.56624,22.46841],[106.57568,22.4672],[106.58467,22.46428],[106.59289,22.45977],[106.59999,22.45384],[106.60572,22.44673],[106.60984,22.4387],[106.61146,22.43279],[106.61857,22.42751],[106.62458,22.42094],[106.62914,22.41343],[106.63263,22.40465],[106.63435,22.39379],[106.63408,22.38438],[106.64534,22.38504],[106.6554,22.38454],[106.66514,22.3821],[106.68211,22.37377],[106.68882,22.36941],[106.69466,22.36406],[106.70171,22.35454],[106.70568,22.34478],[106.70697,22.33535],[106.71257,22.32476],[106.71435,22.31884],[106.72412,22.31195],[106.73008,22.30513],[106.73512,22.29659],[106.73821,22.28681],[106.73926,22.27733],[106.73802,22.26066],[106.74249,22.24826],[106.74288,22.24407],[106.74816,22.23213],[106.74998,22.22169],[106.74945,22.21264],[106.74214,22.19033],[106.74975,22.17929],[106.75272,22.17176],[106.75466,22.16266],[106.75464,22.15327],[106.75192,22.14118],[106.74639,22.13077],[106.75337,22.12134],[106.75591,22.11655],[106.76041,22.10278],[106.76047,22.08841],[106.75849,22.07951],[106.75452,22.06995],[106.75358,22.05719],[106.76281,22.05782],[106.77192,22.05743],[106.78162,22.05568],[106.79143,22.05224],[106.81222,22.03992],[106.826,22.0282],[106.83715,22.02912],[106.85018,22.0278],[106.86429,22.02804],[106.8756,22.02672],[106.88563,22.02655],[106.89936,22.02348],[106.90752,22.02065],[106.92105,22.0208],[106.93323,22.01814],[106.94453,22.01297],[106.95288,22.00645],[106.95947,21.99835],[106.96457,21.98863],[106.97349,21.99286],[106.98232,21.99515],[106.99144,21.99585],[107.00361,21.9945],[107.01151,21.99172],[107.03024,21.9897],[107.03803,21.98752],[107.04532,21.98416],[107.05428,21.97765],[107.05866,21.97586],[107.06617,21.97068],[107.07209,21.96827],[107.08135,21.96163],[107.09173,21.95001],[107.09683,21.94294],[107.10095,21.93517],[107.1038,21.92728],[107.10573,21.91804],[107.11057,21.90575],[107.11166,21.89555],[107.1108,21.8864],[107.10826,21.8776],[107.10388,21.86945],[107.09012,21.85369],[107.09469,21.85295],[107.10423,21.84972],[107.11199,21.84547],[107.12118,21.83789],[107.13315,21.83423],[107.14074,21.8299],[107.15107,21.82061],[107.15386,21.81647],[107.1647,21.81031],[107.17181,21.8036],[107.17375,21.80073],[107.18566,21.79538],[107.19099,21.79395],[107.19654,21.79099],[107.2057,21.78803],[107.21512,21.78264],[107.22343,21.77536],[107.23321,21.76354],[107.24791,21.77193],[107.25706,21.77524],[107.26637,21.77749],[107.27496,21.78237],[107.28471,21.78596],[107.29506,21.78751],[107.30781,21.78716],[107.31962,21.78401],[107.32876,21.77969],[107.33673,21.77368],[107.34433,21.76455],[107.3512,21.76034],[107.3583,21.75393],[107.36328,21.74731],[107.36691,21.73997],[107.3696,21.7295],[107.37639,21.72027],[107.38316,21.71423],[107.39076,21.70405],[107.39284,21.69925],[107.39905,21.69121],[107.40299,21.68322],[107.40697,21.67113],[107.40791,21.66156],[107.41048,21.65649],[107.41291,21.64482],[107.4123,21.6329],[107.40885,21.62153],[107.40916,21.61181],[107.41058,21.60548],[107.41063,21.59642],[107.40876,21.58754],[107.40329,21.5762],[107.39642,21.56717],[107.38854,21.56002],[107.38193,21.55595],[107.37226,21.55213],[107.36678,21.55114],[107.35557,21.54631],[107.34842,21.5444],[107.33773,21.54301],[107.32431,21.54413],[107.31727,21.53547],[107.30917,21.52872],[107.29758,21.52264],[107.29038,21.51991],[107.28453,21.51867],[107.28623,21.51203],[107.28641,21.50795],[107.29142,21.49791],[107.29387,21.48859],[107.29433,21.47943],[107.29356,21.47204],[107.2896,21.46093],[107.29316,21.44879],[107.29693,21.44387],[107.30146,21.43551],[107.30425,21.42533],[107.30814,21.41917],[107.3111,21.41184],[107.31267,21.40415],[107.3128,21.39633],[107.31148,21.3886],[107.30907,21.3825],[107.30568,21.36774],[107.29716,21.34826],[107.28969,21.33818],[107.28122,21.33087],[107.27292,21.32633],[107.26279,21.32318],[107.24481,21.31996],[107.23631,21.32005],[107.22719,21.32173],[107.21804,21.32512],[107.20982,21.33016],[107.20685,21.33293],[107.19141,21.32296],[107.1836,21.32007],[107.17538,21.31849],[107.16582,21.31832],[107.15373,21.32042],[107.14008,21.32044],[107.13228,21.32176],[107.12562,21.32398],[107.12035,21.3201],[107.11538,21.3176],[107.1079,21.31097],[107.09998,21.30636],[107.08896,21.30289],[107.08148,21.29549],[107.07186,21.28967],[107.0571,21.28477],[107.04898,21.28104],[107.04042,21.27881],[107.03157,21.27808],[107.02272,21.27888],[107.01419,21.28118],[107.00624,21.2849],[106.99916,21.28991],[106.985,21.30322],[106.98022,21.31043],[106.95811,21.32416],[106.95209,21.32986],[106.94724,21.33646],[106.94372,21.34376],[106.94086,21.35349],[106.94024,21.36133],[106.94223,21.37486],[106.94006,21.3803],[106.92756,21.38513],[106.92096,21.3861],[106.90898,21.38569],[106.89877,21.38755],[106.88856,21.39123],[106.88144,21.39542],[106.86693,21.40829],[106.85828,21.41699],[106.85477,21.42161],[106.84815,21.43287],[106.84486,21.441],[106.84336,21.44916],[106.83895,21.44924],[106.83031,21.45089],[106.82214,21.45399],[106.81215,21.45997],[106.80492,21.46689],[106.79871,21.47649],[106.79492,21.48682],[106.79147,21.49891],[106.79086,21.51041],[106.78463,21.50519],[106.77662,21.50074],[106.76436,21.49697],[106.75145,21.49539],[106.74007,21.49584],[106.72606,21.49897],[106.71664,21.503],[106.70621,21.50956],[106.69762,21.51709],[106.68561,21.52226],[106.6768,21.52859],[106.66322,21.54283],[106.65775,21.55018],[106.65398,21.5583],[106.63615,21.55629],[106.62419,21.55697],[106.61683,21.55869],[106.60398,21.55495],[106.58902,21.55353],[106.57301,21.5345],[106.56966,21.52483],[106.56511,21.51544],[106.56734,21.50785],[106.56795,21.49856],[106.56685,21.48892],[106.5633,21.47875],[106.55857,21.47025],[106.54805,21.45775],[106.5337,21.44884],[106.52832,21.43461],[106.52419,21.4264],[106.51838,21.41913],[106.50961,21.41157],[106.50469,21.40892],[106.49982,21.40416],[106.49309,21.39933],[106.48357,21.3949],[106.47531,21.3925],[106.46674,21.39151],[106.46046,21.39183],[106.45428,21.38084],[106.44763,21.37388],[106.4396,21.36834],[106.42765,21.36302],[106.4119,21.35948],[106.40463,21.3557],[106.38576,21.34981],[106.37384,21.34916],[106.36139,21.35095],[106.3519,21.35128],[106.32278,21.35716],[106.31129,21.36223],[106.29033,21.37787],[106.28487,21.38406],[106.28067,21.39105],[106.27678,21.40154],[106.26402,21.40774],[106.24655,21.42316],[106.24116,21.43087],[106.23721,21.44131],[106.22563,21.44396],[106.21728,21.44775],[106.21277,21.45101],[106.20303,21.45231],[106.19159,21.4553],[106.1499,21.47043],[106.14102,21.47561],[106.13354,21.48244],[106.12584,21.49422],[106.12293,21.50078],[106.12116,21.50767],[106.11969,21.52059],[106.12027,21.5314],[106.11923,21.53652],[106.11911,21.54443],[106.12041,21.55332],[106.11939,21.57008],[106.11969,21.58278],[106.12125,21.59118],[106.12199,21.60302],[106.1252,21.61272],[106.13086,21.62258],[106.13716,21.62941],[106.14405,21.6344],[106.14296,21.64189],[106.14377,21.65322],[106.14698,21.66335],[106.15137,21.67173],[106.15751,21.6791],[106.1632,21.6836],[106.16911,21.69286],[106.17243,21.69652],[106.16954,21.69845],[106.16272,21.70046],[106.15308,21.70518],[106.14246,21.71359],[106.13434,21.71865],[106.12266,21.72416],[106.11475,21.73067],[106.10878,21.73764],[106.09696,21.74065],[106.08611,21.74636],[106.07939,21.75148],[106.07376,21.75764],[106.06829,21.76485],[106.06315,21.77349],[106.05992,21.78237],[106.05902,21.78835],[106.05086,21.80286],[106.04811,21.81144],[106.04723,21.82035],[106.04824,21.82926],[106.05084,21.83806],[106.05694,21.84901],[106.06263,21.85655],[106.06361,21.87007],[106.06675,21.88029],[106.06559,21.88847],[106.06613,21.89751],[106.06768,21.90302],[106.05882,21.91136],[106.05391,21.91912],[106.05074,21.92763],[106.04944,21.93656],[106.0508,21.94809]]]}}]}