{"type":"FeatureCollection","features":[{"type":"Feature","geometry":{"type":"MultiPolygon","coordinates":[[[[106.700295,21.943713],[106.70074,21.943174],[106.70083,21.943238],[106.70149,21.943708],[106.701401,21.943815],[106.701441,21.943844],[106.701213,21.94412],[106.701168,21.944088],[106.701039,21.944243],[106.700295,21.943713]]]]},"properties":{"group":"mall","tag":"shop=mall","name":"Trung tâm Thương mại - Chợ Đồng Đăng","levels":null,"lat":21.943716508594992,"lng":106.70090307415985,"osm_type":"way","osm_id":524119264}},{"type":"Feature","geometry":{"type":"MultiPolygon","coordinates":[[[[106.694546,21.943633],[106.694573,21.943068],[106.694611,21.942947],[106.694675,21.942899],[106.695112,21.942738],[106.695295,21.943294],[106.695418,21.943909],[106.695348,21.943934],[106.695453,21.94428],[106.694797,21.944475],[106.694715,21.944411],[106.694595,21.944091],[106.694553,21.943935],[106.694546,21.943633]]]]},"properties":{"group":"edu_health","tag":"amenity=school","name":"Trường Trung học Phổ Thông Đồng Đăng","levels":null,"lat":21.94364781925197,"lng":106.69495743459544,"osm_type":"way","osm_id":524119267}},{"type":"Feature","geometry":{"type":"MultiPolygon","coordinates":[[[[106.617242,22.051969],[106.617438,22.05169],[106.617728,22.051136],[106.618213,22.051541],[106.618058,22.05215],[106.61805,22.052212],[106.617527,22.052018],[106.617446,22.052048],[106.617242,22.051969]]]]},"properties":{"group":"edu_health","tag":"amenity=school","name":"Trường Trung học phổ thông Văn Lãng","levels":null,"lat":22.051721531378597,"lng":106.61778729474314,"osm_type":"way","osm_id":529478748}},{"type":"Feature","geometry":{"type":"MultiPolygon","coordinates":[[[[106.614563,22.056292],[106.614976,22.055723],[106.615016,22.05576],[106.615271,22.055767],[106.61547,22.056182],[106.615132,22.05667],[106.614787,22.056434],[106.614563,22.056292]]]]},"properties":{"group":"edu_health","tag":"amenity=school","name":"Trường tiểu học Thị trấn Na Sầm","levels":null,"lat":22.0561774933756,"lng":106.61505163745821,"osm_type":"way","osm_id":529478750}},{"type":"Feature","geometry":{"type":"MultiPolygon","coordinates":[[[[106.502514,21.57718],[106.502924,21.576583],[106.503477,21.576912],[106.503167,21.577362],[106.503078,21.577309],[106.502977,21.577455],[106.502514,21.57718]]]]},"properties":{"group":"edu_health","tag":"amenity=school","name":"Trường Trung học cơ sở Thị trấn Chi Lăng","levels":null,"lat":21.577030803701646,"lng":106.50299220878873,"osm_type":"way","osm_id":529675536}},{"type":"Feature","geometry":{"type":"MultiPolygon","coordinates":[[[[106.503035,21.570295],[106.503073,21.570129],[106.503456,21.569829],[106.503636,21.569745],[106.503833,21.569619],[106.503931,21.569741],[106.50397,21.569831],[106.504293,21.570306],[106.504549,21.570533],[106.504182,21.570882],[106.504148,21.570905],[106.503963,21.570735],[106.503857,21.570811],[106.503765,21.570854],[106.503691,21.570869],[106.503678,21.570876],[106.503548,21.57076],[106.503188,21.570347],[106.50309,21.570304],[106.503035,21.570295]]]]},"properties":{"group":"edu_health","tag":"amenity=school","name":null,"levels":null,"lat":21.570312647824785,"lng":106.5037799238855,"osm_type":"way","osm_id":529675539}},{"type":"Feature","geometry":{"type":"MultiPolygon","coordinates":[[[[106.762501,21.860479],[106.762868,21.859864],[106.763526,21.860202],[106.763159,21.860817],[106.762501,21.860479]]]]},"properties":{"group":"mall","tag":"shop=mall","name":null,"levels":null,"lat":21.860340245838113,"lng":106.7630136820616,"osm_type":"way","osm_id":627541200}},{"type":"Feature","geometry":{"type":"MultiPolygon","coordinates":[[[[106.71124,21.970395],[106.711403,21.970246],[106.711502,21.97027],[106.711542,21.970357],[106.712108,21.970414],[106.712298,21.970433],[106.712651,21.970517],[106.711495,21.972073],[106.711471,21.972052],[106.711445,21.972013],[106.711421,21.971963],[106.711322,21.971713],[106.711569,21.971305],[106.711492,21.971062],[106.711613,21.971025],[106.711512,21.970746],[106.711382,21.970786],[106.71124,21.970395]]]]},"properties":{"group":"public","tag":"leisure=park","name":null,"levels":null,"lat":21.970968537274988,"lng":106.71183086845804,"osm_type":"way","osm_id":672856291}},{"type":"Feature","geometry":{"type":"MultiPolygon","coordinates":[[[[106.693994,21.952396],[106.694709,21.951737],[106.694728,21.951737],[106.694745,21.951745],[106.695029,21.952018],[106.695061,21.952027],[106.695068,21.952082],[106.695064,21.952105],[106.69441,21.952757],[106.693994,21.952396]]]]},"properties":{"group":"edu_health","tag":"amenity=school","name":"Trường Trung học cơ sở Đồng Đăng","levels":null,"lat":21.952242087201356,"lng":106.69454900106318,"osm_type":"way","osm_id":672856333}},{"type":"Feature","geometry":{"type":"MultiPolygon","coordinates":[[[[106.696639,21.953518],[106.696649,21.953451],[106.69672,21.953405],[106.696826,21.953239],[106.697112,21.953262],[106.697316,21.953304],[106.697381,21.953323],[106.697355,21.953412],[106.697361,21.953415],[106.697423,21.953445],[106.697428,21.953447],[106.697473,21.953367],[106.697697,21.953467],[106.697895,21.953601],[106.697982,21.953691],[106.697605,21.953894],[106.697499,21.953988],[106.697202,21.954249],[106.697052,21.954119],[106.696844,21.953909],[106.696742,21.953792],[106.696639,21.953518]]]]},"properties":{"group":"edu_health","tag":"amenity=school","name":"Trường Tiểu học Đồng Đăng","levels":null,"lat":21.953680136140544,"lng":106.69722455556173,"osm_type":"way","osm_id":672856370}},{"type":"Feature","geometry":{"type":"MultiPolygon","coordinates":[[[[106.764107,21.848373],[106.764968,21.84824],[106.765029,21.848499],[106.765075,21.8488],[106.764479,21.848847],[106.764158,21.848872],[106.764107,21.848373]]]]},"properties":{"group":"edu_health","tag":"amenity=school","name":null,"levels":null,"lat":21.84857220824564,"lng":106.76458947775883,"osm_type":"way","osm_id":715418867}},{"type":"Feature","geometry":{"type":"MultiPolygon","coordinates":[[[[106.757518,21.848242],[106.75752,21.847661],[106.758049,21.847662],[106.758047,21.848244],[106.757518,21.848242]]]]},"properties":{"group":"mall","tag":"shop=mall","name":"Vincom","levels":null,"lat":21.84795245,"lng":106.75778315,"osm_type":"way","osm_id":717904959}},{"type":"Feature","geometry":{"type":"MultiPolygon","coordinates":[[[[106.765182,21.851892],[106.765335,21.851173],[106.766397,21.851312],[106.766325,21.852124],[106.765182,21.851892]]]]},"properties":{"group":"edu_health","tag":"amenity=school","name":null,"levels":null,"lat":21.851631978413767,"lng":106.76581837122318,"osm_type":"way","osm_id":717904991}},{"type":"Feature","geometry":{"type":"MultiPolygon","coordinates":[[[[106.764703,21.845847],[106.764875,21.84577],[106.765036,21.845582],[106.765279,21.845475],[106.765265,21.845382],[106.765436,21.845352],[106.765547,21.845585],[106.766289,21.846262],[106.765862,21.846737],[106.765564,21.846536],[106.765496,21.846515],[106.765439,21.846491],[106.765186,21.8463],[106.764761,21.845967],[106.764703,21.845847]]]]},"properties":{"group":"edu_health","tag":"amenity=school","name":"Trường Trung học phổ thông chuyên Chu Văn An","levels":null,"lat":21.84605578362472,"lng":106.76550679944903,"osm_type":"way","osm_id":717905003}},{"type":"Feature","geometry":{"type":"MultiPolygon","coordinates":[[[[106.745461,21.848458],[106.747878,21.84816],[106.747946,21.848294],[106.747956,21.848534],[106.747928,21.84864],[106.747755,21.848856],[106.747736,21.848905],[106.747714,21.848952],[106.747705,21.849004],[106.747688,21.849076],[106.747637,21.849161],[106.747531,21.849279],[106.747388,21.849399],[106.747311,21.849428],[106.746801,21.849502],[106.746432,21.849521],[106.74608,21.84948],[106.746043,21.849442],[106.745801,21.849115],[106.745681,21.848933],[106.745531,21.848674],[106.745461,21.848458]]]]},"properties":{"group":"edu_health","tag":"amenity=hospital","name":"Bệnh viện Đa khoa Lạng Sơn","levels":null,"lat":21.84883007402368,"lng":106.74677238216675,"osm_type":"way","osm_id":718112850}},{"type":"Feature","geometry":{"type":"MultiPolygon","coordinates":[[[[106.762821,21.862863],[106.762894,21.862565],[106.762826,21.862467],[106.763201,21.861812],[106.763986,21.862203],[106.763739,21.86268],[106.763816,21.862731],[106.763649,21.863042],[106.763282,21.862868],[106.763141,21.863098],[106.762821,21.862863]]]]},"properties":{"group":"edu_health","tag":"amenity=school","name":null,"levels":null,"lat":21.862472248862375,"lng":106.76335826535268,"osm_type":"way","osm_id":718126627}},{"type":"Feature","geometry":{"type":"MultiPolygon","coordinates":[[[[106.760337,21.860966],[106.760365,21.860585],[106.760514,21.860462],[106.761282,21.860336],[106.761302,21.861006],[106.760337,21.860966]]]]},"properties":{"group":"edu_health","tag":"amenity=school","name":null,"levels":null,"lat":21.860702206201175,"lng":106.76085530805665,"osm_type":"way","osm_id":718126641}},{"type":"Feature","geometry":{"type":"MultiPolygon","coordinates":[[[[106.751356,21.85862],[106.751447,21.858188],[106.75151,21.85801],[106.752022,21.858152],[106.751927,21.858693],[106.751356,21.85862]]]]},"properties":{"group":"edu_health","tag":"amenity=school","name":null,"levels":null,"lat":21.858369580405096,"lng":106.75169238570881,"osm_type":"way","osm_id":718126651}},{"type":"Feature","geometry":{"type":"MultiPolygon","coordinates":[[[[106.753069,21.8607],[106.753177,21.860593],[106.753284,21.860575],[106.753728,21.860121],[106.753806,21.860094],[106.753916,21.860091],[106.754153,21.859934],[106.754272,21.860173],[106.75418,21.860233],[106.754098,21.860294],[106.753845,21.860606],[106.753775,21.860697],[106.75357,21.861017],[106.753069,21.8607]]]]},"properties":{"group":"edu_health","tag":"amenity=school","name":null,"levels":null,"lat":21.860480607979948,"lng":106.75368315574873,"osm_type":"way","osm_id":718126656}},{"type":"Feature","geometry":{"type":"MultiPolygon","coordinates":[[[[106.76526,21.854975],[106.765858,21.854911],[106.766042,21.85492],[106.766073,21.855004],[106.766287,21.855118],[106.766173,21.855411],[106.765845,21.855407],[106.765381,21.855432],[106.765369,21.855297],[106.765284,21.855298],[106.76526,21.854975]]]]},"properties":{"group":"edu_health","tag":"amenity=school","name":null,"levels":null,"lat":21.855175322177725,"lng":106.76575186178513,"osm_type":"way","osm_id":718126676}},{"type":"Feature","geometry":{"type":"MultiPolygon","coordinates":[[[[106.758541,21.852445],[106.758608,21.852339],[106.758683,21.852259],[106.758717,21.852246],[106.758732,21.852244],[106.758756,21.852256],[106.758827,21.852295],[106.759037,21.852441],[106.759158,21.852518],[106.759391,21.852696],[106.759428,21.852722],[106.759445,21.852745],[106.759448,21.852763],[106.75943,21.852788],[106.759417,21.852796],[106.759378,21.852791],[106.758579,21.852491],[106.758561,21.852482],[106.758541,21.852445]]]]},"properties":{"group":"public","tag":"leisure=park","name":null,"levels":null,"lat":21.852515224057548,"lng":106.75894673672157,"osm_type":"way","osm_id":718126687}},{"type":"Feature","geometry":{"type":"MultiPolygon","coordinates":[[[[106.759362,21.853994],[106.75939,21.853925],[106.760261,21.853907],[106.760302,21.853939],[106.760825,21.854047],[106.760668,21.85454],[106.760383,21.854448],[106.760259,21.85443],[106.759385,21.854461],[106.759367,21.854169],[106.759362,21.853994]]]]},"properties":{"group":"edu_health","tag":"amenity=school","name":null,"levels":null,"lat":21.854194198248678,"lng":106.76005376973028,"osm_type":"way","osm_id":718126700}},{"type":"Feature","geometry":{"type":"MultiPolygon","coordinates":[[[[106.754327,21.85623],[106.754405,21.855854],[106.755679,21.856179],[106.755775,21.856224],[106.755811,21.85627],[106.755911,21.856409],[106.755882,21.857008],[106.755774,21.857013],[106.755752,21.857014],[106.755681,21.857005],[106.755597,21.856976],[106.755384,21.856857],[106.755341,21.85683],[106.75529,21.85683],[106.755273,21.856826],[106.755239,21.856809],[106.755206,21.856776],[106.755198,21.856755],[106.755175,21.856693],[106.754846,21.856463],[106.754699,21.856367],[106.754618,21.856336],[106.754327,21.85623]]]]},"properties":{"group":"public","tag":"amenity=community_centre","name":null,"levels":null,"lat":21.856401196997457,"lng":106.75523165989722,"osm_type":"way","osm_id":718126723}},{"type":"Feature","geometry":{"type":"MultiPolygon","coordinates":[[[[106.758434,21.845884],[106.758459,21.845844],[106.758529,21.845806],[106.758568,21.845792],[106.758927,21.845765],[106.759015,21.846542],[106.759151,21.847996],[106.759217,21.848776],[106.759249,21.849053],[106.75926,21.849111],[106.758635,21.849134],[106.758636,21.84823],[106.75862,21.847441],[106.758568,21.845909],[106.758467,21.845918],[106.758447,21.845914],[106.758434,21.845884]]]]},"properties":{"group":"public","tag":"leisure=park","name":null,"levels":null,"lat":21.847576014346618,"lng":106.75886005578906,"osm_type":"way","osm_id":718394434}},{"type":"Feature","geometry":{"type":"MultiPolygon","coordinates":[[[[106.757399,21.844837],[106.758027,21.844819],[106.758046,21.845588],[106.757419,21.845597],[106.757399,21.844837]]]]},"properties":{"group":"public","tag":"leisure=park","name":null,"levels":null,"lat":21.8452098054262,"lng":106.75772336873231,"osm_type":"way","osm_id":718394435}},{"type":"Feature","geometry":{"type":"MultiPolygon","coordinates":[[[[106.754012,21.845782],[106.754561,21.84577],[106.754571,21.84612],[106.754887,21.846119],[106.754896,21.846564],[106.754016,21.846568],[106.754012,21.845782]]]]},"properties":{"group":"edu_health","tag":"amenity=college","name":"Trường Cao đẳng Y tế Lạng Sơn","levels":null,"lat":21.84621413767158,"lng":106.75440002067012,"osm_type":"way","osm_id":718877883}},{"type":"Feature","geometry":{"type":"MultiPolygon","coordinates":[[[[106.754366,21.844767],[106.754958,21.844738],[106.754951,21.844812],[106.754894,21.844818],[106.754887,21.845638],[106.754376,21.845636],[106.754367,21.844804],[106.754366,21.844767]]]]},"properties":{"group":"edu_health","tag":"amenity=school","name":null,"levels":null,"lat":21.84518917278584,"lng":106.75463500137646,"osm_type":"way","osm_id":718877900}},{"type":"Feature","geometry":{"type":"MultiPolygon","coordinates":[[[[106.764479,21.848847],[106.765075,21.8488],[106.765264,21.848786],[106.765283,21.849003],[106.765422,21.848989],[106.765421,21.84936],[106.764891,21.84939],[106.764869,21.849215],[106.764482,21.849217],[106.764479,21.848847]]]]},"properties":{"group":"edu_health","tag":"amenity=school","name":null,"levels":null,"lat":21.84907775610421,"lng":106.76497209639714,"osm_type":"way","osm_id":718902610}},{"type":"Feature","geometry":{"type":"MultiPolygon","coordinates":[[[[106.759704,21.840039],[106.760205,21.840023],[106.760294,21.840075],[106.760265,21.840526],[106.760265,21.84057],[106.760281,21.840659],[106.760305,21.841318],[106.760344,21.841473],[106.760181,21.841487],[106.760153,21.841572],[106.759927,21.841545],[106.759783,21.841568],[106.759704,21.840039]]]]},"properties":{"group":"edu_health","tag":"amenity=college","name":null,"levels":null,"lat":21.840777776601445,"lng":106.76001394984375,"osm_type":"way","osm_id":718902639}},{"type":"Feature","geometry":{"type":"MultiPolygon","coordinates":[[[[106.75034,21.84189],[106.75065,21.841804],[106.750859,21.841994],[106.751895,21.842008],[106.751756,21.843734],[106.75115,21.843675],[106.751148,21.843629],[106.750756,21.843607],[106.75085,21.84317],[106.75112,21.843195],[106.7512,21.842653],[106.751172,21.842545],[106.750356,21.842485],[106.750371,21.842121],[106.75034,21.84189]]]]},"properties":{"group":"edu_health","tag":"amenity=college","name":null,"levels":null,"lat":21.842712097817962,"lng":106.75124646610745,"osm_type":"way","osm_id":718902666}},{"type":"Feature","geometry":{"type":"MultiPolygon","coordinates":[[[[106.752116,21.835016],[106.752125,21.834918],[106.75269,21.834688],[106.752754,21.834671],[106.752871,21.834681],[106.753411,21.834768],[106.753328,21.835371],[106.752972,21.835322],[106.752887,21.835337],[106.752567,21.835474],[106.752516,21.835483],[106.75249,21.835483],[106.752444,21.835438],[106.752116,21.835016]]]]},"properties":{"group":"edu_health","tag":"amenity=school","name":null,"levels":null,"lat":21.835049288720253,"lng":106.75279643642496,"osm_type":"way","osm_id":718902697}},{"type":"Feature","geometry":{"type":"MultiPolygon","coordinates":[[[[106.754576,21.835869],[106.754596,21.835696],[106.754608,21.835678],[106.754624,21.835673],[106.754649,21.835675],[106.755188,21.835757],[106.755613,21.835838],[106.755628,21.835851],[106.755636,21.835861],[106.755638,21.835877],[106.755634,21.835895],[106.755629,21.835905],[106.755618,21.835915],[106.755585,21.835924],[106.755516,21.835921],[106.754614,21.835909],[106.754598,21.835904],[106.754585,21.835892],[106.754576,21.835869]]]]},"properties":{"group":"public","tag":"leisure=park","name":null,"levels":null,"lat":21.835825159767033,"lng":106.75502514128426,"osm_type":"way","osm_id":718902702}},{"type":"Feature","geometry":{"type":"MultiPolygon","coordinates":[[[[106.753394,21.835845],[106.753432,21.835498],[106.753491,21.835489],[106.753534,21.835497],[106.753564,21.835517],[106.753598,21.83556],[106.754298,21.835661],[106.754337,21.835627],[106.754374,21.835619],[106.754444,21.83563],[106.754476,21.835649],[106.754455,21.835887],[106.754433,21.835906],[106.754376,21.835911],[106.754338,21.83591],[106.754303,21.83588],[106.754293,21.835849],[106.753576,21.835854],[106.753513,21.835902],[106.753493,21.835902],[106.753416,21.8359],[106.753398,21.835884],[106.753394,21.835845]]]]},"properties":{"group":"public","tag":"leisure=park","name":null,"levels":null,"lat":21.835728186651192,"lng":106.75388985155222,"osm_type":"way","osm_id":718902703}},{"type":"Feature","geometry":{"type":"MultiPolygon","coordinates":[[[[106.756646,21.839819],[106.756661,21.839082],[106.757876,21.839114],[106.757885,21.839789],[106.757839,21.839835],[106.756646,21.839819]]]]},"properties":{"group":"edu_health","tag":"amenity=college","name":null,"levels":null,"lat":21.8394633218272,"lng":106.75726426941114,"osm_type":"way","osm_id":718902748}},{"type":"Feature","geometry":{"type":"MultiPolygon","coordinates":[[[[106.748059,21.83978],[106.748062,21.839717],[106.748118,21.839593],[106.74853,21.838904],[106.748985,21.838219],[106.74932,21.838555],[106.749926,21.839203],[106.749852,21.839285],[106.74986,21.839506],[106.749769,21.839616],[106.749707,21.839667],[106.749682,21.83968],[106.749284,21.839799],[106.748952,21.839886],[106.748656,21.839988],[106.748247,21.839969],[106.748152,21.839931],[106.748117,21.839889],[106.748059,21.83978]]]]},"properties":{"group":"edu_health","tag":"amenity=school","name":"Trường Trung học phổ thông Hoàng Văn Thụ","levels":null,"lat":21.839265238508776,"lng":106.74899050463881,"osm_type":"way","osm_id":718902763}},{"type":"Feature","geometry":{"type":"MultiPolygon","coordinates":[[[[106.778419,21.840668],[106.779031,21.84044],[106.779296,21.840398],[106.779401,21.840652],[106.779355,21.841545],[106.779216,21.841535],[106.778474,21.841407],[106.778457,21.841275],[106.778457,21.841244],[106.778481,21.841194],[106.778419,21.840668]]]]},"properties":{"group":"edu_health","tag":"amenity=school","name":null,"levels":null,"lat":21.840985791863115,"lng":106.77894616875635,"osm_type":"way","osm_id":719341339}},{"type":"Feature","geometry":{"type":"MultiPolygon","coordinates":[[[[106.771726,21.845492],[106.77196,21.845188],[106.772479,21.844842],[106.772981,21.844642],[106.773287,21.844859],[106.772581,21.846078],[106.772102,21.845833],[106.771755,21.845602],[106.771728,21.845556],[106.771726,21.845492]]]]},"properties":{"group":"edu_health","tag":"amenity=school","name":"Trường Trung học phổ thông Dân tộc nội trú tỉnh Lạng Sơn","levels":null,"lat":21.845333610793478,"lng":106.77251408124064,"osm_type":"way","osm_id":719341382}},{"type":"Feature","geometry":{"type":"MultiPolygon","coordinates":[[[[106.751786,21.857477],[106.751892,21.857198],[106.752048,21.856457],[106.752619,21.856585],[106.75255,21.857061],[106.752774,21.857104],[106.75291,21.857573],[106.752567,21.857623],[106.75217,21.857795],[106.752124,21.857573],[106.751786,21.857477]]]]},"properties":{"group":"edu_health","tag":"amenity=hospital","name":"Bệnh viện Phục hồi chức năng tỉnh Lạng Sơn","levels":null,"lat":21.857150134077692,"lng":106.7523228800334,"osm_type":"way","osm_id":719918207}},{"type":"Feature","geometry":{"type":"MultiPolygon","coordinates":[[[[106.752013,21.864272],[106.752497,21.864103],[106.753147,21.863994],[106.753185,21.864609],[106.753067,21.864775],[106.752309,21.865031],[106.752013,21.864272]]]]},"properties":{"group":"edu_health","tag":"amenity=school","name":null,"levels":null,"lat":21.864480765650978,"lng":106.75264401365676,"osm_type":"way","osm_id":719918340}},{"type":"Feature","geometry":{"type":"MultiPolygon","coordinates":[[[[106.751381,21.877591],[106.75151,21.877374],[106.751824,21.877423],[106.752097,21.876958],[106.752565,21.877209],[106.75271,21.877402],[106.75269,21.877461],[106.752655,21.877494],[106.752458,21.877607],[106.751629,21.877619],[106.751381,21.877591]]]]},"properties":{"group":"edu_health","tag":"amenity=school","name":null,"levels":null,"lat":21.877382479559987,"lng":106.75212679184716,"osm_type":"way","osm_id":720199387}},{"type":"Feature","geometry":{"type":"MultiPolygon","coordinates":[[[[106.765126,21.874436],[106.765194,21.874212],[106.765233,21.874169],[106.765353,21.87389],[106.765455,21.873766],[106.766069,21.873766],[106.765911,21.874013],[106.765874,21.874097],[106.765884,21.87414],[106.765955,21.874268],[106.766043,21.874353],[106.765881,21.874675],[106.765126,21.874436]]]]},"properties":{"group":"edu_health","tag":"amenity=school","name":null,"levels":null,"lat":21.874196902027087,"lng":106.76562030485405,"osm_type":"way","osm_id":720208718}},{"type":"Feature","geometry":{"type":"MultiPolygon","coordinates":[[[[106.743859,21.883983],[106.745363,21.883687],[106.745394,21.88382],[106.745451,21.883888],[106.745491,21.883947],[106.745518,21.883988],[106.745547,21.884022],[106.745562,21.884044],[106.745582,21.884101],[106.745592,21.884152],[106.745318,21.884564],[106.744029,21.884752],[106.743859,21.883983]]]]},"properties":{"group":"edu_health","tag":"amenity=school","name":null,"levels":null,"lat":21.884226330163614,"lng":106.74471782295616,"osm_type":"way","osm_id":720208741}},{"type":"Feature","geometry":{"type":"MultiPolygon","coordinates":[[[[106.741213,21.894854],[106.741327,21.894594],[106.742012,21.894882],[106.741875,21.895348],[106.741356,21.895174],[106.741256,21.894944],[106.741213,21.894854]]]]},"properties":{"group":"edu_health","tag":"amenity=school","name":null,"levels":null,"lat":21.894974123428344,"lng":106.74160522374467,"osm_type":"way","osm_id":720902038}},{"type":"Feature","geometry":{"type":"MultiPolygon","coordinates":[[[[106.764728,21.8719],[106.764831,21.871498],[106.764893,21.871468],[106.764988,21.871513],[106.765084,21.871543],[106.7653,21.871576],[106.765501,21.871588],[106.765575,21.871739],[106.765788,21.871935],[106.765786,21.87197],[106.765778,21.872013],[106.765758,21.872085],[106.765476,21.872505],[106.76542,21.872588],[106.765389,21.872706],[106.7648,21.872342],[106.764747,21.872312],[106.764792,21.871922],[106.764728,21.8719]]]]},"properties":{"group":"edu_health","tag":"amenity=school","name":null,"levels":null,"lat":21.87203925386525,"lng":106.76521904431755,"osm_type":"way","osm_id":721163509}},{"type":"Feature","geometry":{"type":"MultiPolygon","coordinates":[[[[106.770568,21.86496],[106.770744,21.864144],[106.771083,21.8642],[106.770949,21.864876],[106.770863,21.865016],[106.770568,21.86496]]]]},"properties":{"group":"edu_health","tag":"amenity=school","name":"Trung tâm Giáo dục nghề nghiệp-Giáo dục thường xuyên huyện Cao Lộc","levels":null,"lat":21.864579325911734,"lng":106.77082709914941,"osm_type":"way","osm_id":721163514}},{"type":"Feature","geometry":{"type":"MultiPolygon","coordinates":[[[[106.77003,21.864287],[106.770073,21.864203],[106.770126,21.864069],[106.770138,21.864015],[106.770138,21.863956],[106.770143,21.863847],[106.770108,21.86366],[106.770061,21.863286],[106.770143,21.863302],[106.770401,21.863332],[106.770523,21.863304],[106.770612,21.86327],[106.77065,21.863269],[106.770777,21.863286],[106.770549,21.864492],[106.770075,21.864422],[106.770033,21.864373],[106.77003,21.864287]]]]},"properties":{"group":"edu_health","tag":"amenity=hospital","name":"Trung tâm Y tế huyện Cao Lộc","levels":null,"lat":21.86384733066512,"lng":106.77038724512335,"osm_type":"way","osm_id":721163520}},{"type":"Feature","geometry":{"type":"MultiPolygon","coordinates":[[[[106.77275,21.857933],[106.772774,21.857721],[106.772825,21.857622],[106.772841,21.857292],[106.773399,21.857287],[106.77337,21.857378],[106.773315,21.857938],[106.773288,21.85797],[106.77278,21.857966],[106.77275,21.857933]]]]},"properties":{"group":"edu_health","tag":"amenity=school","name":null,"levels":null,"lat":21.8576320380687,"lng":106.77307437984535,"osm_type":"way","osm_id":721163550}},{"type":"Feature","geometry":{"type":"MultiPolygon","coordinates":[[[[106.730291,21.82352],[106.73045,21.823353],[106.730389,21.823215],[106.730421,21.823195],[106.73035,21.823073],[106.730497,21.822994],[106.730492,21.822961],[106.73066,21.822869],[106.730733,21.822941],[106.73077,21.823035],[106.730943,21.823068],[106.731069,21.823107],[106.731573,21.823494],[106.731609,21.823529],[106.731349,21.823829],[106.731053,21.823593],[106.730925,21.823609],[106.73066,21.823888],[106.730483,21.823754],[106.73041,21.823688],[106.730336,21.823594],[106.730291,21.82352]]]]},"properties":{"group":"edu_health","tag":"amenity=school","name":"Trường Tiểu học Quảng Lạc","levels":null,"lat":21.823408695078637,"lng":106.73086732463952,"osm_type":"way","osm_id":721598245}},{"type":"Feature","geometry":{"type":"MultiPolygon","coordinates":[[[[106.737004,21.83279],[106.737254,21.832447],[106.737349,21.832515],[106.737408,21.832525],[106.737481,21.832546],[106.737417,21.832606],[106.737513,21.832816],[106.737679,21.832723],[106.737723,21.832703],[106.738017,21.833016],[106.737724,21.833286],[106.737553,21.833299],[106.73744,21.833286],[106.737384,21.833268],[106.737318,21.833202],[106.73721,21.833018],[106.737004,21.83279]]]]},"properties":{"group":"edu_health","tag":"amenity=school","name":"Trường Trung học cơ sở Quảng Lạc","levels":null,"lat":21.832926390657526,"lng":106.73748769749456,"osm_type":"way","osm_id":721598261}},{"type":"Feature","geometry":{"type":"MultiPolygon","coordinates":[[[[106.72318,21.913861],[106.723191,21.913533],[106.723644,21.913545],[106.723634,21.913891],[106.723562,21.913992],[106.723208,21.914014],[106.72318,21.913861]]]]},"properties":{"group":"edu_health","tag":"amenity=school","name":null,"levels":null,"lat":21.913765112262354,"lng":106.72340652667648,"osm_type":"way","osm_id":722720012}},{"type":"Feature","geometry":{"type":"MultiPolygon","coordinates":[[[[106.922704,21.758906],[106.922707,21.758887],[106.922731,21.758772],[106.922762,21.758724],[106.922798,21.758688],[106.922826,21.758679],[106.922867,21.758686],[106.922936,21.758711],[106.923246,21.758917],[106.923281,21.758949],[106.923276,21.75897],[106.923252,21.758982],[106.923203,21.758988],[106.922832,21.758989],[106.922805,21.75898],[106.922777,21.758974],[106.922738,21.758957],[106.922713,21.758929],[106.922704,21.758906]]]]},"properties":{"group":"public","tag":"leisure=park","name":null,"levels":null,"lat":21.758866497569336,"lng":106.9229447784695,"osm_type":"way","osm_id":722917255}},{"type":"Feature","geometry":{"type":"MultiPolygon","coordinates":[[[[106.924366,21.759469],[106.92446,21.759422],[106.924475,21.759398],[106.924472,21.759356],[106.924475,21.759323],[106.92481,21.758869],[106.924861,21.75885],[106.924897,21.758861],[106.925155,21.759095],[106.925435,21.759396],[106.924821,21.759851],[106.924366,21.759469]]]]},"properties":{"group":"edu_health","tag":"amenity=school","name":null,"levels":null,"lat":21.759363066528106,"lng":106.92488699697095,"osm_type":"way","osm_id":723151602}},{"type":"Feature","geometry":{"type":"MultiPolygon","coordinates":[[[[106.911973,21.768878],[106.91202,21.768873],[106.912067,21.768841],[106.912284,21.768482],[106.912432,21.768616],[106.912812,21.768887],[106.912926,21.768973],[106.913055,21.769044],[106.913111,21.769167],[106.913028,21.769279],[106.91294,21.769406],[106.912846,21.769484],[106.912304,21.769222],[106.912162,21.76911],[106.91201,21.768934],[106.911973,21.768878]]]]},"properties":{"group":"edu_health","tag":"amenity=school","name":null,"levels":null,"lat":21.769020288181125,"lng":106.91254642104059,"osm_type":"way","osm_id":724045253}},{"type":"Feature","geometry":{"type":"MultiPolygon","coordinates":[[[[106.910871,21.767378],[106.911183,21.767213],[106.911167,21.767143],[106.911612,21.766886],[106.911678,21.767021],[106.911729,21.767009],[106.9118,21.767206],[106.912014,21.767147],[106.912245,21.767568],[106.911167,21.76782],[106.910871,21.767378]]]]},"properties":{"group":"edu_health","tag":"amenity=school","name":null,"levels":null,"lat":21.767401282751408,"lng":106.91153666610366,"osm_type":"way","osm_id":724045271}},{"type":"Feature","geometry":{"type":"MultiPolygon","coordinates":[[[[106.90257,21.783873],[106.903374,21.783295],[106.903315,21.784143],[106.903159,21.784077],[106.903134,21.784127],[106.90257,21.783873]]]]},"properties":{"group":"edu_health","tag":"amenity=school","name":"Trường Trung học cơ sở xã Đồng Bục","levels":null,"lat":21.783780827269585,"lng":106.90308027023039,"osm_type":"way","osm_id":724577657}},{"type":"Feature","geometry":{"type":"MultiPolygon","coordinates":[[[[106.902412,21.784204],[106.90257,21.783873],[106.903134,21.784127],[106.902954,21.784533],[106.902615,21.784572],[106.902412,21.784204]]]]},"properties":{"group":"edu_health","tag":"amenity=school","name":"Trường Tiểu học Xã Đồng Bục","levels":null,"lat":21.784240739655598,"lng":106.90275196401953,"osm_type":"way","osm_id":724577661}},{"type":"Feature","geometry":{"type":"MultiPolygon","coordinates":[[[[106.912029,21.757853],[106.912097,21.757804],[106.912475,21.757533],[106.912644,21.757712],[106.912371,21.757973],[106.912452,21.758051],[106.912299,21.758167],[106.912268,21.758135],[106.91206,21.757889],[106.912029,21.757853]]]]},"properties":{"group":"edu_health","tag":"amenity=school","name":null,"levels":null,"lat":21.757836363433903,"lng":106.91233775582667,"osm_type":"way","osm_id":724661897}},{"type":"Feature","geometry":{"type":"MultiPolygon","coordinates":[[[[106.904115,21.848561],[106.904212,21.848113],[106.904557,21.848199],[106.904608,21.848229],[106.904649,21.848249],[106.904692,21.848264],[106.904703,21.84828],[106.904701,21.84833],[106.904656,21.84844],[106.904606,21.848442],[106.904561,21.848462],[106.904365,21.848585],[106.904262,21.848654],[106.904232,21.848663],[106.904184,21.848656],[106.904146,21.848636],[106.904122,21.848599],[106.904115,21.848561]]]]},"properties":{"group":"edu_health","tag":"amenity=school","name":"Trường Phổ thông Dân tộc Bán trú Trung học cơ sở Xã Mẫu Sơn","levels":null,"lat":21.848376805885138,"lng":106.90437166172768,"osm_type":"way","osm_id":725359087}},{"type":"Feature","geometry":{"type":"MultiPolygon","coordinates":[[[[106.999161,21.749191],[106.999436,21.749041],[106.999539,21.749018],[106.999563,21.749003],[106.999572,21.748931],[106.999614,21.748806],[106.999697,21.74882],[106.999739,21.748783],[107.00016,21.748911],[106.999869,21.749448],[106.99941,21.749327],[106.999343,21.749342],[106.999161,21.749191]]]]},"properties":{"group":"edu_health","tag":"amenity=school","name":"Trường Trung học cơ sở Khuất Xá","levels":null,"lat":21.749120112334626,"lng":106.99970815373955,"osm_type":"way","osm_id":725858460}},{"type":"Feature","geometry":{"type":"MultiPolygon","coordinates":[[[[107.019178,21.810241],[107.019196,21.810177],[107.019874,21.810227],[107.019817,21.81065],[107.019755,21.810779],[107.019178,21.810241]]]]},"properties":{"group":"edu_health","tag":"amenity=school","name":"Trường Tiểu học Xã Yên Khoái - Điểm trường Chi Ma","levels":null,"lat":21.81040127650472,"lng":107.01959290736451,"osm_type":"way","osm_id":726129873}},{"type":"Feature","geometry":{"type":"MultiPolygon","coordinates":[[[[107.001826,21.79677],[107.001828,21.796713],[107.001847,21.796632],[107.001866,21.796584],[107.001886,21.796531],[107.001911,21.796489],[107.001952,21.796457],[107.002019,21.79647],[107.002067,21.796508],[107.002103,21.796546],[107.002134,21.796594],[107.002223,21.796782],[107.002256,21.796925],[107.002295,21.797012],[107.002336,21.797059],[107.002394,21.797178],[107.002488,21.797312],[107.002522,21.797357],[107.002544,21.797405],[107.002645,21.797715],[107.002653,21.797803],[107.002648,21.797833],[107.00264,21.797864],[107.002614,21.797886],[107.002561,21.79791],[107.002508,21.797935],[107.002457,21.797943],[107.002392,21.797908],[107.002291,21.797866],[107.002253,21.797859],[107.00207,21.797854],[107.001993,21.797847],[107.001913,21.797841],[107.001869,21.797816],[107.001938,21.797554],[107.00191,21.797151],[107.00187,21.796885],[107.001826,21.79677]]]]},"properties":{"group":"edu_health","tag":"amenity=school","name":"Trường Tiểu học Xã Yên Khoái","levels":null,"lat":21.797311488329488,"lng":107.00218505198524,"osm_type":"way","osm_id":726129878}},{"type":"Feature","geometry":{"type":"MultiPolygon","coordinates":[[[[106.433283,21.509646],[106.433326,21.508907],[106.43338,21.508692],[106.433514,21.508528],[106.433691,21.508373],[106.434297,21.508143],[106.434474,21.508233],[106.434619,21.508483],[106.434689,21.508857],[106.434608,21.509037],[106.434329,21.509466],[106.433927,21.50984],[106.433283,21.509646]]]]},"properties":{"group":"edu_health","tag":"amenity=school","name":null,"levels":null,"lat":21.5089855268657,"lng":106.4339595924497,"osm_type":"way","osm_id":729943066}},{"type":"Feature","geometry":{"type":"MultiPolygon","coordinates":[[[[106.321613,21.482645],[106.321918,21.482309],[106.322647,21.482909],[106.322332,21.483215],[106.321613,21.482645]]]]},"properties":{"group":"edu_health","tag":"amenity=school","name":"Trường Tiểu học Minh Sơn","levels":null,"lat":21.4827667922143,"lng":106.32212616295931,"osm_type":"way","osm_id":979296772}},{"type":"Feature","geometry":{"type":"MultiPolygon","coordinates":[[[[106.328666,21.90223],[106.329176,21.901844],[106.32924,21.901921],[106.329669,21.90161],[106.3299,21.901394],[106.330077,21.901558],[106.330165,21.90172],[106.33053,21.902016],[106.32997,21.902414],[106.330074,21.902541],[106.329996,21.902588],[106.330058,21.902665],[106.329852,21.902817],[106.329624,21.902538],[106.329508,21.902623],[106.329339,21.902434],[106.329202,21.902543],[106.329009,21.902304],[106.328926,21.902359],[106.328666,21.90223]]]]},"properties":{"group":"edu_health","tag":"amenity=school","name":"Trường Trung học phổ thông Bắc Sơn","levels":null,"lat":21.902108619145988,"lng":106.32967099600121,"osm_type":"way","osm_id":1172657668}},{"type":"Feature","geometry":{"type":"MultiPolygon","coordinates":[[[[106.316084,21.901875],[106.316151,21.901519],[106.316255,21.901527],[106.316333,21.901293],[106.316674,21.90138],[106.316811,21.901398],[106.317293,21.901572],[106.317323,21.901606],[106.317317,21.901646],[106.316907,21.902336],[106.316092,21.902087],[106.316084,21.901875]]]]},"properties":{"group":"edu_health","tag":"amenity=hospital","name":"Trung tâm Y tế huyện Bắc Sơn","levels":null,"lat":21.901802964076857,"lng":106.31665500550358,"osm_type":"way","osm_id":1172657671}},{"type":"Feature","geometry":{"type":"MultiPolygon","coordinates":[[[[106.758347,21.838461],[106.758653,21.838643],[106.758624,21.839454],[106.758519,21.839454],[106.758514,21.839537],[106.758439,21.839542],[106.758457,21.839694],[106.75864,21.839694],[106.758648,21.84172],[106.758677,21.84231],[106.758661,21.842643],[106.758766,21.842651],[106.758763,21.843213],[106.758669,21.843225],[106.758907,21.845645],[106.758778,21.845645],[106.758584,21.845627],[106.758506,21.845611],[106.758465,21.845578],[106.758452,21.844981],[106.758436,21.842456],[106.758412,21.841707],[106.758398,21.841264],[106.758377,21.840266],[106.75835,21.839362],[106.758347,21.838461]]]]},"properties":{"group":"public","tag":"leisure=park","name":null,"levels":null,"lat":21.84236615024544,"lng":106.75856612668593,"osm_type":"way","osm_id":1172657673}},{"type":"Feature","geometry":{"type":"MultiPolygon","coordinates":[[[[106.756227,21.880938],[106.756571,21.880571],[106.756751,21.880438],[106.757089,21.88038],[106.759117,21.878608],[106.759298,21.878659],[106.759559,21.878423],[106.760273,21.878841],[106.76104,21.879507],[106.760776,21.879902],[106.76055,21.880047],[106.759597,21.880889],[106.759062,21.881305],[106.758121,21.882054],[106.757364,21.882847],[106.756808,21.88246],[106.756928,21.882187],[106.757064,21.881768],[106.756924,21.881513],[106.756227,21.880938]]]]},"properties":{"group":"edu_health","tag":"amenity=hospital","name":"Bệnh viện Đa khoa tỉnh Lạng Sơn","levels":null,"lat":21.880450621221375,"lng":106.75858070797256,"osm_type":"way","osm_id":1219667635}},{"type":"Feature","geometry":{"type":"MultiPolygon","coordinates":[[[[106.734005,21.844091],[106.734115,21.843012],[106.73416,21.842882],[106.734291,21.842838],[106.735498,21.843499],[106.735792,21.843677],[106.735923,21.843781],[106.735968,21.843939],[106.735657,21.844111],[106.735182,21.844258],[106.734643,21.844351],[106.734439,21.8443],[106.734238,21.844272],[106.734117,21.844217],[106.734005,21.844091]]]]},"properties":{"group":"edu_health","tag":"amenity=hospital","name":"Bệnh viện Phổi Lạng Sơn","levels":null,"lat":21.843707936388903,"lng":106.73480403971358,"osm_type":"way","osm_id":1219667636}},{"type":"Feature","geometry":{"type":"MultiPolygon","coordinates":[[[[106.740116,21.901482],[106.740375,21.901046],[106.740438,21.900902],[106.740618,21.900595],[106.74096,21.900449],[106.741769,21.900869],[106.741532,21.901451],[106.741762,21.901577],[106.741564,21.901887],[106.74137,21.901771],[106.741152,21.902038],[106.740116,21.901482]]]]},"properties":{"group":"edu_health","tag":"amenity=hospital","name":"Bệnh viện Y học cổ truyền tỉnh Lạng Sơn","levels":null,"lat":21.90123873671743,"lng":106.74100268782247,"osm_type":"way","osm_id":1219667638}},{"type":"Feature","geometry":{"type":"MultiPolygon","coordinates":[[[[106.348218,21.503163],[106.348309,21.502679],[106.348796,21.502133],[106.348982,21.502043],[106.349575,21.502057],[106.349323,21.502992],[106.349423,21.503057],[106.349277,21.503331],[106.349032,21.503309],[106.348767,21.503122],[106.348471,21.50329],[106.348403,21.503232],[106.348218,21.503163]]]]},"properties":{"group":"edu_health","tag":"amenity=hospital","name":"Trung tâm Y tế huyện Hữu Lũng","levels":null,"lat":21.50269200303862,"lng":106.34892589528279,"osm_type":"way","osm_id":1219671815}},{"type":"Feature","geometry":{"type":"MultiPolygon","coordinates":[[[[106.926237,21.754479],[106.926557,21.754204],[106.926741,21.754199],[106.926901,21.754359],[106.92707,21.754357],[106.927278,21.754306],[106.927677,21.755173],[106.927656,21.755351],[106.926918,21.755896],[106.926619,21.755415],[106.926449,21.755315],[106.926315,21.755171],[106.926287,21.754923],[106.926313,21.75465],[106.926237,21.754479]]]]},"properties":{"group":"edu_health","tag":"amenity=hospital","name":"Trung tâm Y tế huyện Lộc Bình","levels":null,"lat":21.754977038105586,"lng":106.92693791178945,"osm_type":"way","osm_id":1219671817}},{"type":"Feature","geometry":{"type":"MultiPolygon","coordinates":[[[[107.091986,21.546335],[107.092099,21.54619],[107.092174,21.546124],[107.092328,21.546104],[107.092501,21.546122],[107.092619,21.546148],[107.092807,21.54622],[107.093091,21.546465],[107.093183,21.546614],[107.093337,21.546986],[107.093234,21.546994],[107.092963,21.547384],[107.092847,21.547418],[107.092745,21.547406],[107.092533,21.547348],[107.092422,21.54729],[107.092056,21.546641],[107.091994,21.54649],[107.091986,21.546335]]]]},"properties":{"group":"edu_health","tag":"amenity=hospital","name":"Trung tâm Y tế huyện Đình Lập","levels":null,"lat":21.546733778897483,"lng":107.09263550119442,"osm_type":"way","osm_id":1219671820}},{"type":"Feature","geometry":{"type":"MultiPolygon","coordinates":[[[[106.616668,22.058804],[106.616713,22.058361],[106.616908,22.058373],[106.616929,22.058125],[106.617007,22.057949],[106.617178,22.058],[106.617275,22.05797],[106.617682,22.057869],[106.617752,22.057884],[106.617792,22.057914],[106.617806,22.057996],[106.617787,22.058126],[106.617762,22.058307],[106.617952,22.058455],[106.617743,22.058533],[106.617651,22.058667],[106.617238,22.058897],[106.616856,22.058885],[106.616668,22.058804]]]]},"properties":{"group":"edu_health","tag":"amenity=hospital","name":"Trung tâm Y tế huyện Văn Lãng","levels":null,"lat":22.05840726016582,"lng":106.61727528407775,"osm_type":"way","osm_id":1219734474}},{"type":"Feature","geometry":{"type":"MultiPolygon","coordinates":[[[[106.371419,21.950105],[106.37285,21.949724],[106.372955,21.949999],[106.373019,21.950317],[106.372889,21.950588],[106.372735,21.950751],[106.37256,21.95079],[106.372419,21.950784],[106.372158,21.950859],[106.372164,21.950911],[106.372031,21.950888],[106.371951,21.950783],[106.37175,21.950705],[106.371576,21.950588],[106.371516,21.95036],[106.371419,21.950105]]]]},"properties":{"group":"edu_health","tag":"amenity=hospital","name":"Trung tâm Y tế huyện Bình Gia","levels":null,"lat":21.95031953981129,"lng":106.37228346056962,"osm_type":"way","osm_id":1219734475}},{"type":"Feature","geometry":{"type":"MultiPolygon","coordinates":[[[[106.541229,21.866107],[106.541333,21.866022],[106.541649,21.865767],[106.541744,21.865509],[106.542604,21.865658],[106.542771,21.8658],[106.542694,21.866314],[106.542563,21.866413],[106.542313,21.866415],[106.542205,21.866472],[106.54211,21.866595],[106.541955,21.86671],[106.541473,21.86688],[106.541256,21.866352],[106.541229,21.866107]]]]},"properties":{"group":"edu_health","tag":"amenity=hospital","name":"Trung tâm Y tế khu vực Văn Quan","levels":null,"lat":21.86614512293319,"lng":106.5419737018319,"osm_type":"way","osm_id":1219734476}},{"type":"Feature","geometry":{"type":"MultiPolygon","coordinates":[[[[106.705308,21.959174],[106.705314,21.959127],[106.705327,21.959078],[106.705354,21.959031],[106.705393,21.95899],[106.705432,21.958963],[106.705484,21.958935],[106.70553,21.958927],[106.705587,21.958924],[106.70565,21.958933],[106.705706,21.95896],[106.705749,21.958991],[106.705779,21.959031],[106.705801,21.959076],[106.705817,21.959132],[106.705819,21.959197],[106.705804,21.959245],[106.705786,21.959286],[106.705745,21.959329],[106.705697,21.959365],[106.705641,21.959389],[106.705577,21.959401],[106.705515,21.959401],[106.705456,21.959388],[106.705404,21.959362],[106.705366,21.959327],[106.705334,21.959276],[106.705313,21.959224],[106.705308,21.959174]]]]},"properties":{"group":"public","tag":"leisure=park","name":"Bùng Binh Hữu Nghị","levels":null,"lat":21.95916425409886,"lng":106.70556330944011,"osm_type":"way","osm_id":1368763550}},{"type":"Feature","geometry":{"type":"MultiPolygon","coordinates":[[[[106.537732,21.863452],[106.538208,21.862971],[106.538549,21.862473],[106.539077,21.861779],[106.539768,21.862104],[106.53995,21.86252],[106.539133,21.863708],[106.538498,21.864237],[106.537732,21.863452]]]]},"properties":{"group":"public","tag":"leisure=park","name":"Công viên tượng đài Lương Văn Tri","levels":null,"lat":21.86299078377953,"lng":106.53889116350703,"osm_type":"way","osm_id":1443838887}},{"type":"Feature","geometry":{"type":"MultiPolygon","coordinates":[[[[106.520149,21.860767],[106.520375,21.860565],[106.520627,21.860227],[106.521208,21.860695],[106.52073,21.861161],[106.520149,21.860767]]]]},"properties":{"group":"edu_health","tag":"amenity=school","name":"Trường Trung học cơ sở Văn Quan","levels":null,"lat":21.860711155417068,"lng":106.52068483635381,"osm_type":"way","osm_id":1443841315}},{"type":"Feature","geometry":{"type":"MultiPolygon","coordinates":[[[[106.520599,21.859837],[106.52073,21.859676],[106.521552,21.860405],[106.521208,21.860695],[106.520627,21.860227],[106.520725,21.859999],[106.520599,21.859837]]]]},"properties":{"group":"edu_health","tag":"amenity=school","name":"Trung tâm Giáo dục nghề nghiệp Giáo dục thường xuyên Văn Quan","levels":null,"lat":21.860223621398838,"lng":106.52102608549104,"osm_type":"way","osm_id":1443841316}},{"type":"Feature","geometry":{"type":"MultiPolygon","coordinates":[[[[106.520715,21.859067],[106.520788,21.859004],[106.520848,21.858956],[106.521072,21.859034],[106.521241,21.85916],[106.52156,21.859375],[106.522088,21.859451],[106.522135,21.859531],[106.522135,21.859674],[106.522266,21.859797],[106.521964,21.86004],[106.521836,21.859869],[106.521521,21.859776],[106.521166,21.859591],[106.52075,21.859271],[106.520715,21.859067]]]]},"properties":{"group":"edu_health","tag":"amenity=school","name":"Trường Tiểu học 1 Văn Quan","levels":null,"lat":21.85949184628526,"lng":106.52148438693463,"osm_type":"way","osm_id":1443841317}},{"type":"Feature","geometry":{"type":"MultiPolygon","coordinates":[[[[106.6353,21.952346],[106.635952,21.952259],[106.636006,21.952701],[106.636311,21.952676],[106.636362,21.952687],[106.636362,21.952744],[106.636325,21.952754],[106.636247,21.952792],[106.63613,21.952815],[106.635987,21.952879],[106.635893,21.952891],[106.635548,21.952883],[106.635355,21.952682],[106.6353,21.952346]]]]},"properties":{"group":"edu_health","tag":"amenity=school","name":null,"levels":null,"lat":21.952597949953176,"lng":106.6357334248364,"osm_type":"way","osm_id":1492581801}},{"type":"Feature","geometry":{"type":"MultiPolygon","coordinates":[[[[106.761382,21.843746],[106.761438,21.843744],[106.761439,21.843709],[106.761393,21.843709],[106.761392,21.843621],[106.761458,21.843619],[106.761459,21.843582],[106.761438,21.843582],[106.761439,21.843491],[106.76151,21.84349],[106.761512,21.843442],[106.761603,21.843442],[106.761603,21.843491],[106.761643,21.843491],[106.761642,21.843577],[106.761597,21.843578],[106.761596,21.843611],[106.761581,21.843612],[106.761579,21.843709],[106.761527,21.843711],[106.761526,21.843742],[106.761555,21.843741],[106.761557,21.843844],[106.761385,21.843849],[106.761382,21.843746]]]]},"properties":{"group":"apartment","tag":"building=apartments","name":"Chung cư Nguyễn Du","levels":null,"lat":21.843647799311896,"lng":106.76150463205656,"osm_type":"way","osm_id":1521201501}},{"type":"Feature","geometry":{"type":"MultiPolygon","coordinates":[[[[106.776365,21.847235],[106.776612,21.8467],[106.777134,21.846895],[106.777034,21.847113],[106.776704,21.846981],[106.776638,21.847131],[106.776943,21.847253],[106.776864,21.847433],[106.776365,21.847235]]]]},"properties":{"group":"apartment","tag":"building=apartments","name":"Lạng Sơn Green Park","levels":null,"lat":21.847052104655624,"lng":106.77672837173814,"osm_type":"way","osm_id":1521205560}},{"type":"Feature","geometry":{"type":"MultiPolygon","coordinates":[[[[106.773599,21.850303],[106.773995,21.849576],[106.774199,21.849684],[106.7738,21.850402],[106.773599,21.850303]]]]},"properties":{"group":"apartment","tag":"building=apartments","name":"Chung cư Hoàng Trần Quang Minh","levels":null,"lat":21.849989512100308,"lng":106.77389904108885,"osm_type":"way","osm_id":1521207384}},{"type":"Feature","geometry":{"type":"Point","coordinates":[106.475337,22.256383]},"properties":{"group":"edu_health","tag":"amenity=hospital","name":"Mái ấm tình thương","levels":null,"lat":22.2563829,"lng":106.4753374,"osm_type":"node","osm_id":4778473921}},{"type":"Feature","geometry":{"type":"Point","coordinates":[106.35793,21.621362]},"properties":{"group":"edu_health","tag":"amenity=school","name":null,"levels":null,"lat":21.6213621,"lng":106.3579301,"osm_type":"node","osm_id":7176653325}},{"type":"Feature","geometry":{"type":"Point","coordinates":[106.70822,21.964703]},"properties":{"group":"mall","tag":"shop=department_store","name":null,"levels":null,"lat":21.9647032,"lng":106.7082196,"osm_type":"node","osm_id":13114153332}},{"type":"Feature","geometry":{"type":"Point","coordinates":[106.710534,21.972069]},"properties":{"group":"mall","tag":"shop=department_store","name":null,"levels":null,"lat":21.9720689,"lng":106.7105338,"osm_type":"node","osm_id":13114209685}}]}