{"type":"FeatureCollection","features":[{"type":"Feature","properties":{"kind":"boundary","province_code":"51","name":"Tỉnh Quảng Ngãi","source":"VNSDI","valid_from":"16/6/2025","simplify_tolerance_deg":0.0005},"geometry":{"type":"MultiPolygon","coordinates":[[[[107.9317,14.24276],[107.92471,14.25258],[107.91201,14.26645],[107.90068,14.27664],[107.8953,14.28051],[107.89207,14.28144],[107.87735,14.28237],[107.87551,14.28107],[107.87404,14.27763],[107.87198,14.27641],[107.8478,14.27532],[107.83787,14.26151],[107.83861,14.24384],[107.83553,14.23639],[107.83365,14.23391],[107.82736,14.22965],[107.82303,14.22442],[107.81935,14.21636],[107.81662,14.21436],[107.81098,14.21298],[107.80783,14.21304],[107.7965,14.22049],[107.78135,14.22276],[107.7752,14.22056],[107.761,14.20655],[107.75814,14.20508],[107.75435,14.20454],[107.74945,14.2054],[107.73439,14.21145],[107.72306,14.21456],[107.69597,14.21782],[107.6907,14.2178],[107.68736,14.21688],[107.68539,14.21444],[107.68213,14.20681],[107.67759,14.19057],[107.67345,14.18143],[107.67021,14.17642],[107.66238,14.16903],[107.66021,14.16552],[107.65995,14.16086],[107.66346,14.14385],[107.66356,14.13831],[107.65664,14.10718],[107.65182,14.09997],[107.65104,14.09753],[107.65166,14.09426],[107.65548,14.08784],[107.65578,14.0846],[107.65152,14.07547],[107.64951,14.06882],[107.64699,14.06461],[107.63749,14.05652],[107.63428,14.05471],[107.63129,14.05424],[107.62824,14.05473],[107.62586,14.05608],[107.61716,14.06381],[107.61303,14.06376],[107.60195,14.04807],[107.5989,14.03698],[107.59869,14.03011],[107.5975,14.02801],[107.59265,14.0254],[107.53748,14.02372],[107.5317,14.02155],[107.52535,14.01683],[107.52237,14.01141],[107.52039,13.9943],[107.51832,13.98864],[107.51314,13.98188],[107.50668,13.97557],[107.49367,13.96671],[107.47683,13.95792],[107.47097,13.95392],[107.46958,13.95096],[107.46913,13.93697],[107.46073,13.92883],[107.45788,13.92369],[107.45734,13.92706],[107.45458,13.92853],[107.45327,13.93037],[107.45334,13.94859],[107.45538,13.96173],[107.45433,13.97101],[107.45587,13.9795],[107.4554,13.98039],[107.45307,13.98056],[107.44632,13.98644],[107.44478,13.99],[107.44368,13.99725],[107.44184,13.99771],[107.43642,13.99694],[107.431,13.99386],[107.42881,13.99829],[107.42734,13.99875],[107.42074,13.99423],[107.41087,13.9923],[107.40505,13.9891],[107.40352,13.98902],[107.39583,13.99219],[107.38921,13.98953],[107.38462,13.98923],[107.38241,13.99345],[107.37789,13.99737],[107.36672,14.01184],[107.35691,14.01777],[107.35803,14.02157],[107.35658,14.02718],[107.36303,14.03104],[107.36575,14.03506],[107.36543,14.04485],[107.36349,14.05029],[107.36612,14.05598],[107.36487,14.05885],[107.36492,14.06352],[107.36665,14.06557],[107.36924,14.06657],[107.37793,14.06423],[107.3799,14.06519],[107.38133,14.0669],[107.38157,14.07026],[107.38335,14.07353],[107.38264,14.07872],[107.37855,14.08165],[107.36487,14.08478],[107.36401,14.0858],[107.36134,14.08524],[107.3605,14.0839],[107.35725,14.08937],[107.35549,14.09092],[107.35183,14.09166],[107.34855,14.09128],[107.34527,14.09671],[107.34344,14.09543],[107.34006,14.09601],[107.3387,14.09865],[107.33371,14.10196],[107.33217,14.10459],[107.33455,14.10667],[107.33466,14.10922],[107.33606,14.11169],[107.33619,14.11247],[107.33409,14.11509],[107.3375,14.12052],[107.33831,14.12359],[107.33747,14.12458],[107.33752,14.12655],[107.34032,14.13297],[107.34482,14.13624],[107.34543,14.13972],[107.34772,14.14321],[107.35079,14.14537],[107.35075,14.14741],[107.35217,14.14898],[107.35395,14.14956],[107.35244,14.15421],[107.35496,14.15591],[107.3578,14.15596],[107.35793,14.15712],[107.36155,14.15994],[107.36232,14.16332],[107.3589,14.1674],[107.35804,14.16979],[107.36375,14.17432],[107.36559,14.17669],[107.36564,14.17854],[107.36763,14.17917],[107.36838,14.18048],[107.37474,14.17876],[107.37728,14.17987],[107.37941,14.1839],[107.3788,14.18575],[107.38143,14.18749],[107.38157,14.19311],[107.38327,14.19608],[107.38383,14.19905],[107.38565,14.2002],[107.38571,14.20408],[107.38837,14.2098],[107.38909,14.21047],[107.39258,14.20939],[107.39544,14.21775],[107.39534,14.22271],[107.39777,14.22685],[107.40186,14.2295],[107.40287,14.23231],[107.40617,14.23368],[107.40613,14.23759],[107.40309,14.24386],[107.40121,14.24501],[107.39933,14.24953],[107.40498,14.26017],[107.40821,14.26129],[107.40817,14.26293],[107.40945,14.2645],[107.40851,14.26808],[107.40979,14.27045],[107.40794,14.27364],[107.40954,14.27547],[107.40959,14.27663],[107.40852,14.27777],[107.40748,14.28415],[107.4058,14.28597],[107.40609,14.28753],[107.4054,14.28832],[107.40645,14.29096],[107.40718,14.29736],[107.40465,14.30292],[107.40113,14.30317],[107.40012,14.30582],[107.39671,14.30755],[107.39754,14.31143],[107.39711,14.31262],[107.39335,14.31368],[107.39085,14.31601],[107.39142,14.32371],[107.38897,14.32628],[107.39022,14.32735],[107.39233,14.32704],[107.39623,14.32915],[107.40048,14.33387],[107.40184,14.33888],[107.40101,14.34059],[107.40151,14.34171],[107.40468,14.34444],[107.40724,14.34503],[107.4085,14.34661],[107.40847,14.35155],[107.41027,14.35425],[107.41056,14.35745],[107.41035,14.36036],[107.40824,14.36213],[107.40843,14.36371],[107.41045,14.36337],[107.41167,14.36137],[107.41605,14.36314],[107.4205,14.36771],[107.42193,14.37117],[107.42426,14.37397],[107.4334,14.38102],[107.43239,14.38487],[107.43332,14.38697],[107.43125,14.38885],[107.43107,14.39114],[107.43015,14.39126],[107.42961,14.39278],[107.42809,14.39323],[107.42878,14.39691],[107.42814,14.39965],[107.42605,14.40066],[107.42535,14.40002],[107.4239,14.40053],[107.42499,14.40749],[107.42781,14.41289],[107.43256,14.41596],[107.43546,14.41581],[107.43902,14.42149],[107.44054,14.42142],[107.44501,14.4249],[107.44841,14.42612],[107.45185,14.42245],[107.4573,14.41998],[107.45593,14.41818],[107.45593,14.41684],[107.45681,14.41403],[107.45816,14.413],[107.45809,14.40974],[107.46013,14.40632],[107.46681,14.40469],[107.46969,14.40563],[107.47158,14.40837],[107.47378,14.40824],[107.47609,14.40733],[107.47596,14.40557],[107.482,14.40348],[107.48398,14.40363],[107.48514,14.4053],[107.48861,14.40655],[107.49063,14.41426],[107.48879,14.41591],[107.49079,14.42215],[107.48954,14.42474],[107.48972,14.42993],[107.49241,14.43381],[107.49653,14.43595],[107.49618,14.43833],[107.49957,14.44466],[107.49951,14.44792],[107.50165,14.4502],[107.50075,14.45251],[107.50178,14.45562],[107.50414,14.4586],[107.50375,14.46016],[107.5016,14.46119],[107.5011,14.46302],[107.49954,14.46439],[107.49958,14.46627],[107.50285,14.46991],[107.5026,14.47299],[107.50296,14.47574],[107.50379,14.47621],[107.50417,14.48058],[107.50329,14.48254],[107.50502,14.48688],[107.50824,14.48893],[107.50896,14.49357],[107.50819,14.49581],[107.51238,14.49774],[107.51155,14.50266],[107.50974,14.50303],[107.50674,14.50881],[107.51083,14.5117],[107.51426,14.51181],[107.51692,14.51302],[107.51861,14.51559],[107.51888,14.51821],[107.52083,14.51878],[107.52178,14.52194],[107.52372,14.52357],[107.52373,14.52485],[107.52237,14.52588],[107.52179,14.52906],[107.52345,14.53048],[107.52343,14.53169],[107.5254,14.53233],[107.52493,14.53509],[107.52732,14.53685],[107.52781,14.53885],[107.52678,14.53968],[107.52728,14.54145],[107.52625,14.54488],[107.52924,14.54554],[107.53002,14.54642],[107.52903,14.54971],[107.53159,14.55294],[107.53202,14.55524],[107.52889,14.56012],[107.52751,14.55975],[107.52424,14.56076],[107.52547,14.56288],[107.5227,14.56574],[107.52341,14.56718],[107.5221,14.57243],[107.52374,14.5734],[107.52298,14.57762],[107.52159,14.58118],[107.51882,14.58254],[107.51829,14.58454],[107.51635,14.58532],[107.51648,14.58591],[107.51725,14.58712],[107.52053,14.58754],[107.5222,14.58938],[107.52239,14.59043],[107.52122,14.59207],[107.52298,14.59318],[107.52303,14.59552],[107.52508,14.59876],[107.52852,14.59803],[107.53032,14.59873],[107.53067,14.59992],[107.53314,14.59906],[107.53529,14.60016],[107.5359,14.60141],[107.5383,14.60251],[107.53844,14.60409],[107.54023,14.6055],[107.54209,14.60497],[107.54286,14.60819],[107.54503,14.61102],[107.54328,14.61546],[107.54378,14.6169],[107.54081,14.6193],[107.53801,14.62008],[107.53794,14.62189],[107.5414,14.62598],[107.54053,14.62776],[107.54127,14.6293],[107.53868,14.63157],[107.53762,14.63437],[107.5425,14.63494],[107.54349,14.63801],[107.54229,14.63977],[107.54458,14.64382],[107.54587,14.64484],[107.54851,14.64509],[107.55142,14.64712],[107.55166,14.65003],[107.54934,14.65373],[107.54812,14.65875],[107.55049,14.66027],[107.55005,14.66166],[107.55138,14.66337],[107.55449,14.6644],[107.55461,14.66739],[107.5503,14.67092],[107.54979,14.67258],[107.55032,14.67491],[107.54925,14.67759],[107.54995,14.67933],[107.55245,14.67944],[107.55301,14.68199],[107.55563,14.6839],[107.55848,14.68924],[107.55866,14.69214],[107.56005,14.69426],[107.559,14.69948],[107.55953,14.70476],[107.55546,14.71079],[107.55588,14.71594],[107.55687,14.71833],[107.55627,14.72125],[107.54552,14.72106],[107.53546,14.72495],[107.53258,14.72328],[107.52741,14.72366],[107.52386,14.72211],[107.52352,14.72494],[107.52137,14.72811],[107.52285,14.72908],[107.52313,14.73069],[107.52569,14.73221],[107.52589,14.73482],[107.52874,14.73475],[107.5327,14.73674],[107.53476,14.73914],[107.5378,14.74101],[107.53772,14.74393],[107.53891,14.74451],[107.53881,14.74643],[107.54079,14.74761],[107.54207,14.75051],[107.53952,14.75214],[107.53839,14.75563],[107.53399,14.75959],[107.53391,14.76445],[107.53058,14.76619],[107.53053,14.77165],[107.52759,14.77255],[107.5256,14.77616],[107.5215,14.7766],[107.52033,14.77607],[107.51747,14.77817],[107.51502,14.7856],[107.51308,14.78457],[107.51119,14.78475],[107.50988,14.78358],[107.50552,14.78544],[107.50555,14.78618],[107.50653,14.78811],[107.50795,14.7889],[107.50842,14.79074],[107.50769,14.79266],[107.50923,14.79353],[107.51064,14.7963],[107.5154,14.79941],[107.51641,14.80212],[107.51985,14.80212],[107.52384,14.80492],[107.52404,14.80654],[107.52226,14.81157],[107.52259,14.81357],[107.52702,14.81425],[107.52806,14.81373],[107.53356,14.81755],[107.53734,14.81877],[107.53983,14.81872],[107.54081,14.82046],[107.54142,14.82722],[107.54606,14.8309],[107.54874,14.83125],[107.55116,14.8338],[107.55457,14.83387],[107.55592,14.83556],[107.56081,14.83822],[107.56224,14.83948],[107.56261,14.84183],[107.56577,14.84415],[107.566,14.84883],[107.56877,14.85065],[107.57032,14.85276],[107.57341,14.85326],[107.5755,14.8546],[107.57904,14.85456],[107.58119,14.85914],[107.58453,14.86185],[107.58894,14.86372],[107.59028,14.8653],[107.59033,14.86838],[107.58913,14.87019],[107.59155,14.87402],[107.58909,14.87483],[107.58742,14.87639],[107.58855,14.87946],[107.58531,14.88336],[107.58546,14.89135],[107.58221,14.89317],[107.57992,14.89268],[107.57634,14.89327],[107.57364,14.89111],[107.57091,14.8932],[107.56894,14.89697],[107.56126,14.9028],[107.55388,14.90098],[107.55054,14.90453],[107.54753,14.90424],[107.54122,14.90817],[107.53946,14.90849],[107.53606,14.91495],[107.53335,14.91611],[107.5307,14.9189],[107.52954,14.92278],[107.52988,14.92826],[107.52774,14.92833],[107.52322,14.93018],[107.52088,14.92969],[107.51428,14.93118],[107.51081,14.92927],[107.5051,14.92879],[107.50511,14.93129],[107.50308,14.934],[107.49876,14.93666],[107.5005,14.93812],[107.49958,14.93943],[107.49952,14.94282],[107.49004,14.94348],[107.48649,14.9487],[107.48314,14.95085],[107.48254,14.95275],[107.47873,14.95716],[107.47851,14.96167],[107.4809,14.9663],[107.48099,14.96972],[107.4819,14.97033],[107.4805,14.97261],[107.47696,14.97496],[107.47569,14.97457],[107.47321,14.976],[107.47284,14.97879],[107.47107,14.98247],[107.46943,14.98379],[107.46761,14.98364],[107.46681,14.98516],[107.46781,14.9872],[107.47784,14.98676],[107.47651,14.98921],[107.47827,14.99243],[107.47467,14.99313],[107.47163,14.99502],[107.47001,14.99754],[107.47039,15.00002],[107.46756,15.00764],[107.46922,15.01198],[107.47286,15.01765],[107.47249,15.01967],[107.47392,15.01971],[107.47559,15.02112],[107.47734,15.02102],[107.47877,15.02224],[107.49176,15.02366],[107.49287,15.02455],[107.49284,15.02304],[107.49603,15.0199],[107.50129,15.02166],[107.50495,15.02532],[107.51563,15.03008],[107.51588,15.03242],[107.51766,15.03423],[107.52001,15.03516],[107.51926,15.0385],[107.52449,15.03882],[107.52834,15.04141],[107.5308,15.04061],[107.5344,15.04446],[107.53491,15.04635],[107.53763,15.0472],[107.53962,15.04945],[107.54368,15.04893],[107.54574,15.04724],[107.54772,15.04717],[107.55308,15.0447],[107.55642,15.04282],[107.56535,15.03517],[107.56857,15.03476],[107.5695,15.0359],[107.57208,15.03485],[107.57642,15.03193],[107.57677,15.02974],[107.57903,15.02832],[107.58394,15.02804],[107.58566,15.02921],[107.5875,15.02868],[107.58824,15.02934],[107.58739,15.03526],[107.58977,15.03721],[107.58945,15.03963],[107.59077,15.04058],[107.59067,15.04192],[107.59483,15.04613],[107.59283,15.0491],[107.59405,15.0513],[107.59601,15.05129],[107.59794,15.04911],[107.60153,15.0491],[107.60258,15.04799],[107.60427,15.04771],[107.60567,15.04562],[107.60771,15.04714],[107.61152,15.04787],[107.61524,15.04559],[107.61888,15.0486],[107.61946,15.05022],[107.62152,15.05103],[107.61539,15.06158],[107.61481,15.06631],[107.61076,15.06675],[107.60316,15.07774],[107.60104,15.08408],[107.59775,15.08825],[107.60357,15.09294],[107.60488,15.09498],[107.60686,15.09536],[107.61067,15.09971],[107.61716,15.10437],[107.62263,15.10498],[107.62286,15.1099],[107.62178,15.11247],[107.619,15.11497],[107.61889,15.11878],[107.61609,15.12247],[107.6108,15.12573],[107.60854,15.12922],[107.60778,15.13273],[107.6119,15.13165],[107.61833,15.13248],[107.61941,15.13402],[107.62217,15.13512],[107.62438,15.13788],[107.62552,15.14097],[107.62317,15.1435],[107.62354,15.1466],[107.62677,15.14956],[107.62288,15.15211],[107.61954,15.15224],[107.6168,15.15464],[107.61578,15.15896],[107.61172,15.1652],[107.61092,15.17088],[107.60772,15.17366],[107.60117,15.18635],[107.59973,15.18457],[107.59832,15.18518],[107.5975,15.18619],[107.59812,15.18826],[107.59643,15.18903],[107.5965,15.19057],[107.59393,15.19056],[107.59174,15.19414],[107.58972,15.19478],[107.58805,15.19681],[107.58681,15.19584],[107.58444,15.19665],[107.58284,15.19594],[107.58442,15.1993],[107.58294,15.20051],[107.58595,15.20189],[107.58803,15.20147],[107.5909,15.20376],[107.59128,15.20512],[107.5932,15.20424],[107.59408,15.20481],[107.59445,15.20567],[107.59278,15.20885],[107.5932,15.21008],[107.59485,15.21117],[107.59658,15.21075],[107.59862,15.20878],[107.59958,15.20591],[107.60233,15.20438],[107.60843,15.20941],[107.61003,15.20985],[107.61156,15.21216],[107.6129,15.21183],[107.61744,15.21341],[107.6199,15.21187],[107.62192,15.21452],[107.62165,15.21702],[107.61942,15.21899],[107.61879,15.22092],[107.62059,15.22678],[107.62327,15.22544],[107.62449,15.22637],[107.63049,15.2277],[107.63335,15.2304],[107.63277,15.23139],[107.62728,15.23061],[107.62509,15.23176],[107.62375,15.23614],[107.62402,15.23962],[107.6216,15.24232],[107.62157,15.24469],[107.61928,15.24584],[107.62031,15.24988],[107.61923,15.25573],[107.62011,15.25748],[107.62067,15.26452],[107.62025,15.26652],[107.61859,15.26813],[107.61855,15.27107],[107.61567,15.27109],[107.61701,15.27777],[107.61602,15.27987],[107.6169,15.28083],[107.6157,15.2836],[107.61539,15.28817],[107.61869,15.29428],[107.62237,15.29529],[107.62019,15.30103],[107.62351,15.30656],[107.62422,15.31085],[107.63022,15.31042],[107.63371,15.3128],[107.63498,15.31919],[107.63357,15.31936],[107.63254,15.32144],[107.63282,15.32238],[107.63129,15.32309],[107.63147,15.32471],[107.62963,15.32484],[107.62879,15.32669],[107.62675,15.32738],[107.6263,15.33036],[107.62698,15.33226],[107.62242,15.3329],[107.62129,15.32997],[107.6183,15.33092],[107.61687,15.33028],[107.61523,15.33334],[107.61211,15.33458],[107.61069,15.33421],[107.61015,15.33494],[107.60924,15.33771],[107.60975,15.34103],[107.60837,15.34209],[107.60616,15.34602],[107.60659,15.34995],[107.60517,15.35061],[107.60485,15.35422],[107.60517,15.35716],[107.60668,15.35817],[107.60528,15.36015],[107.60574,15.36312],[107.60925,15.36749],[107.60645,15.37061],[107.60389,15.37151],[107.60403,15.37411],[107.60257,15.37583],[107.60085,15.37536],[107.59813,15.37781],[107.59658,15.38333],[107.59901,15.38445],[107.60041,15.3863],[107.60614,15.38855],[107.60656,15.39104],[107.60879,15.39346],[107.61023,15.39249],[107.6112,15.39415],[107.61379,15.39356],[107.6139,15.399],[107.61538,15.40131],[107.61478,15.40326],[107.61715,15.40457],[107.61734,15.40604],[107.61913,15.40835],[107.62094,15.40914],[107.62243,15.41215],[107.63021,15.41603],[107.63313,15.41662],[107.63681,15.41583],[107.63909,15.41312],[107.64088,15.40876],[107.64544,15.40363],[107.65549,15.39515],[107.66047,15.38747],[107.66119,15.38298],[107.66029,15.37283],[107.66464,15.35236],[107.66843,15.34705],[107.6733,15.34295],[107.68741,15.3274],[107.6928,15.3185],[107.6951,15.3159],[107.70213,15.31083],[107.70793,15.303],[107.73023,15.30819],[107.72762,15.28914],[107.73322,15.25414],[107.73813,15.23655],[107.73654,15.23115],[107.74974,15.23061],[107.75285,15.23241],[107.75737,15.23746],[107.75907,15.23743],[107.76819,15.23449],[107.77174,15.23258],[107.77193,15.22727],[107.77441,15.22361],[107.78024,15.2191],[107.78521,15.2181],[107.78935,15.21863],[107.79692,15.21691],[107.8096,15.21152],[107.81543,15.21142],[107.81648,15.21248],[107.8168,15.21499],[107.81866,15.21622],[107.8201,15.21588],[107.82758,15.20933],[107.83244,15.20809],[107.84211,15.20796],[107.84826,15.20706],[107.85085,15.20746],[107.85445,15.20984],[107.87131,15.21025],[107.87353,15.20913],[107.87923,15.20174],[107.88058,15.19773],[107.88974,15.19398],[107.89155,15.19444],[107.89565,15.19872],[107.89904,15.20458],[107.90042,15.20562],[107.9133,15.20752],[107.91338,15.20957],[107.91465,15.21213],[107.92057,15.2103],[107.92951,15.20896],[107.93058,15.20808],[107.93269,15.20195],[107.93355,15.19525],[107.93559,15.19257],[107.93824,15.19077],[107.94617,15.18818],[107.94884,15.18525],[107.94982,15.18362],[107.95039,15.17532],[107.95649,15.17387],[107.97018,15.16821],[107.97972,15.16686],[107.98765,15.15861],[107.99909,15.15602],[108.00428,15.1429],[107.99839,15.12684],[107.99922,15.12439],[108.00181,15.12216],[108.0018,15.11876],[107.99796,15.11702],[107.99601,15.11466],[107.99165,15.10493],[107.98752,15.09985],[107.98862,15.09568],[107.98315,15.0916],[107.9766,15.07661],[107.97608,15.06992],[107.9723,15.06754],[107.96417,15.06536],[107.94995,15.05325],[107.95625,15.0462],[107.95876,15.04456],[107.95932,15.04102],[107.95708,15.03715],[107.96352,15.02665],[107.96531,15.02148],[107.96971,15.01614],[107.977,15.01028],[107.97904,15.0098],[107.981,15.0111],[107.9827,15.01041],[107.98346,15.00644],[107.98815,15.00067],[107.99026,14.99917],[108.00117,15.00228],[108.00439,15.00197],[108.0087,14.99883],[108.01085,14.99861],[108.01556,15.00084],[108.02076,15.00079],[108.02677,14.99772],[108.04361,14.99361],[108.04667,14.99204],[108.04988,14.98899],[108.05941,14.97489],[108.06345,14.9717],[108.07597,14.96865],[108.07909,14.96697],[108.0819,14.964],[108.08452,14.95823],[108.08776,14.95537],[108.09144,14.95348],[108.10281,14.95227],[108.10888,14.95305],[108.11603,14.95786],[108.12334,14.96031],[108.14464,14.95974],[108.14981,14.96228],[108.16181,14.97425],[108.15621,14.99603],[108.15196,15.00104],[108.15129,15.004],[108.15185,15.00956],[108.14969,15.01916],[108.15175,15.02766],[108.15175,15.03341],[108.15042,15.03874],[108.14747,15.04523],[108.14836,15.04825],[108.15856,15.05758],[108.16017,15.06007],[108.16181,15.06095],[108.1646,15.06062],[108.17206,15.06182],[108.17563,15.06051],[108.18367,15.05591],[108.18906,15.05129],[108.19176,15.04786],[108.19363,15.04304],[108.19703,15.04224],[108.20004,15.04317],[108.20214,15.04244],[108.20584,15.03999],[108.2088,15.03581],[108.21295,15.03279],[108.2247,15.03015],[108.23147,15.0319],[108.23912,15.03217],[108.24065,15.03366],[108.24297,15.04083],[108.23799,15.05009],[108.24165,15.06169],[108.24172,15.06577],[108.24028,15.06971],[108.23614,15.07571],[108.23573,15.0783],[108.25174,15.08529],[108.25637,15.08954],[108.2597,15.09687],[108.25935,15.10453],[108.25695,15.11364],[108.25795,15.11759],[108.26343,15.12397],[108.27411,15.12976],[108.28818,15.15865],[108.29404,15.1673],[108.29667,15.16956],[108.30331,15.17158],[108.30636,15.17411],[108.29996,15.18203],[108.3001,15.18396],[108.30208,15.18526],[108.30342,15.18858],[108.30274,15.19227],[108.29903,15.19433],[108.29357,15.19513],[108.29203,15.19635],[108.29136,15.19955],[108.2921,15.20117],[108.30473,15.21036],[108.30816,15.22137],[108.30747,15.22379],[108.30418,15.2269],[108.29115,15.22839],[108.28457,15.23629],[108.28148,15.24375],[108.28297,15.24487],[108.28721,15.24522],[108.29042,15.24652],[108.29355,15.25268],[108.30265,15.25874],[108.30595,15.26891],[108.30421,15.27606],[108.29979,15.27916],[108.30041,15.28483],[108.30095,15.28585],[108.31059,15.29102],[108.31715,15.29983],[108.31964,15.30129],[108.32333,15.30153],[108.33513,15.29882],[108.36076,15.2953],[108.36445,15.29539],[108.36772,15.29758],[108.38181,15.30329],[108.38814,15.30127],[108.39185,15.29896],[108.39971,15.29992],[108.40262,15.30094],[108.40336,15.30219],[108.40367,15.3085],[108.40552,15.30986],[108.40734,15.31017],[108.41387,15.30738],[108.41668,15.30741],[108.42633,15.3157],[108.42851,15.32255],[108.4303,15.3252],[108.43236,15.32609],[108.43444,15.3252],[108.43567,15.32158],[108.43626,15.31475],[108.43738,15.3126],[108.43951,15.31173],[108.45118,15.30998],[108.46285,15.30957],[108.4763,15.31031],[108.4798,15.30841],[108.48433,15.30816],[108.48688,15.30916],[108.49551,15.31542],[108.49911,15.32335],[108.50343,15.3253],[108.50725,15.32558],[108.52578,15.32035],[108.53318,15.32758],[108.54642,15.33503],[108.55269,15.33609],[108.55664,15.33459],[108.56202,15.33498],[108.57907,15.34518],[108.58287,15.34483],[108.58715,15.34308],[108.59094,15.34679],[108.59324,15.34657],[108.59568,15.34491],[108.59909,15.34519],[108.60229,15.34755],[108.60386,15.35122],[108.60527,15.35215],[108.61448,15.35378],[108.62148,15.35693],[108.62966,15.35826],[108.63846,15.36519],[108.64416,15.36746],[108.66209,15.36824],[108.66419,15.368],[108.6679,15.3657],[108.67099,15.36557],[108.67433,15.367],[108.67953,15.36783],[108.6919,15.36875],[108.70131,15.37232],[108.70947,15.37073],[108.71538,15.37121],[108.72118,15.37468],[108.73881,15.39763],[108.74483,15.39379],[108.75589,15.38891],[108.77177,15.3866],[108.77711,15.38885],[108.77794,15.38988],[108.78907,15.3942],[108.79499,15.39481],[108.7954,15.39983],[108.79936,15.40119],[108.80291,15.39659],[108.80731,15.40199],[108.80814,15.40752],[108.80729,15.4091],[108.80659,15.40853],[108.80209,15.40956],[108.79609,15.41558],[108.79572,15.42062],[108.79833,15.42498],[108.79861,15.42214],[108.80232,15.41767],[108.80715,15.41376],[108.81187,15.4121],[108.81498,15.41257],[108.82002,15.41819],[108.82476,15.41918],[108.82659,15.4184],[108.8279,15.41657],[108.82733,15.41509],[108.82257,15.4127],[108.82166,15.40993],[108.82201,15.40673],[108.82729,15.39844],[108.83152,15.39704],[108.83204,15.39232],[108.82962,15.38646],[108.82725,15.38294],[108.82697,15.37876],[108.8277,15.37655],[108.841,15.35733],[108.85021,15.34868],[108.85927,15.34685],[108.86482,15.35149],[108.87025,15.35075],[108.86954,15.34866],[108.86572,15.34599],[108.86328,15.3422],[108.86364,15.33885],[108.86539,15.33438],[108.86888,15.33083],[108.88077,15.32861],[108.88213,15.3275],[108.88031,15.31759],[108.87397,15.3101],[108.86951,15.30124],[108.87071,15.29661],[108.8762,15.28664],[108.89147,15.26522],[108.90596,15.25008],[108.91405,15.24555],[108.9202,15.24387],[108.92337,15.24462],[108.92521,15.24703],[108.93489,15.24683],[108.93726,15.24604],[108.94063,15.24068],[108.94177,15.23573],[108.94166,15.23251],[108.93531,15.21749],[108.93332,15.21465],[108.92777,15.21047],[108.92617,15.21085],[108.92161,15.21441],[108.91564,15.21338],[108.91486,15.2124],[108.91528,15.21109],[108.9218,15.20535],[108.92236,15.20385],[108.91784,15.20071],[108.91651,15.20159],[108.91541,15.20446],[108.91283,15.20606],[108.91006,15.20619],[108.90605,15.20486],[108.9024,15.20269],[108.89859,15.19889],[108.89663,15.19581],[108.89499,15.19024],[108.89429,15.18379],[108.89454,15.17269],[108.89793,15.14939],[108.89799,15.12572],[108.90351,15.09732],[108.9022,15.08844],[108.90324,15.07838],[108.91401,15.03407],[108.92065,15.01068],[108.9307,14.98048],[108.94234,14.94919],[108.96412,14.89734],[108.98847,14.84748],[108.99806,14.8304],[109.00007,14.8297],[109.00078,14.8187],[109.00426,14.81517],[109.01876,14.79105],[109.02444,14.78009],[109.03502,14.76333],[109.05413,14.73642],[109.06908,14.7135],[109.07529,14.70781],[109.07679,14.70521],[109.07777,14.69915],[109.0768,14.69735],[109.07453,14.69653],[109.07378,14.69545],[109.07389,14.69182],[109.07649,14.68577],[109.08234,14.67814],[109.08339,14.67523],[109.08343,14.67119],[109.08194,14.66773],[109.07791,14.66571],[109.07533,14.66554],[109.0729,14.66714],[109.07465,14.6708],[109.0723,14.67774],[109.07117,14.67824],[109.06838,14.67731],[109.07074,14.67165],[109.06928,14.66643],[109.06565,14.66001],[109.06512,14.65454],[109.06651,14.64064],[109.06912,14.6324],[109.07171,14.60975],[109.07509,14.59434],[109.07812,14.58623],[109.08212,14.58117],[109.08258,14.57771],[109.0792,14.58052],[109.07337,14.58257],[109.06663,14.59071],[109.0654,14.59137],[109.06053,14.59107],[109.05589,14.60831],[109.04845,14.60647],[109.0448,14.61044],[109.04639,14.61734],[109.04434,14.62103],[109.04444,14.62604],[109.04569,14.62766],[109.04416,14.63258],[109.04048,14.63796],[109.03748,14.64458],[109.03441,14.64777],[109.03245,14.648],[109.02968,14.64649],[109.02808,14.64746],[109.02376,14.65639],[109.01981,14.6598],[109.01621,14.66609],[109.00927,14.67035],[109.00011,14.66885],[108.99738,14.67013],[108.99354,14.67393],[108.98812,14.67196],[108.98037,14.67121],[108.97699,14.67175],[108.96821,14.68138],[108.95967,14.68637],[108.95725,14.68399],[108.95577,14.68364],[108.95146,14.68448],[108.93954,14.69529],[108.93128,14.69771],[108.92792,14.70262],[108.92241,14.69703],[108.90784,14.69208],[108.90602,14.68977],[108.9056,14.68779],[108.9044,14.68704],[108.8935,14.68624],[108.88883,14.68306],[108.88405,14.68353],[108.87834,14.68589],[108.87467,14.68898],[108.87112,14.69055],[108.86671,14.69154],[108.855,14.69191],[108.85226,14.69063],[108.85201,14.68357],[108.84727,14.68237],[108.84196,14.69307],[108.8386,14.69427],[108.83502,14.69094],[108.83056,14.68133],[108.82778,14.67801],[108.8125,14.67103],[108.79856,14.66909],[108.78676,14.66985],[108.77838,14.67306],[108.77038,14.67766],[108.76742,14.67699],[108.75966,14.66691],[108.76189,14.66044],[108.76365,14.64983],[108.76574,14.62602],[108.76202,14.61776],[108.76134,14.61187],[108.76271,14.60353],[108.76202,14.59931],[108.75963,14.59556],[108.7571,14.59333],[108.7431,14.59205],[108.73918,14.5897],[108.73597,14.58934],[108.71514,14.60142],[108.71085,14.60512],[108.70858,14.60879],[108.70779,14.61293],[108.70628,14.61441],[108.70429,14.61461],[108.70174,14.61234],[108.70237,14.60669],[108.6987,14.59844],[108.69601,14.59604],[108.6909,14.59329],[108.68827,14.59292],[108.68178,14.59469],[108.67944,14.59427],[108.67611,14.59039],[108.67679,14.58448],[108.67504,14.58193],[108.66382,14.57816],[108.65093,14.57011],[108.64048,14.56585],[108.64042,14.56313],[108.64229,14.55506],[108.64224,14.54844],[108.64094,14.54772],[108.63304,14.55212],[108.62984,14.55209],[108.62818,14.55071],[108.62751,14.54423],[108.62061,14.54298],[108.61819,14.53918],[108.61809,14.53712],[108.6144,14.534],[108.608,14.53378],[108.6064,14.53445],[108.59663,14.54635],[108.59621,14.54981],[108.5969,14.55673],[108.59582,14.56253],[108.59111,14.56613],[108.57454,14.57224],[108.57299,14.574],[108.57206,14.57812],[108.56114,14.58541],[108.54884,14.58556],[108.54695,14.58935],[108.54204,14.58628],[108.53993,14.58148],[108.53396,14.58017],[108.53259,14.57911],[108.53088,14.5745],[108.52957,14.55967],[108.52825,14.55667],[108.51376,14.55147],[108.50768,14.54542],[108.49164,14.54427],[108.47951,14.54585],[108.45958,14.55246],[108.44398,14.55636],[108.43462,14.55994],[108.41831,14.57364],[108.41121,14.5859],[108.39869,14.60264],[108.39445,14.60303],[108.3893,14.60186],[108.38706,14.59864],[108.38412,14.59764],[108.3751,14.60062],[108.3705,14.59471],[108.3664,14.58425],[108.36042,14.58461],[108.35893,14.58327],[108.35728,14.5788],[108.35729,14.57487],[108.35941,14.56459],[108.36246,14.56127],[108.36689,14.5583],[108.37169,14.54958],[108.37233,14.54059],[108.37402,14.53541],[108.38021,14.52958],[108.38289,14.52553],[108.38361,14.52075],[108.38275,14.51579],[108.37914,14.51106],[108.33145,14.46093],[108.32658,14.45805],[108.32413,14.45368],[108.32346,14.44724],[108.32168,14.44122],[108.31387,14.43393],[108.30969,14.42775],[108.30546,14.42364],[108.30102,14.42138],[108.29826,14.41788],[108.29424,14.40965],[108.2936,14.40574],[108.29444,14.40182],[108.29633,14.39832],[108.29696,14.39523],[108.29633,14.39276],[108.29125,14.39029],[108.2735,14.38723],[108.26336,14.38827],[108.25555,14.39116],[108.2471,14.3957],[108.24372,14.39571],[108.21329,14.38812],[108.2042,14.38216],[108.19405,14.37208],[108.18348,14.36879],[108.17313,14.36736],[108.16616,14.3653],[108.16088,14.36243],[108.15409,14.34919],[108.15291,14.34879],[108.14823,14.34805],[108.14554,14.3492],[108.14273,14.35291],[108.1431,14.35424],[108.14713,14.35596],[108.14943,14.35869],[108.14894,14.36035],[108.13964,14.35843],[108.13945,14.35712],[108.13834,14.3564],[108.13206,14.35604],[108.12609,14.35703],[108.11746,14.36336],[108.11536,14.36358],[108.11324,14.36141],[108.10859,14.35316],[108.11249,14.34656],[108.11131,14.34367],[108.10867,14.34121],[108.09878,14.33511],[108.08013,14.33381],[108.07807,14.33155],[108.07846,14.32942],[108.08085,14.32691],[108.087,14.3246],[108.08774,14.32364],[108.08805,14.31973],[108.08731,14.31683],[108.08597,14.31488],[108.07716,14.30994],[108.06397,14.27774],[108.06047,14.26707],[108.05766,14.26624],[108.04463,14.27632],[108.0418,14.27707],[108.03818,14.27624],[108.02551,14.25876],[108.01682,14.24448],[108.01284,14.2405],[108.00881,14.24045],[107.99881,14.24487],[107.99082,14.24501],[107.98267,14.24341],[107.96989,14.23456],[107.96452,14.22967],[107.96156,14.22851],[107.95974,14.22826],[107.95802,14.22949],[107.94938,14.24166],[107.94786,14.2427],[107.94067,14.24017],[107.93445,14.2412],[107.9317,14.24276]]],[[[108.77051,15.39146],[108.77084,15.39197],[108.77272,15.39252],[108.77163,15.39149],[108.77051,15.39146]]],[[[108.95277,15.19241],[108.95247,15.19383],[108.95411,15.19327],[108.95277,15.19241]]],[[[108.93694,15.2498],[108.93759,15.24974],[108.93779,15.24899],[108.93719,15.24901],[108.93694,15.2498]]],[[[108.93553,15.25019],[108.93643,15.24987],[108.93561,15.24974],[108.93553,15.25019]]],[[[108.93148,15.25409],[108.93313,15.25347],[108.93302,15.25263],[108.93171,15.25264],[108.93148,15.25409]]],[[[109.1106,15.27279],[109.12011,15.29291],[109.12459,15.2972],[109.13011,15.31253],[109.13407,15.31299],[109.138,15.30817],[109.13994,15.30144],[109.14486,15.29661],[109.14534,15.29373],[109.13939,15.29136],[109.1369,15.28754],[109.13388,15.27939],[109.13383,15.27075],[109.13133,15.26549],[109.12785,15.26262],[109.12241,15.26121],[109.11352,15.2627],[109.11155,15.26511],[109.1106,15.27279]]],[[[109.14445,15.38511],[109.14431,15.3842],[109.14151,15.38401],[109.14012,15.38287],[109.14102,15.37748],[109.13254,15.37618],[109.12418,15.36995],[109.12112,15.36933],[109.1008,15.37553],[109.099,15.37517],[109.09648,15.37722],[109.09451,15.38174],[109.09458,15.38447],[109.09942,15.38956],[109.11325,15.39166],[109.11809,15.39156],[109.13012,15.39001],[109.13358,15.38867],[109.14113,15.38815],[109.14272,15.38748],[109.14445,15.38511]]],[[[109.07768,15.4274],[109.0785,15.43048],[109.08147,15.43205],[109.08521,15.43214],[109.08673,15.43126],[109.08647,15.42802],[109.08413,15.42627],[109.07969,15.42602],[109.07768,15.4274]]]]}},{"type":"Feature","properties":{"kind":"buffer","province_code":"51","buffer_m":5000,"source":"derived","simplify_tolerance_deg":0.0005},"geometry":{"type":"MultiPolygon","coordinates":[[[[109.0314,15.42348],[109.03188,15.43517],[109.03439,15.44508],[109.04036,15.4563],[109.04652,15.46329],[109.05655,15.47049],[109.06942,15.47572],[109.0777,15.47729],[109.08793,15.47728],[109.09537,15.47626],[109.10322,15.47383],[109.11115,15.46982],[109.11796,15.46473],[109.12522,15.45656],[109.13029,15.44695],[109.13293,15.43523],[109.1515,15.43223],[109.15971,15.4296],[109.16845,15.42513],[109.17481,15.42017],[109.18018,15.41464],[109.18517,15.4073],[109.18887,15.39832],[109.1909,15.3855],[109.19003,15.3758],[109.18714,15.36669],[109.1796,15.35229],[109.17434,15.34597],[109.16964,15.34205],[109.17527,15.33516],[109.18825,15.31274],[109.19119,15.30094],[109.19176,15.2923],[109.19063,15.28371],[109.18784,15.27549],[109.18349,15.26793],[109.17945,15.26329],[109.17599,15.25177],[109.16828,15.23808],[109.15784,15.22809],[109.14934,15.22254],[109.1398,15.21893],[109.12601,15.21613],[109.11261,15.21675],[109.10204,15.21888],[109.09262,15.22231],[109.08419,15.22763],[109.07516,15.237],[109.06957,15.24575],[109.06519,15.25984],[109.06415,15.27304],[109.06533,15.28292],[109.0687,15.29231],[109.07772,15.31138],[109.08343,15.3204],[109.08811,15.33135],[109.07742,15.33513],[109.06926,15.34044],[109.05919,15.35025],[109.05373,15.35953],[109.04887,15.37331],[109.04807,15.38296],[109.04882,15.39144],[109.04181,15.39832],[109.03564,15.40789],[109.03285,15.41533],[109.0314,15.42348]]],[[[107.28605,14.10997],[107.28942,14.12749],[107.29601,14.14745],[107.30224,14.15886],[107.30775,14.16623],[107.31213,14.17643],[107.31433,14.1851],[107.31792,14.19258],[107.32916,14.20653],[107.3352,14.21269],[107.34128,14.21708],[107.34637,14.22914],[107.35381,14.24226],[107.35291,14.24798],[107.35345,14.25658],[107.3556,14.26478],[107.36071,14.27599],[107.35991,14.28009],[107.34867,14.29708],[107.34542,14.30625],[107.34252,14.32566],[107.3432,14.33402],[107.34546,14.34211],[107.34921,14.34965],[107.35432,14.3564],[107.36003,14.36172],[107.36195,14.36506],[107.36369,14.37584],[107.36717,14.38447],[107.37239,14.39223],[107.37765,14.39734],[107.37734,14.40499],[107.37912,14.41564],[107.38196,14.4248],[107.38637,14.43384],[107.39231,14.44208],[107.3997,14.44888],[107.41684,14.46122],[107.42509,14.46576],[107.43327,14.46892],[107.44121,14.47079],[107.45351,14.47087],[107.45459,14.47751],[107.45717,14.48471],[107.45729,14.48885],[107.46111,14.50159],[107.46046,14.50494],[107.46061,14.51411],[107.46265,14.52306],[107.46652,14.53143],[107.47203,14.53887],[107.47853,14.5447],[107.47969,14.54809],[107.47756,14.55509],[107.47651,14.56245],[107.47347,14.56794],[107.4708,14.57651],[107.4699,14.58543],[107.47084,14.59434],[107.47267,14.60094],[107.4768,14.60953],[107.48675,14.62434],[107.49141,14.62972],[107.49171,14.64129],[107.49399,14.64991],[107.49796,14.65792],[107.502,14.66314],[107.50349,14.67084],[107.50273,14.67626],[107.503,14.68186],[107.49615,14.68582],[107.48914,14.69207],[107.48282,14.70089],[107.4774,14.71314],[107.47537,14.7214],[107.47493,14.73014],[107.47627,14.73897],[107.47975,14.74787],[107.47226,14.75388],[107.46656,14.76079],[107.46235,14.76866],[107.45981,14.77717],[107.45901,14.786],[107.45948,14.79198],[107.46428,14.80877],[107.46834,14.81671],[107.475,14.82531],[107.47928,14.82955],[107.4811,14.83408],[107.48652,14.84207],[107.49184,14.84747],[107.49812,14.85201],[107.50567,14.85577],[107.51275,14.8628],[107.51932,14.86766],[107.50904,14.87431],[107.50043,14.8839],[107.49061,14.88583],[107.48253,14.88927],[107.47527,14.89413],[107.46908,14.90024],[107.46602,14.9047],[107.45577,14.91295],[107.4452,14.92476],[107.43826,14.93495],[107.43425,14.94376],[107.43199,14.95463],[107.42726,14.96095],[107.42347,14.96862],[107.4206,14.98056],[107.42044,14.98772],[107.42239,14.99821],[107.42131,15.00349],[107.42144,15.013],[107.42375,15.02267],[107.43175,15.04141],[107.43704,15.0489],[107.44376,15.05521],[107.45164,15.06008],[107.46537,15.06554],[107.4852,15.06896],[107.48965,15.07335],[107.49737,15.07839],[107.5062,15.0819],[107.51566,15.08819],[107.52352,15.09186],[107.53194,15.09404],[107.54131,15.09482],[107.55161,15.09348],[107.55509,15.1064],[107.5589,15.11338],[107.56356,15.11918],[107.56146,15.12932],[107.56153,15.13693],[107.5629,15.1444],[107.56613,15.15273],[107.56421,15.15465],[107.55748,15.15805],[107.55033,15.16364],[107.54445,15.17047],[107.54006,15.17831],[107.53734,15.18682],[107.53639,15.19569],[107.53787,15.21144],[107.54176,15.22142],[107.54795,15.23032],[107.56395,15.24521],[107.57301,15.25108],[107.57286,15.25417],[107.5717,15.25651],[107.56943,15.26677],[107.56899,15.29025],[107.56991,15.29737],[107.57345,15.30744],[107.56842,15.31506],[107.56285,15.32969],[107.55908,15.34474],[107.55855,15.35459],[107.55627,15.35822],[107.55096,15.37344],[107.54999,15.38429],[107.55062,15.39045],[107.55378,15.40094],[107.556,15.40534],[107.56453,15.41613],[107.57293,15.42259],[107.57611,15.42831],[107.5896,15.44414],[107.59991,15.452],[107.60928,15.4564],[107.62067,15.46028],[107.63336,15.46184],[107.64681,15.45999],[107.6566,15.45674],[107.66542,15.45146],[107.67281,15.44441],[107.68,15.43431],[107.68592,15.42931],[107.69476,15.4193],[107.69974,15.41162],[107.70397,15.40333],[107.70638,15.39438],[107.70763,15.38279],[107.7075,15.37353],[107.72551,15.35297],[107.73778,15.3528],[107.74669,15.35047],[107.75494,15.34647],[107.76223,15.34096],[107.76825,15.33416],[107.77277,15.32633],[107.77562,15.31779],[107.77667,15.30887],[107.7744,15.29003],[107.77611,15.27973],[107.79339,15.27273],[107.80086,15.26782],[107.80794,15.26083],[107.80945,15.26036],[107.82101,15.26138],[107.82967,15.26015],[107.83836,15.25746],[107.84496,15.25406],[107.85244,15.25502],[107.87317,15.25543],[107.88316,15.25397],[107.89103,15.25102],[107.8995,15.25487],[107.90897,15.25701],[107.92016,15.25705],[107.94206,15.2525],[107.95124,15.24892],[107.96052,15.24266],[107.96797,15.23491],[107.97398,15.22426],[107.97712,15.22194],[107.98664,15.21152],[107.99491,15.20959],[108.00323,15.20586],[108.01146,15.19989],[108.01783,15.19757],[108.02398,15.19421],[108.03083,15.18903],[108.03598,15.1835],[108.04076,15.17605],[108.04957,15.15293],[108.05071,15.14416],[108.05008,15.13535],[108.04781,15.12641],[108.04825,15.11866],[108.04741,15.11019],[108.04495,15.10201],[108.04095,15.09443],[108.03405,15.08642],[108.03146,15.07818],[108.02775,15.0713],[108.0224,15.06464],[108.01974,15.05443],[108.01523,15.046],[108.03209,15.04464],[108.04322,15.04038],[108.05542,15.03734],[108.06521,15.03364],[108.0791,15.02441],[108.0907,15.01108],[108.09846,15.00822],[108.10498,15.00434],[108.10326,15.01748],[108.10419,15.02824],[108.10139,15.03931],[108.10102,15.04655],[108.10227,15.05696],[108.10595,15.0668],[108.11188,15.07625],[108.13118,15.09539],[108.13924,15.10048],[108.1482,15.10419],[108.15776,15.106],[108.17059,15.10702],[108.1797,15.10643],[108.18851,15.10411],[108.19572,15.1011],[108.20205,15.10944],[108.21066,15.11639],[108.21104,15.12156],[108.21385,15.13182],[108.2166,15.1382],[108.22031,15.14409],[108.228,15.15344],[108.23774,15.16167],[108.2482,15.18141],[108.24562,15.1904],[108.24493,15.19763],[108.24655,15.21075],[108.23993,15.22231],[108.23602,15.23347],[108.23503,15.24319],[108.23584,15.25217],[108.23847,15.26083],[108.24326,15.26947],[108.24867,15.27598],[108.25342,15.27992],[108.25432,15.29049],[108.25634,15.29913],[108.25965,15.30656],[108.26434,15.31369],[108.27031,15.31984],[108.27874,15.3256],[108.28693,15.33417],[108.29568,15.34003],[108.3057,15.34442],[108.32019,15.34665],[108.32715,15.3466],[108.34327,15.34341],[108.35619,15.34189],[108.37298,15.34769],[108.38138,15.34842],[108.38471,15.35029],[108.39421,15.35333],[108.39705,15.35678],[108.40382,15.36235],[108.41155,15.36657],[108.42251,15.37028],[108.43181,15.3713],[108.44229,15.37043],[108.45157,15.36761],[108.46005,15.36296],[108.4678,15.35652],[108.47762,15.36344],[108.49034,15.36868],[108.49818,15.37041],[108.50506,15.37083],[108.51517,15.37009],[108.52492,15.37511],[108.53419,15.37866],[108.54531,15.38086],[108.55088,15.38115],[108.55846,15.38573],[108.56828,15.38916],[108.58211,15.39102],[108.5908,15.39515],[108.60923,15.40012],[108.62031,15.40696],[108.63157,15.41098],[108.65499,15.41345],[108.66389,15.41343],[108.67195,15.41244],[108.68068,15.41293],[108.68874,15.41585],[108.6959,15.4168],[108.70697,15.43055],[108.71424,15.436],[108.72247,15.43996],[108.73134,15.44226],[108.7405,15.44282],[108.74959,15.44161],[108.7537,15.44023],[108.75702,15.44669],[108.76103,15.45217],[108.76733,15.45868],[108.77337,15.46312],[108.78058,15.46677],[108.78847,15.46917],[108.79583,15.47016],[108.806,15.46966],[108.81581,15.46703],[108.82133,15.46428],[108.83689,15.46284],[108.84356,15.46068],[108.85076,15.45702],[108.85638,15.4531],[108.86236,15.44729],[108.86734,15.44072],[108.8713,15.43267],[108.87372,15.42396],[108.87423,15.41433],[108.87759,15.40282],[108.87828,15.39534],[108.88479,15.39375],[108.89171,15.39085],[108.89907,15.38622],[108.9054,15.38032],[108.9106,15.37316],[108.91493,15.36336],[108.91574,15.35872],[108.9225,15.34987],[108.92603,15.34226],[108.92812,15.33389],[108.92846,15.32167],[108.92546,15.30685],[108.92292,15.29998],[108.92397,15.2985],[108.93104,15.2993],[108.93908,15.29874],[108.94667,15.2969],[108.95325,15.29423],[108.96066,15.28989],[108.97007,15.28207],[108.97485,15.27674],[108.9794,15.26956],[108.98595,15.25059],[108.9882,15.2343],[108.98713,15.22507],[108.99292,15.21812],[108.99785,15.20847],[109.00049,15.19588],[109.00029,15.1882],[108.99876,15.18067],[108.99576,15.17314],[108.99142,15.16621],[108.98213,15.15708],[108.96992,15.15039],[108.96077,15.14786],[108.94744,15.14745],[108.94427,15.14819],[108.94437,15.12971],[108.94949,15.10368],[108.94893,15.08688],[108.95897,15.04546],[108.96524,15.02342],[108.97474,14.99487],[108.9857,14.96542],[109.00711,14.91462],[109.02993,14.8679],[109.03433,14.85989],[109.03648,14.85778],[109.04193,14.8493],[109.04533,14.83985],[109.04612,14.83506],[109.06406,14.80389],[109.07424,14.78761],[109.1057,14.74204],[109.11184,14.73571],[109.11574,14.73003],[109.12233,14.7148],[109.12384,14.708],[109.12411,14.69764],[109.12734,14.68988],[109.12941,14.68139],[109.13016,14.6724],[109.12957,14.66573],[109.12755,14.65691],[109.12299,14.64651],[109.1154,14.63651],[109.11766,14.61681],[109.11965,14.6077],[109.12415,14.60042],[109.12662,14.59414],[109.12835,14.58623],[109.12903,14.5781],[109.12828,14.56959],[109.12589,14.56137],[109.12196,14.55373],[109.11663,14.54695],[109.11008,14.54127],[109.10255,14.53689],[109.0943,14.53396],[109.08564,14.53259],[109.07687,14.53284],[109.06831,14.53469],[109.05057,14.54318],[109.04124,14.55018],[109.03716,14.552],[109.02976,14.5572],[109.02355,14.56371],[109.01843,14.57216],[109.00992,14.58057],[109.0049,14.58728],[109.00101,14.59535],[108.99884,14.60316],[108.9983,14.6129],[108.99089,14.62038],[108.98744,14.62566],[108.97514,14.62625],[108.96763,14.62743],[108.95847,14.63028],[108.95042,14.63464],[108.94397,14.63974],[108.92862,14.64511],[108.9256,14.6471],[108.92057,14.64465],[108.8972,14.63858],[108.88422,14.63807],[108.87252,14.63972],[108.86778,14.64129],[108.86061,14.63883],[108.84812,14.63732],[108.82902,14.62876],[108.81197,14.62515],[108.81184,14.62045],[108.80869,14.60931],[108.80916,14.60354],[108.80858,14.5964],[108.80553,14.58348],[108.79906,14.57166],[108.78831,14.55984],[108.78128,14.55472],[108.77339,14.55099],[108.76491,14.54876],[108.7558,14.54769],[108.74534,14.54468],[108.73581,14.54413],[108.72647,14.54508],[108.71752,14.54785],[108.70952,14.55189],[108.70093,14.54439],[108.6874,14.53809],[108.68453,14.52973],[108.67822,14.51984],[108.67246,14.51394],[108.6663,14.50949],[108.65948,14.50609],[108.64895,14.50324],[108.63722,14.49461],[108.62853,14.49093],[108.62003,14.48912],[108.60931,14.48858],[108.59742,14.48975],[108.58944,14.49218],[108.58193,14.49601],[108.57276,14.50327],[108.5578,14.52204],[108.55188,14.51772],[108.53912,14.51212],[108.53056,14.50607],[108.52193,14.50238],[108.50239,14.49937],[108.48754,14.49922],[108.47071,14.50145],[108.42943,14.51347],[108.42548,14.49806],[108.42004,14.48884],[108.41274,14.47984],[108.36782,14.43279],[108.36527,14.42496],[108.36137,14.41773],[108.35732,14.41213],[108.34925,14.40401],[108.34318,14.39655],[108.34201,14.38421],[108.33791,14.37262],[108.33253,14.36443],[108.32547,14.35755],[108.31199,14.34983],[108.29937,14.34577],[108.28161,14.34271],[108.26862,14.34226],[108.25848,14.3433],[108.24685,14.34601],[108.24054,14.34834],[108.23343,14.34659],[108.21962,14.33433],[108.20706,14.32849],[108.19291,14.32461],[108.18595,14.31629],[108.17847,14.3107],[108.1721,14.30746],[108.16472,14.30506],[108.15572,14.30342],[108.14685,14.30285],[108.13595,14.3046],[108.13037,14.30063],[108.12811,14.29517],[108.12443,14.28926],[108.11988,14.28396],[108.11467,14.27944],[108.10118,14.24529],[108.0961,14.23805],[108.08968,14.23191],[108.08217,14.22708],[108.07102,14.22294],[108.06215,14.22124],[108.05667,14.22124],[108.04615,14.20898],[108.03918,14.20325],[108.0312,14.19896],[108.02251,14.19627],[108.01344,14.19528],[107.99954,14.19614],[107.99671,14.19702],[107.98634,14.18974],[107.97695,14.1858],[107.96303,14.18312],[107.95159,14.18375],[107.94103,14.18686],[107.93362,14.19081],[107.92614,14.19661],[107.91408,14.20052],[107.90516,14.20565],[107.89603,14.21372],[107.88782,14.22491],[107.88277,14.23043],[107.87862,14.2195],[107.87289,14.20953],[107.86656,14.202],[107.86194,14.19811],[107.8549,14.18721],[107.84548,14.17856],[107.83364,14.17228],[107.82142,14.16888],[107.81097,14.16767],[107.80046,14.16838],[107.79,14.17123],[107.78282,14.16652],[107.77464,14.16281],[107.76628,14.16048],[107.75629,14.15935],[107.74769,14.1597],[107.73982,14.16108],[107.71875,14.16885],[107.7092,14.15171],[107.71007,14.14392],[107.70985,14.13454],[107.70141,14.0951],[107.70231,14.08367],[107.70047,14.07224],[107.6911,14.04865],[107.68241,14.03534],[107.67225,14.02568],[107.66084,14.01736],[107.64953,14.01199],[107.63995,14.00967],[107.63329,13.99918],[107.62713,13.99318],[107.61508,13.9858],[107.60634,13.98219],[107.59703,13.98038],[107.56412,13.97906],[107.55928,13.96731],[107.55555,13.9616],[107.54602,13.94994],[107.53365,13.93875],[107.51426,13.92604],[107.51079,13.91697],[107.50575,13.90891],[107.48883,13.88998],[107.48125,13.88461],[107.47272,13.88084],[107.46358,13.87882],[107.45422,13.87861],[107.445,13.88025],[107.4363,13.88365],[107.42848,13.88868],[107.42186,13.89514],[107.41454,13.90519],[107.41025,13.91332],[107.40784,13.92095],[107.40684,13.92888],[107.40683,13.94391],[107.39494,13.94474],[107.38434,13.94384],[107.37506,13.94497],[107.36667,13.94753],[107.3596,13.95113],[107.3517,13.95711],[107.33592,13.97719],[107.32691,13.98322],[107.31995,13.99038],[107.31534,13.99758],[107.3122,14.0055],[107.31063,14.01385],[107.31017,14.0224],[107.31044,14.03235],[107.31283,14.04237],[107.31717,14.05098],[107.31771,14.05668],[107.31305,14.05922],[107.29988,14.07098],[107.29228,14.08099],[107.28777,14.09125],[107.28587,14.10096],[107.28605,14.10997]]]]}}]}