{"type":"FeatureCollection","features":[{"type":"Feature","properties":{"kind":"boundary","province_code":"52","name":"Tỉnh Gia Lai","source":"VNSDI","valid_from":"16/6/2025","simplify_tolerance_deg":0.0005},"geometry":{"type":"MultiPolygon","coordinates":[[[[108.20533,13.37355],[108.20261,13.37362],[108.19689,13.37721],[108.18423,13.38111],[108.17786,13.3845],[108.17747,13.3866],[108.17524,13.38945],[108.1669,13.39306],[108.16294,13.39785],[108.15967,13.39947],[108.154,13.40054],[108.14433,13.40647],[108.12415,13.40981],[108.11366,13.41637],[108.11151,13.41673],[108.1014,13.41049],[108.09032,13.40846],[108.08644,13.4065],[108.08064,13.40108],[108.07538,13.40006],[108.07284,13.40061],[108.07066,13.40288],[108.06941,13.40917],[108.06799,13.41005],[108.06285,13.41171],[108.05215,13.41216],[108.04269,13.40703],[108.02952,13.39819],[108.02009,13.38726],[108.01588,13.3842],[108.01039,13.38172],[108.00805,13.38131],[108.0015,13.38592],[107.99746,13.39034],[107.98289,13.39272],[107.98032,13.39004],[107.98153,13.38457],[107.97981,13.38353],[107.96423,13.37995],[107.94931,13.38302],[107.94642,13.38239],[107.93339,13.37568],[107.92069,13.38588],[107.90799,13.38862],[107.88964,13.38621],[107.88353,13.3887],[107.87788,13.39283],[107.87522,13.39349],[107.85146,13.38952],[107.8389,13.40053],[107.83297,13.39732],[107.81952,13.39342],[107.80696,13.39418],[107.80148,13.39325],[107.79848,13.39157],[107.79665,13.38708],[107.79421,13.38373],[107.7858,13.37712],[107.76877,13.36662],[107.7601,13.36447],[107.74743,13.36363],[107.72225,13.36684],[107.70988,13.37017],[107.70444,13.37537],[107.69849,13.37364],[107.67876,13.35993],[107.66453,13.35138],[107.65828,13.34632],[107.65459,13.34142],[107.64935,13.32695],[107.64769,13.32473],[107.63772,13.32003],[107.61674,13.31218],[107.61544,13.3111],[107.61486,13.30822],[107.60882,13.30542],[107.60716,13.30534],[107.63097,13.36066],[107.6176,13.52854],[107.57182,13.62275],[107.5696,13.6641],[107.55066,13.69197],[107.5326,13.74418],[107.51214,13.76043],[107.48504,13.77583],[107.47348,13.77745],[107.45015,13.79386],[107.45519,13.80233],[107.45902,13.80648],[107.46154,13.81667],[107.46047,13.81873],[107.45546,13.8238],[107.4549,13.82596],[107.4556,13.82846],[107.45744,13.8317],[107.46511,13.83815],[107.47135,13.84898],[107.47336,13.85455],[107.47125,13.85811],[107.45735,13.86595],[107.45421,13.87105],[107.45602,13.87657],[107.45776,13.87924],[107.46911,13.8889],[107.4708,13.892],[107.4703,13.89954],[107.47135,13.90496],[107.4711,13.9104],[107.47309,13.91678],[107.47244,13.92013],[107.46901,13.92158],[107.459,13.92149],[107.45805,13.92197],[107.45788,13.92369],[107.46073,13.92883],[107.46913,13.93697],[107.47021,13.95299],[107.47547,13.95713],[107.49572,13.96797],[107.50668,13.97557],[107.51314,13.98188],[107.51832,13.98864],[107.52039,13.9943],[107.52237,14.01141],[107.52535,14.01683],[107.5317,14.02155],[107.53748,14.02372],[107.59265,14.0254],[107.5975,14.02801],[107.59869,14.03011],[107.5989,14.03698],[107.60195,14.04807],[107.61303,14.06376],[107.61716,14.06381],[107.62586,14.05608],[107.62824,14.05473],[107.63129,14.05424],[107.63428,14.05471],[107.63749,14.05652],[107.64699,14.06461],[107.64951,14.06882],[107.65152,14.07547],[107.65578,14.0846],[107.65548,14.08784],[107.65166,14.09426],[107.65104,14.09753],[107.65182,14.09997],[107.65664,14.10718],[107.66356,14.13831],[107.66346,14.14385],[107.65995,14.16086],[107.66021,14.16552],[107.66238,14.16903],[107.67021,14.17642],[107.67345,14.18143],[107.67711,14.18916],[107.68274,14.20837],[107.68577,14.21513],[107.68787,14.21715],[107.69597,14.21782],[107.72306,14.21456],[107.73439,14.21145],[107.74945,14.2054],[107.75435,14.20454],[107.75814,14.20508],[107.761,14.20655],[107.7752,14.22056],[107.78135,14.22276],[107.7965,14.22049],[107.80783,14.21304],[107.81098,14.21298],[107.81662,14.21436],[107.81935,14.21636],[107.82303,14.22442],[107.82736,14.22965],[107.83365,14.23391],[107.83553,14.23639],[107.83861,14.24384],[107.83787,14.26151],[107.8478,14.27532],[107.87198,14.27641],[107.87404,14.27763],[107.87551,14.28107],[107.87735,14.28237],[107.89207,14.28144],[107.8953,14.28051],[107.91201,14.26645],[107.92471,14.25258],[107.93162,14.24282],[107.93445,14.2412],[107.94067,14.24017],[107.94676,14.24281],[107.94809,14.24259],[107.95591,14.23191],[107.95965,14.22829],[107.96452,14.22967],[107.96989,14.23456],[107.98267,14.24341],[107.99082,14.24501],[107.99881,14.24487],[108.00881,14.24045],[108.01284,14.2405],[108.01682,14.24448],[108.02551,14.25876],[108.03818,14.27624],[108.0418,14.27707],[108.04463,14.27632],[108.05766,14.26624],[108.06047,14.26707],[108.06397,14.27774],[108.07716,14.30994],[108.08597,14.31488],[108.08731,14.31683],[108.08805,14.31973],[108.08774,14.32364],[108.087,14.3246],[108.08085,14.32691],[108.07846,14.32942],[108.07807,14.33155],[108.08013,14.33381],[108.09878,14.33511],[108.10867,14.34121],[108.11131,14.34367],[108.11249,14.34656],[108.10859,14.35316],[108.11324,14.36141],[108.11536,14.36358],[108.11746,14.36336],[108.12609,14.35703],[108.13206,14.35604],[108.13834,14.3564],[108.13945,14.35712],[108.13964,14.35843],[108.14894,14.36035],[108.14943,14.35869],[108.14713,14.35596],[108.1431,14.35424],[108.14273,14.35291],[108.14554,14.3492],[108.14823,14.34805],[108.15291,14.34879],[108.15409,14.34919],[108.16088,14.36243],[108.16616,14.3653],[108.17313,14.36736],[108.18348,14.36879],[108.19405,14.37208],[108.2042,14.38216],[108.21329,14.38812],[108.24372,14.39571],[108.2471,14.3957],[108.25555,14.39116],[108.26336,14.38827],[108.2735,14.38723],[108.29125,14.39029],[108.29633,14.39276],[108.29696,14.39523],[108.29633,14.39832],[108.29444,14.40182],[108.2936,14.40574],[108.29424,14.40965],[108.29826,14.41788],[108.30102,14.42138],[108.30546,14.42364],[108.30969,14.42775],[108.31387,14.43393],[108.32168,14.44122],[108.32346,14.44724],[108.32413,14.45368],[108.32658,14.45805],[108.33145,14.46093],[108.37914,14.51106],[108.38275,14.51579],[108.38361,14.52075],[108.38289,14.52553],[108.38021,14.52958],[108.37402,14.53541],[108.37233,14.54059],[108.37169,14.54958],[108.36689,14.5583],[108.36246,14.56127],[108.35941,14.56459],[108.35729,14.57487],[108.35728,14.5788],[108.35893,14.58327],[108.36042,14.58461],[108.3664,14.58425],[108.3705,14.59471],[108.3751,14.60062],[108.38412,14.59764],[108.38706,14.59864],[108.3893,14.60186],[108.39445,14.60303],[108.39869,14.60264],[108.41121,14.5859],[108.41831,14.57364],[108.43462,14.55994],[108.44398,14.55636],[108.45958,14.55246],[108.47951,14.54585],[108.49164,14.54427],[108.50768,14.54542],[108.51376,14.55147],[108.52825,14.55667],[108.52957,14.55967],[108.53088,14.5745],[108.53259,14.57911],[108.53396,14.58017],[108.53993,14.58148],[108.54204,14.58628],[108.54695,14.58935],[108.54884,14.58556],[108.56114,14.58541],[108.57206,14.57812],[108.57299,14.574],[108.57454,14.57224],[108.59111,14.56613],[108.59582,14.56253],[108.5969,14.55673],[108.59621,14.54981],[108.59663,14.54635],[108.6064,14.53445],[108.608,14.53378],[108.61391,14.53395],[108.61809,14.53712],[108.61819,14.53918],[108.62061,14.54298],[108.62751,14.54423],[108.62818,14.55071],[108.62984,14.55209],[108.63304,14.55212],[108.64094,14.54772],[108.64224,14.54844],[108.64229,14.55506],[108.64042,14.56313],[108.64048,14.56585],[108.65093,14.57011],[108.66382,14.57816],[108.67504,14.58193],[108.67679,14.58448],[108.67611,14.59039],[108.67944,14.59427],[108.68178,14.59469],[108.68827,14.59292],[108.6909,14.59329],[108.69601,14.59604],[108.6987,14.59844],[108.70237,14.60669],[108.70174,14.61234],[108.70429,14.61461],[108.70628,14.61441],[108.70779,14.61293],[108.70858,14.60879],[108.71085,14.60512],[108.71514,14.60142],[108.73597,14.58934],[108.73918,14.5897],[108.7431,14.59205],[108.7571,14.59333],[108.75963,14.59556],[108.76202,14.59931],[108.76271,14.60353],[108.76134,14.61187],[108.76202,14.61776],[108.76574,14.62602],[108.76365,14.64983],[108.76189,14.66044],[108.75966,14.66691],[108.76742,14.67699],[108.7689,14.67761],[108.77326,14.67644],[108.77838,14.67306],[108.78676,14.66985],[108.79856,14.66909],[108.8125,14.67103],[108.82778,14.67801],[108.83056,14.68133],[108.83502,14.69094],[108.8386,14.69427],[108.84196,14.69307],[108.84727,14.68237],[108.85201,14.68357],[108.85226,14.69063],[108.855,14.69191],[108.86671,14.69154],[108.87112,14.69055],[108.87467,14.68898],[108.87834,14.68589],[108.88405,14.68353],[108.88883,14.68306],[108.8935,14.68624],[108.9044,14.68704],[108.9056,14.68779],[108.90602,14.68977],[108.90784,14.69208],[108.92241,14.69703],[108.92792,14.70262],[108.93128,14.69771],[108.93954,14.69529],[108.95146,14.68448],[108.95577,14.68364],[108.95725,14.68399],[108.95967,14.68637],[108.96821,14.68138],[108.97699,14.67175],[108.98037,14.67121],[108.98812,14.67196],[108.99354,14.67393],[108.99738,14.67013],[109.00011,14.66885],[109.00927,14.67035],[109.01621,14.66609],[109.01981,14.6598],[109.02376,14.65639],[109.02808,14.64746],[109.02968,14.64649],[109.03245,14.648],[109.03441,14.64777],[109.03748,14.64458],[109.04048,14.63796],[109.04416,14.63258],[109.04569,14.62766],[109.04444,14.62604],[109.04434,14.62103],[109.04639,14.61734],[109.0448,14.61044],[109.04845,14.60647],[109.05589,14.60831],[109.06053,14.59107],[109.0654,14.59137],[109.06663,14.59071],[109.07337,14.58257],[109.0792,14.58052],[109.08258,14.57771],[109.07189,14.57758],[109.0697,14.57622],[109.06824,14.57438],[109.06649,14.56911],[109.0675,14.56029],[109.07042,14.54981],[109.08402,14.51253],[109.09288,14.49087],[109.09327,14.4846],[109.09644,14.48037],[109.10133,14.48113],[109.1029,14.47979],[109.11499,14.45881],[109.12335,14.44661],[109.12375,14.44171],[109.1181,14.43405],[109.11515,14.4257],[109.11475,14.42205],[109.12097,14.40387],[109.12787,14.39438],[109.12624,14.39106],[109.12447,14.3902],[109.12251,14.38777],[109.12255,14.38218],[109.12085,14.3797],[109.12215,14.37356],[109.13405,14.3504],[109.14336,14.3354],[109.16077,14.3105],[109.179,14.28637],[109.18651,14.28149],[109.18631,14.27962],[109.18533,14.27866],[109.1804,14.27721],[109.17944,14.27626],[109.17922,14.27059],[109.19054,14.25064],[109.19636,14.23733],[109.19701,14.23356],[109.1966,14.23074],[109.19361,14.22691],[109.19227,14.2269],[109.18906,14.22943],[109.18619,14.22928],[109.18285,14.22631],[109.18113,14.22225],[109.1809,14.2167],[109.18323,14.20374],[109.19802,14.17257],[109.20443,14.16134],[109.21915,14.14029],[109.22137,14.13905],[109.22624,14.13936],[109.22772,14.13766],[109.2257,14.1323],[109.22146,14.12719],[109.21742,14.12634],[109.20971,14.12839],[109.20643,14.12268],[109.20504,14.11802],[109.20477,14.1141],[109.20603,14.10578],[109.21207,14.08873],[109.22533,14.06101],[109.24587,14.02601],[109.24778,14.02422],[109.25208,14.02219],[109.25333,14.01886],[109.2532,14.01578],[109.25033,14.01215],[109.24728,14.00987],[109.24676,14.00703],[109.2496,13.99746],[109.25132,13.99553],[109.25484,13.99363],[109.2562,13.99177],[109.25699,13.98858],[109.25429,13.98466],[109.25009,13.98489],[109.24915,13.97947],[109.2507,13.97396],[109.2535,13.96848],[109.25933,13.965],[109.25978,13.9635],[109.25902,13.96178],[109.25412,13.95865],[109.24826,13.95898],[109.24526,13.95766],[109.24255,13.95525],[109.24191,13.9507],[109.24318,13.94297],[109.24638,13.93411],[109.25313,13.92091],[109.26727,13.9],[109.27536,13.89161],[109.27981,13.88819],[109.28339,13.88682],[109.28771,13.88711],[109.28923,13.8883],[109.29192,13.89416],[109.29291,13.8952],[109.29433,13.89475],[109.29772,13.87913],[109.29741,13.87755],[109.29457,13.87732],[109.29275,13.87475],[109.2925,13.86987],[109.29388,13.85635],[109.29235,13.85132],[109.29294,13.84895],[109.29581,13.8466],[109.29777,13.84332],[109.29867,13.83178],[109.29809,13.82709],[109.29573,13.82245],[109.29192,13.81973],[109.28937,13.81653],[109.28685,13.80972],[109.28589,13.80462],[109.28689,13.79828],[109.29302,13.77936],[109.292,13.76863],[109.28879,13.75469],[109.28712,13.75426],[109.28262,13.76107],[109.2802,13.76253],[109.27571,13.76183],[109.26759,13.75759],[109.26054,13.75765],[109.25358,13.75931],[109.25089,13.76159],[109.25132,13.76298],[109.25328,13.76438],[109.25054,13.76787],[109.24729,13.77021],[109.24256,13.77133],[109.23938,13.77143],[109.23542,13.77032],[109.22683,13.76481],[109.21868,13.75605],[109.21494,13.74683],[109.21969,13.73465],[109.2194,13.72935],[109.21775,13.72315],[109.21785,13.71641],[109.21872,13.71498],[109.22239,13.71265],[109.22324,13.70601],[109.22702,13.69199],[109.23383,13.67992],[109.23425,13.6746],[109.23303,13.67121],[109.23161,13.67468],[109.23016,13.67604],[109.21878,13.68145],[109.21609,13.68159],[109.21302,13.67912],[109.20828,13.68077],[109.20502,13.68587],[109.20291,13.69444],[109.2019,13.69455],[109.19227,13.69421],[109.19062,13.69354],[109.18092,13.68301],[109.16834,13.68082],[109.16545,13.67856],[109.16347,13.6781],[109.15724,13.67855],[109.15607,13.67759],[109.15669,13.67064],[109.15527,13.66336],[109.15081,13.6554],[109.15322,13.64847],[109.15362,13.64454],[109.15323,13.63578],[109.15217,13.6335],[109.14721,13.63102],[109.14443,13.63099],[109.13731,13.63531],[109.12627,13.64377],[109.1222,13.64434],[109.11996,13.64159],[109.11899,13.63693],[109.12542,13.6275],[109.12681,13.62178],[109.1264,13.62006],[109.11793,13.61809],[109.11586,13.61506],[109.11355,13.5943],[109.11421,13.59149],[109.11834,13.5865],[109.11775,13.58479],[109.1163,13.58435],[109.11143,13.58737],[109.10324,13.58349],[109.09465,13.57284],[109.08433,13.5671],[109.05542,13.56892],[109.05172,13.56756],[109.04098,13.54921],[109.03421,13.5423],[109.03227,13.5362],[109.0303,13.53288],[109.02799,13.53045],[109.02526,13.52924],[109.01734,13.52726],[109.00723,13.52336],[108.99983,13.52266],[108.99176,13.52702],[108.98529,13.52861],[108.97537,13.52838],[108.97034,13.52619],[108.9438,13.52696],[108.93124,13.53545],[108.9205,13.54099],[108.91688,13.54134],[108.9068,13.54124],[108.90575,13.5388],[108.9041,13.53825],[108.8954,13.54117],[108.89339,13.54013],[108.89307,13.53823],[108.88779,13.53707],[108.86752,13.53504],[108.85887,13.54615],[108.85704,13.55058],[108.85598,13.56013],[108.85051,13.56904],[108.84894,13.56691],[108.84189,13.56399],[108.83685,13.56379],[108.82737,13.56499],[108.82,13.56932],[108.81442,13.57637],[108.81298,13.57702],[108.79136,13.57789],[108.78647,13.57725],[108.77462,13.57042],[108.77094,13.56633],[108.76891,13.56245],[108.7669,13.5613],[108.75888,13.56233],[108.74805,13.56619],[108.74733,13.55562],[108.74526,13.55543],[108.74157,13.55689],[108.73617,13.54903],[108.73421,13.54295],[108.73281,13.52764],[108.73037,13.52338],[108.72746,13.52047],[108.71687,13.51883],[108.71378,13.51608],[108.70793,13.49519],[108.70486,13.48738],[108.70454,13.48001],[108.70583,13.4784],[108.7127,13.47464],[108.71431,13.4728],[108.71457,13.47101],[108.71319,13.46843],[108.71327,13.46645],[108.71581,13.46259],[108.72728,13.46261],[108.74179,13.45725],[108.74684,13.45833],[108.7507,13.46267],[108.75304,13.46412],[108.75655,13.46492],[108.76094,13.46496],[108.76415,13.46397],[108.76894,13.4645],[108.77763,13.46693],[108.78573,13.46814],[108.78943,13.4699],[108.79369,13.47593],[108.79525,13.47148],[108.79482,13.46454],[108.79168,13.46117],[108.79002,13.45613],[108.79103,13.45208],[108.79668,13.44854],[108.80186,13.44333],[108.80536,13.43475],[108.80421,13.42685],[108.8071,13.39417],[108.80497,13.38015],[108.80868,13.36061],[108.81131,13.3555],[108.82055,13.34685],[108.82807,13.33831],[108.84137,13.32064],[108.85143,13.29957],[108.85925,13.28829],[108.86099,13.2873],[108.86819,13.28748],[108.8709,13.28547],[108.87214,13.28333],[108.87234,13.27861],[108.86866,13.26252],[108.86876,13.25822],[108.87074,13.25355],[108.87078,13.25009],[108.86786,13.23086],[108.86547,13.22577],[108.85727,13.22368],[108.84953,13.21716],[108.85223,13.20822],[108.84996,13.20753],[108.84885,13.20511],[108.84887,13.20287],[108.85426,13.19634],[108.85459,13.19395],[108.8528,13.18916],[108.84587,13.1788],[108.84274,13.17159],[108.84195,13.16502],[108.84059,13.16292],[108.83587,13.16198],[108.83,13.16296],[108.82787,13.16235],[108.82564,13.1559],[108.82352,13.15469],[108.82046,13.15526],[108.81663,13.15732],[108.81358,13.15744],[108.80914,13.15461],[108.79876,13.15121],[108.79741,13.14955],[108.79679,13.14221],[108.79574,13.14115],[108.79375,13.14114],[108.79052,13.14439],[108.78196,13.14701],[108.77723,13.14712],[108.77542,13.14501],[108.77671,13.1377],[108.77072,13.13528],[108.76303,13.13415],[108.76011,13.13032],[108.75953,13.12439],[108.76091,13.12249],[108.76152,13.11953],[108.76032,13.11216],[108.75719,13.10295],[108.7574,13.10052],[108.75518,13.1007],[108.74823,13.09236],[108.74808,13.09012],[108.7488,13.08817],[108.75369,13.0846],[108.75387,13.08363],[108.75189,13.07938],[108.75157,13.07624],[108.75534,13.03591],[108.74933,13.03081],[108.71911,13.01911],[108.71265,13.01723],[108.69288,13.01657],[108.68647,13.00487],[108.68125,12.99819],[108.67917,12.99736],[108.67499,12.9962],[108.67388,12.99899],[108.67112,13.00141],[108.66722,13.0024],[108.66363,13.00214],[108.65837,12.99995],[108.65515,13.00006],[108.65177,13.00161],[108.6469,13.00644],[108.64204,13.00956],[108.63852,13.01067],[108.63209,13.01018],[108.62494,13.00797],[108.61714,13.00982],[108.60208,13.01678],[108.59778,13.02382],[108.5917,13.02925],[108.57798,13.0281],[108.56775,13.01948],[108.54075,13.03092],[108.5143,13.03774],[108.51182,13.04076],[108.51098,13.04543],[108.51285,13.05127],[108.52034,13.0632],[108.52012,13.06568],[108.51112,13.07711],[108.50157,13.08673],[108.49001,13.109],[108.48786,13.11088],[108.46443,13.11732],[108.46171,13.1197],[108.45767,13.1268],[108.45758,13.12844],[108.45927,13.13252],[108.46575,13.13667],[108.4667,13.13898],[108.46383,13.15176],[108.46298,13.1594],[108.46178,13.16188],[108.43414,13.18361],[108.4262,13.19396],[108.41883,13.21234],[108.41731,13.21976],[108.41957,13.22311],[108.42062,13.22676],[108.41787,13.23779],[108.40971,13.24936],[108.40873,13.25466],[108.40919,13.25618],[108.40781,13.25802],[108.40486,13.25972],[108.39905,13.256],[108.39646,13.25522],[108.38897,13.2568],[108.37697,13.26464],[108.37415,13.26776],[108.37308,13.27234],[108.37356,13.2821],[108.37059,13.29254],[108.37015,13.29778],[108.37106,13.30424],[108.36387,13.31168],[108.35702,13.31533],[108.35542,13.31711],[108.35428,13.32104],[108.35376,13.3283],[108.35155,13.33054],[108.34788,13.33173],[108.34658,13.33918],[108.33398,13.33948],[108.32691,13.34299],[108.31139,13.34642],[108.29497,13.35171],[108.28978,13.35259],[108.28296,13.36055],[108.26349,13.3727],[108.25928,13.37017],[108.24862,13.36854],[108.24321,13.36848],[108.24116,13.36946],[108.23736,13.3731],[108.23232,13.37319],[108.22379,13.3725],[108.21394,13.36889],[108.21246,13.36945],[108.20921,13.37661],[108.20533,13.37355]]],[[[109.34297,13.63471],[109.34524,13.63333],[109.35008,13.62481],[109.35682,13.61974],[109.3629,13.6119],[109.36333,13.61018],[109.36223,13.60649],[109.36124,13.60595],[109.36005,13.60656],[109.35689,13.60933],[109.34835,13.61136],[109.34278,13.61767],[109.33779,13.62724],[109.33776,13.63249],[109.33843,13.63447],[109.34297,13.63471]]],[[[109.2508,13.67933],[109.25044,13.68059],[109.25217,13.68439],[109.2555,13.67971],[109.25562,13.67845],[109.2508,13.67933]]],[[[109.34753,13.89822],[109.35258,13.8999],[109.35223,13.89853],[109.34946,13.89565],[109.34747,13.8957],[109.34753,13.89822]]],[[[109.31714,13.90026],[109.31705,13.90203],[109.3179,13.90367],[109.31852,13.90097],[109.31714,13.90026]]],[[[109.29225,14.13652],[109.29338,14.13815],[109.29493,14.13757],[109.29406,14.1365],[109.29225,14.13652]]],[[[109.20181,14.2318],[109.20048,14.23162],[109.19941,14.233],[109.20066,14.23354],[109.20181,14.2318]]],[[[109.20963,14.24578],[109.20942,14.24718],[109.21074,14.24539],[109.20963,14.24578]]],[[[109.21011,14.2507],[109.20773,14.25011],[109.20743,14.25125],[109.20985,14.25283],[109.21011,14.2507]]],[[[109.21529,14.28323],[109.21625,14.2824],[109.21587,14.28168],[109.21517,14.28242],[109.21529,14.28323]]],[[[109.18619,14.36323],[109.18752,14.36279],[109.18744,14.36152],[109.18641,14.36223],[109.18619,14.36323]]]]}},{"type":"Feature","properties":{"kind":"buffer","province_code":"52","buffer_m":5000,"source":"derived","simplify_tolerance_deg":0.0005},"geometry":{"type":"MultiPolygon","coordinates":[[[[109.34652,13.56308],[109.32827,13.57061],[109.31918,13.5762],[109.31097,13.58404],[109.30431,13.59255],[109.2989,13.60155],[109.29441,13.61152],[109.29228,13.6191],[109.29165,13.63627],[109.29357,13.64673],[109.29734,13.65569],[109.30104,13.66133],[109.30955,13.66986],[109.31536,13.67368],[109.32577,13.67798],[109.33581,13.67984],[109.3448,13.68002],[109.35427,13.67856],[109.36412,13.67506],[109.37326,13.6695],[109.37953,13.66374],[109.38614,13.65455],[109.38937,13.65187],[109.39719,13.64263],[109.40479,13.63109],[109.40824,13.62105],[109.40946,13.61367],[109.40942,13.60619],[109.40629,13.59263],[109.40118,13.58209],[109.39451,13.5741],[109.38532,13.5673],[109.37618,13.56315],[109.36901,13.56137],[109.36154,13.56073],[109.35393,13.5613],[109.34652,13.56308]]],[[[107.40986,13.81571],[107.40883,13.82174],[107.40915,13.8327],[107.41113,13.84108],[107.414,13.84827],[107.41123,13.8541],[107.40904,13.86126],[107.40795,13.87214],[107.41036,13.88625],[107.41332,13.89397],[107.41724,13.90123],[107.4148,13.90593],[107.41229,13.91533],[107.41182,13.92796],[107.41325,13.93561],[107.41599,13.9429],[107.42361,13.95583],[107.42484,13.96278],[107.42925,13.97401],[107.43591,13.98344],[107.44308,13.9901],[107.45187,13.99603],[107.46838,14.00463],[107.47535,14.00929],[107.47843,14.02557],[107.48161,14.0328],[107.49016,14.04619],[107.49734,14.05282],[107.50369,14.05754],[107.51508,14.06375],[107.52762,14.0679],[107.54715,14.06962],[107.56131,14.06956],[107.57351,14.08771],[107.58201,14.0973],[107.58866,14.10219],[107.5961,14.10584],[107.60611,14.10833],[107.60812,14.11503],[107.61283,14.12433],[107.61683,14.14115],[107.6142,14.15403],[107.61362,14.1643],[107.61499,14.1751],[107.61815,14.18458],[107.62422,14.1948],[107.63348,14.20457],[107.63871,14.22245],[107.64679,14.23949],[107.65433,14.24865],[107.66489,14.2564],[107.67133,14.25939],[107.68044,14.26197],[107.69486,14.26311],[107.72694,14.25978],[107.74577,14.25545],[107.75769,14.26264],[107.768,14.26612],[107.78058,14.26804],[107.79198,14.26725],[107.79442,14.27703],[107.79902,14.28606],[107.81135,14.30317],[107.81829,14.31015],[107.8266,14.31551],[107.83588,14.31902],[107.85346,14.32084],[107.85836,14.3236],[107.86715,14.32647],[107.87634,14.32757],[107.89625,14.32647],[107.90513,14.32482],[107.91588,14.32101],[107.92276,14.3169],[107.93199,14.30993],[107.94332,14.29974],[107.95491,14.28741],[107.96419,14.28494],[107.97943,14.28904],[107.99138,14.29025],[108.001,14.30316],[108.00638,14.30909],[108.01274,14.31401],[108.01988,14.31777],[108.03193,14.32119],[108.0325,14.32258],[108.03183,14.33314],[108.03355,14.34385],[108.03782,14.35385],[108.04319,14.36179],[108.04868,14.3673],[108.05504,14.37183],[108.06474,14.37646],[108.06943,14.37756],[108.07687,14.38945],[108.08349,14.39667],[108.09152,14.40235],[108.10111,14.4066],[108.11145,14.40865],[108.12106,14.40868],[108.13046,14.40677],[108.13626,14.40428],[108.14504,14.40538],[108.15978,14.41065],[108.16992,14.41258],[108.17841,14.4197],[108.18751,14.42567],[108.19409,14.42926],[108.20119,14.43177],[108.23066,14.43909],[108.24378,14.44093],[108.25773,14.43966],[108.26434,14.44894],[108.2713,14.45603],[108.27498,14.45844],[108.27899,14.46306],[108.28267,14.47435],[108.28831,14.48346],[108.2954,14.49146],[108.3001,14.49476],[108.32884,14.52505],[108.32699,14.53217],[108.31926,14.54211],[108.31423,14.55417],[108.31145,14.56873],[108.31101,14.5787],[108.3117,14.58654],[108.3154,14.59861],[108.31835,14.60499],[108.32306,14.61186],[108.33257,14.62063],[108.33976,14.63024],[108.34649,14.63615],[108.35506,14.64138],[108.36524,14.64481],[108.37807,14.64573],[108.39025,14.64807],[108.40689,14.64728],[108.41496,14.64497],[108.42499,14.63984],[108.43345,14.63249],[108.44474,14.61824],[108.45521,14.60198],[108.45829,14.59945],[108.48778,14.59099],[108.4927,14.60202],[108.49761,14.6087],[108.50504,14.61547],[108.51712,14.62438],[108.52966,14.63129],[108.53788,14.63369],[108.54641,14.63457],[108.55496,14.63389],[108.56612,14.6303],[108.57542,14.62842],[108.58659,14.62324],[108.59771,14.61575],[108.60585,14.60897],[108.61618,14.60394],[108.62107,14.6069],[108.62999,14.61066],[108.63764,14.61556],[108.64114,14.62063],[108.64857,14.62795],[108.65537,14.63289],[108.66251,14.6363],[108.66781,14.64308],[108.67265,14.64768],[108.68252,14.65451],[108.69233,14.65829],[108.70196,14.65995],[108.71399,14.65902],[108.71345,14.6693],[108.71508,14.67903],[108.71883,14.68819],[108.72964,14.7031],[108.73515,14.7094],[108.74175,14.71461],[108.7492,14.71856],[108.75885,14.72175],[108.76884,14.72285],[108.77898,14.72209],[108.7887,14.71918],[108.79641,14.71561],[108.80446,14.72517],[108.81543,14.73341],[108.82291,14.73681],[108.83042,14.73878],[108.83884,14.73949],[108.84622,14.73898],[108.85426,14.73707],[108.86997,14.73664],[108.88146,14.73463],[108.88752,14.73263],[108.89705,14.73615],[108.903,14.74072],[108.91097,14.7447],[108.91958,14.7471],[108.92849,14.74784],[108.93739,14.74688],[108.94593,14.74427],[108.9538,14.7401],[108.95809,14.73664],[108.9682,14.73067],[108.97522,14.72896],[108.98339,14.72519],[108.99347,14.71913],[109.0015,14.71848],[109.01196,14.71551],[109.0239,14.71325],[109.03392,14.70863],[109.04724,14.69963],[109.05844,14.68631],[109.06968,14.67723],[109.07723,14.66772],[109.08731,14.6491],[109.09085,14.63773],[109.09691,14.62923],[109.09983,14.6222],[109.10182,14.61988],[109.11012,14.6144],[109.1174,14.60752],[109.12314,14.59947],[109.12663,14.59156],[109.12852,14.58315],[109.12874,14.57454],[109.12729,14.56604],[109.12421,14.55797],[109.11954,14.55052],[109.13293,14.51419],[109.13897,14.50811],[109.14347,14.50152],[109.15433,14.48267],[109.16182,14.47173],[109.16659,14.46271],[109.16917,14.45287],[109.17,14.44295],[109.16938,14.43424],[109.16706,14.4258],[109.16486,14.42142],[109.16832,14.4165],[109.17238,14.40631],[109.1823,14.40836],[109.19111,14.4083],[109.19761,14.40721],[109.20816,14.40335],[109.2139,14.39995],[109.22102,14.39399],[109.22677,14.38675],[109.23082,14.37895],[109.23319,14.37093],[109.23404,14.36262],[109.23336,14.35427],[109.23109,14.34612],[109.22617,14.33666],[109.21861,14.32814],[109.22629,14.32727],[109.23635,14.32371],[109.24355,14.31938],[109.24971,14.31396],[109.25429,14.30838],[109.25921,14.29921],[109.26205,14.28884],[109.26231,14.27811],[109.26012,14.26783],[109.25587,14.25878],[109.25697,14.24878],[109.25661,14.23916],[109.25418,14.22983],[109.25029,14.22194],[109.24457,14.21464],[109.24283,14.21049],[109.23737,14.20267],[109.23545,14.20088],[109.24394,14.18494],[109.24796,14.17906],[109.25243,14.17665],[109.26054,14.16997],[109.26623,14.17481],[109.2738,14.17912],[109.28317,14.18225],[109.293,14.18337],[109.30599,14.18178],[109.31862,14.1765],[109.32641,14.17076],[109.33268,14.16372],[109.33764,14.15496],[109.34051,14.14535],[109.34122,14.1352],[109.33984,14.12608],[109.3366,14.11741],[109.33229,14.11037],[109.32687,14.10433],[109.31939,14.09859],[109.30761,14.09326],[109.29848,14.0914],[109.28932,14.09113],[109.28229,14.09213],[109.27538,14.09422],[109.26707,14.0984],[109.26119,14.10304],[109.25796,14.099],[109.26641,14.08183],[109.27993,14.05815],[109.28392,14.055],[109.29022,14.04783],[109.29491,14.03995],[109.29789,14.0313],[109.29981,14.01699],[109.29888,14.00853],[109.30154,14.00123],[109.30328,13.9886],[109.30261,13.98108],[109.30529,13.97236],[109.30604,13.96458],[109.30552,13.95668],[109.30268,13.94628],[109.30921,13.94809],[109.31747,13.94888],[109.32506,13.94834],[109.33245,13.94659],[109.33938,13.94371],[109.34914,13.94539],[109.35858,13.94501],[109.36773,13.94278],[109.37683,13.93841],[109.38362,13.93343],[109.38937,13.92732],[109.39388,13.92029],[109.397,13.91257],[109.39862,13.90442],[109.39862,13.89533],[109.3971,13.88703],[109.39404,13.87916],[109.38951,13.87175],[109.38191,13.86341],[109.37533,13.85816],[109.36788,13.85416],[109.35565,13.85078],[109.34342,13.8505],[109.34492,13.83308],[109.34384,13.82036],[109.34064,13.80911],[109.3355,13.79923],[109.33916,13.78269],[109.33913,13.77567],[109.338,13.76378],[109.33499,13.74741],[109.33032,13.73476],[109.32563,13.72733],[109.31957,13.72092],[109.31149,13.71527],[109.30305,13.71145],[109.29096,13.70921],[109.29429,13.70435],[109.29989,13.69244],[109.30172,13.68392],[109.30191,13.67604],[109.30059,13.6678],[109.29751,13.65925],[109.29275,13.65147],[109.2865,13.64477],[109.27901,13.63943],[109.27022,13.63554],[109.25815,13.63333],[109.25087,13.62949],[109.24211,13.62687],[109.233,13.62599],[109.22389,13.62688],[109.21514,13.62951],[109.20621,13.63448],[109.19954,13.63582],[109.19776,13.62348],[109.19533,13.61655],[109.19178,13.61009],[109.18413,13.6008],[109.17549,13.59444],[109.16441,13.58902],[109.16379,13.57762],[109.16128,13.56897],[109.15692,13.56073],[109.15142,13.55378],[109.14466,13.54801],[109.13606,13.54326],[109.12669,13.54036],[109.11634,13.53277],[109.09869,13.52412],[109.08997,13.52222],[109.07758,13.52224],[109.06934,13.50862],[109.06431,13.50223],[109.05508,13.49379],[109.04707,13.48925],[109.02184,13.48045],[109.00427,13.47765],[108.99699,13.47753],[108.98979,13.47852],[108.97975,13.48196],[108.96917,13.48099],[108.94155,13.48179],[108.93307,13.48297],[108.92496,13.48566],[108.91146,13.49384],[108.89986,13.49338],[108.87223,13.49006],[108.86279,13.49006],[108.85354,13.49194],[108.84488,13.49561],[108.83716,13.50092],[108.8307,13.50766],[108.82121,13.52021],[108.80932,13.52336],[108.79954,13.52851],[108.79439,13.52449],[108.78718,13.52053],[108.79865,13.52089],[108.80719,13.51918],[108.81526,13.51593],[108.82256,13.51127],[108.82884,13.50534],[108.83386,13.49837],[108.83745,13.4906],[108.84109,13.47758],[108.84131,13.46674],[108.84834,13.45149],[108.85096,13.44236],[108.85158,13.4329],[108.85095,13.42559],[108.8533,13.39662],[108.85175,13.38203],[108.85223,13.37972],[108.86496,13.3656],[108.87933,13.3465],[108.88922,13.32757],[108.89891,13.32146],[108.90576,13.3152],[108.91241,13.30559],[108.91626,13.29693],[108.91819,13.28767],[108.91851,13.27532],[108.91604,13.26173],[108.91695,13.25617],[108.91704,13.24824],[108.91362,13.22416],[108.90999,13.21184],[108.90598,13.20382],[108.90049,13.19671],[108.90059,13.18906],[108.89628,13.17368],[108.88758,13.15841],[108.88558,13.14997],[108.88111,13.14094],[108.87401,13.13164],[108.8669,13.12572],[108.85872,13.12131],[108.85273,13.11949],[108.84687,13.11565],[108.83936,13.1122],[108.82924,13.10996],[108.82182,13.1038],[108.81385,13.09954],[108.80365,13.09672],[108.80159,13.08712],[108.79998,13.08336],[108.7985,13.07124],[108.80169,13.04143],[108.80143,13.03112],[108.79944,13.02212],[108.79703,13.01628],[108.79118,13.00731],[108.78329,12.99946],[108.77058,12.99064],[108.73421,12.97636],[108.71942,12.97252],[108.7124,12.96475],[108.70592,12.95994],[108.69182,12.95387],[108.67924,12.95117],[108.6707,12.95118],[108.66231,12.95271],[108.65687,12.95477],[108.64427,12.95611],[108.63552,12.95912],[108.62802,12.963],[108.61596,12.96361],[108.60754,12.96543],[108.59798,12.96866],[108.58184,12.97634],[108.56922,12.97428],[108.56018,12.97487],[108.55445,12.97616],[108.52564,12.98813],[108.4987,12.9951],[108.49026,12.9991],[108.48454,13.00311],[108.4805,13.00669],[108.47331,13.01561],[108.46737,13.02807],[108.46533,13.03646],[108.4647,13.04456],[108.46656,13.05735],[108.46395,13.06041],[108.45704,13.07252],[108.44857,13.07484],[108.43678,13.08092],[108.42758,13.08907],[108.42188,13.0967],[108.41592,13.1073],[108.41207,13.11885],[108.41129,13.13048],[108.41335,13.14171],[108.39726,13.15586],[108.38516,13.17308],[108.37542,13.1967],[108.37315,13.20495],[108.37153,13.21492],[108.36047,13.22051],[108.34955,13.22821],[108.34223,13.23476],[108.33486,13.24388],[108.33137,13.25054],[108.32798,13.26223],[108.327,13.27737],[108.32596,13.28206],[108.32075,13.28716],[108.31481,13.29543],[108.31329,13.29907],[108.27852,13.30873],[108.26972,13.31184],[108.26041,13.31761],[108.25392,13.32362],[108.24373,13.32326],[108.23307,13.32436],[108.2281,13.32606],[108.22349,13.32465],[108.21465,13.32368],[108.20578,13.32438],[108.19721,13.32673],[108.17707,13.3359],[108.16206,13.34142],[108.14885,13.34928],[108.14421,13.35365],[108.13698,13.35855],[108.12791,13.36309],[108.11171,13.36647],[108.10944,13.36593],[108.09907,13.3596],[108.08962,13.35672],[108.07492,13.35485],[108.0655,13.35589],[108.05594,13.35867],[108.04771,13.35099],[108.03535,13.34318],[108.02986,13.34069],[108.01856,13.33721],[108.00698,13.3361],[107.99777,13.33722],[107.99083,13.3395],[107.97105,13.33516],[107.9633,13.33474],[107.95471,13.33551],[107.94854,13.33277],[107.93791,13.33068],[107.929,13.33066],[107.92026,13.33232],[107.91112,13.33603],[107.90226,13.34188],[107.8971,13.34118],[107.88466,13.34123],[107.87388,13.3437],[107.86747,13.34619],[107.85794,13.34474],[107.84789,13.34443],[107.838,13.34625],[107.83027,13.34948],[107.82329,13.34836],[107.80818,13.33724],[107.79238,13.32769],[107.78174,13.32308],[107.77171,13.32063],[107.75936,13.31871],[107.74542,13.31845],[107.70666,13.3238],[107.69452,13.31645],[107.69129,13.30785],[107.68814,13.30214],[107.68207,13.29437],[107.67671,13.28952],[107.66587,13.28289],[107.64542,13.27449],[107.636,13.268],[107.62748,13.26404],[107.61944,13.26141],[107.61105,13.26025],[107.60016,13.26064],[107.59122,13.26289],[107.58291,13.26683],[107.57556,13.2723],[107.56948,13.27909],[107.5649,13.28693],[107.562,13.2955],[107.5609,13.30446],[107.56164,13.31345],[107.56419,13.32212],[107.58396,13.36816],[107.57213,13.51672],[107.53039,13.60266],[107.5272,13.61076],[107.52561,13.62033],[107.52403,13.64943],[107.51212,13.66696],[107.50683,13.67749],[107.49309,13.7172],[107.48549,13.7233],[107.46971,13.7323],[107.4562,13.7355],[107.44645,13.74074],[107.42312,13.75716],[107.41651,13.76281],[107.41111,13.76959],[107.40711,13.77725],[107.40468,13.7855],[107.40388,13.79406],[107.40476,13.80261],[107.40727,13.81084],[107.40986,13.81571]]]]}}]}