{"type":"FeatureCollection","features":[{"type":"Feature","properties":{"kind":"boundary","province_code":"04","name":"Tỉnh Cao Bằng","source":"VNSDI","valid_from":"16/6/2025","simplify_tolerance_deg":0.0005},"geometry":{"type":"Polygon","coordinates":[[[105.91876,22.50599],[105.91408,22.49774],[105.91109,22.49631],[105.90787,22.49633],[105.90251,22.49969],[105.89219,22.5094],[105.86717,22.5187],[105.8585,22.52103],[105.84746,22.51847],[105.83563,22.51853],[105.80415,22.52511],[105.79983,22.52876],[105.79892,22.53137],[105.792,22.54227],[105.78814,22.54666],[105.78178,22.55004],[105.77745,22.55016],[105.77499,22.55124],[105.77338,22.55476],[105.77273,22.56144],[105.7743,22.56688],[105.77757,22.57145],[105.77713,22.57533],[105.77407,22.58007],[105.76716,22.58713],[105.766,22.58764],[105.75804,22.58703],[105.75219,22.58871],[105.75088,22.58979],[105.74805,22.59489],[105.74978,22.60112],[105.75255,22.605],[105.75271,22.60809],[105.74115,22.6242],[105.73598,22.6298],[105.73015,22.63453],[105.72837,22.63841],[105.73913,22.6428],[105.75001,22.66383],[105.75786,22.66979],[105.76853,22.68017],[105.77315,22.68689],[105.77353,22.68922],[105.77282,22.69189],[105.76983,22.69438],[105.76447,22.69657],[105.75389,22.7063],[105.75319,22.70997],[105.75465,22.71396],[105.7579,22.71828],[105.759,22.7216],[105.75829,22.72394],[105.75263,22.72792],[105.74293,22.737],[105.73771,22.73984],[105.73331,22.74071],[105.73575,22.73794],[105.73595,22.7357],[105.73535,22.73176],[105.73303,22.72807],[105.72989,22.72532],[105.72627,22.72407],[105.72369,22.72457],[105.72413,22.72568],[105.72307,22.72888],[105.72019,22.72882],[105.71884,22.72531],[105.71911,22.72317],[105.71704,22.72179],[105.7132,22.72198],[105.70956,22.72726],[105.70819,22.72746],[105.70555,22.72573],[105.70207,22.72119],[105.69884,22.72431],[105.69507,22.72233],[105.68974,22.72125],[105.67826,22.72197],[105.6699,22.7245],[105.665,22.72288],[105.65988,22.71763],[105.65141,22.7055],[105.64708,22.70079],[105.64238,22.69954],[105.61871,22.70072],[105.61538,22.69874],[105.61105,22.69439],[105.59983,22.67809],[105.60096,22.66882],[105.59919,22.66664],[105.59293,22.66648],[105.58077,22.66853],[105.56475,22.6635],[105.55925,22.65897],[105.54966,22.65683],[105.54357,22.65194],[105.54121,22.6485],[105.5406,22.64305],[105.54116,22.63669],[105.53861,22.63398],[105.53078,22.63309],[105.51808,22.6355],[105.49665,22.63416],[105.49481,22.65002],[105.49539,22.66001],[105.49304,22.66567],[105.48754,22.6722],[105.48684,22.67653],[105.49637,22.68965],[105.49946,22.69531],[105.49913,22.70197],[105.48982,22.70866],[105.48027,22.71336],[105.47607,22.71879],[105.47513,22.72929],[105.47655,22.73527],[105.47586,22.74393],[105.47104,22.75111],[105.46827,22.7529],[105.45697,22.75706],[105.45421,22.75897],[105.44751,22.76672],[105.43997,22.77243],[105.4285,22.77813],[105.41023,22.7899],[105.3955,22.79816],[105.38909,22.80487],[105.38049,22.81089],[105.36506,22.81526],[105.35501,22.81695],[105.34927,22.81896],[105.33816,22.82798],[105.31782,22.84659],[105.30317,22.85401],[105.29514,22.8562],[105.27908,22.8575],[105.26675,22.86752],[105.26778,22.87932],[105.27263,22.87998],[105.30154,22.87443],[105.30406,22.87543],[105.30542,22.89075],[105.30524,22.90396],[105.3082,22.91268],[105.31839,22.9152],[105.32369,22.91901],[105.33554,22.93124],[105.34726,22.93477],[105.35244,22.93504],[105.35676,22.93736],[105.36279,22.94226],[105.36261,22.96125],[105.36068,22.97197],[105.36245,22.98198],[105.36839,22.98646],[105.38066,22.99106],[105.41301,22.99635],[105.42286,23.00002],[105.4608,23.00442],[105.47257,23.0071],[105.48773,23.00896],[105.48911,23.01028],[105.4928,23.02581],[105.49574,23.03418],[105.51849,23.07677],[105.52097,23.08654],[105.53094,23.11116],[105.54672,23.1095],[105.554,23.11329],[105.55932,23.11854],[105.56326,23.11856],[105.56124,23.11584],[105.56416,23.11302],[105.56519,23.10973],[105.56372,23.10809],[105.56413,23.10567],[105.56589,23.10295],[105.56197,23.09048],[105.56206,23.0869],[105.56488,23.08496],[105.56715,23.07788],[105.56964,23.07449],[105.57214,23.07225],[105.5783,23.07001],[105.58488,23.0694],[105.58938,23.07016],[105.59116,23.07102],[105.59432,23.07585],[105.59662,23.0769],[105.60467,23.07687],[105.61821,23.06763],[105.61947,23.06743],[105.62702,23.07272],[105.62986,23.07707],[105.63343,23.08034],[105.6396,23.08206],[105.64361,23.08221],[105.64868,23.07902],[105.65107,23.07592],[105.65818,23.07511],[105.6662,23.06937],[105.67599,23.06372],[105.69104,23.06355],[105.6971,23.06256],[105.70212,23.06428],[105.71181,23.06203],[105.70931,23.06933],[105.71071,23.07153],[105.71601,23.06463],[105.71901,23.06462],[105.72198,23.06315],[105.72268,23.05722],[105.72507,23.0546],[105.72851,23.05371],[105.72985,23.04983],[105.72983,23.04586],[105.72793,23.04345],[105.73166,23.03676],[105.73657,23.03635],[105.73801,23.03305],[105.73978,23.03208],[105.74187,23.03197],[105.74794,23.03427],[105.75786,23.03228],[105.75836,23.02899],[105.7594,23.02773],[105.76452,23.02761],[105.77996,23.02279],[105.78349,23.01938],[105.78575,23.01308],[105.79407,23.00588],[105.79508,23.00036],[105.80371,22.99335],[105.80349,22.99103],[105.81455,22.98894],[105.81801,22.99125],[105.81918,22.99588],[105.82284,22.99635],[105.82754,22.99603],[105.83409,22.99068],[105.83575,22.98893],[105.8379,22.98224],[105.84258,22.97825],[105.84309,22.97641],[105.84266,22.97515],[105.83847,22.97343],[105.83836,22.97179],[105.83991,22.96936],[105.84576,22.96933],[105.85131,22.97259],[105.85443,22.96948],[105.85473,22.96744],[105.85105,22.96378],[105.85093,22.96108],[105.84633,22.96062],[105.84559,22.9583],[105.85431,22.95051],[105.85292,22.94616],[105.85541,22.94276],[105.86469,22.94058],[105.86687,22.93902],[105.87185,22.93309],[105.87056,22.92817],[105.87043,22.92372],[105.87177,22.92071],[105.87592,22.91778],[105.8848,22.91793],[105.88753,22.92043],[105.88661,22.92324],[105.8838,22.92567],[105.88361,22.92751],[105.88519,22.92954],[105.88689,22.93504],[105.88943,22.93919],[105.89277,22.94004],[105.89632,22.93886],[105.90332,22.94095],[105.90864,22.93976],[105.91209,22.9408],[105.92237,22.94655],[105.92653,22.94527],[105.93152,22.94098],[105.93621,22.9395],[105.94079,22.93851],[105.94957,22.93913],[105.95361,22.94022],[105.95544,22.94415],[105.95601,22.94887],[105.95821,22.95079],[105.96041,22.95087],[105.96854,22.94889],[105.97563,22.94865],[105.98022,22.94727],[105.98988,22.94053],[105.99364,22.93983],[105.99646,22.94126],[106.00216,22.94877],[106.00826,22.96896],[106.00735,22.97293],[106.00204,22.98186],[106.00091,22.98653],[106.00133,22.99023],[106.00224,22.99154],[106.013,22.99281],[106.01837,22.9917],[106.02241,22.99253],[106.02442,22.99209],[106.02834,22.99357],[106.03193,22.992],[106.03705,22.99391],[106.03891,22.99318],[106.04082,22.99058],[106.04279,22.99014],[106.04974,22.99364],[106.052,22.99387],[106.05727,22.99186],[106.06444,22.99223],[106.07019,22.99481],[106.07479,22.99808],[106.08103,22.99915],[106.08344,23.00064],[106.0856,22.99944],[106.08798,22.99655],[106.08959,22.99266],[106.09156,22.99342],[106.09261,22.99536],[106.0959,22.99557],[106.10029,22.98712],[106.10351,22.98719],[106.10896,22.99058],[106.11596,22.98572],[106.11776,22.98535],[106.12092,22.9885],[106.12459,22.98856],[106.13094,22.9907],[106.13113,22.99428],[106.13486,22.99649],[106.14482,22.99588],[106.15389,22.99188],[106.15702,22.98845],[106.16192,22.98781],[106.16542,22.98549],[106.16999,22.98444],[106.1815,22.98495],[106.18625,22.98916],[106.18924,22.98817],[106.19186,22.98522],[106.19347,22.98467],[106.20115,22.98497],[106.20557,22.98117],[106.20722,22.97734],[106.21069,22.97296],[106.21679,22.96939],[106.21933,22.96507],[106.22358,22.96396],[106.22443,22.95881],[106.23112,22.9569],[106.23616,22.95374],[106.23687,22.95133],[106.23461,22.94519],[106.23487,22.94357],[106.23993,22.94253],[106.24077,22.94166],[106.24111,22.936],[106.24627,22.93395],[106.24926,22.926],[106.25205,22.92283],[106.25754,22.92153],[106.26175,22.91648],[106.26422,22.91147],[106.26427,22.90868],[106.26192,22.90551],[106.26193,22.90275],[106.25954,22.89954],[106.25921,22.89703],[106.25138,22.89587],[106.24994,22.89423],[106.24976,22.89172],[106.25694,22.88572],[106.26258,22.88482],[106.26388,22.88395],[106.26278,22.8818],[106.25874,22.88015],[106.25869,22.87836],[106.25938,22.87782],[106.26829,22.87524],[106.27205,22.8761],[106.27904,22.87006],[106.28294,22.87024],[106.28795,22.86809],[106.29021,22.86961],[106.29123,22.87487],[106.29305,22.8755],[106.29691,22.87483],[106.30509,22.8703],[106.30977,22.86451],[106.31331,22.86645],[106.3166,22.86624],[106.32184,22.86867],[106.32382,22.8731],[106.3246,22.87406],[106.32635,22.8743],[106.34259,22.86045],[106.34595,22.85619],[106.34959,22.85566],[106.35246,22.85657],[106.35706,22.86018],[106.36308,22.86723],[106.36394,22.87575],[106.36538,22.88004],[106.37423,22.88369],[106.37687,22.88396],[106.3825,22.88289],[106.39048,22.88355],[106.39401,22.88094],[106.39587,22.88064],[106.40129,22.88152],[106.40673,22.87653],[106.41416,22.87618],[106.41518,22.87767],[106.4152,22.87968],[106.41161,22.88451],[106.41133,22.88695],[106.41235,22.88881],[106.41827,22.89227],[106.42137,22.89246],[106.42453,22.89142],[106.42991,22.88527],[106.4326,22.88388],[106.43393,22.88444],[106.43722,22.88864],[106.44328,22.8927],[106.44447,22.89795],[106.4486,22.90364],[106.45392,22.9035],[106.46034,22.89622],[106.46142,22.89597],[106.46385,22.89696],[106.46581,22.90105],[106.47154,22.90142],[106.47237,22.90744],[106.47472,22.90942],[106.47663,22.90945],[106.47904,22.90828],[106.48116,22.90444],[106.48661,22.90224],[106.48894,22.90322],[106.49229,22.90764],[106.49883,22.90643],[106.50139,22.90913],[106.5032,22.91475],[106.49948,22.91846],[106.50149,22.92289],[106.50084,22.92949],[106.50633,22.9314],[106.50939,22.93806],[106.51064,22.94388],[106.51222,22.94625],[106.51419,22.94724],[106.52324,22.94849],[106.52637,22.94703],[106.53033,22.94116],[106.53864,22.94213],[106.54065,22.94125],[106.54024,22.93686],[106.54427,22.92884],[106.5496,22.92558],[106.56194,22.92212],[106.56476,22.92051],[106.56739,22.92044],[106.57271,22.92512],[106.58196,22.92647],[106.58538,22.93124],[106.58954,22.93345],[106.59297,22.93342],[106.59634,22.92951],[106.60201,22.92912],[106.60493,22.92704],[106.60575,22.92254],[106.60887,22.91973],[106.60989,22.90998],[106.61218,22.9078],[106.61579,22.90156],[106.62228,22.89587],[106.62884,22.89226],[106.62992,22.88733],[106.63063,22.88675],[106.63713,22.88659],[106.63965,22.88154],[106.63743,22.87707],[106.63798,22.87559],[106.64364,22.87496],[106.64636,22.86948],[106.64794,22.86784],[106.65128,22.86642],[106.65411,22.86653],[106.65741,22.87056],[106.66228,22.87242],[106.66584,22.87664],[106.66691,22.88384],[106.66599,22.88868],[106.66846,22.89238],[106.67718,22.89248],[106.67808,22.89075],[106.6778,22.88831],[106.68061,22.88685],[106.68335,22.88735],[106.68819,22.89031],[106.6916,22.89127],[106.69905,22.88885],[106.70575,22.88826],[106.71,22.88171],[106.71312,22.87948],[106.71667,22.87863],[106.71727,22.87748],[106.71638,22.87208],[106.71554,22.87114],[106.71063,22.87001],[106.70814,22.86843],[106.70916,22.86578],[106.71583,22.86167],[106.72052,22.85669],[106.73623,22.84798],[106.73852,22.84556],[106.74185,22.84403],[106.74404,22.83952],[106.75149,22.83535],[106.75445,22.83138],[106.76723,22.82693],[106.76869,22.82577],[106.76817,22.82181],[106.76554,22.81401],[106.76566,22.81231],[106.7665,22.81184],[106.76864,22.81241],[106.77349,22.81687],[106.7799,22.81648],[106.78497,22.81402],[106.78971,22.81555],[106.79446,22.81513],[106.79849,22.81896],[106.80904,22.82103],[106.81308,22.81983],[106.81884,22.81948],[106.82163,22.81748],[106.82293,22.81352],[106.82702,22.81283],[106.82948,22.80922],[106.83425,22.80683],[106.83592,22.8047],[106.8362,22.80262],[106.83156,22.79995],[106.83151,22.79597],[106.82829,22.79203],[106.82353,22.78798],[106.82205,22.78341],[106.82312,22.77995],[106.82285,22.77818],[106.81782,22.7726],[106.80896,22.77004],[106.7953,22.77025],[106.79433,22.76955],[106.79396,22.76579],[106.79317,22.76514],[106.78605,22.76701],[106.78506,22.76553],[106.78846,22.76118],[106.78753,22.75492],[106.77856,22.75067],[106.7767,22.74621],[106.77546,22.74509],[106.77358,22.74433],[106.76687,22.74398],[106.76499,22.74234],[106.76498,22.74142],[106.76878,22.73868],[106.76944,22.73696],[106.76195,22.73188],[106.76544,22.71968],[106.77168,22.71405],[106.77733,22.71106],[106.77927,22.70875],[106.77827,22.70756],[106.77175,22.70714],[106.76678,22.70582],[106.76599,22.70481],[106.76589,22.70194],[106.76498,22.70118],[106.75856,22.69784],[106.75314,22.69653],[106.75302,22.69211],[106.75949,22.68469],[106.75679,22.67498],[106.75497,22.67357],[106.75104,22.67338],[106.74747,22.67079],[106.74179,22.66965],[106.74118,22.66697],[106.73837,22.66378],[106.73565,22.65759],[106.73156,22.65435],[106.73122,22.65316],[106.73273,22.65052],[106.73193,22.64808],[106.72668,22.64497],[106.72313,22.63951],[106.7231,22.63724],[106.72739,22.63516],[106.72857,22.63372],[106.7292,22.63234],[106.72879,22.63055],[106.7232,22.61884],[106.71472,22.61523],[106.71533,22.61223],[106.71767,22.60892],[106.72324,22.60701],[106.72611,22.60519],[106.72941,22.60139],[106.72804,22.59447],[106.72344,22.59207],[106.72216,22.58725],[106.7154,22.58227],[106.70829,22.57898],[106.70617,22.57912],[106.69747,22.58315],[106.69407,22.58384],[106.68399,22.58025],[106.67809,22.5821],[106.66332,22.57618],[106.65355,22.57603],[106.64778,22.57766],[106.64572,22.58288],[106.6393,22.58698],[106.63798,22.58986],[106.63486,22.59228],[106.63269,22.59713],[106.63313,22.60182],[106.63053,22.60477],[106.62199,22.60569],[106.6117,22.60409],[106.60885,22.60245],[106.6068,22.59802],[106.60603,22.5919],[106.60958,22.58141],[106.60866,22.58011],[106.6032,22.57834],[106.60253,22.5772],[106.60152,22.57179],[106.60291,22.56183],[106.60111,22.55588],[106.59998,22.55278],[106.59874,22.5516],[106.59224,22.55083],[106.59139,22.55],[106.59007,22.53458],[106.58717,22.52625],[106.58237,22.52056],[106.58161,22.51751],[106.58244,22.4867],[106.58386,22.47804],[106.58326,22.47426],[106.57885,22.46986],[106.57622,22.46914],[106.57331,22.47203],[106.57478,22.47574],[106.57143,22.47545],[106.56839,22.47282],[106.56456,22.46614],[106.56133,22.46665],[106.55944,22.46545],[106.5597,22.46136],[106.55771,22.45825],[106.55809,22.45722],[106.56011,22.45608],[106.56037,22.45431],[106.55858,22.44833],[106.55937,22.44744],[106.56368,22.44687],[106.56731,22.44014],[106.56517,22.43732],[106.56759,22.43075],[106.56468,22.42583],[106.56438,22.42323],[106.53641,22.41888],[106.53403,22.41563],[106.53086,22.40827],[106.52053,22.39919],[106.51904,22.39874],[106.51688,22.39893],[106.51087,22.40209],[106.50485,22.40381],[106.49387,22.40217],[106.4932,22.40033],[106.49393,22.39578],[106.49224,22.39436],[106.48508,22.3918],[106.48475,22.39061],[106.48601,22.38874],[106.48979,22.38721],[106.48983,22.3847],[106.48897,22.38292],[106.48316,22.37993],[106.48289,22.37909],[106.48409,22.37675],[106.48978,22.37467],[106.48989,22.37228],[106.48897,22.37049],[106.4876,22.36907],[106.48049,22.36567],[106.46606,22.35955],[106.4529,22.35749],[106.44859,22.35799],[106.43749,22.36365],[106.43527,22.36361],[106.42888,22.35988],[106.42666,22.35939],[106.42383,22.35993],[106.41293,22.36913],[106.40044,22.37097],[106.39676,22.37238],[106.39385,22.3716],[106.38781,22.36569],[106.37757,22.35935],[106.3643,22.35786],[106.35974,22.35853],[106.35215,22.36398],[106.3432,22.37343],[106.34414,22.38246],[106.34366,22.38934],[106.34269,22.39258],[106.34003,22.39654],[106.33308,22.40298],[106.33367,22.4085],[106.33238,22.41123],[106.32839,22.41263],[106.32296,22.40902],[106.3184,22.40798],[106.31386,22.40952],[106.30607,22.4169],[106.30005,22.4249],[106.28865,22.42686],[106.28758,22.42801],[106.2842,22.43786],[106.27796,22.4468],[106.27106,22.4508],[106.26721,22.45183],[106.26026,22.45089],[106.25091,22.45727],[106.24298,22.45969],[106.23557,22.45925],[106.22961,22.45679],[106.22104,22.45527],[106.2159,22.45029],[106.19371,22.41662],[106.19268,22.41383],[106.19286,22.40781],[106.18763,22.39989],[106.18542,22.38617],[106.18376,22.39006],[106.17884,22.39187],[106.17755,22.39326],[106.1759,22.40166],[106.17067,22.40332],[106.16511,22.40867],[106.1572,22.4082],[106.15042,22.4016],[106.14087,22.39478],[106.13914,22.39434],[106.13661,22.39487],[106.1284,22.39976],[106.12019,22.40141],[106.11686,22.40126],[106.11265,22.39871],[106.10815,22.39971],[106.10526,22.40822],[106.09913,22.41377],[106.10204,22.42281],[106.10016,22.42919],[106.10096,22.43607],[106.0955,22.44087],[106.09472,22.44351],[106.09559,22.44609],[106.10392,22.45273],[106.11012,22.46311],[106.11717,22.4698],[106.11889,22.47251],[106.11553,22.48425],[106.11637,22.49237],[106.11825,22.49806],[106.11914,22.50752],[106.11772,22.51274],[106.10133,22.51602],[106.10057,22.51699],[106.10122,22.52152],[106.09704,22.52561],[106.09422,22.53414],[106.09333,22.53874],[106.09369,22.5449],[106.08727,22.5523],[106.07667,22.55343],[106.07437,22.55535],[106.07446,22.55989],[106.07556,22.56218],[106.08063,22.56645],[106.0823,22.56888],[106.08166,22.5727],[106.08048,22.57324],[106.07853,22.57363],[106.07234,22.57253],[106.0665,22.56941],[106.06034,22.57132],[106.05009,22.57717],[106.04773,22.57776],[106.04312,22.56756],[106.0413,22.56523],[106.03628,22.56105],[106.03277,22.55945],[106.0289,22.55852],[106.02222,22.55933],[106.01897,22.55892],[105.97559,22.53728],[105.96686,22.53129],[105.95787,22.52701],[105.95428,22.52637],[105.94665,22.52745],[105.93493,22.52752],[105.93003,22.52646],[105.9239,22.51888],[105.91876,22.50599]]]}},{"type":"Feature","properties":{"kind":"buffer","province_code":"04","buffer_m":5000,"source":"derived","simplify_tolerance_deg":0.0005},"geometry":{"type":"Polygon","coordinates":[[[105.26109,22.92433],[105.26561,22.93461],[105.27118,22.94206],[105.27824,22.94833],[105.28651,22.95317],[105.29319,22.95551],[105.30023,22.96239],[105.30874,22.969],[105.31252,22.97078],[105.31237,22.9777],[105.3141,22.98852],[105.31852,23.0015],[105.3242,23.00997],[105.33174,23.01708],[105.34365,23.02541],[105.36244,23.033],[105.37337,23.03577],[105.3993,23.03996],[105.41525,23.04469],[105.44959,23.04868],[105.4723,23.09161],[105.47535,23.10238],[105.48543,23.12756],[105.49147,23.13764],[105.49744,23.14398],[105.50457,23.14917],[105.51261,23.15305],[105.52129,23.15548],[105.5326,23.1562],[105.53988,23.16],[105.54927,23.16279],[105.563,23.16378],[105.57272,23.16292],[105.58206,23.16028],[105.59065,23.15595],[105.59813,23.15013],[105.60422,23.14303],[105.60865,23.13495],[105.61216,23.12135],[105.62833,23.12605],[105.64168,23.12739],[105.65193,23.12676],[105.66181,23.12415],[105.68778,23.11114],[105.69246,23.11345],[105.7022,23.11605],[105.7123,23.11672],[105.72233,23.11544],[105.73187,23.11225],[105.74048,23.10731],[105.74528,23.10306],[105.75258,23.09832],[105.75954,23.09193],[105.77102,23.07576],[105.77925,23.07291],[105.78688,23.06854],[105.79703,23.06514],[105.80669,23.06059],[105.81856,23.05076],[105.82583,23.04144],[105.84141,23.03938],[105.85112,23.0356],[105.85974,23.02996],[105.8723,23.01881],[105.87882,23.00979],[105.89012,23.00024],[105.89609,22.99289],[105.89948,22.98625],[105.90674,22.98938],[105.91696,22.99149],[105.92744,22.99152],[105.93452,22.99011],[105.93937,22.99248],[105.94763,22.99492],[105.95305,22.99558],[105.9554,23.00528],[105.96045,23.01482],[105.96658,23.02234],[105.97288,23.02762],[105.98007,23.0318],[105.99039,23.03547],[106.00335,23.03744],[106.01791,23.0377],[106.02756,23.03878],[106.05491,23.03897],[106.07064,23.04427],[106.08059,23.04578],[106.08976,23.04547],[106.0987,23.04358],[106.11431,23.03717],[106.12002,23.03956],[106.13096,23.04157],[106.14594,23.04109],[106.15368,23.04036],[106.16471,23.03736],[106.17406,23.03275],[106.18628,23.03437],[106.19562,23.03353],[106.21568,23.02813],[106.22391,23.02495],[106.23138,23.02043],[106.24015,23.01312],[106.24737,23.00433],[106.25589,22.99781],[106.26034,22.99326],[106.26819,22.98781],[106.27462,22.98148],[106.28032,22.97287],[106.2843,22.96198],[106.28865,22.95615],[106.30027,22.94415],[106.3058,22.93576],[106.30878,22.92971],[106.31246,22.91777],[106.31731,22.91896],[106.32569,22.91963],[106.339,22.91778],[106.34793,22.92255],[106.35749,22.92616],[106.37164,22.92892],[106.38881,22.92861],[106.39569,22.93234],[106.40511,22.93581],[106.41639,22.93747],[106.4263,22.94384],[106.43369,22.94669],[106.4424,22.94865],[106.45147,22.94903],[106.4588,22.95203],[106.46532,22.96043],[106.47075,22.96996],[106.47583,22.97631],[106.48203,22.98173],[106.49112,22.98706],[106.50419,22.99149],[106.51274,22.99306],[106.52314,22.99374],[106.53577,22.99219],[106.54651,22.98871],[106.55239,22.98544],[106.56435,22.98097],[106.57219,22.97567],[106.576,22.97689],[106.59003,22.97867],[106.60371,22.97753],[106.61348,22.97444],[106.62252,22.97014],[106.63007,22.96608],[106.63774,22.96047],[106.64399,22.95404],[106.64836,22.9475],[106.65451,22.9355],[106.66677,22.93782],[106.68058,22.93759],[106.68971,22.93614],[106.69533,22.93638],[106.7033,22.93543],[106.71981,22.93155],[106.72899,22.928],[106.7372,22.92278],[106.75568,22.9057],[106.76107,22.89726],[106.76404,22.8901],[106.76534,22.88408],[106.77478,22.87735],[106.78234,22.87],[106.7941,22.8645],[106.8031,22.86595],[106.8135,22.86605],[106.82742,22.86399],[106.838,22.86105],[106.8476,22.85597],[106.87024,22.8373],[106.87823,22.82712],[106.88328,22.81534],[106.88482,22.80721],[106.88475,22.79896],[106.88246,22.78848],[106.87806,22.7795],[106.87043,22.76932],[106.86902,22.76379],[106.86454,22.75475],[106.8575,22.74578],[106.84539,22.73532],[106.83615,22.7307],[106.82574,22.72723],[106.82438,22.72553],[106.82773,22.71327],[106.82778,22.70465],[106.82606,22.69618],[106.82264,22.68817],[106.81765,22.6809],[106.81042,22.67359],[106.80611,22.67069],[106.80249,22.65935],[106.79889,22.65225],[106.79403,22.64584],[106.78622,22.63889],[106.77817,22.63391],[106.77684,22.62296],[106.77512,22.61701],[106.77783,22.60624],[106.77775,22.59587],[106.77495,22.58222],[106.77106,22.57329],[106.75864,22.55729],[106.75224,22.55169],[106.74134,22.544],[106.73297,22.53951],[106.72369,22.53604],[106.71335,22.534],[106.70267,22.53402],[106.69261,22.53575],[106.68386,22.53511],[106.6745,22.53217],[106.66431,22.53089],[106.65216,22.53083],[106.64292,22.53195],[106.63755,22.52443],[106.6335,22.51232],[106.63071,22.50699],[106.63126,22.48769],[106.63254,22.47573],[106.63018,22.46216],[106.62686,22.45412],[106.62196,22.44682],[106.61575,22.44059],[106.61619,22.4278],[106.6148,22.41965],[106.60757,22.40235],[106.60266,22.39528],[106.59643,22.38918],[106.58908,22.38426],[106.58088,22.38069],[106.56693,22.37781],[106.55275,22.36528],[106.54462,22.35989],[106.53538,22.35612],[106.5312,22.34797],[106.52533,22.34041],[106.51744,22.33333],[106.50279,22.32547],[106.48518,22.31796],[106.47743,22.31558],[106.46587,22.31354],[106.45986,22.31274],[106.4469,22.31262],[106.43456,22.31501],[106.42746,22.31418],[106.41684,22.3151],[106.4058,22.31792],[106.40147,22.31995],[106.39718,22.31796],[106.38343,22.31446],[106.36133,22.31266],[106.35352,22.31332],[106.3439,22.31577],[106.33301,22.32074],[106.32434,22.32651],[106.3051,22.34526],[106.29904,22.35436],[106.29545,22.36453],[106.29495,22.36802],[106.28857,22.37088],[106.28099,22.37615],[106.27227,22.38423],[106.25991,22.39035],[106.25171,22.3974],[106.24446,22.40703],[106.24098,22.40199],[106.23963,22.39519],[106.23435,22.38404],[106.23119,22.37072],[106.22711,22.36279],[106.22146,22.35575],[106.21444,22.34986],[106.20634,22.34533],[106.19744,22.34235],[106.18809,22.34102],[106.17863,22.34139],[106.16944,22.34346],[106.16084,22.34713],[106.15447,22.35141],[106.14429,22.34937],[106.13627,22.3492],[106.12579,22.35078],[106.11614,22.35392],[106.10881,22.35363],[106.09999,22.35477],[106.08713,22.35891],[106.07838,22.36393],[106.07177,22.36965],[106.06641,22.37642],[106.06266,22.38366],[106.05598,22.39281],[106.0518,22.40314],[106.05043,22.4141],[106.05145,22.42171],[106.04916,22.42607],[106.04677,22.4341],[106.04601,22.44241],[106.04679,22.45167],[106.04916,22.46049],[106.05339,22.4687],[106.05952,22.47648],[106.06534,22.48141],[106.06699,22.48414],[106.06139,22.49013],[106.05613,22.49849],[106.05352,22.50594],[106.04816,22.51677],[106.04113,22.51475],[106.03017,22.51357],[105.98008,22.48677],[105.96713,22.48262],[105.96009,22.48181],[105.95171,22.46904],[105.94471,22.46259],[105.93347,22.45615],[105.92246,22.45234],[105.90757,22.45111],[105.89808,22.45203],[105.88897,22.45465],[105.87523,22.46223],[105.86409,22.47146],[105.8561,22.47425],[105.84718,22.47325],[105.82613,22.47419],[105.80241,22.47868],[105.79133,22.48149],[105.78073,22.48547],[105.7671,22.49527],[105.76136,22.50102],[105.75595,22.50944],[105.74775,22.51375],[105.74059,22.51923],[105.73467,22.52587],[105.72843,22.53737],[105.72551,22.54646],[105.72472,22.55152],[105.71847,22.55604],[105.71121,22.56356],[105.70646,22.57032],[105.70276,22.57749],[105.70016,22.58666],[105.69935,22.5946],[105.69975,22.59915],[105.68949,22.60964],[105.68348,22.61981],[105.68029,22.6312],[105.67973,22.64075],[105.68135,22.6502],[105.68507,22.65912],[105.69073,22.66711],[105.69808,22.67382],[105.70197,22.67611],[105.68836,22.67604],[105.6773,22.66533],[105.66933,22.66056],[105.65582,22.65607],[105.64702,22.65494],[105.64517,22.64984],[105.63804,22.63937],[105.63218,22.63338],[105.62526,22.62845],[105.61751,22.62475],[105.60917,22.62238],[105.60052,22.62144],[105.58714,22.62196],[105.58349,22.61431],[105.57531,22.60424],[105.56886,22.59854],[105.56141,22.59401],[105.55319,22.59083],[105.54448,22.58909],[105.52883,22.58791],[105.51479,22.58997],[105.49991,22.58905],[105.49049,22.58931],[105.4813,22.59125],[105.47268,22.5948],[105.46497,22.59982],[105.45844,22.60613],[105.45334,22.61349],[105.44986,22.62162],[105.44813,22.63022],[105.44631,22.64847],[105.44382,22.65228],[105.43996,22.66225],[105.43813,22.67468],[105.43904,22.68523],[105.43993,22.68799],[105.43206,22.69942],[105.42904,22.70705],[105.42697,22.72143],[105.41621,22.73069],[105.41278,22.73465],[105.40063,22.74104],[105.38381,22.75189],[105.37032,22.75945],[105.35691,22.77029],[105.33781,22.77464],[105.32424,22.78016],[105.3061,22.79393],[105.29,22.80874],[105.28375,22.812],[105.26562,22.81405],[105.25535,22.81802],[105.24631,22.82405],[105.23628,22.83224],[105.22956,22.83833],[105.22421,22.84551],[105.22045,22.8535],[105.21841,22.86202],[105.21817,22.87074],[105.21934,22.88406],[105.22134,22.89294],[105.2252,22.90127],[105.23077,22.90872],[105.23783,22.91499],[105.24754,22.92048],[105.25813,22.92402],[105.26109,22.92433]]]}}]}