{"type":"FeatureCollection","features":[{"type":"Feature","geometry":{"type":"MultiPolygon","coordinates":[[[[106.410581,22.682111],[106.411345,22.682173],[106.411589,22.682269],[106.411563,22.682534],[106.411396,22.682556],[106.410648,22.682522],[106.4106,22.68246],[106.410581,22.682111]]]]},"properties":{"group":"edu_health","tag":"amenity=school","name":null,"levels":null,"lat":22.68234604933329,"lng":106.4110655426618,"osm_type":"way","osm_id":836880010}},{"type":"Feature","geometry":{"type":"MultiPolygon","coordinates":[[[[106.238049,22.678227],[106.238154,22.678194],[106.238126,22.678104],[106.238153,22.678076],[106.238069,22.677979],[106.238296,22.67781],[106.23857,22.678125],[106.2386,22.678171],[106.238855,22.678657],[106.238401,22.679239],[106.238049,22.678227]]]]},"properties":{"group":"edu_health","tag":"amenity=school","name":"Trường Trung học phổ thông Bế Văn Đàn","levels":null,"lat":22.678489816162642,"lng":106.23842505061656,"osm_type":"way","osm_id":904890500}},{"type":"Feature","geometry":{"type":"MultiPolygon","coordinates":[[[[105.677151,22.958424],[105.67716,22.95835],[105.67741,22.95788],[105.678083,22.958198],[105.677549,22.959043],[105.677374,22.958944],[105.677285,22.958832],[105.677219,22.958679],[105.677159,22.958491],[105.677151,22.958424]]]]},"properties":{"group":"edu_health","tag":"amenity=school","name":"Trường PTDTNT huyện Bảo Lạc","levels":null,"lat":22.958427011098948,"lng":105.67755168687312,"osm_type":"way","osm_id":928684095}},{"type":"Feature","geometry":{"type":"MultiPolygon","coordinates":[[[[105.680344,22.951999],[105.680355,22.951801],[105.68051,22.951762],[105.680674,22.951749],[105.680728,22.951754],[105.680811,22.951769],[105.681052,22.951888],[105.681178,22.951979],[105.681216,22.952048],[105.681425,22.952416],[105.681465,22.952542],[105.681428,22.953071],[105.681455,22.953204],[105.68083,22.953296],[105.680752,22.953063],[105.680559,22.95295],[105.6805,22.95298],[105.680454,22.952933],[105.680422,22.952888],[105.680489,22.952839],[105.680451,22.952006],[105.680344,22.951999]]]]},"properties":{"group":"edu_health","tag":"amenity=hospital","name":"Trung tâm Y tế huyện Bảo Lạc","levels":null,"lat":22.952521339772133,"lng":105.68092472210871,"osm_type":"way","osm_id":928684106}},{"type":"Feature","geometry":{"type":"MultiPolygon","coordinates":[[[[105.682017,22.950039],[105.682087,22.950028],[105.68207,22.94987],[105.682075,22.949796],[105.682066,22.949569],[105.68215,22.949168],[105.682146,22.948877],[105.682218,22.948869],[105.682223,22.948635],[105.682327,22.948632],[105.682331,22.948873],[105.682411,22.948871],[105.682434,22.949538],[105.682477,22.950722],[105.68208,22.950727],[105.682017,22.950039]]]]},"properties":{"group":"edu_health","tag":"amenity=school","name":"Trường Trung học phổ thông Bảo Lạc","levels":null,"lat":22.949832142985226,"lng":105.68226208018388,"osm_type":"way","osm_id":928684113}},{"type":"Feature","geometry":{"type":"MultiPolygon","coordinates":[[[[105.679877,22.951013],[105.679907,22.950823],[105.680022,22.950853],[105.680162,22.950164],[105.680661,22.950198],[105.680602,22.950781],[105.680725,22.950786],[105.680634,22.951218],[105.680473,22.951191],[105.680199,22.951226],[105.679877,22.951013]]]]},"properties":{"group":"edu_health","tag":"amenity=school","name":"Trường Tiểu học thị trấn Bảo Lạc","levels":null,"lat":22.950727451220864,"lng":105.68034109215175,"osm_type":"way","osm_id":928684123}},{"type":"Feature","geometry":{"type":"MultiPolygon","coordinates":[[[[106.269242,22.652841],[106.269258,22.65274],[106.269391,22.652376],[106.26977,22.651836],[106.269893,22.651659],[106.270834,22.652506],[106.271435,22.653059],[106.271063,22.653427],[106.270758,22.653685],[106.270625,22.653781],[106.270206,22.65389],[106.269817,22.653843],[106.269419,22.653888],[106.269269,22.65296],[106.269242,22.652841]]]]},"properties":{"group":"edu_health","tag":"amenity=hospital","name":"Bệnh viện Đa khoa tỉnh Cao Bằng","levels":null,"lat":22.652948267359463,"lng":106.27016202852602,"osm_type":"way","osm_id":1068173328}},{"type":"Feature","geometry":{"type":"MultiPolygon","coordinates":[[[[106.262203,22.656254],[106.262235,22.656093],[106.262385,22.656088],[106.26272,22.656063],[106.262954,22.656026],[106.263123,22.656029],[106.263281,22.656076],[106.263096,22.656311],[106.262987,22.656425],[106.262807,22.656525],[106.26264,22.656585],[106.262482,22.656525],[106.262401,22.65646],[106.26231,22.656333],[106.262203,22.656254]]]]},"properties":{"group":"edu_health","tag":"amenity=hospital","name":"Bệnh viện Y học cổ truyền Cao Bằng","levels":null,"lat":22.656264672869725,"lng":106.26271399291547,"osm_type":"way","osm_id":1068173329}},{"type":"Feature","geometry":{"type":"MultiPolygon","coordinates":[[[[106.06877,22.900482],[106.068958,22.899622],[106.069296,22.899627],[106.069344,22.899953],[106.069365,22.900052],[106.069451,22.90019],[106.069623,22.900427],[106.069778,22.900556],[106.069655,22.900709],[106.069387,22.900679],[106.069226,22.90067],[106.069022,22.900719],[106.06877,22.900482]]]]},"properties":{"group":"edu_health","tag":"amenity=hospital","name":"Bệnh viện Đa khoa huyện Hà Quảng","levels":null,"lat":22.900247871623822,"lng":106.06919128187516,"osm_type":"way","osm_id":1068173330}},{"type":"Feature","geometry":{"type":"MultiPolygon","coordinates":[[[[106.257822,22.664558],[106.258084,22.66454],[106.25809,22.66462],[106.258045,22.664623],[106.258064,22.664859],[106.25812,22.664855],[106.258127,22.664947],[106.257854,22.664966],[106.257822,22.664558]]]]},"properties":{"group":"public","tag":"amenity=community_centre","name":"Nhà thiếu nhi Kim Đồng","levels":null,"lat":22.664755925211754,"lng":106.25795899935116,"osm_type":"way","osm_id":1079049760}},{"type":"Feature","geometry":{"type":"MultiPolygon","coordinates":[[[[106.258618,22.66629],[106.258761,22.666285],[106.258759,22.666214],[106.258978,22.666207],[106.258979,22.666232],[106.259024,22.666231],[106.259025,22.666263],[106.259068,22.666261],[106.25907,22.666322],[106.258967,22.666325],[106.258974,22.666525],[106.259049,22.666523],[106.259053,22.666642],[106.258665,22.666655],[106.258661,22.666545],[106.258812,22.66654],[106.258807,22.666394],[106.258623,22.6664],[106.258618,22.66629]]]]},"properties":{"group":"public","tag":"amenity=community_centre","name":"Nhà văn hóa Trung tâm tỉnh Cao Bằng","levels":null,"lat":22.666433523960738,"lng":106.25885609646025,"osm_type":"way","osm_id":1079049761}},{"type":"Feature","geometry":{"type":"MultiPolygon","coordinates":[[[[106.257255,22.66797],[106.258176,22.667879],[106.258216,22.667876],[106.25826,22.668242],[106.258286,22.668458],[106.258353,22.668494],[106.258452,22.668722],[106.258304,22.668782],[106.25823,22.668614],[106.2582,22.668507],[106.258179,22.668505],[106.258174,22.668474],[106.257348,22.668546],[106.25731,22.66836],[106.25728,22.668121],[106.257268,22.668063],[106.257255,22.66797]]]]},"properties":{"group":"edu_health","tag":"amenity=school","name":"Trường Tiểu học Hợp Giang","levels":null,"lat":22.668244359243676,"lng":106.25781877470021,"osm_type":"way","osm_id":1079049762}},{"type":"Feature","geometry":{"type":"MultiPolygon","coordinates":[[[[106.258726,22.6615],[106.258839,22.661464],[106.258879,22.661451],[106.258906,22.661443],[106.259127,22.661373],[106.25923,22.661341],[106.259389,22.661291],[106.259425,22.661396],[106.259432,22.661416],[106.259456,22.661482],[106.259513,22.661635],[106.259671,22.662061],[106.259564,22.662102],[106.259597,22.662201],[106.25938,22.662277],[106.259185,22.662345],[106.258997,22.662411],[106.258865,22.662457],[106.258821,22.662258],[106.258804,22.662183],[106.258784,22.662007],[106.258741,22.661626],[106.258726,22.6615]]]]},"properties":{"group":"edu_health","tag":"amenity=school","name":"Trường Trung học cơ sở Hợp Giang","levels":null,"lat":22.66187035351404,"lng":106.25916184127708,"osm_type":"way","osm_id":1079049763}},{"type":"Feature","geometry":{"type":"MultiPolygon","coordinates":[[[[106.265258,22.662831],[106.265282,22.662669],[106.265323,22.662259],[106.265327,22.662199],[106.265331,22.662141],[106.265357,22.661883],[106.265368,22.661773],[106.265376,22.661697],[106.265377,22.661684],[106.265387,22.661576],[106.265403,22.66144],[106.265405,22.661424],[106.265418,22.661295],[106.265421,22.661268],[106.265705,22.66129],[106.266017,22.661314],[106.266048,22.661316],[106.266127,22.661322],[106.266157,22.661326],[106.266145,22.661449],[106.26612,22.661751],[106.266115,22.66185],[106.266108,22.66201],[106.266085,22.662515],[106.26608,22.662632],[106.266058,22.66269],[106.265958,22.662703],[106.265962,22.662734],[106.265258,22.662831]]]]},"properties":{"group":"edu_health","tag":"amenity=school","name":"Trường Trung học phổ thông Thành phố Cao Bằng","levels":null,"lat":22.662043642358768,"lng":106.26571667937698,"osm_type":"way","osm_id":1079049766}},{"type":"Feature","geometry":{"type":"MultiPolygon","coordinates":[[[[106.251954,22.659264],[106.252031,22.659122],[106.252099,22.659067],[106.252522,22.659043],[106.252532,22.65911],[106.252837,22.659199],[106.252982,22.65912],[106.253092,22.659333],[106.253129,22.659528],[106.253148,22.659721],[106.253049,22.66039],[106.252998,22.660415],[106.252764,22.660447],[106.252657,22.660447],[106.252577,22.660402],[106.25252,22.660293],[106.251954,22.659264]]]]},"properties":{"group":"edu_health","tag":"amenity=college","name":"Trường Chính trị Hoàng Đình Giong","levels":null,"lat":22.659681898315096,"lng":106.25263621560939,"osm_type":"way","osm_id":1079166331}},{"type":"Feature","geometry":{"type":"MultiPolygon","coordinates":[[[[106.249852,22.659018],[106.249861,22.658997],[106.249891,22.658963],[106.250278,22.658685],[106.250453,22.658619],[106.2505,22.658686],[106.250779,22.658529],[106.250968,22.65859],[106.25091,22.658721],[106.251149,22.659086],[106.250243,22.65962],[106.249852,22.659018]]]]},"properties":{"group":"edu_health","tag":"amenity=school","name":"Trường Trung học phổ thông chuyên Cao Bằng","levels":null,"lat":22.659042032229507,"lng":106.25049059605689,"osm_type":"way","osm_id":1079166332}},{"type":"Feature","geometry":{"type":"MultiPolygon","coordinates":[[[[106.249516,22.659429],[106.249752,22.659166],[106.249852,22.659018],[106.250243,22.65962],[106.250343,22.659808],[106.249965,22.659997],[106.249863,22.659966],[106.249758,22.659927],[106.249712,22.65989],[106.249592,22.659741],[106.249569,22.659612],[106.249516,22.659429]]]]},"properties":{"group":"edu_health","tag":"amenity=school","name":"Trường Trung học cơ sở Hoà Chung","levels":null,"lat":22.659579009632086,"lng":106.24989528026724,"osm_type":"way","osm_id":1079166333}},{"type":"Feature","geometry":{"type":"MultiPolygon","coordinates":[[[[106.254933,22.662434],[106.25501,22.662356],[106.255042,22.662267],[106.255265,22.662046],[106.255311,22.66209],[106.255489,22.66226],[106.255442,22.662325],[106.255431,22.66234],[106.255525,22.662439],[106.255339,22.662592],[106.255299,22.662625],[106.255231,22.662681],[106.254933,22.662434]]]]},"properties":{"group":"edu_health","tag":"amenity=school","name":"Trường Tiểu học Hoà Chung","levels":null,"lat":22.662373608985348,"lng":106.25524132082688,"osm_type":"way","osm_id":1079166334}},{"type":"Feature","geometry":{"type":"MultiPolygon","coordinates":[[[[106.232316,22.67748],[106.232412,22.677267],[106.232533,22.677138],[106.232713,22.677056],[106.23337,22.676923],[106.233413,22.67695],[106.233483,22.677282],[106.233711,22.679182],[106.233687,22.679504],[106.23315,22.679588],[106.232826,22.679692],[106.232568,22.678561],[106.232557,22.677871],[106.232321,22.677881],[106.232318,22.677655],[106.232316,22.67748]]]]},"properties":{"group":"edu_health","tag":"amenity=school","name":"Trường Trung cấp nghề Cao Bằng","levels":null,"lat":22.678267494342236,"lng":106.23306802937988,"osm_type":"way","osm_id":1079166335}},{"type":"Feature","geometry":{"type":"MultiPolygon","coordinates":[[[[106.22892,22.680529],[106.229038,22.680014],[106.2293,22.679652],[106.229671,22.6794],[106.230336,22.679454],[106.23039,22.679648],[106.230336,22.679964],[106.230411,22.679999],[106.230399,22.680124],[106.230506,22.680127],[106.230447,22.680805],[106.230384,22.680802],[106.230371,22.680901],[106.23033,22.680895],[106.229719,22.680811],[106.22963,22.68061],[106.22892,22.680529]]]]},"properties":{"group":"edu_health","tag":"amenity=college","name":"Trường Cao đẳng Sư phạm Cao Bằng","levels":null,"lat":22.6801435361971,"lng":106.22980209392051,"osm_type":"way","osm_id":1079166336}},{"type":"Feature","geometry":{"type":"MultiPolygon","coordinates":[[[[105.888731,22.650974],[105.889204,22.650537],[105.889343,22.650592],[105.889438,22.650714],[105.889471,22.65085],[105.889433,22.650991],[105.889354,22.651086],[105.889251,22.65117],[105.88927,22.651304],[105.889347,22.651426],[105.889096,22.651521],[105.88885,22.651267],[105.88881,22.651149],[105.888803,22.65106],[105.888731,22.650974]]]]},"properties":{"group":"edu_health","tag":"amenity=hospital","name":"Bệnh viện Tĩnh Túc","levels":null,"lat":22.65101606684666,"lng":105.8891261160579,"osm_type":"way","osm_id":1160144097}},{"type":"Feature","geometry":{"type":"MultiPolygon","coordinates":[[[[106.526069,22.838414],[106.526836,22.837972],[106.527038,22.83833],[106.527176,22.838306],[106.52724,22.838395],[106.527155,22.838468],[106.527189,22.838506],[106.52749,22.83889],[106.527173,22.839118],[106.526962,22.838893],[106.526711,22.839082],[106.526614,22.838941],[106.526366,22.839129],[106.526266,22.839017],[106.526069,22.838414]]]]},"properties":{"group":"edu_health","tag":"amenity=hospital","name":"Bệnh viện Đa khoa huyện Trùng Khánh","levels":null,"lat":22.838610937083764,"lng":106.52673367211143,"osm_type":"way","osm_id":1160144098}},{"type":"Feature","geometry":{"type":"MultiPolygon","coordinates":[[[[106.516391,22.528419],[106.517582,22.528353],[106.517631,22.528773],[106.517651,22.528952],[106.517556,22.528992],[106.517602,22.529191],[106.517224,22.529319],[106.516665,22.529425],[106.516391,22.528419]]]]},"properties":{"group":"edu_health","tag":"amenity=hospital","name":null,"levels":null,"lat":22.5288388730121,"lng":106.5170473130119,"osm_type":"way","osm_id":1160144099}},{"type":"Feature","geometry":{"type":"MultiPolygon","coordinates":[[[[105.962397,22.652187],[105.962808,22.651307],[105.962861,22.651089],[105.963125,22.65137],[105.963186,22.651435],[105.963211,22.651461],[105.963341,22.651599],[105.963568,22.651837],[105.963814,22.652096],[105.963418,22.65206],[105.962861,22.652105],[105.962466,22.652268],[105.962397,22.652187]]]]},"properties":{"group":"edu_health","tag":"amenity=hospital","name":"Trung tâm Y tế huyện Nguyên Bình","levels":null,"lat":22.65178562236078,"lng":105.96301075551767,"osm_type":"way","osm_id":1160144100}},{"type":"Feature","geometry":{"type":"MultiPolygon","coordinates":[[[[105.49068,22.829171],[105.491214,22.828639],[105.491656,22.828307],[105.491802,22.828412],[105.49201,22.828469],[105.49213,22.828617],[105.491864,22.829007],[105.491581,22.829266],[105.491372,22.829413],[105.491228,22.82937],[105.491186,22.829317],[105.491044,22.829276],[105.490872,22.829267],[105.49068,22.829171]]]]},"properties":{"group":"edu_health","tag":"amenity=hospital","name":"Trung tâm Y tế huyện Bảo Lâm","levels":null,"lat":22.828883273058935,"lng":105.49145657464484,"osm_type":"way","osm_id":1160144101}},{"type":"Feature","geometry":{"type":"MultiPolygon","coordinates":[[[[106.675803,22.686848],[106.675967,22.68681],[106.676167,22.686818],[106.676608,22.686832],[106.676721,22.686863],[106.676569,22.687282],[106.676562,22.687514],[106.676485,22.687646],[106.676287,22.687655],[106.676239,22.687657],[106.67622,22.687658],[106.676154,22.687629],[106.676106,22.687584],[106.675803,22.686848]]]]},"properties":{"group":"edu_health","tag":"amenity=hospital","name":"Trung tâm Y tế huyện Hạ Lang","levels":null,"lat":22.68717801038968,"lng":106.67627812762768,"osm_type":"way","osm_id":1160144102}},{"type":"Feature","geometry":{"type":"MultiPolygon","coordinates":[[[[106.15922,22.731146],[106.159336,22.731082],[106.160114,22.730836],[106.160462,22.73137],[106.160601,22.731582],[106.159721,22.732102],[106.159536,22.731847],[106.159449,22.731728],[106.159234,22.731305],[106.15922,22.731146]]]]},"properties":{"group":"edu_health","tag":"amenity=hospital","name":"Trung tâm Y tế huyện Hoà An","levels":null,"lat":22.731433649589423,"lng":106.1598755847348,"osm_type":"way","osm_id":1160144103}},{"type":"Feature","geometry":{"type":"MultiPolygon","coordinates":[[[[106.260235,22.665862],[106.260587,22.665863],[106.260957,22.665872],[106.260954,22.666089],[106.260622,22.666084],[106.260616,22.666306],[106.260237,22.666308],[106.260235,22.665862]]]]},"properties":{"group":"apartment","tag":"building=apartments","name":"Chung cư Phoniex Phố Thầu","levels":19.0,"lat":22.666052067884827,"lng":106.26053570936192,"osm_type":"way","osm_id":1368043971}},{"type":"Feature","geometry":{"type":"MultiPolygon","coordinates":[[[[106.259087,22.663871],[106.259406,22.663797],[106.259514,22.664119],[106.25918,22.664204],[106.259087,22.663871]]]]},"properties":{"group":"apartment","tag":"building=apartments","name":null,"levels":null,"lat":22.663999063804937,"lng":106.25929665748052,"osm_type":"way","osm_id":1368099759}},{"type":"Feature","geometry":{"type":"MultiPolygon","coordinates":[[[[106.258934,22.661734],[106.2592,22.661642],[106.259236,22.66174],[106.25925,22.661781],[106.259337,22.662017],[106.259063,22.662102],[106.258934,22.661734]]]]},"properties":{"group":"edu_health","tag":"amenity=school","name":null,"levels":null,"lat":22.661874350531193,"lng":106.25913410576526,"osm_type":"way","osm_id":1368278534}},{"type":"Feature","geometry":{"type":"MultiPolygon","coordinates":[[[[106.247232,22.667443],[106.247476,22.667411],[106.247544,22.667402],[106.247948,22.667368],[106.24799,22.667404],[106.248071,22.668137],[106.247893,22.668114],[106.247874,22.667957],[106.247748,22.66796],[106.24772,22.667908],[106.247574,22.667913],[106.247573,22.667902],[106.247565,22.667832],[106.247564,22.667824],[106.24741,22.667843],[106.247409,22.667788],[106.247303,22.667807],[106.247291,22.667714],[106.24726,22.667713],[106.247232,22.667443]]]]},"properties":{"group":"edu_health","tag":"amenity=school","name":"Chợ sông Hiến","levels":null,"lat":22.667679347516103,"lng":106.2476965077318,"osm_type":"way","osm_id":1368398801}},{"type":"Feature","geometry":{"type":"MultiPolygon","coordinates":[[[[106.249009,22.669304],[106.249386,22.668959],[106.249411,22.668928],[106.249454,22.668896],[106.250039,22.668857],[106.250153,22.669741],[106.249266,22.669802],[106.249118,22.669516],[106.249009,22.669304]]]]},"properties":{"group":"edu_health","tag":"amenity=school","name":"Trường tiểu học sông Hiến","levels":null,"lat":22.669350382299267,"lng":106.24963006579335,"osm_type":"way","osm_id":1368398802}},{"type":"Feature","geometry":{"type":"MultiPolygon","coordinates":[[[[106.249427,22.669233],[106.249969,22.669196],[106.249974,22.669295],[106.249835,22.66931],[106.249849,22.669544],[106.249831,22.669545],[106.24947,22.669566],[106.249465,22.669566],[106.249427,22.669233]]]]},"properties":{"group":"edu_health","tag":"amenity=school","name":null,"levels":null,"lat":22.66937294578934,"lng":106.24966764890584,"osm_type":"way","osm_id":1368398805}},{"type":"Feature","geometry":{"type":"MultiPolygon","coordinates":[[[[106.249401,22.669009],[106.249409,22.669009],[106.249974,22.668979],[106.249977,22.669096],[106.249423,22.669124],[106.249401,22.669009]]]]},"properties":{"group":"edu_health","tag":"amenity=school","name":null,"levels":null,"lat":22.669051875266938,"lng":106.24969386282159,"osm_type":"way","osm_id":1368398806}},{"type":"Feature","geometry":{"type":"MultiPolygon","coordinates":[[[[106.250851,22.668501],[106.25088,22.668463],[106.250991,22.668314],[106.251058,22.66835],[106.251096,22.66829],[106.25111,22.668299],[106.251284,22.668406],[106.251262,22.668644],[106.251275,22.668646],[106.251274,22.66866],[106.25127,22.668738],[106.251268,22.668768],[106.251224,22.668768],[106.251201,22.669032],[106.251199,22.669062],[106.251001,22.669062],[106.251002,22.669036],[106.251008,22.668763],[106.25101,22.668735],[106.251017,22.668655],[106.250851,22.668501]]]]},"properties":{"group":"edu_health","tag":"amenity=school","name":null,"levels":null,"lat":22.668650845513646,"lng":106.25110356131994,"osm_type":"way","osm_id":1368398812}},{"type":"Feature","geometry":{"type":"MultiPolygon","coordinates":[[[[106.264344,22.662997],[106.26442,22.662982],[106.264498,22.662966],[106.264544,22.66315],[106.264699,22.663184],[106.264695,22.663213],[106.264689,22.663257],[106.264741,22.663267],[106.264731,22.663342],[106.264379,22.66329],[106.26437,22.663185],[106.264365,22.663137],[106.264344,22.662997]]]]},"properties":{"group":"edu_health","tag":"amenity=school","name":"Trung Tâm Giáo Dục Thường Xuyên Thành Phố Cao Bằng","levels":null,"lat":22.663179058447458,"lng":106.26451015824813,"osm_type":"way","osm_id":1375546881}},{"type":"Feature","geometry":{"type":"MultiPolygon","coordinates":[[[[106.264344,22.662997],[106.264498,22.662966],[106.264544,22.66315],[106.264699,22.663184],[106.264695,22.663213],[106.26437,22.663185],[106.264344,22.662997]]]]},"properties":{"group":"edu_health","tag":"amenity=school","name":null,"levels":null,"lat":22.663102777666122,"lng":106.26446941276801,"osm_type":"way","osm_id":1375546882}},{"type":"Feature","geometry":{"type":"MultiPolygon","coordinates":[[[[106.264277,22.661895],[106.264329,22.661383],[106.264338,22.661289],[106.264348,22.661189],[106.264384,22.661193],[106.264706,22.661229],[106.264782,22.661237],[106.264906,22.661251],[106.264886,22.661351],[106.264676,22.661678],[106.264657,22.661802],[106.264635,22.66194],[106.264277,22.661895]]]]},"properties":{"group":"edu_health","tag":"amenity=school","name":"Trường mầm non Sông Bằng","levels":2.0,"lat":22.661535610837955,"lng":106.26454134039992,"osm_type":"way","osm_id":1378326945}},{"type":"Feature","geometry":{"type":"MultiPolygon","coordinates":[[[[106.259081,22.659958],[106.259338,22.659704],[106.259466,22.659818],[106.259209,22.66007],[106.259081,22.659958]]]]},"properties":{"group":"apartment","tag":"building=apartments","name":null,"levels":null,"lat":22.659887197717357,"lng":106.25927387657954,"osm_type":"way","osm_id":1383569099}},{"type":"Feature","geometry":{"type":"MultiPolygon","coordinates":[[[[106.258973,22.659843],[106.259269,22.659579],[106.25937,22.659666],[106.259064,22.659944],[106.258973,22.659843]]]]},"properties":{"group":"apartment","tag":"building=apartments","name":null,"levels":null,"lat":22.659759095905898,"lng":106.25916851556734,"osm_type":"way","osm_id":1383569100}},{"type":"Feature","geometry":{"type":"MultiPolygon","coordinates":[[[[106.259337,22.660113],[106.259607,22.65987],[106.259731,22.659986],[106.259465,22.66023],[106.259337,22.660113]]]]},"properties":{"group":"apartment","tag":"building=apartments","name":null,"levels":null,"lat":22.660050018458538,"lng":106.25953468820474,"osm_type":"way","osm_id":1383569101}},{"type":"Feature","geometry":{"type":"MultiPolygon","coordinates":[[[[106.269829,22.663281],[106.26991,22.663209],[106.269972,22.66325],[106.270061,22.663269],[106.270143,22.663298],[106.270083,22.663421],[106.270009,22.663391],[106.269921,22.663361],[106.269915,22.663387],[106.269981,22.663478],[106.269951,22.663475],[106.269877,22.663359],[106.269829,22.663281]]]]},"properties":{"group":"edu_health","tag":"amenity=school","name":null,"levels":null,"lat":22.66332320482511,"lng":106.26998084407418,"osm_type":"way","osm_id":1383798861}},{"type":"Feature","geometry":{"type":"MultiPolygon","coordinates":[[[[106.2663,22.663295],[106.266305,22.663181],[106.26685,22.663196],[106.266837,22.663355],[106.266828,22.663458],[106.266827,22.663473],[106.266677,22.663412],[106.266445,22.663313],[106.2663,22.663295]]]]},"properties":{"group":"edu_health","tag":"amenity=school","name":null,"levels":null,"lat":22.663287640198906,"lng":106.26661517050114,"osm_type":"way","osm_id":1384030418}},{"type":"Feature","geometry":{"type":"MultiPolygon","coordinates":[[[[106.266174,22.663327],[106.266199,22.663015],[106.266407,22.662952],[106.266511,22.662949],[106.266678,22.662956],[106.26716,22.663159],[106.267145,22.663362],[106.267233,22.663375],[106.267224,22.663503],[106.266827,22.663473],[106.266677,22.663412],[106.266473,22.663325],[106.266445,22.663313],[106.2663,22.663295],[106.266174,22.663327]]]]},"properties":{"group":"edu_health","tag":"amenity=school","name":"Trường thcs Thị Xuân","levels":null,"lat":22.66321463814906,"lng":106.26670042118546,"osm_type":"way","osm_id":1384030425}},{"type":"Feature","geometry":{"type":"MultiPolygon","coordinates":[[[[106.268724,22.66222],[106.268772,22.661984],[106.268953,22.662015],[106.268899,22.662258],[106.268724,22.66222]]]]},"properties":{"group":"edu_health","tag":"amenity=school","name":null,"levels":null,"lat":22.66211902335497,"lng":106.26883742889942,"osm_type":"way","osm_id":1384030431}},{"type":"Feature","geometry":{"type":"MultiPolygon","coordinates":[[[[106.257368,22.668071],[106.258092,22.667994],[106.258101,22.668046],[106.25819,22.66803],[106.258231,22.668334],[106.257507,22.668393],[106.257507,22.668214],[106.257394,22.668213],[106.257368,22.668071]]]]},"properties":{"group":"edu_health","tag":"amenity=school","name":null,"levels":null,"lat":22.66819254958194,"lng":106.25782453376029,"osm_type":"way","osm_id":1384030433}},{"type":"Feature","geometry":{"type":"MultiPolygon","coordinates":[[[[106.431514,22.433441],[106.431537,22.43342],[106.431675,22.433299],[106.431759,22.433248],[106.431822,22.433104],[106.431935,22.433026],[106.432029,22.433004],[106.432108,22.432916],[106.432144,22.432876],[106.432224,22.432962],[106.432298,22.43304],[106.432515,22.433271],[106.432621,22.433384],[106.432577,22.433423],[106.432375,22.433605],[106.432288,22.433682],[106.432173,22.433742],[106.432048,22.433809],[106.431964,22.43374],[106.431908,22.433773],[106.431846,22.43381],[106.43182,22.433826],[106.431706,22.433791],[106.431646,22.433682],[106.431577,22.433557],[106.431514,22.433441]]]]},"properties":{"group":"edu_health","tag":"amenity=school","name":null,"levels":null,"lat":22.43339921487942,"lng":106.43205157780704,"osm_type":"way","osm_id":1385746691}},{"type":"Feature","geometry":{"type":"MultiPolygon","coordinates":[[[[106.264791,22.657246],[106.265123,22.65694],[106.265311,22.657109],[106.265504,22.657282],[106.265483,22.657302],[106.265306,22.657467],[106.265168,22.657596],[106.265132,22.657563],[106.264904,22.657351],[106.264791,22.657246]]]]},"properties":{"group":"edu_health","tag":"amenity=hospital","name":"Bệnh viện đa khoa tỉnh Cao Bằng - Khoa nội tiết","levels":null,"lat":22.65726687714589,"lng":106.26514693798296,"osm_type":"way","osm_id":1396728089}},{"type":"Feature","geometry":{"type":"MultiPolygon","coordinates":[[[[106.265168,22.657596],[106.26524,22.657528],[106.265292,22.657481],[106.265504,22.657282],[106.265682,22.6574],[106.265749,22.657461],[106.265767,22.657477],[106.265586,22.65763],[106.265556,22.657603],[106.265385,22.657765],[106.265168,22.657596]]]]},"properties":{"group":"edu_health","tag":"amenity=hospital","name":null,"levels":null,"lat":22.657521711504792,"lng":106.26546488316869,"osm_type":"way","osm_id":1396728098}},{"type":"Feature","geometry":{"type":"MultiPolygon","coordinates":[[[[106.223443,22.675648],[106.223505,22.675623],[106.223534,22.675644],[106.223577,22.675645],[106.223597,22.675683],[106.223483,22.67573],[106.223443,22.675648]]]]},"properties":{"group":"public","tag":"leisure=park","name":null,"levels":null,"lat":22.675673216401066,"lng":106.22351487722119,"osm_type":"way","osm_id":1412153854}},{"type":"Feature","geometry":{"type":"MultiPolygon","coordinates":[[[[106.223392,22.675536],[106.223505,22.675492],[106.223518,22.675527],[106.223495,22.675553],[106.223487,22.675601],[106.223429,22.675621],[106.223392,22.675536]]]]},"properties":{"group":"public","tag":"leisure=park","name":null,"levels":null,"lat":22.67555502691398,"lng":106.22345609976813,"osm_type":"way","osm_id":1412153855}},{"type":"Feature","geometry":{"type":"MultiPolygon","coordinates":[[[[106.223606,22.675632],[106.223626,22.675612],[106.223638,22.675584],[106.223633,22.675563],[106.223692,22.675539],[106.223733,22.675625],[106.223626,22.67567],[106.223606,22.675632]]]]},"properties":{"group":"public","tag":"leisure=park","name":null,"levels":null,"lat":22.67560688045692,"lng":106.22366823312753,"osm_type":"way","osm_id":1412153856}},{"type":"Feature","geometry":{"type":"MultiPolygon","coordinates":[[[[106.223531,22.675479],[106.223641,22.675429],[106.223682,22.675516],[106.223618,22.675541],[106.223604,22.675525],[106.223572,22.675516],[106.223551,22.675519],[106.223531,22.675479]]]]},"properties":{"group":"public","tag":"leisure=park","name":null,"levels":null,"lat":22.675488342364808,"lng":106.22361120920364,"osm_type":"way","osm_id":1412153857}},{"type":"Feature","geometry":{"type":"MultiPolygon","coordinates":[[[[106.223516,22.675582],[106.223519,22.675569],[106.223527,22.675557],[106.223538,22.675547],[106.223551,22.675542],[106.223566,22.67554],[106.223581,22.675543],[106.223594,22.67555],[106.223603,22.675561],[106.223609,22.675574],[106.22361,22.675589],[106.223606,22.675603],[106.223596,22.675615],[106.223582,22.675624],[106.223567,22.675627],[106.22355,22.675626],[106.223536,22.675619],[106.223524,22.675608],[106.223518,22.675596],[106.223516,22.675582]]]]},"properties":{"group":"public","tag":"leisure=park","name":null,"levels":null,"lat":22.67558381069991,"lng":106.22356329983236,"osm_type":"way","osm_id":1412153858}},{"type":"Feature","geometry":{"type":"MultiPolygon","coordinates":[[[[106.258266,22.662862],[106.258623,22.662781],[106.258703,22.663135],[106.258331,22.663194],[106.258266,22.662862]]]]},"properties":{"group":"apartment","tag":"building=apartments","name":null,"levels":null,"lat":22.662993439111084,"lng":106.25848291361288,"osm_type":"way","osm_id":1431411179}},{"type":"Feature","geometry":{"type":"MultiPolygon","coordinates":[[[[106.257988,22.662926],[106.25815,22.662889],[106.258246,22.663274],[106.258054,22.663299],[106.257996,22.663053],[106.257988,22.662926]]]]},"properties":{"group":"apartment","tag":"building=apartments","name":null,"levels":null,"lat":22.663101337728047,"lng":106.25810749964002,"osm_type":"way","osm_id":1431411180}},{"type":"Feature","geometry":{"type":"MultiPolygon","coordinates":[[[[106.258451,22.663234],[106.258707,22.663188],[106.25874,22.663291],[106.258537,22.663347],[106.258468,22.663352],[106.258451,22.663234]]]]},"properties":{"group":"apartment","tag":"building=apartments","name":null,"levels":null,"lat":22.663269932063866,"lng":106.25858909324495,"osm_type":"way","osm_id":1431411181}},{"type":"Feature","geometry":{"type":"MultiPolygon","coordinates":[[[[106.216408,22.676923],[106.216685,22.67677],[106.217113,22.677371],[106.21685,22.677537],[106.216408,22.676923]]]]},"properties":{"group":"apartment","tag":"building=apartments","name":null,"levels":null,"lat":22.677150201619156,"lng":106.21676324822711,"osm_type":"way","osm_id":1431411182}},{"type":"Feature","geometry":{"type":"MultiPolygon","coordinates":[[[[106.216923,22.677639],[106.217182,22.677466],[106.217698,22.678189],[106.217441,22.678359],[106.216923,22.677639]]]]},"properties":{"group":"apartment","tag":"building=apartments","name":null,"levels":null,"lat":22.677912906601282,"lng":106.21731040266113,"osm_type":"way","osm_id":1431411183}},{"type":"Feature","geometry":{"type":"MultiPolygon","coordinates":[[[[106.217588,22.678565],[106.217851,22.678404],[106.218424,22.679208],[106.21815,22.679347],[106.217588,22.678565]]]]},"properties":{"group":"apartment","tag":"building=apartments","name":null,"levels":null,"lat":22.678879666409923,"lng":106.21800343310319,"osm_type":"way","osm_id":1431411184}},{"type":"Feature","geometry":{"type":"MultiPolygon","coordinates":[[[[106.216821,22.676672],[106.217142,22.676528],[106.217302,22.676801],[106.216981,22.676947],[106.216821,22.676672]]]]},"properties":{"group":"apartment","tag":"building=apartments","name":null,"levels":null,"lat":22.676737108193347,"lng":106.21706148515221,"osm_type":"way","osm_id":1431411185}},{"type":"Feature","geometry":{"type":"MultiPolygon","coordinates":[[[[106.217197,22.676503],[106.217311,22.676451],[106.217616,22.676271],[106.217774,22.676516],[106.217535,22.676663],[106.217346,22.676761],[106.217197,22.676503]]]]},"properties":{"group":"apartment","tag":"building=apartments","name":null,"levels":null,"lat":22.676517794747532,"lng":106.21748562538869,"osm_type":"way","osm_id":1431411186}},{"type":"Feature","geometry":{"type":"MultiPolygon","coordinates":[[[[106.217423,22.676859],[106.217827,22.676643],[106.218108,22.677053],[106.217713,22.677271],[106.217423,22.676859]]]]},"properties":{"group":"apartment","tag":"building=apartments","name":null,"levels":null,"lat":22.676956310103872,"lng":106.21776700273398,"osm_type":"way","osm_id":1431411187}},{"type":"Feature","geometry":{"type":"MultiPolygon","coordinates":[[[[106.217035,22.677027],[106.217302,22.676875],[106.217611,22.677315],[106.217348,22.67746],[106.217035,22.677027]]]]},"properties":{"group":"apartment","tag":"building=apartments","name":null,"levels":null,"lat":22.677168137635295,"lng":106.21732337755596,"osm_type":"way","osm_id":1431411188}},{"type":"Feature","geometry":{"type":"MultiPolygon","coordinates":[[[[106.217906,22.676539],[106.218163,22.676387],[106.218458,22.676836],[106.21818,22.676982],[106.217906,22.676539]]]]},"properties":{"group":"apartment","tag":"building=apartments","name":null,"levels":null,"lat":22.67668735467643,"lng":106.21817825635442,"osm_type":"way","osm_id":1431411189}},{"type":"Feature","geometry":{"type":"MultiPolygon","coordinates":[[[[106.217661,22.676245],[106.217934,22.676083],[106.218112,22.676333],[106.217822,22.676506],[106.217661,22.676245]]]]},"properties":{"group":"apartment","tag":"building=apartments","name":null,"levels":null,"lat":22.676292894140495,"lng":106.21788317821778,"osm_type":"way","osm_id":1431411190}},{"type":"Feature","geometry":{"type":"MultiPolygon","coordinates":[[[[106.221159,22.67481],[106.221478,22.674625],[106.22208,22.67548],[106.221767,22.67563],[106.221159,22.67481]]]]},"properties":{"group":"apartment","tag":"building=apartments","name":null,"levels":null,"lat":22.675130745242868,"lng":106.22161806250237,"osm_type":"way","osm_id":1431411191}},{"type":"Feature","geometry":{"type":"MultiPolygon","coordinates":[[[[106.221925,22.675842],[106.222206,22.675659],[106.222785,22.676481],[106.222514,22.676637],[106.221925,22.675842]]]]},"properties":{"group":"apartment","tag":"building=apartments","name":null,"levels":null,"lat":22.67614945813864,"lng":106.22235401242375,"osm_type":"way","osm_id":1431411192}},{"type":"Feature","geometry":{"type":"MultiPolygon","coordinates":[[[[106.220752,22.674261],[106.221083,22.674064],[106.221442,22.674574],[106.221115,22.67475],[106.220752,22.674261]]]]},"properties":{"group":"apartment","tag":"building=apartments","name":null,"levels":null,"lat":22.674410138524394,"lng":106.22109720973818,"osm_type":"way","osm_id":1431411193}},{"type":"Feature","geometry":{"type":"MultiPolygon","coordinates":[[[[106.218105,22.676031],[106.218126,22.675988],[106.218162,22.675917],[106.21836,22.675784],[106.218679,22.676248],[106.21838,22.676419],[106.218105,22.676031]]]]},"properties":{"group":"apartment","tag":"building=apartments","name":null,"levels":null,"lat":22.676108397897753,"lng":106.2183772515766,"osm_type":"way","osm_id":1431411194}},{"type":"Feature","geometry":{"type":"MultiPolygon","coordinates":[[[[106.218434,22.676496],[106.218727,22.676298],[106.218903,22.676546],[106.218615,22.676752],[106.218434,22.676496]]]]},"properties":{"group":"apartment","tag":"building=apartments","name":null,"levels":null,"lat":22.676523512426435,"lng":106.21866908828257,"osm_type":"way","osm_id":1431411195}},{"type":"Feature","geometry":{"type":"MultiPolygon","coordinates":[[[[106.21843,22.675736],[106.219239,22.675191],[106.219568,22.675668],[106.218762,22.676194],[106.21843,22.675736]]]]},"properties":{"group":"apartment","tag":"building=apartments","name":null,"levels":null,"lat":22.67569557320345,"lng":106.21900116462493,"osm_type":"way","osm_id":1431411196}},{"type":"Feature","geometry":{"type":"MultiPolygon","coordinates":[[[[106.218796,22.676262],[106.219162,22.67602],[106.219352,22.67631],[106.218992,22.676534],[106.218796,22.676262]]]]},"properties":{"group":"apartment","tag":"building=apartments","name":null,"levels":null,"lat":22.6762801923067,"lng":106.21907614471671,"osm_type":"way","osm_id":1431411197}},{"type":"Feature","geometry":{"type":"MultiPolygon","coordinates":[[[[106.219258,22.67596],[106.219616,22.675736],[106.219806,22.676023],[106.219464,22.676239],[106.219258,22.67596]]]]},"properties":{"group":"apartment","tag":"building=apartments","name":null,"levels":null,"lat":22.675988800309334,"lng":106.2195351462177,"osm_type":"way","osm_id":1431411198}},{"type":"Feature","geometry":{"type":"MultiPolygon","coordinates":[[[[106.219678,22.675688],[106.219958,22.675516],[106.220166,22.675812],[106.219891,22.675968],[106.219678,22.675688]]]]},"properties":{"group":"apartment","tag":"building=apartments","name":null,"levels":null,"lat":22.675744510779776,"lng":106.2199228668143,"osm_type":"way","osm_id":1431411199}},{"type":"Feature","geometry":{"type":"MultiPolygon","coordinates":[[[[106.219308,22.675144],[106.219495,22.675019],[106.219626,22.675011],[106.219938,22.675456],[106.219652,22.675645],[106.219308,22.675144]]]]},"properties":{"group":"apartment","tag":"building=apartments","name":null,"levels":null,"lat":22.6753064917419,"lng":106.21962296921069,"osm_type":"way","osm_id":1431411200}},{"type":"Feature","geometry":{"type":"MultiPolygon","coordinates":[[[[106.273955,22.649575],[106.274126,22.649231],[106.274368,22.648971],[106.274549,22.648819],[106.274663,22.648936],[106.27449,22.649081],[106.274197,22.649665],[106.273955,22.649575]]]]},"properties":{"group":"public","tag":"leisure=garden","name":null,"levels":null,"lat":22.649262403025478,"lng":106.27428118349691,"osm_type":"way","osm_id":1458400578}},{"type":"Feature","geometry":{"type":"MultiPolygon","coordinates":[[[[106.217569,22.672276],[106.219031,22.67126],[106.219594,22.672083],[106.219756,22.671991],[106.22034,22.672816],[106.218776,22.673706],[106.217569,22.672276]]]]},"properties":{"group":"edu_health","tag":"amenity=school","name":"Trường Trung học phổ thông Dân tộc Nội trú tỉnh Cao Bằng","levels":null,"lat":22.672515048925682,"lng":106.21894446303263,"osm_type":"way","osm_id":1487151124}},{"type":"Feature","geometry":{"type":"MultiPolygon","coordinates":[[[[106.221942,22.668817],[106.223331,22.668228],[106.224222,22.669826],[106.223465,22.670188],[106.223261,22.670104],[106.2228,22.670242],[106.221942,22.668817]]]]},"properties":{"group":"edu_health","tag":"amenity=hospital","name":"Bệnh viện Y học cổ truyền tỉnh Cao Bằng","levels":null,"lat":22.669288262690703,"lng":106.22309699745809,"osm_type":"way","osm_id":1487151127}},{"type":"Feature","geometry":{"type":"MultiPolygon","coordinates":[[[[106.256608,22.670058],[106.256629,22.669855],[106.256659,22.669777],[106.256712,22.669706],[106.256849,22.669655],[106.257372,22.669465],[106.257557,22.669608],[106.257677,22.669714],[106.257812,22.669946],[106.258031,22.670412],[106.258081,22.670575],[106.258039,22.670694],[106.257999,22.670788],[106.2579,22.67093],[106.257887,22.670945],[106.257808,22.671033],[106.257722,22.671086],[106.257667,22.671104],[106.257649,22.671109],[106.257412,22.671166],[106.257149,22.671181],[106.257062,22.671018],[106.257047,22.670991],[106.256739,22.670344],[106.256724,22.670313],[106.256608,22.670058]]]]},"properties":{"group":"public","tag":"leisure=park","name":"Không gian sinh hoạt công cộng, vườn hoa, cây xanh, nơi luyện tập thể thao và không gian văn hóa Hồ Chí Minh","levels":null,"lat":22.67033046722032,"lng":106.25734427376291,"osm_type":"way","osm_id":1489498510}},{"type":"Feature","geometry":{"type":"Point","coordinates":[105.681226,22.94908]},"properties":{"group":"edu_health","tag":"amenity=school","name":"Trường mầm non xã Bảo Lạc","levels":null,"lat":22.94908,"lng":105.6812258,"osm_type":"node","osm_id":4763880526}},{"type":"Feature","geometry":{"type":"Point","coordinates":[106.262208,22.656756]},"properties":{"group":"edu_health","tag":"amenity=hospital","name":"Khu Điều Trị","levels":null,"lat":22.6567563,"lng":106.2622083,"osm_type":"node","osm_id":4773142751}},{"type":"Feature","geometry":{"type":"Point","coordinates":[106.337297,22.733222]},"properties":{"group":"public","tag":"amenity=community_centre","name":"Pass","levels":null,"lat":22.7332224,"lng":106.3372971,"osm_type":"node","osm_id":5294733038}},{"type":"Feature","geometry":{"type":"Point","coordinates":[106.273434,22.647803]},"properties":{"group":"edu_health","tag":"amenity=school","name":"Trường Trung học cơ sở Tân Giang","levels":null,"lat":22.6478026,"lng":106.2734342,"osm_type":"node","osm_id":8451849204}}]}