{"type":"FeatureCollection","features":[{"type":"Feature","properties":{"kind":"boundary","province_code":"11","name":"Tỉnh Điện Biên","source":"VNSDI","valid_from":"16/6/2025","simplify_tolerance_deg":0.0005},"geometry":{"type":"Polygon","coordinates":[[[102.96433,21.10618],[102.95386,21.11844],[102.9416,21.12545],[102.94029,21.13105],[102.9476,21.13907],[102.94839,21.14121],[102.94794,21.1443],[102.94021,21.15175],[102.93725,21.15732],[102.93474,21.15961],[102.92895,21.16129],[102.92012,21.15827],[102.91578,21.15919],[102.90602,21.1641],[102.90203,21.16966],[102.9073,21.17592],[102.90809,21.17825],[102.90805,21.18115],[102.90361,21.18966],[102.9038,21.19089],[102.90818,21.19593],[102.90793,21.19987],[102.91071,21.20438],[102.91012,21.21555],[102.90796,21.21916],[102.90768,21.22116],[102.90829,21.22418],[102.91218,21.22721],[102.91223,21.22822],[102.91033,21.23075],[102.90488,21.23142],[102.90193,21.23314],[102.8965,21.24198],[102.89134,21.24623],[102.88812,21.2468],[102.87924,21.25115],[102.86818,21.25403],[102.86106,21.25697],[102.85847,21.25641],[102.85396,21.25351],[102.85097,21.2538],[102.84877,21.2531],[102.84421,21.2492],[102.83967,21.24737],[102.82397,21.24557],[102.82219,21.24618],[102.82083,21.24872],[102.82079,21.25295],[102.81994,21.25329],[102.81404,21.25086],[102.81159,21.25109],[102.81116,21.25266],[102.81469,21.2551],[102.81471,21.25733],[102.81003,21.2608],[102.8082,21.26355],[102.81033,21.26654],[102.81193,21.26701],[102.81449,21.26635],[102.81689,21.26855],[102.81689,21.26955],[102.81489,21.27115],[102.81539,21.27185],[102.82009,21.27245],[102.82659,21.27715],[102.82979,21.27855],[102.83229,21.27765],[102.83379,21.27945],[102.83359,21.28225],[102.83469,21.28365],[102.83909,21.28265],[102.83939,21.28705],[102.84129,21.29165],[102.84349,21.29285],[102.84609,21.28985],[102.84929,21.29035],[102.85239,21.29975],[102.85579,21.29825],[102.85889,21.29815],[102.86269,21.30085],[102.89163,21.30238],[102.89769,21.30834],[102.89845,21.31299],[102.89712,21.31955],[102.8916,21.32993],[102.89489,21.35977],[102.89721,21.36367],[102.89715,21.38224],[102.89833,21.38632],[102.90056,21.38964],[102.90526,21.39279],[102.91562,21.40511],[102.92515,21.43193],[102.92955,21.44204],[102.93829,21.45183],[102.93991,21.45436],[102.93988,21.4563],[102.93779,21.45801],[102.93261,21.4595],[102.92786,21.45944],[102.92109,21.45626],[102.91661,21.45175],[102.91037,21.43987],[102.90489,21.43322],[102.90119,21.43182],[102.89004,21.43188],[102.87939,21.42555],[102.87237,21.42585],[102.86985,21.42872],[102.87933,21.44412],[102.8838,21.44921],[102.8856,21.45368],[102.88562,21.46626],[102.88857,21.47636],[102.89,21.47773],[102.90467,21.47753],[102.90713,21.47891],[102.90937,21.48146],[102.91791,21.50517],[102.9232,21.51085],[102.92914,21.51498],[102.93301,21.5189],[102.93726,21.52495],[102.94237,21.52908],[102.94725,21.53494],[102.95992,21.54535],[102.96143,21.55524],[102.96852,21.56558],[102.973,21.57047],[102.97793,21.57324],[102.98644,21.58534],[102.98926,21.5906],[102.99042,21.59642],[102.99016,21.60028],[102.9859,21.60971],[102.98582,21.63003],[102.98427,21.63755],[102.98084,21.64622],[102.98058,21.65009],[102.98297,21.6565],[102.98827,21.67746],[102.98799,21.68288],[102.98627,21.68711],[102.97958,21.69225],[102.97872,21.69476],[102.97971,21.69767],[102.98806,21.70706],[102.98887,21.70901],[102.98965,21.71211],[102.98726,21.72002],[102.97605,21.73729],[102.97243,21.74479],[102.96952,21.74573],[102.96602,21.74414],[102.95255,21.73081],[102.94617,21.72802],[102.9177,21.72245],[102.89483,21.71519],[102.88742,21.71277],[102.87904,21.70512],[102.87615,21.70528],[102.86647,21.71618],[102.85955,21.7219],[102.85867,21.72576],[102.85859,21.73136],[102.85646,21.74364],[102.85902,21.75114],[102.86138,21.75473],[102.86234,21.76449],[102.85783,21.76888],[102.8592,21.78285],[102.85488,21.78781],[102.85485,21.78876],[102.8588,21.79411],[102.85922,21.79765],[102.85717,21.80161],[102.85595,21.80894],[102.85718,21.82042],[102.85377,21.82741],[102.8531,21.83541],[102.85155,21.84168],[102.85075,21.84309],[102.84376,21.84623],[102.83918,21.8454],[102.83442,21.84587],[102.82269,21.84273],[102.81799,21.84061],[102.81697,21.83844],[102.81765,21.83617],[102.81728,21.83258],[102.81443,21.83036],[102.81103,21.8257],[102.81201,21.8177],[102.8165,21.81007],[102.81867,21.80368],[102.81944,21.79768],[102.81714,21.79002],[102.82036,21.76541],[102.82329,21.75238],[102.8243,21.74059],[102.82415,21.73711],[102.82193,21.7334],[102.81495,21.72963],[102.80928,21.72124],[102.80132,21.71378],[102.79682,21.71063],[102.78613,21.70623],[102.76501,21.68002],[102.74459,21.66272],[102.73821,21.66089],[102.72432,21.66322],[102.70528,21.66373],[102.69205,21.66316],[102.68019,21.65448],[102.67792,21.65445],[102.67604,21.65578],[102.66405,21.68056],[102.66422,21.68327],[102.66562,21.6862],[102.65816,21.71279],[102.65393,21.71834],[102.64644,21.73351],[102.64632,21.74086],[102.64826,21.74844],[102.64989,21.76316],[102.65286,21.77152],[102.65793,21.77798],[102.66085,21.78885],[102.66039,21.79194],[102.65804,21.79636],[102.65148,21.80497],[102.64911,21.81055],[102.64844,21.8264],[102.64402,21.84336],[102.64442,21.85671],[102.64252,21.8594],[102.62749,21.86614],[102.62041,21.86836],[102.61559,21.87178],[102.61221,21.87579],[102.61153,21.87965],[102.6175,21.89386],[102.61866,21.8991],[102.61796,21.90392],[102.61192,21.91815],[102.6077,21.92254],[102.59854,21.9255],[102.58481,21.92839],[102.56538,21.93778],[102.553,21.94688],[102.52368,21.96501],[102.51682,21.96568],[102.51078,21.96772],[102.4892,21.99273],[102.48723,21.9985],[102.48712,22.00488],[102.4889,22.00974],[102.49525,22.0139],[102.5027,22.01498],[102.50991,22.01761],[102.5175,22.02217],[102.5197,22.02685],[102.51943,22.03033],[102.51564,22.03375],[102.50876,22.03577],[102.50026,22.03564],[102.49443,22.0371],[102.48731,22.04125],[102.48015,22.04733],[102.4725,22.05746],[102.46618,22.06297],[102.4576,22.06768],[102.45212,22.07243],[102.44592,22.07417],[102.44208,22.07411],[102.44171,22.07739],[102.44538,22.08122],[102.44596,22.08355],[102.43814,22.09165],[102.43799,22.09406],[102.44036,22.10077],[102.43905,22.10414],[102.43468,22.11055],[102.43418,22.11538],[102.42827,22.11509],[102.42202,22.11683],[102.41254,22.12451],[102.40846,22.12648],[102.39572,22.1256],[102.38623,22.12786],[102.38392,22.12986],[102.3853,22.13916],[102.3849,22.14409],[102.3824,22.14995],[102.35865,22.1663],[102.35616,22.16626],[102.34749,22.16379],[102.33665,22.16613],[102.33442,22.1689],[102.33478,22.18302],[102.33266,22.19102],[102.33012,22.19464],[102.3225,22.201],[102.31348,22.20627],[102.31077,22.20681],[102.30911,22.20678],[102.30741,22.20336],[102.30599,22.2017],[102.30464,22.20148],[102.30298,22.20145],[102.29816,22.20399],[102.29044,22.20618],[102.2868,22.2067],[102.28226,22.20536],[102.27945,22.20551],[102.27827,22.20733],[102.27825,22.21951],[102.27231,22.2257],[102.27328,22.2348],[102.27189,22.23681],[102.26908,22.23734],[102.26578,22.23594],[102.25176,22.23628],[102.24729,22.23669],[102.24028,22.23947],[102.23955,22.24516],[102.24082,22.24915],[102.24323,22.25315],[102.24256,22.25575],[102.23374,22.26585],[102.23369,22.26846],[102.23059,22.27286],[102.23003,22.27517],[102.2335,22.27794],[102.23458,22.28115],[102.23266,22.28382],[102.22504,22.28572],[102.21338,22.28717],[102.21118,22.28848],[102.21073,22.29021],[102.20904,22.29135],[102.20549,22.29254],[102.19297,22.30035],[102.18125,22.30498],[102.17772,22.30511],[102.17644,22.30683],[102.17695,22.31235],[102.17968,22.3212],[102.1888,22.32735],[102.1912,22.33204],[102.19579,22.33589],[102.19315,22.33836],[102.18927,22.34013],[102.18376,22.34051],[102.17723,22.33953],[102.17163,22.34427],[102.1665,22.35124],[102.16355,22.35863],[102.16379,22.36182],[102.16885,22.36849],[102.16951,22.37198],[102.16884,22.3741],[102.16315,22.37806],[102.15898,22.38388],[102.1498,22.38859],[102.14633,22.39797],[102.14339,22.40058],[102.16005,22.42959],[102.16515,22.42939],[102.1869,22.43354],[102.20206,22.42916],[102.20726,22.42886],[102.21222,22.43059],[102.21863,22.42693],[102.22509,22.42637],[102.23577,22.42771],[102.24059,22.42567],[102.25397,22.41661],[102.26044,22.41508],[102.26366,22.41542],[102.26703,22.41838],[102.26812,22.42276],[102.26688,22.43074],[102.25987,22.44136],[102.25762,22.44724],[102.25343,22.45336],[102.24947,22.45719],[102.24907,22.4604],[102.25002,22.46192],[102.25503,22.46448],[102.26329,22.46667],[102.26401,22.46786],[102.26464,22.47496],[102.26653,22.4788],[102.2707,22.48076],[102.27559,22.47932],[102.27742,22.48251],[102.27547,22.48861],[102.27649,22.4905],[102.27641,22.49356],[102.28011,22.50256],[102.28831,22.50476],[102.28883,22.50762],[102.29213,22.51209],[102.29716,22.52144],[102.30104,22.5316],[102.30479,22.5363],[102.31062,22.53955],[102.31997,22.5477],[102.33887,22.5275],[102.3414,22.51354],[102.34564,22.50488],[102.34662,22.50111],[102.34751,22.49302],[102.3489,22.49136],[102.35566,22.49067],[102.35925,22.48507],[102.36091,22.47851],[102.36345,22.47581],[102.38214,22.46875],[102.38811,22.46443],[102.39111,22.46111],[102.3921,22.4567],[102.39198,22.45081],[102.39035,22.44152],[102.39315,22.43652],[102.39625,22.42836],[102.39681,22.42247],[102.39574,22.41909],[102.39397,22.41696],[102.39062,22.4148],[102.38685,22.41095],[102.38827,22.4076],[102.39265,22.40304],[102.39974,22.39895],[102.40552,22.39231],[102.41033,22.38881],[102.41352,22.38759],[102.41872,22.38768],[102.42127,22.38456],[102.42489,22.37199],[102.42879,22.3691],[102.44221,22.3649],[102.44606,22.36218],[102.45171,22.3558],[102.45397,22.35245],[102.45779,22.34094],[102.46743,22.33309],[102.48161,22.31184],[102.48876,22.30374],[102.49068,22.29746],[102.49596,22.29312],[102.50494,22.28379],[102.5089,22.27711],[102.51014,22.27103],[102.51343,22.26371],[102.51896,22.25769],[102.53065,22.24861],[102.53681,22.24491],[102.54362,22.24312],[102.55083,22.24428],[102.55574,22.24794],[102.559,22.25556],[102.56187,22.25918],[102.57065,22.26142],[102.57517,22.26107],[102.58062,22.25946],[102.60172,22.24188],[102.61422,22.23744],[102.61765,22.23475],[102.61906,22.23161],[102.61741,22.22233],[102.61755,22.20086],[102.61963,22.19794],[102.63219,22.18755],[102.64145,22.17658],[102.64712,22.17498],[102.65412,22.1755],[102.66092,22.17412],[102.66958,22.16898],[102.67502,22.1678],[102.67837,22.17037],[102.68408,22.17993],[102.68994,22.1937],[102.69351,22.19753],[102.69614,22.20241],[102.69739,22.20917],[102.69313,22.22068],[102.68682,22.23322],[102.68562,22.23784],[102.68285,22.24117],[102.67009,22.24793],[102.66525,22.25312],[102.66407,22.25627],[102.66741,22.25926],[102.67347,22.26208],[102.67663,22.26192],[102.69109,22.24886],[102.70748,22.24152],[102.7263,22.23736],[102.73408,22.23136],[102.74857,22.21536],[102.75137,22.21034],[102.75214,22.20425],[102.75053,22.19181],[102.74598,22.17856],[102.745,22.17636],[102.73685,22.1712],[102.73692,22.16699],[102.74026,22.15609],[102.74025,22.1424],[102.74218,22.13506],[102.75591,22.12325],[102.75982,22.11888],[102.76527,22.11685],[102.76892,22.11417],[102.77353,22.10834],[102.77884,22.10125],[102.77957,22.09789],[102.7769,22.09491],[102.77606,22.09132],[102.77881,22.0882],[102.81112,22.07221],[102.81977,22.06706],[102.82523,22.0644],[102.83493,22.06453],[102.84371,22.06612],[102.85411,22.06541],[102.85871,22.05979],[102.86074,22.05961],[102.86253,22.06089],[102.8646,22.07292],[102.86837,22.0776],[102.87918,22.08058],[102.88826,22.07575],[102.8921,22.0758],[102.89862,22.07778],[102.90439,22.08417],[102.91245,22.08849],[102.92077,22.09091],[102.92528,22.09139],[102.92637,22.09435],[102.9235,22.10505],[102.92596,22.10589],[102.92824,22.10532],[102.93031,22.10261],[102.93287,22.09738],[102.93407,22.09234],[102.93414,22.0875],[102.9293,22.07923],[102.92849,22.07248],[102.93058,22.06829],[102.94144,22.06717],[102.94834,22.0582],[102.95859,22.05138],[102.96136,22.04721],[102.96372,22.03987],[102.96402,22.03461],[102.96654,22.03232],[102.97562,22.03071],[102.98507,22.0272],[102.98714,22.02752],[102.99117,22.0301],[102.99402,22.03561],[102.99613,22.04637],[102.99835,22.04914],[103.00193,22.0515],[103.00687,22.05303],[103.01834,22.0557],[103.02786,22.05286],[103.03628,22.04833],[103.04125,22.04776],[103.04845,22.04974],[103.05426,22.05339],[103.06048,22.06125],[103.06273,22.06191],[103.07338,22.05846],[103.09167,22.05783],[103.09527,22.05893],[103.09569,22.06104],[103.09106,22.06982],[103.09057,22.07298],[103.09456,22.07808],[103.09962,22.08803],[103.10128,22.09879],[103.10217,22.1005],[103.10804,22.09992],[103.11598,22.09749],[103.12032,22.09396],[103.13069,22.07765],[103.13663,22.07203],[103.14253,22.06979],[103.14614,22.06983],[103.15556,22.07499],[103.16617,22.07511],[103.16836,22.08018],[103.17061,22.08105],[103.17378,22.07982],[103.17954,22.07515],[103.18897,22.07083],[103.19678,22.06913],[103.21304,22.06878],[103.21995,22.06623],[103.22791,22.06157],[103.23487,22.05565],[103.24249,22.0512],[103.27332,22.04079],[103.28056,22.03908],[103.28484,22.03976],[103.28865,22.04169],[103.29029,22.04634],[103.29036,22.05003],[103.28691,22.05515],[103.27627,22.06683],[103.27351,22.07133],[103.27359,22.07417],[103.27557,22.07861],[103.281,22.08667],[103.28363,22.09333],[103.28487,22.10314],[103.28617,22.10726],[103.28985,22.11098],[103.29232,22.11216],[103.30291,22.11417],[103.30593,22.11641],[103.30999,22.12646],[103.32187,22.14405],[103.32759,22.14759],[103.33171,22.15258],[103.33428,22.15366],[103.34933,22.15234],[103.37798,22.15599],[103.3878,22.15588],[103.39041,22.15517],[103.39233,22.1454],[103.40187,22.13075],[103.41962,22.07859],[103.42331,22.07137],[103.42639,22.06824],[103.43396,22.05736],[103.43612,22.05591],[103.43855,22.05552],[103.44356,22.05692],[103.44944,22.05645],[103.45467,22.05282],[103.46766,22.03093],[103.46758,22.02788],[103.45742,22.01778],[103.45442,22.01365],[103.45378,22.00985],[103.4554,22.00597],[103.46719,21.992],[103.47188,21.98333],[103.47636,21.97939],[103.49185,21.9744],[103.49972,21.96901],[103.50403,21.96391],[103.50642,21.95615],[103.49767,21.94964],[103.49675,21.94535],[103.48741,21.94028],[103.48596,21.93863],[103.4872,21.93264],[103.48402,21.92962],[103.48302,21.92702],[103.48366,21.92239],[103.48281,21.9198],[103.47963,21.91622],[103.47937,21.91404],[103.48087,21.91024],[103.48601,21.90633],[103.48735,21.90444],[103.4868,21.9013],[103.48451,21.89692],[103.48512,21.8942],[103.48673,21.892],[103.48872,21.88537],[103.49362,21.87643],[103.49598,21.8744],[103.50796,21.87315],[103.51313,21.86625],[103.51929,21.86358],[103.52267,21.86116],[103.52391,21.85381],[103.52928,21.84214],[103.52961,21.8386],[103.52819,21.8345],[103.53084,21.83248],[103.53464,21.83183],[103.53742,21.83035],[103.54008,21.82683],[103.54085,21.82343],[103.5389,21.81429],[103.54041,21.80926],[103.54603,21.80086],[103.54637,21.79705],[103.54151,21.7811],[103.54131,21.77738],[103.54324,21.77426],[103.55691,21.76307],[103.55899,21.75941],[103.56081,21.7522],[103.56981,21.74152],[103.57263,21.7365],[103.57769,21.72405],[103.58542,21.7099],[103.5874,21.70147],[103.59632,21.68328],[103.59666,21.67784],[103.59537,21.67551],[103.59304,21.67617],[103.58995,21.6786],[103.58568,21.68401],[103.58232,21.68494],[103.57086,21.6798],[103.56854,21.67773],[103.56612,21.67212],[103.563,21.66964],[103.5592,21.66314],[103.55739,21.65624],[103.55465,21.65376],[103.54579,21.65096],[103.54276,21.64834],[103.54293,21.64589],[103.55974,21.62574],[103.55932,21.62355],[103.55758,21.62287],[103.55475,21.61438],[103.53946,21.5998],[103.538,21.59189],[103.53145,21.58556],[103.53091,21.5812],[103.53241,21.57002],[103.53211,21.56655],[103.5247,21.56646],[103.52257,21.56716],[103.51914,21.56515],[103.51859,21.56133],[103.52065,21.54499],[103.51726,21.53529],[103.51567,21.53405],[103.50649,21.53478],[103.50068,21.5335],[103.49417,21.53017],[103.4894,21.52672],[103.48523,21.52192],[103.48117,21.52079],[103.47651,21.52075],[103.46956,21.51769],[103.46139,21.51925],[103.45951,21.518],[103.4616,21.51271],[103.4554,21.5072],[103.45269,21.50295],[103.44861,21.48901],[103.44864,21.4867],[103.45197,21.48205],[103.45346,21.47052],[103.45603,21.46128],[103.45593,21.45747],[103.44805,21.44622],[103.44792,21.44417],[103.44965,21.43854],[103.44751,21.43629],[103.44247,21.43314],[103.43747,21.43142],[103.41863,21.42883],[103.40991,21.42657],[103.40876,21.42834],[103.4049,21.43108],[103.39352,21.4377],[103.38679,21.4346],[103.38039,21.43454],[103.37882,21.43262],[103.37783,21.42947],[103.37625,21.4281],[103.37247,21.42806],[103.368,21.42923],[103.36026,21.42767],[103.35591,21.42585],[103.35242,21.42623],[103.34599,21.42848],[103.34207,21.42817],[103.3376,21.42513],[103.33115,21.41661],[103.33089,21.41361],[103.33825,21.40553],[103.34107,21.40104],[103.35074,21.39473],[103.35558,21.39056],[103.35824,21.38649],[103.3599,21.38174],[103.3604,21.37561],[103.36173,21.37345],[103.36407,21.37238],[103.38459,21.3704],[103.38811,21.36757],[103.3883,21.36389],[103.38732,21.36034],[103.38303,21.35376],[103.37167,21.34275],[103.36926,21.33659],[103.3693,21.33305],[103.3718,21.33062],[103.38142,21.32799],[103.39446,21.31857],[103.39869,21.31698],[103.41452,21.31822],[103.41888,21.31772],[103.42823,21.31372],[103.43117,21.31075],[103.44001,21.2848],[103.43942,21.27226],[103.43688,21.2646],[103.43047,21.25282],[103.42839,21.25385],[103.42708,21.25277],[103.43023,21.24259],[103.43355,21.23541],[103.43388,21.23335],[103.43282,21.22702],[103.43448,21.21716],[103.43281,21.21033],[103.43284,21.20733],[103.43717,21.19633],[103.43588,21.18051],[103.4331,21.1689],[103.42983,21.16274],[103.42608,21.16025],[103.42303,21.16023],[103.41355,21.16422],[103.41065,21.1642],[103.39759,21.15004],[103.39761,21.14813],[103.40249,21.14],[103.40577,21.13199],[103.40585,21.11073],[103.40795,21.10462],[103.41239,21.09754],[103.41817,21.08496],[103.42183,21.07911],[103.42413,21.06961],[103.42343,21.06729],[103.4149,21.06449],[103.40954,21.0643],[103.39995,21.06557],[103.38419,21.06052],[103.3807,21.06089],[103.37689,21.06413],[103.37208,21.06681],[103.36159,21.07093],[103.35501,21.07495],[103.34579,21.0829],[103.33834,21.08706],[103.32332,21.09358],[103.31779,21.09489],[103.30923,21.09467],[103.30093,21.09745],[103.29462,21.09791],[103.28906,21.10199],[103.28668,21.1],[103.28816,21.09916],[103.28686,21.09177],[103.28213,21.09029],[103.28623,21.07986],[103.28889,21.07707],[103.28833,21.07421],[103.28604,21.06765],[103.27752,21.06042],[103.27713,21.0568],[103.27831,21.04757],[103.28772,21.02858],[103.28863,21.02337],[103.28826,21.01874],[103.28494,21.01027],[103.28291,21.00021],[103.28358,20.99757],[103.29181,20.99318],[103.29696,20.97879],[103.29796,20.97081],[103.29696,20.95583],[103.29789,20.94911],[103.29695,20.947],[103.29525,20.94638],[103.28626,20.94719],[103.28276,20.94555],[103.27778,20.94138],[103.27569,20.93734],[103.27635,20.9265],[103.27854,20.9216],[103.28905,20.90875],[103.28664,20.9044],[103.28242,20.89994],[103.27976,20.89871],[103.27773,20.89869],[103.27203,20.90245],[103.26787,20.90241],[103.25725,20.89687],[103.24778,20.89386],[103.23645,20.89395],[103.22767,20.89587],[103.21558,20.89619],[103.21389,20.90019],[103.21078,20.9019],[103.20129,20.90412],[103.19777,20.90602],[103.19224,20.90344],[103.18523,20.90434],[103.18066,20.90816],[103.1674,20.91498],[103.16535,20.914],[103.15804,20.90637],[103.15271,20.90418],[103.12632,20.90835],[103.12367,20.90561],[103.11924,20.89821],[103.11699,20.89702],[103.11431,20.89757],[103.11201,20.89987],[103.11095,20.90276],[103.11103,20.91282],[103.10634,20.92554],[103.10542,20.93327],[103.10437,20.935],[103.09384,20.93721],[103.08867,20.93966],[103.08427,20.94523],[103.08469,20.9611],[103.08337,20.96728],[103.08063,20.97208],[103.07355,20.97858],[103.06978,20.98357],[103.06927,20.99131],[103.0678,20.99361],[103.06239,20.99761],[103.05842,21.00183],[103.05349,21.01706],[103.05117,21.02148],[103.04363,21.03088],[103.04046,21.03684],[103.03532,21.05226],[103.03216,21.05706],[103.03091,21.05821],[103.01395,21.06343],[102.99977,21.06036],[102.99173,21.06123],[102.97329,21.06894],[102.96579,21.07485],[102.96243,21.07946],[102.96198,21.08197],[102.96638,21.09208],[102.96627,21.1004],[102.96433,21.10618]]]}},{"type":"Feature","properties":{"kind":"buffer","province_code":"11","buffer_m":5000,"source":"derived","simplify_tolerance_deg":0.0005},"geometry":{"type":"Polygon","coordinates":[[[102.10416,22.37416],[102.09963,22.38136],[102.09658,22.38928],[102.09515,22.39758],[102.0954,22.406],[102.0973,22.41422],[102.1008,22.42197],[102.11747,22.45099],[102.12245,22.45801],[102.12874,22.46404],[102.13612,22.46888],[102.14433,22.47235],[102.15309,22.47433],[102.15951,22.47464],[102.17965,22.47825],[102.19049,22.47863],[102.20373,22.476],[102.2083,22.48476],[102.2154,22.49348],[102.22318,22.49933],[102.23099,22.50906],[102.23615,22.52139],[102.24102,22.52917],[102.24744,22.5359],[102.25277,22.53962],[102.25844,22.55299],[102.2661,22.5634],[102.27244,22.56989],[102.29478,22.5863],[102.30359,22.59025],[102.31306,22.59246],[102.32282,22.59284],[102.33246,22.59139],[102.34159,22.58815],[102.34983,22.58326],[102.35686,22.57692],[102.37289,22.56017],[102.3819,22.5481],[102.38535,22.53992],[102.38819,22.52658],[102.39017,22.52216],[102.3987,22.51146],[102.41175,22.50449],[102.41772,22.50017],[102.42801,22.49033],[102.43264,22.48425],[102.43615,22.47755],[102.43843,22.47039],[102.44044,22.45587],[102.44012,22.44794],[102.4444,22.43238],[102.44496,22.42553],[102.45101,22.42133],[102.45714,22.41513],[102.46415,22.40514],[102.47519,22.39827],[102.4833,22.39102],[102.48895,22.38464],[102.49484,22.3766],[102.5,22.36626],[102.50378,22.3629],[102.50895,22.35626],[102.52065,22.33864],[102.52603,22.33254],[102.53237,22.32287],[102.54087,22.31404],[102.54889,22.3029],[102.56127,22.30578],[102.57467,22.30648],[102.58967,22.3042],[102.60421,22.29894],[102.61231,22.29362],[102.62504,22.28285],[102.63062,22.28891],[102.63958,22.29624],[102.6519,22.30255],[102.65966,22.30542],[102.66782,22.30699],[102.67933,22.30707],[102.68758,22.30596],[102.69551,22.30355],[102.70288,22.29989],[102.71932,22.28635],[102.72407,22.28422],[102.73642,22.28158],[102.74733,22.27808],[102.75705,22.27226],[102.77098,22.26059],[102.78547,22.24457],[102.79145,22.23624],[102.79756,22.22367],[102.79937,22.21568],[102.80014,22.19882],[102.79853,22.18638],[102.79656,22.17797],[102.78845,22.15658],[102.7988,22.14972],[102.80781,22.14104],[102.81844,22.12718],[102.82392,22.1171],[102.83589,22.11101],[102.8443,22.11682],[102.85321,22.12054],[102.86654,22.12422],[102.87501,22.12563],[102.88061,22.12561],[102.88725,22.13497],[102.89621,22.1424],[102.90543,22.14737],[102.9156,22.15032],[102.92621,22.15113],[102.93857,22.14955],[102.9511,22.14516],[102.96017,22.13927],[102.96757,22.13161],[102.97683,22.1162],[102.98126,22.10219],[102.98242,22.09239],[102.99456,22.09676],[103.00711,22.09968],[103.01683,22.10089],[103.02661,22.10025],[103.03381,22.0987],[103.04603,22.10441],[103.05365,22.10613],[103.05507,22.11206],[103.05869,22.12026],[103.06387,22.12809],[103.07063,22.13477],[103.0787,22.14003],[103.08775,22.14366],[103.09738,22.14549],[103.11309,22.14489],[103.13105,22.14045],[103.13985,22.13681],[103.14771,22.1316],[103.15592,22.12391],[103.16121,22.12541],[103.17062,22.12627],[103.18002,22.1254],[103.19225,22.12161],[103.19918,22.1183],[103.2054,22.11403],[103.22319,22.11299],[103.23689,22.10859],[103.23982,22.1201],[103.24415,22.12961],[103.25068,22.13796],[103.26063,22.147],[103.27034,22.15243],[103.28103,22.16826],[103.28736,22.17572],[103.30504,22.1903],[103.31458,22.19495],[103.32234,22.19747],[103.33046,22.19873],[103.34908,22.19779],[103.37479,22.20111],[103.39078,22.20115],[103.40395,22.19858],[103.41332,22.19499],[103.42168,22.18966],[103.42867,22.18281],[103.43399,22.17475],[103.43864,22.16083],[103.44245,22.15532],[103.4475,22.14568],[103.46309,22.09977],[103.47066,22.09708],[103.47827,22.09275],[103.49175,22.08183],[103.49796,22.07294],[103.5125,22.04783],[103.51523,22.039],[103.51599,22.02983],[103.51447,22.01688],[103.51355,22.01456],[103.52831,22.00547],[103.53604,21.99903],[103.54544,21.98725],[103.55049,21.97641],[103.5546,21.95992],[103.55446,21.95105],[103.55247,21.94238],[103.54871,21.93423],[103.54332,21.92693],[103.5378,21.92192],[103.53374,21.91651],[103.53504,21.91058],[103.54237,21.90491],[103.54543,21.90135],[103.55207,21.89705],[103.55917,21.8908],[103.56479,21.88336],[103.56869,21.87501],[103.57033,21.86782],[103.57388,21.85964],[103.57956,21.85294],[103.5844,21.84491],[103.58816,21.83273],[103.58893,21.82104],[103.59192,21.81509],[103.59422,21.80451],[103.59424,21.79163],[103.59962,21.78427],[103.60459,21.7734],[103.6126,21.76255],[103.61786,21.75246],[103.62159,21.74327],[103.62882,21.73026],[103.63329,21.71627],[103.6401,21.70246],[103.6438,21.69178],[103.64503,21.6757],[103.64299,21.66492],[103.6383,21.65471],[103.63309,21.64722],[103.6264,21.64083],[103.61849,21.63579],[103.60742,21.63188],[103.60807,21.62652],[103.60733,21.61782],[103.60429,21.60696],[103.5955,21.59005],[103.58333,21.57667],[103.58038,21.57049],[103.58029,21.56286],[103.57875,21.55466],[103.57563,21.54686],[103.57102,21.53972],[103.56798,21.53652],[103.56453,21.52482],[103.55939,21.51311],[103.55443,21.50637],[103.54824,21.50058],[103.53952,21.49471],[103.53161,21.49136],[103.52318,21.48938],[103.51813,21.48906],[103.5076,21.48183],[103.50126,21.47943],[103.50436,21.46012],[103.50333,21.44855],[103.50098,21.44107],[103.49768,21.43478],[103.49548,21.42412],[103.49146,21.41584],[103.48576,21.40847],[103.47825,21.40139],[103.46694,21.39414],[103.45122,21.38807],[103.43245,21.38513],[103.43494,21.37879],[103.4364,21.3697],[103.4364,21.35973],[103.44835,21.35483],[103.45658,21.35034],[103.46665,21.34145],[103.47294,21.3335],[103.47723,21.32447],[103.48604,21.29864],[103.48818,21.2887],[103.48847,21.27695],[103.48754,21.26794],[103.4856,21.25888],[103.48062,21.24529],[103.48222,21.23304],[103.48173,21.22756],[103.48243,21.21278],[103.48527,21.20088],[103.48537,21.19291],[103.48306,21.17062],[103.48028,21.15902],[103.4764,21.14878],[103.47312,21.14262],[103.46902,21.13627],[103.46387,21.13064],[103.45447,21.12365],[103.45424,21.1202],[103.46577,21.09796],[103.46897,21.08912],[103.4724,21.0722],[103.47219,21.0647],[103.47066,21.05733],[103.46631,21.0464],[103.46086,21.03867],[103.45385,21.03214],[103.44295,21.02583],[103.42794,21.02094],[103.4167,21.0193],[103.40567,21.01958],[103.38908,21.01553],[103.37517,21.01597],[103.36539,21.018],[103.35627,21.02187],[103.34914,21.02677],[103.336,21.03265],[103.33684,21.01995],[103.33565,21.0118],[103.34281,20.99315],[103.34598,20.97607],[103.3455,20.95734],[103.34618,20.94708],[103.34508,20.9393],[103.34162,20.9297],[103.33563,20.92013],[103.337,20.91453],[103.33729,20.90579],[103.33578,20.89717],[103.33238,20.88788],[103.32814,20.881],[103.32285,20.87443],[103.31181,20.86403],[103.30124,20.8582],[103.29105,20.85474],[103.28028,20.85349],[103.2724,20.85393],[103.25553,20.84923],[103.24751,20.84865],[103.2359,20.84873],[103.20489,20.85209],[103.19598,20.85485],[103.18966,20.8582],[103.17647,20.85972],[103.16935,20.86192],[103.16338,20.86008],[103.15422,20.85899],[103.14424,20.85966],[103.1327,20.85426],[103.12415,20.8523],[103.11536,20.85183],[103.10394,20.8534],[103.09471,20.85623],[103.08627,20.86073],[103.07668,20.86901],[103.07059,20.87656],[103.06524,20.88802],[103.0632,20.89568],[103.06274,20.90182],[103.05793,20.90476],[103.05054,20.91186],[103.04431,20.91978],[103.03979,20.92752],[103.03696,20.93593],[103.03587,20.9505],[103.0303,20.95747],[103.02552,20.96537],[103.02389,20.97009],[103.01561,20.98083],[103.0096,20.99751],[103.00311,21.00621],[102.9979,21.01534],[102.98616,21.01631],[102.96876,21.02102],[102.95215,21.02828],[102.94214,21.03436],[102.93464,21.04027],[102.92586,21.04936],[102.91757,21.06261],[102.91429,21.07455],[102.91364,21.08219],[102.91424,21.0884],[102.90765,21.09326],[102.90094,21.10099],[102.89621,21.1099],[102.89315,21.11927],[102.88312,21.12428],[102.87471,21.12965],[102.86454,21.14038],[102.85809,21.1508],[102.85503,21.15905],[102.85373,21.1677],[102.85423,21.17642],[102.856,21.183],[102.8553,21.18796],[102.8558,21.19641],[102.85814,21.20559],[102.84844,21.20281],[102.83542,21.20107],[102.82131,21.20039],[102.80745,21.20308],[102.79037,21.21046],[102.78245,21.21501],[102.7756,21.22089],[102.77009,21.22789],[102.76611,21.23575],[102.76063,21.2554],[102.75986,21.26428],[102.76072,21.27206],[102.763,21.27959],[102.76824,21.28969],[102.77978,21.30254],[102.78733,21.30867],[102.79885,21.3142],[102.80838,21.32477],[102.82453,21.33671],[102.83315,21.34123],[102.84415,21.34418],[102.84678,21.36415],[102.84874,21.37322],[102.84932,21.38611],[102.84165,21.39093],[102.835,21.39715],[102.82725,21.40733],[102.82363,21.41545],[102.82176,21.42406],[102.8217,21.43286],[102.82347,21.4415],[102.82699,21.44965],[102.83727,21.4665],[102.83899,21.47819],[102.84194,21.48829],[102.84473,21.49542],[102.84876,21.50201],[102.85533,21.50925],[102.862,21.51459],[102.87213,21.51958],[102.87587,21.5275],[102.88147,21.53488],[102.88676,21.54056],[102.89559,21.54799],[102.91561,21.56915],[102.92062,21.57947],[102.92794,21.59016],[102.93851,21.60196],[102.93741,21.6101],[102.93754,21.62542],[102.93405,21.63485],[102.93233,21.64724],[102.93269,21.65623],[102.93698,21.67093],[102.93324,21.67934],[102.91383,21.67347],[102.9013,21.66498],[102.89332,21.66192],[102.88488,21.66023],[102.87626,21.65998],[102.86484,21.66131],[102.85667,21.66389],[102.84913,21.66778],[102.84244,21.67286],[102.83457,21.68105],[102.8258,21.67443],[102.81657,21.66947],[102.79885,21.64773],[102.77907,21.63049],[102.76681,21.62256],[102.75236,21.61765],[102.74264,21.61586],[102.73272,21.61596],[102.71794,21.61817],[102.70907,21.61841],[102.70466,21.61548],[102.69717,21.61214],[102.68918,21.61005],[102.67864,21.60923],[102.66806,21.61018],[102.65795,21.61327],[102.64693,21.61967],[102.64056,21.62506],[102.6353,21.63142],[102.6215,21.6591],[102.61803,21.66673],[102.6161,21.67482],[102.61587,21.68447],[102.61307,21.69449],[102.60254,21.71456],[102.5993,21.72348],[102.59798,21.74017],[102.59931,21.75143],[102.60401,21.77741],[102.60743,21.78678],[102.60419,21.79385],[102.60121,21.80447],[102.60008,21.82087],[102.59816,21.82826],[102.58642,21.83572],[102.57762,21.84379],[102.56978,21.85412],[102.56651,21.86104],[102.56384,21.87223],[102.56319,21.88031],[102.56402,21.88771],[102.54287,21.89776],[102.50657,21.92182],[102.4944,21.92517],[102.4863,21.92872],[102.47904,21.93361],[102.47286,21.93966],[102.45169,21.9642],[102.44667,21.97122],[102.44314,21.97899],[102.44117,21.98477],[102.43889,21.99775],[102.43937,22.01194],[102.44163,22.02022],[102.4364,22.02688],[102.43075,22.03033],[102.42533,22.03169],[102.41726,22.0353],[102.41004,22.04025],[102.40392,22.04635],[102.3991,22.0534],[102.39576,22.06116],[102.39363,22.07413],[102.39127,22.08069],[102.38078,22.0822],[102.36886,22.08567],[102.36074,22.08944],[102.35352,22.09457],[102.34449,22.10368],[102.33952,22.11195],[102.33696,22.11964],[102.32071,22.12344],[102.31212,22.12717],[102.30447,22.13239],[102.29582,22.14168],[102.29032,22.15037],[102.28748,22.15868],[102.28323,22.16033],[102.27676,22.16036],[102.2675,22.1617],[102.25868,22.16468],[102.25065,22.16919],[102.2437,22.17507],[102.2381,22.18209],[102.23231,22.19383],[102.21478,22.20105],[102.20748,22.20625],[102.20136,22.21265],[102.19664,22.22001],[102.1935,22.22807],[102.19123,22.24464],[102.18944,22.24803],[102.16953,22.26071],[102.1585,22.26362],[102.15069,22.26762],[102.1438,22.27289],[102.13806,22.27925],[102.13259,22.28778],[102.12973,22.29516],[102.12827,22.30289],[102.12827,22.31074],[102.12966,22.32154],[102.12019,22.33747],[102.11717,22.34585],[102.11542,22.35698],[102.11084,22.36183],[102.10632,22.36883],[102.10416,22.37416]]]}}]}