{"type":"FeatureCollection","features":[{"type":"Feature","geometry":{"type":"MultiPolygon","coordinates":[[[[102.460417,22.189491],[102.460722,22.189173],[102.461844,22.18893],[102.462289,22.189322],[102.4612,22.190276],[102.460417,22.189491]]]]},"properties":{"group":"edu_health","tag":"amenity=hospital","name":"Trung tâm Y tế Mường Nhé","levels":null,"lat":22.18950940462812,"lng":102.46133400821499,"osm_type":"way","osm_id":532934088}},{"type":"Feature","geometry":{"type":"MultiPolygon","coordinates":[[[[102.452174,22.193904],[102.45222,22.19388],[102.452343,22.193832],[102.452542,22.193835],[102.45296,22.19387],[102.453132,22.193842],[102.453301,22.193711],[102.453389,22.193681],[102.453459,22.193683],[102.453545,22.193716],[102.453979,22.19416],[102.454084,22.194282],[102.453378,22.19496],[102.452174,22.193904]]]]},"properties":{"group":"edu_health","tag":"amenity=school","name":"Trường Trung học cơ sở Mường Nhé","levels":null,"lat":22.19423358152555,"lng":102.45323264296272,"osm_type":"way","osm_id":532934091}},{"type":"Feature","geometry":{"type":"MultiPolygon","coordinates":[[[[102.453775,22.193395],[102.453781,22.193301],[102.4545,22.19269],[102.455127,22.193346],[102.454339,22.194021],[102.453775,22.193395]]]]},"properties":{"group":"edu_health","tag":"amenity=school","name":"Trường Trung học phổ thông Mường Nhé","levels":null,"lat":22.193352083894283,"lng":102.4544265326367,"osm_type":"way","osm_id":532934094}},{"type":"Feature","geometry":{"type":"MultiPolygon","coordinates":[[[[103.014549,21.381367],[103.014569,21.380305],[103.014571,21.380191],[103.014677,21.380192],[103.015895,21.380212],[103.015873,21.381389],[103.014549,21.381367]]]]},"properties":{"group":"public","tag":"leisure=garden","name":null,"levels":null,"lat":21.38078976351947,"lng":103.01522199518529,"osm_type":"way","osm_id":640290242}},{"type":"Feature","geometry":{"type":"MultiPolygon","coordinates":[[[[103.015889,21.38335],[103.016069,21.382977],[103.016103,21.382851],[103.016154,21.38261],[103.016249,21.381971],[103.016524,21.381935],[103.016864,21.381943],[103.017533,21.381928],[103.018844,21.381898],[103.019345,21.382022],[103.0195,21.382105],[103.019719,21.382268],[103.019825,21.382349],[103.019503,21.382748],[103.019262,21.382954],[103.019212,21.383208],[103.019041,21.383615],[103.01867,21.383613],[103.018604,21.383808],[103.018423,21.383899],[103.018308,21.384112],[103.01761,21.384432],[103.017267,21.384196],[103.016739,21.383887],[103.016283,21.383599],[103.016104,21.383484],[103.015889,21.38335]]]]},"properties":{"group":"public","tag":"leisure=park","name":"Đồi A1","levels":null,"lat":21.38294349524798,"lng":103.01774339973544,"osm_type":"way","osm_id":640290256}},{"type":"Feature","geometry":{"type":"MultiPolygon","coordinates":[[[[103.019041,21.383615],[103.019212,21.383208],[103.019262,21.382954],[103.019503,21.382748],[103.019825,21.382349],[103.020048,21.382513],[103.019976,21.382646],[103.02026,21.38299],[103.020647,21.383374],[103.020992,21.383843],[103.021342,21.384194],[103.021775,21.384566],[103.021995,21.385012],[103.02203,21.385375],[103.021915,21.385735],[103.021549,21.385845],[103.021022,21.385806],[103.020529,21.385635],[103.019997,21.385381],[103.019841,21.385129],[103.019543,21.384912],[103.019542,21.38464],[103.019315,21.384262],[103.019073,21.383913],[103.019041,21.383615]]]]},"properties":{"group":"public","tag":"leisure=park","name":"Đồi F","levels":null,"lat":21.384356945945292,"lng":103.02045588612992,"osm_type":"way","osm_id":640290262}},{"type":"Feature","geometry":{"type":"MultiPolygon","coordinates":[[[[103.033581,21.385633],[103.033915,21.38507],[103.034314,21.385276],[103.033981,21.385838],[103.033581,21.385633]]]]},"properties":{"group":"public","tag":"leisure=garden","name":null,"levels":null,"lat":21.385454199999998,"lng":103.03394785,"osm_type":"way","osm_id":640293855}},{"type":"Feature","geometry":{"type":"MultiPolygon","coordinates":[[[[103.016324,21.391879],[103.016806,21.391752],[103.016747,21.391283],[103.016865,21.391003],[103.017214,21.390838],[103.017632,21.390703],[103.018158,21.390808],[103.018555,21.390783],[103.019027,21.390828],[103.019515,21.391068],[103.019885,21.391402],[103.020143,21.391572],[103.020658,21.391892],[103.021001,21.392232],[103.021023,21.392671],[103.020974,21.393076],[103.020862,21.393365],[103.020556,21.393595],[103.020191,21.393735],[103.019751,21.393775],[103.019515,21.393875],[103.019499,21.39414],[103.019612,21.394564],[103.019451,21.394774],[103.019161,21.394974],[103.018839,21.394839],[103.018206,21.394384],[103.017622,21.39382],[103.017444,21.393585],[103.017128,21.393425],[103.017021,21.393226],[103.017447,21.393091],[103.017864,21.393116],[103.0179,21.392851],[103.017793,21.392566],[103.017098,21.392497],[103.016954,21.392315],[103.016374,21.39228],[103.016324,21.391879]]]]},"properties":{"group":"public","tag":"leisure=park","name":"Đồi D1","levels":null,"lat":21.3925655056526,"lng":103.01879147035457,"osm_type":"way","osm_id":640295913}},{"type":"Feature","geometry":{"type":"MultiPolygon","coordinates":[[[[103.087551,21.74547],[103.088087,21.745184],[103.088861,21.746432],[103.088324,21.746698],[103.087551,21.74547]]]]},"properties":{"group":"edu_health","tag":"amenity=hospital","name":"Trung tâm Y tế Mường Chà","levels":null,"lat":21.74594406549372,"lng":103.08820499717386,"osm_type":"way","osm_id":656686155}},{"type":"Feature","geometry":{"type":"MultiPolygon","coordinates":[[[[103.089887,21.746339],[103.090364,21.746325],[103.090378,21.746642],[103.090301,21.746924],[103.090284,21.747338],[103.090305,21.747741],[103.089986,21.747747],[103.089887,21.746339]]]]},"properties":{"group":"edu_health","tag":"amenity=school","name":"Trường Phổ thông dân tộc nội trú Trung học phổ thông Na Sang","levels":null,"lat":21.74697638142202,"lng":103.09012895835987,"osm_type":"way","osm_id":656700910}},{"type":"Feature","geometry":{"type":"MultiPolygon","coordinates":[[[[102.985968,21.346011],[102.987212,21.345291],[102.98777,21.344132],[102.98852,21.340924],[102.990517,21.340814],[102.99056,21.339156],[102.991075,21.339315],[102.991375,21.338056],[102.992126,21.337736],[102.99365,21.335218],[102.994337,21.335698],[102.993071,21.338516],[102.99262,21.338496],[102.992298,21.339335],[102.991998,21.339355],[102.991225,21.342273],[102.990538,21.345931],[102.989466,21.345711],[102.989079,21.346211],[102.987556,21.346151],[102.986183,21.34655],[102.985968,21.346011]]]]},"properties":{"group":"apartment","tag":"residential=apartments","name":null,"levels":null,"lat":21.342094913778613,"lng":102.9901317728732,"osm_type":"way","osm_id":680218603}},{"type":"Feature","geometry":{"type":"MultiPolygon","coordinates":[[[[102.990449,21.324158],[102.990707,21.32204],[102.991329,21.32212],[102.991479,21.322319],[102.992767,21.32204],[102.993668,21.32158],[102.994063,21.322441],[102.993387,21.322681],[102.993269,21.322871],[102.993454,21.323359],[102.992059,21.324078],[102.991243,21.324338],[102.990449,21.324158]]]]},"properties":{"group":"apartment","tag":"residential=apartments","name":null,"levels":null,"lat":21.32300453005087,"lng":102.99203409204063,"osm_type":"way","osm_id":680218611}},{"type":"Feature","geometry":{"type":"MultiPolygon","coordinates":[[[[102.989806,21.330315],[102.989913,21.326097],[102.990947,21.325997],[102.990898,21.327618],[102.990844,21.330556],[102.989806,21.330315]]]]},"properties":{"group":"apartment","tag":"residential=apartments","name":null,"levels":null,"lat":21.328247489639065,"lng":102.99038087458563,"osm_type":"way","osm_id":680218612}},{"type":"Feature","geometry":{"type":"MultiPolygon","coordinates":[[[[102.450793,22.19496],[102.45086,22.194806],[102.451842,22.194039],[102.452003,22.193954],[102.453286,22.195109],[102.452686,22.195556],[102.452399,22.195655],[102.452118,22.195683],[102.45185,22.195618],[102.45167,22.195536],[102.451324,22.195412],[102.451158,22.195347],[102.450973,22.195248],[102.450895,22.195176],[102.450801,22.195082],[102.450793,22.19496]]]]},"properties":{"group":"edu_health","tag":"amenity=school","name":"Trường Phổ thông Dân tộc Nội trú Mường Nhé","levels":null,"lat":22.19492797649012,"lng":102.4519947172362,"osm_type":"way","osm_id":686432695}},{"type":"Feature","geometry":{"type":"MultiPolygon","coordinates":[[[[103.149335,22.021771],[103.14935,22.021704],[103.149371,22.021628],[103.149417,22.021547],[103.151183,22.022282],[103.151559,22.02242],[103.151038,22.023326],[103.150941,22.023263],[103.150852,22.023218],[103.150642,22.023126],[103.150355,22.022975],[103.150075,22.02281],[103.149975,22.022745],[103.149793,22.022594],[103.149615,22.02242],[103.149504,22.02228],[103.149445,22.022192],[103.149394,22.022087],[103.149373,22.02204],[103.149354,22.021968],[103.149343,22.021915],[103.149338,22.021824],[103.149335,22.021771]]]]},"properties":{"group":"edu_health","tag":"amenity=school","name":"Trường Trung học phổ thông Mường Lay","levels":null,"lat":22.022428886617703,"lng":103.1504087724839,"osm_type":"way","osm_id":692422210}},{"type":"Feature","geometry":{"type":"MultiPolygon","coordinates":[[[[103.15571,22.070008],[103.155778,22.06998],[103.155785,22.069985],[103.155789,22.069988],[103.155748,22.07013],[103.15573,22.070122],[103.155712,22.07009],[103.15571,22.070008]]]]},"properties":{"group":"public","tag":"leisure=garden","name":null,"levels":null,"lat":22.07004788416982,"lng":103.15574361280255,"osm_type":"way","osm_id":692422387}},{"type":"Feature","geometry":{"type":"MultiPolygon","coordinates":[[[[103.15597,22.069875],[103.156032,22.069848],[103.156109,22.069873],[103.156135,22.069913],[103.156127,22.069916],[103.156115,22.069922],[103.155979,22.069894],[103.155975,22.069884],[103.15597,22.069875]]]]},"properties":{"group":"public","tag":"leisure=garden","name":null,"levels":null,"lat":22.069885601010473,"lng":103.15605452860937,"osm_type":"way","osm_id":692422388}},{"type":"Feature","geometry":{"type":"MultiPolygon","coordinates":[[[[103.156116,22.0702],[103.156122,22.07019],[103.156206,22.070056],[103.156209,22.070051],[103.156252,22.070127],[103.156215,22.070192],[103.156116,22.0702]]]]},"properties":{"group":"public","tag":"leisure=garden","name":null,"levels":null,"lat":22.070140739943824,"lng":103.15619299499599,"osm_type":"way","osm_id":692422389}},{"type":"Feature","geometry":{"type":"MultiPolygon","coordinates":[[[[103.155804,22.070252],[103.155811,22.070253],[103.155964,22.070267],[103.155973,22.070268],[103.155917,22.070342],[103.155847,22.070338],[103.155804,22.070252]]]]},"properties":{"group":"public","tag":"leisure=garden","name":null,"levels":null,"lat":22.070294318828136,"lng":103.15588516328874,"osm_type":"way","osm_id":692422390}},{"type":"Feature","geometry":{"type":"MultiPolygon","coordinates":[[[[103.15437,22.069913],[103.154808,22.069799],[103.154862,22.069785],[103.154952,22.069736],[103.155219,22.07023],[103.154667,22.070489],[103.15437,22.069913]]]]},"properties":{"group":"edu_health","tag":"amenity=school","name":"Trường Tiểu học Đồi Cao","levels":null,"lat":22.070100564597166,"lng":103.1547967193951,"osm_type":"way","osm_id":692422394}},{"type":"Feature","geometry":{"type":"MultiPolygon","coordinates":[[[[103.154032,22.003715],[103.154334,22.003585],[103.154421,22.003653],[103.154551,22.003742],[103.154622,22.003817],[103.154702,22.003931],[103.154726,22.003991],[103.154744,22.004038],[103.154773,22.004084],[103.15479,22.004125],[103.1548,22.004169],[103.154802,22.004222],[103.154253,22.004389],[103.154032,22.003715]]]]},"properties":{"group":"edu_health","tag":"amenity=school","name":"Trường Trung học cơ sở Lay Nưa","levels":null,"lat":22.003991978145844,"lng":103.15440292282743,"osm_type":"way","osm_id":692586084}},{"type":"Feature","geometry":{"type":"MultiPolygon","coordinates":[[[[103.157232,22.018531],[103.157246,22.017658],[103.157267,22.017629],[103.157575,22.017468],[103.157795,22.017442],[103.157913,22.017558],[103.158094,22.017859],[103.158133,22.018016],[103.158141,22.018188],[103.158125,22.019616],[103.158042,22.019717],[103.157462,22.019725],[103.157438,22.019666],[103.157376,22.0192],[103.157351,22.018936],[103.157331,22.018793],[103.157246,22.018578],[103.157232,22.018531]]]]},"properties":{"group":"edu_health","tag":"amenity=hospital","name":"Trung tâm Y tế Mường Lay","levels":null,"lat":22.018585152815028,"lng":103.15770850530755,"osm_type":"way","osm_id":692586121}},{"type":"Feature","geometry":{"type":"MultiPolygon","coordinates":[[[[103.158191,22.028909],[103.158881,22.028807],[103.158954,22.029263],[103.15828,22.029382],[103.158191,22.028909]]]]},"properties":{"group":"edu_health","tag":"amenity=school","name":"Trường Trung học cơ sở Đoàn KẾt","levels":null,"lat":22.029090065095712,"lng":103.15857388860957,"osm_type":"way","osm_id":692586149}},{"type":"Feature","geometry":{"type":"MultiPolygon","coordinates":[[[[103.15828,22.029382],[103.158954,22.029263],[103.159051,22.029854],[103.158444,22.029942],[103.158396,22.029917],[103.158351,22.029864],[103.15828,22.029382]]]]},"properties":{"group":"edu_health","tag":"amenity=school","name":"Trường Tiểu học Võ Thị Sáu","levels":null,"lat":22.02961134157974,"lng":103.15866653296547,"osm_type":"way","osm_id":692586151}},{"type":"Feature","geometry":{"type":"MultiPolygon","coordinates":[[[[102.251438,22.374307],[102.251507,22.374024],[102.25164,22.373904],[102.252314,22.373929],[102.252183,22.374547],[102.251559,22.374569],[102.251438,22.374307]]]]},"properties":{"group":"edu_health","tag":"amenity=school","name":"Trường Trung học cơ sở Sín Thầu","levels":null,"lat":22.374230902637542,"lng":102.25186956526969,"osm_type":"way","osm_id":693908882}},{"type":"Feature","geometry":{"type":"MultiPolygon","coordinates":[[[[102.252183,22.374547],[102.252314,22.373929],[102.252906,22.374145],[102.252737,22.374517],[102.252475,22.374516],[102.252183,22.374547]]]]},"properties":{"group":"edu_health","tag":"amenity=school","name":"Trường Tiểu học xã Sín Thầu","levels":null,"lat":22.37426954138967,"lng":102.2525163143046,"osm_type":"way","osm_id":693908884}},{"type":"Feature","geometry":{"type":"MultiPolygon","coordinates":[[[[102.959571,21.196226],[102.959612,21.196189],[102.959728,21.196081],[102.959764,21.196009],[102.95966,21.195809],[102.959659,21.195692],[102.959643,21.195487],[102.959647,21.195464],[102.959661,21.195454],[102.95968,21.195452],[102.959733,21.195467],[102.959864,21.195528],[102.96014,21.195583],[102.960092,21.19592],[102.960058,21.196458],[102.959613,21.196368],[102.959571,21.196226]]]]},"properties":{"group":"edu_health","tag":"amenity=school","name":null,"levels":null,"lat":21.19596285923294,"lng":102.95987300047045,"osm_type":"way","osm_id":694272824}},{"type":"Feature","geometry":{"type":"MultiPolygon","coordinates":[[[[102.357928,22.341334],[102.358459,22.341155],[102.358852,22.341219],[102.358951,22.341631],[102.358096,22.341873],[102.357928,22.341334]]]]},"properties":{"group":"edu_health","tag":"amenity=school","name":"Trường PTDTBT Tiểu học Leng Su Sìn","levels":null,"lat":22.341487702584494,"lng":102.3584331154908,"osm_type":"way","osm_id":842294595}},{"type":"Feature","geometry":{"type":"MultiPolygon","coordinates":[[[[102.455342,22.194935],[102.455344,22.19489],[102.455814,22.194468],[102.456307,22.19493],[102.455865,22.195315],[102.455776,22.19534],[102.455342,22.194935]]]]},"properties":{"group":"public","tag":"leisure=park","name":null,"levels":null,"lat":22.1949175059017,"lng":102.45581247786372,"osm_type":"way","osm_id":844780339}},{"type":"Feature","geometry":{"type":"MultiPolygon","coordinates":[[[[102.465416,22.183128],[102.466047,22.182664],[102.466631,22.183396],[102.466623,22.183533],[102.465975,22.18391],[102.465943,22.183871],[102.465706,22.183969],[102.465647,22.183955],[102.465454,22.183701],[102.465466,22.183503],[102.465466,22.183456],[102.46546,22.183399],[102.46545,22.183307],[102.465416,22.183128]]]]},"properties":{"group":"edu_health","tag":"amenity=school","name":"Trường PTDTBT Tiểu học Trần Văn Thọ","levels":null,"lat":22.18336208289514,"lng":102.46596673074237,"osm_type":"way","osm_id":844780349}},{"type":"Feature","geometry":{"type":"MultiPolygon","coordinates":[[[[103.093756,21.763979],[103.094003,21.763794],[103.094279,21.763323],[103.094748,21.763565],[103.09511,21.763802],[103.094649,21.76441],[103.093756,21.763979]]]]},"properties":{"group":"edu_health","tag":"amenity=school","name":"Trường Trung học phổ thông Na Sang","levels":null,"lat":21.763878847173864,"lng":103.09446427286373,"osm_type":"way","osm_id":852612434}},{"type":"Feature","geometry":{"type":"MultiPolygon","coordinates":[[[[103.093705,21.764588],[103.093808,21.764088],[103.094603,21.764519],[103.094311,21.764951],[103.093705,21.764588]]]]},"properties":{"group":"edu_health","tag":"amenity=school","name":"Trường tiểu học thị trấn Mường Chà","levels":null,"lat":21.764529225892034,"lng":103.09411504310474,"osm_type":"way","osm_id":852612438}},{"type":"Feature","geometry":{"type":"MultiPolygon","coordinates":[[[[103.092321,21.764249],[103.092589,21.763791],[103.093302,21.764243],[103.093032,21.76465],[103.092321,21.764249]]]]},"properties":{"group":"edu_health","tag":"amenity=school","name":"Trường Trung học cơ sở thị trấn Mường Chà","levels":null,"lat":21.764228824720867,"lng":103.09280688612868,"osm_type":"way","osm_id":852612443}},{"type":"Feature","geometry":{"type":"MultiPolygon","coordinates":[[[[103.1536,22.023082],[103.153601,22.022968],[103.153666,22.022789],[103.153739,22.022574],[103.153793,22.022432],[103.153811,22.02237],[103.153821,22.022329],[103.153821,22.022283],[103.15391,22.022253],[103.153898,22.022204],[103.154343,22.022105],[103.154323,22.022231],[103.154305,22.022355],[103.154252,22.022502],[103.154155,22.022651],[103.154038,22.022779],[103.153796,22.022952],[103.1536,22.023082]]]]},"properties":{"group":"public","tag":"leisure=park","name":null,"levels":null,"lat":22.022536294886994,"lng":103.15397233134269,"osm_type":"way","osm_id":852767809}},{"type":"Feature","geometry":{"type":"MultiPolygon","coordinates":[[[[103.152303,22.022406],[103.15241,22.022071],[103.152461,22.022019],[103.152545,22.021992],[103.153188,22.022149],[103.153224,22.022222],[103.153133,22.022579],[103.152303,22.022406]]]]},"properties":{"group":"edu_health","tag":"amenity=school","name":"Trường Tiểu học Nậm Cản","levels":null,"lat":22.022282162364974,"lng":103.15277696154436,"osm_type":"way","osm_id":852767820}},{"type":"Feature","geometry":{"type":"MultiPolygon","coordinates":[[[[103.152201,22.022752],[103.152303,22.022406],[103.153133,22.022579],[103.152951,22.023159],[103.152892,22.02322],[103.152393,22.023393],[103.152274,22.023089],[103.15222,22.022928],[103.152201,22.022752]]]]},"properties":{"group":"edu_health","tag":"amenity=school","name":"Trường Trung học cơ sở Nguyễn Bá Ngọc","levels":null,"lat":22.02286684634639,"lng":103.15262110200766,"osm_type":"way","osm_id":852767821}},{"type":"Feature","geometry":{"type":"MultiPolygon","coordinates":[[[[103.158826,22.070212],[103.159041,22.070217],[103.159052,22.070593],[103.158899,22.07069],[103.15884,22.070714],[103.158834,22.070655],[103.158845,22.070573],[103.158826,22.070212]]]]},"properties":{"group":"public","tag":"leisure=garden","name":null,"levels":null,"lat":22.070437595512015,"lng":103.15893621447199,"osm_type":"way","osm_id":888500758}},{"type":"Feature","geometry":{"type":"MultiPolygon","coordinates":[[[[103.158467,22.071786],[103.158555,22.071597],[103.158641,22.071415],[103.158759,22.071062],[103.158807,22.070849],[103.158821,22.070757],[103.158925,22.070767],[103.158966,22.07079],[103.158931,22.070842],[103.15929,22.071049],[103.159306,22.071021],[103.159446,22.071102],[103.159583,22.070893],[103.15936,22.070769],[103.159569,22.070583],[103.159529,22.070227],[103.159459,22.070098],[103.159336,22.070056],[103.159223,22.070033],[103.159108,22.070026],[103.159025,22.070028],[103.158915,22.070023],[103.15884,22.070023],[103.15877,22.070013],[103.158547,22.06945],[103.158874,22.069316],[103.159038,22.069623],[103.159223,22.069745],[103.159666,22.070038],[103.159939,22.070252],[103.160012,22.070441],[103.160012,22.070543],[103.159966,22.0706],[103.159615,22.071013],[103.159373,22.071274],[103.15933,22.071574],[103.159175,22.071716],[103.159127,22.071736],[103.158869,22.071778],[103.158714,22.071808],[103.158601,22.071848],[103.158523,22.071811],[103.158467,22.071786]]]]},"properties":{"group":"public","tag":"leisure=garden","name":null,"levels":null,"lat":22.070687671798204,"lng":103.1591707370308,"osm_type":"way","osm_id":888500759}},{"type":"Feature","geometry":{"type":"MultiPolygon","coordinates":[[[[103.013145,21.387605],[103.01334,21.387565],[103.013357,21.387631],[103.013331,21.387679],[103.013312,21.387731],[103.013256,21.387751],[103.013196,21.387755],[103.013145,21.387605]]]]},"properties":{"group":"public","tag":"leisure=park","name":"Hầm Piroth","levels":null,"lat":21.38765761240987,"lng":103.01325480372716,"osm_type":"way","osm_id":959988675}},{"type":"Feature","geometry":{"type":"MultiPolygon","coordinates":[[[[103.030961,21.388993],[103.031183,21.388746],[103.031289,21.388732],[103.031346,21.38869],[103.031415,21.388651],[103.031436,21.388586],[103.031509,21.388578],[103.031707,21.388578],[103.031843,21.388569],[103.031945,21.388575],[103.032002,21.388584],[103.032032,21.388727],[103.032029,21.388836],[103.032013,21.388938],[103.031997,21.389009],[103.031979,21.389081],[103.031955,21.389132],[103.031903,21.389208],[103.031742,21.389343],[103.031649,21.389283],[103.031576,21.389363],[103.031518,21.389405],[103.030961,21.388993]]]]},"properties":{"group":"public","tag":"leisure=park","name":"Công viên Noong Bua","levels":null,"lat":21.388947228101955,"lng":103.03157085150896,"osm_type":"way","osm_id":959989941}},{"type":"Feature","geometry":{"type":"MultiPolygon","coordinates":[[[[103.016427,21.385496],[103.016463,21.385366],[103.016536,21.385247],[103.01667,21.385236],[103.01684,21.385253],[103.017082,21.385315],[103.017507,21.385564],[103.018709,21.386389],[103.018739,21.386581],[103.018654,21.386654],[103.018697,21.386768],[103.018788,21.386864],[103.01877,21.387203],[103.0188,21.38731],[103.018879,21.387378],[103.019067,21.38748],[103.019273,21.387587],[103.019565,21.387751],[103.019898,21.387903],[103.02019,21.38805],[103.02042,21.388175],[103.020438,21.388276],[103.020432,21.388435],[103.020378,21.388553],[103.02036,21.388728],[103.020299,21.388842],[103.020202,21.388988],[103.020044,21.389039],[103.019916,21.389022],[103.019674,21.388972],[103.019486,21.388949],[103.019413,21.388836],[103.019182,21.388712],[103.019,21.388627],[103.018685,21.38861],[103.018217,21.388503],[103.017908,21.388429],[103.017786,21.388209],[103.017786,21.388039],[103.017786,21.387706],[103.017847,21.387531],[103.017987,21.387531],[103.018132,21.387519],[103.01815,21.387338],[103.018157,21.387129],[103.018065,21.387101],[103.017804,21.386982],[103.017647,21.386892],[103.017629,21.386802],[103.017586,21.386643],[103.017404,21.38653],[103.017161,21.386406],[103.016967,21.38631],[103.016718,21.386208],[103.016615,21.386106],[103.016475,21.385903],[103.016427,21.385683],[103.016427,21.385496]]]]},"properties":{"group":"public","tag":"leisure=park","name":"Đồi C1","levels":null,"lat":21.387286021683504,"lng":103.01842393258987,"osm_type":"way","osm_id":960016476}},{"type":"Feature","geometry":{"type":"MultiPolygon","coordinates":[[[[103.059453,21.470081],[103.059953,21.469879],[103.059997,21.470579],[103.05954,21.470608],[103.059453,21.470081]]]]},"properties":{"group":"public","tag":"leisure=park","name":"Công Viên Tượng Đài Kéo Pháo","levels":null,"lat":21.470277813164152,"lng":103.0597454099286,"osm_type":"way","osm_id":960019192}},{"type":"Feature","geometry":{"type":"MultiPolygon","coordinates":[[[[103.149175,21.451681],[103.149305,21.451327],[103.149568,21.450823],[103.150752,21.451866],[103.150301,21.451883],[103.150086,21.451842],[103.1499,21.451811],[103.149714,21.451764],[103.149395,21.451721],[103.149175,21.451681]]]]},"properties":{"group":"public","tag":"leisure=park","name":"Tượng Đài Di Tích Mường Phăng","levels":null,"lat":21.451477098313344,"lng":103.1498411554645,"osm_type":"way","osm_id":960041871}},{"type":"Feature","geometry":{"type":"MultiPolygon","coordinates":[[[[103.01562,21.395717],[103.015758,21.395195],[103.016013,21.395283],[103.016147,21.394881],[103.01682,21.395068],[103.017081,21.395164],[103.017184,21.395023],[103.017937,21.395384],[103.018781,21.395927],[103.018768,21.396136],[103.019151,21.396413],[103.018902,21.396927],[103.018817,21.397232],[103.018519,21.397713],[103.01824,21.397888],[103.017797,21.39795],[103.017476,21.397899],[103.017075,21.397667],[103.016942,21.397334],[103.016681,21.397136],[103.01642,21.396944],[103.016322,21.39678],[103.016216,21.396741],[103.016189,21.396662],[103.016071,21.396641],[103.016045,21.396561],[103.016011,21.396409],[103.015904,21.396029],[103.015891,21.395969],[103.015646,21.395969],[103.01562,21.395717]]]]},"properties":{"group":"public","tag":"leisure=park","name":"Đồi E2","levels":null,"lat":21.3963846780174,"lng":103.0173979509186,"osm_type":"way","osm_id":960111916}},{"type":"Feature","geometry":{"type":"MultiPolygon","coordinates":[[[[103.013672,21.39581],[103.014067,21.395087],[103.014067,21.394832],[103.014546,21.393939],[103.01562,21.39442],[103.015413,21.395008],[103.015693,21.395109],[103.015511,21.395652],[103.015269,21.395635],[103.015323,21.395872],[103.015262,21.396042],[103.014303,21.396641],[103.014067,21.396279],[103.013824,21.396115],[103.013672,21.39581]]]]},"properties":{"group":"public","tag":"leisure=park","name":"Đồi E1","levels":null,"lat":21.3952900351089,"lng":103.01469694798023,"osm_type":"way","osm_id":960112186}},{"type":"Feature","geometry":{"type":"MultiPolygon","coordinates":[[[[103.013036,21.38898],[103.013725,21.388975],[103.013904,21.389978],[103.013741,21.390191],[103.013618,21.390063],[103.01345,21.389935],[103.013194,21.389745],[103.013133,21.389631],[103.013036,21.38898]]]]},"properties":{"group":"public","tag":"leisure=park","name":"Công Viên Vừ A Dính","levels":null,"lat":21.389487926652933,"lng":103.01349063471547,"osm_type":"way","osm_id":962982791}},{"type":"Feature","geometry":{"type":"MultiPolygon","coordinates":[[[[103.013942,21.387756],[103.014013,21.387748],[103.014008,21.387713],[103.014051,21.387708],[103.014053,21.3877],[103.01406,21.38769],[103.01407,21.387684],[103.014055,21.387561],[103.014182,21.387547],[103.014198,21.387675],[103.01421,21.38768],[103.014222,21.387689],[103.014227,21.387697],[103.014264,21.387693],[103.014269,21.387731],[103.014332,21.387724],[103.014355,21.387909],[103.014334,21.387912],[103.01434,21.387959],[103.014306,21.387963],[103.014314,21.388028],[103.014042,21.388057],[103.014033,21.387984],[103.01399,21.387989],[103.013984,21.387941],[103.013965,21.387943],[103.013942,21.387756]]]]},"properties":{"group":"public","tag":"amenity=community_centre","name":"Cung Văn Hóa Thiếu Nhi","levels":3.0,"lat":21.387834664236912,"lng":103.01414925639298,"osm_type":"way","osm_id":962983645}},{"type":"Feature","geometry":{"type":"MultiPolygon","coordinates":[[[[103.024383,21.389413],[103.024595,21.389402],[103.024647,21.389482],[103.024484,21.389593],[103.024383,21.389413]]]]},"properties":{"group":"public","tag":"leisure=park","name":null,"levels":null,"lat":21.389476792452157,"lng":103.02451602342056,"osm_type":"way","osm_id":962983807}},{"type":"Feature","geometry":{"type":"MultiPolygon","coordinates":[[[[103.023905,21.389139],[103.024269,21.389119],[103.024272,21.389167],[103.023908,21.389187],[103.023905,21.389139]]]]},"properties":{"group":"public","tag":"leisure=park","name":null,"levels":null,"lat":21.389152899109053,"lng":103.02408847139654,"osm_type":"way","osm_id":962984046}},{"type":"Feature","geometry":{"type":"MultiPolygon","coordinates":[[[[103.024315,21.389108],[103.024608,21.389098],[103.02461,21.389152],[103.024317,21.389162],[103.024315,21.389108]]]]},"properties":{"group":"public","tag":"leisure=park","name":null,"levels":null,"lat":21.38912997192548,"lng":103.02446256818773,"osm_type":"way","osm_id":962984166}},{"type":"Feature","geometry":{"type":"MultiPolygon","coordinates":[[[[103.008627,21.384477],[103.010759,21.384322],[103.010777,21.384413],[103.010875,21.385105],[103.00867,21.38532],[103.008627,21.384477]]]]},"properties":{"group":"public","tag":"leisure=park","name":null,"levels":null,"lat":21.38480931698491,"lng":103.00972205622148,"osm_type":"way","osm_id":977471663}},{"type":"Feature","geometry":{"type":"MultiPolygon","coordinates":[[[[103.023756,21.389],[103.023782,21.388388],[103.023852,21.388256],[103.023963,21.388204],[103.024326,21.388115],[103.024474,21.388124],[103.024609,21.388184],[103.024738,21.388828],[103.024623,21.388913],[103.024637,21.389015],[103.024945,21.389224],[103.024983,21.38941],[103.025018,21.389827],[103.024984,21.389943],[103.024844,21.389906],[103.024748,21.390105],[103.02451,21.390176],[103.024531,21.390232],[103.024393,21.390296],[103.024115,21.390366],[103.023871,21.389863],[103.023799,21.389674],[103.023767,21.389497],[103.023756,21.389]]]]},"properties":{"group":"edu_health","tag":"amenity=school","name":"Trường Trung học phổ thông chuyên Lê Quý Đôn","levels":null,"lat":21.389235296433334,"lng":103.02431588772349,"osm_type":"way","osm_id":1034719621}},{"type":"Feature","geometry":{"type":"MultiPolygon","coordinates":[[[[103.00751,21.378595],[103.007926,21.378535],[103.008108,21.378615],[103.008451,21.378605],[103.008489,21.378815],[103.008661,21.378915],[103.008886,21.37892],[103.00894,21.37888],[103.009015,21.378865],[103.009138,21.37901],[103.009138,21.379259],[103.009261,21.379389],[103.009299,21.379579],[103.009379,21.379689],[103.009492,21.379794],[103.009596,21.380054],[103.009474,21.38048],[103.009154,21.380528],[103.009047,21.380428],[103.00858,21.380433],[103.008358,21.380561],[103.008382,21.380668],[103.008596,21.380888],[103.007963,21.380768],[103.00751,21.378595]]]]},"properties":{"group":"edu_health","tag":"amenity=school","name":null,"levels":null,"lat":21.379661160324076,"lng":103.00848326647403,"osm_type":"way","osm_id":1064289884}},{"type":"Feature","geometry":{"type":"MultiPolygon","coordinates":[[[[103.024991,21.387478],[103.02522,21.387071],[103.025304,21.387094],[103.025536,21.386676],[103.025741,21.386726],[103.02576,21.386882],[103.025942,21.386925],[103.026533,21.38698],[103.026322,21.387468],[103.026633,21.387383],[103.02695,21.387828],[103.02673,21.388077],[103.026633,21.388037],[103.026279,21.388227],[103.026252,21.388562],[103.025389,21.388547],[103.025169,21.387853],[103.024991,21.387478]]]]},"properties":{"group":"edu_health","tag":"amenity=university","name":"Phân hiệu Đại học Thái Nguyên tại tỉnh Điện Biên","levels":null,"lat":21.38768350077406,"lng":103.0258802681798,"osm_type":"way","osm_id":1079234571}},{"type":"Feature","geometry":{"type":"MultiPolygon","coordinates":[[[[103.032419,21.395456],[103.032559,21.395195],[103.032818,21.394732],[103.032807,21.394698],[103.032776,21.394671],[103.03275,21.39464],[103.032719,21.394599],[103.032675,21.394536],[103.03263,21.394417],[103.032618,21.394369],[103.032604,21.394307],[103.032603,21.394261],[103.032671,21.394143],[103.032753,21.394057],[103.032936,21.393907],[103.033032,21.393798],[103.033076,21.393691],[103.033097,21.393653],[103.033244,21.393475],[103.033454,21.393314],[103.033527,21.39328],[103.033725,21.393165],[103.034062,21.39309],[103.034147,21.393082],[103.034291,21.39304],[103.034536,21.392972],[103.034628,21.39296],[103.034751,21.392935],[103.034818,21.392885],[103.034944,21.392826],[103.035049,21.392816],[103.035108,21.392808],[103.035141,21.392808],[103.035179,21.392791],[103.035581,21.393349],[103.035581,21.393389],[103.035575,21.393422],[103.035566,21.393446],[103.03554,21.393476],[103.035501,21.393516],[103.035351,21.39361],[103.034902,21.393952],[103.034606,21.394195],[103.034402,21.39433],[103.034315,21.394373],[103.03414,21.394518],[103.033993,21.394656],[103.033845,21.39482],[103.033645,21.394998],[103.033486,21.395179],[103.033393,21.395356],[103.033258,21.395578],[103.03287,21.396239],[103.032814,21.396208],[103.032683,21.39608],[103.03265,21.39599],[103.032577,21.395902],[103.032498,21.395803],[103.032444,21.395685],[103.032435,21.395609],[103.032419,21.395456]]]]},"properties":{"group":"public","tag":"leisure=park","name":"Công viên Hoa Ban","levels":null,"lat":21.394195146636314,"lng":103.03378246560625,"osm_type":"way","osm_id":1104429558}},{"type":"Feature","geometry":{"type":"MultiPolygon","coordinates":[[[[103.033238,21.394352],[103.033241,21.394317],[103.033246,21.394287],[103.033251,21.394263],[103.033261,21.394249],[103.033288,21.394217],[103.033306,21.394202],[103.033344,21.394183],[103.033426,21.394164],[103.033477,21.39417],[103.033505,21.39417],[103.033564,21.394197],[103.033581,21.394215],[103.033591,21.39423],[103.0336,21.394252],[103.033609,21.394274],[103.033618,21.394296],[103.033626,21.394347],[103.033627,21.394365],[103.033626,21.394382],[103.033619,21.394407],[103.033618,21.394422],[103.033603,21.394441],[103.033593,21.394455],[103.033584,21.394466],[103.033576,21.394474],[103.033552,21.394489],[103.033526,21.394505],[103.0335,21.394515],[103.033453,21.394526],[103.03339,21.394522],[103.03333,21.394504],[103.033279,21.394472],[103.033268,21.394446],[103.033249,21.39441],[103.03324,21.394384],[103.033238,21.394352]]]]},"properties":{"group":"public","tag":"leisure=park","name":null,"levels":null,"lat":21.394344808154074,"lng":103.03343258129424,"osm_type":"way","osm_id":1104431905}},{"type":"Feature","geometry":{"type":"MultiPolygon","coordinates":[[[[103.022572,21.404215],[103.023265,21.4038],[103.024188,21.403928],[103.02448,21.403785],[103.024557,21.403413],[103.02488,21.403427],[103.024896,21.404358],[103.025111,21.404559],[103.025711,21.404473],[103.025742,21.403628],[103.026834,21.403656],[103.027126,21.403972],[103.026788,21.404544],[103.026588,21.404501],[103.026096,21.405261],[103.026357,21.406077],[103.026203,21.406607],[103.025942,21.406765],[103.026012,21.407051],[103.026717,21.40731],[103.026381,21.407729],[103.026175,21.407786],[103.026014,21.40831],[103.024594,21.408181],[103.023797,21.407831],[103.023634,21.407974],[103.023465,21.407753],[103.023511,21.407323],[103.024219,21.407022],[103.024157,21.406535],[103.023372,21.406679],[103.023311,21.405476],[103.022726,21.404645],[103.022572,21.404215]]]]},"properties":{"group":"public","tag":"leisure=park","name":"Đồi Him Lam","levels":null,"lat":21.40579151842473,"lng":103.02486027466614,"osm_type":"way","osm_id":1204347952}},{"type":"Feature","geometry":{"type":"MultiPolygon","coordinates":[[[[103.037517,21.402467],[103.037949,21.401703],[103.03801,21.401626],[103.038077,21.401615],[103.038392,21.401731],[103.037861,21.402621],[103.037517,21.402467]]]]},"properties":{"group":"public","tag":"leisure=park","name":"Công Viên Tái Định Cư Him Lam","levels":null,"lat":21.40210097213176,"lng":103.03794860373871,"osm_type":"way","osm_id":1204348013}},{"type":"Feature","geometry":{"type":"MultiPolygon","coordinates":[[[[103.010605,21.372384],[103.010746,21.372321],[103.012265,21.374438],[103.011727,21.374905],[103.011698,21.375002],[103.011749,21.375164],[103.012813,21.376904],[103.012449,21.377059],[103.012431,21.376861],[103.012427,21.376706],[103.012351,21.376353],[103.012229,21.376081],[103.011702,21.375197],[103.011659,21.374972],[103.011623,21.374559],[103.012157,21.374508],[103.012211,21.374428],[103.012059,21.374192],[103.011557,21.374229],[103.011471,21.37389],[103.011327,21.373601],[103.011168,21.373268],[103.010922,21.372831],[103.010605,21.372384]]]]},"properties":{"group":"public","tag":"leisure=park","name":"Công Viên Nam Thanh","levels":null,"lat":21.374442525703746,"lng":103.01173409118172,"osm_type":"way","osm_id":1204348096}},{"type":"Feature","geometry":{"type":"MultiPolygon","coordinates":[[[[103.010472,21.381956],[103.010931,21.381904],[103.010969,21.38227],[103.010525,21.38232],[103.010472,21.381956]]]]},"properties":{"group":"public","tag":"leisure=park","name":"Công Viên Tưởng Niệm Lính Pháp","levels":null,"lat":21.38211112759584,"lng":103.01072417593781,"osm_type":"way","osm_id":1204348316}},{"type":"Feature","geometry":{"type":"MultiPolygon","coordinates":[[[[103.008584,21.382286],[103.008587,21.382254],[103.008713,21.382258],[103.008779,21.382252],[103.008839,21.38223],[103.008929,21.382182],[103.008998,21.382122],[103.009056,21.38205],[103.00911,21.381944],[103.009148,21.381864],[103.009183,21.381767],[103.009294,21.381763],[103.009318,21.382056],[103.009322,21.382132],[103.009314,21.382174],[103.009288,21.382208],[103.008925,21.382268],[103.008807,21.382292],[103.0087,21.382286],[103.008584,21.382286]]]]},"properties":{"group":"public","tag":"leisure=park","name":"Công Viên Phố 5 Thanh Trường","levels":null,"lat":21.382073821841317,"lng":103.00912352892679,"osm_type":"way","osm_id":1204348419}},{"type":"Feature","geometry":{"type":"MultiPolygon","coordinates":[[[[103.010835,21.38438],[103.01123,21.384311],[103.011474,21.38562],[103.011481,21.385754],[103.011481,21.385909],[103.011452,21.386006],[103.011434,21.386073],[103.011423,21.386151],[103.011409,21.386225],[103.011365,21.386292],[103.01121,21.386255],[103.011192,21.386201],[103.011102,21.385714],[103.010835,21.38438]]]]},"properties":{"group":"public","tag":"leisure=park","name":"Khu Di Tích Hầm Đờ Cát","levels":null,"lat":21.385241634842377,"lng":103.01119685953108,"osm_type":"way","osm_id":1204348923}},{"type":"Feature","geometry":{"type":"MultiPolygon","coordinates":[[[[103.008518,21.386971],[103.008673,21.385949],[103.008648,21.385418],[103.010911,21.385196],[103.011127,21.386262],[103.011106,21.386312],[103.011019,21.386376],[103.01094,21.386416],[103.008518,21.386971]]]]},"properties":{"group":"public","tag":"leisure=park","name":"Khuôn viên Di tích Hầm Đờ Cát","levels":null,"lat":21.38601153606174,"lng":103.0097754594409,"osm_type":"way","osm_id":1204349012}},{"type":"Feature","geometry":{"type":"MultiPolygon","coordinates":[[[[103.006132,21.421365],[103.006186,21.421031],[103.006325,21.420139],[103.006372,21.420138],[103.006462,21.420128],[103.006587,21.42014],[103.006685,21.420173],[103.006934,21.420296],[103.006968,21.420306],[103.007241,21.42039],[103.007395,21.420426],[103.007321,21.420711],[103.007697,21.420788],[103.007694,21.420889],[103.008004,21.420985],[103.008045,21.421165],[103.008074,21.42134],[103.008121,21.421632],[103.007973,21.421857],[103.00789,21.422143],[103.007983,21.422483],[103.008438,21.422941],[103.008547,21.423178],[103.008559,21.423449],[103.008559,21.423721],[103.008559,21.423969],[103.008487,21.424195],[103.00845,21.424444],[103.00828,21.424625],[103.008007,21.424692],[103.007594,21.424704],[103.007212,21.424862],[103.007036,21.424907],[103.006811,21.424704],[103.006799,21.424427],[103.006459,21.424331],[103.006381,21.42424],[103.006423,21.424071],[103.006447,21.423839],[103.006466,21.423506],[103.006453,21.423353],[103.006435,21.423127],[103.006405,21.422867],[103.006344,21.422478],[103.006271,21.422308],[103.006217,21.422201],[103.00618,21.422105],[103.006174,21.42202],[103.006138,21.421845],[103.006138,21.421585],[103.006132,21.421365]]]]},"properties":{"group":"public","tag":"leisure=park","name":"Khuôn viên Di Tích Đồi Độc Lập","levels":null,"lat":21.422627801620703,"lng":103.00726327538135,"osm_type":"way","osm_id":1204349341}},{"type":"Feature","geometry":{"type":"MultiPolygon","coordinates":[[[[103.030859,21.392996],[103.031116,21.391967],[103.031224,21.391682],[103.03132,21.391527],[103.031524,21.391385],[103.032149,21.391967],[103.032627,21.392311],[103.033539,21.392304],[103.03353,21.393028],[103.032892,21.39355],[103.032404,21.39351],[103.032125,21.39336],[103.032077,21.39328],[103.031792,21.39326],[103.031755,21.39319],[103.031288,21.39314],[103.030859,21.392996]]]]},"properties":{"group":"edu_health","tag":"amenity=hospital","name":"Bệnh viện Đa khoa tỉnh Điện Biên","levels":null,"lat":21.392623383128377,"lng":103.03215131152972,"osm_type":"way","osm_id":1204399183}},{"type":"Feature","geometry":{"type":"MultiPolygon","coordinates":[[[[103.03353,21.393028],[103.033539,21.392304],[103.034684,21.392206],[103.034796,21.392351],[103.034802,21.392731],[103.034687,21.392765],[103.034668,21.392771],[103.033826,21.392836],[103.03353,21.393028]]]]},"properties":{"group":"edu_health","tag":"amenity=university","name":"Phân hiệu Đại học Thái Nguyên tại tỉnh Điện Biên","levels":null,"lat":21.392545981608798,"lng":103.03414147189984,"osm_type":"way","osm_id":1204399184}},{"type":"Feature","geometry":{"type":"MultiPolygon","coordinates":[[[[103.035868,21.38383],[103.03597,21.383648],[103.03704,21.383321],[103.03737,21.38411],[103.037365,21.38438],[103.037134,21.384332],[103.036351,21.384355],[103.036048,21.384425],[103.035868,21.38383]]]]},"properties":{"group":"edu_health","tag":"amenity=hospital","name":"Bệnh viện Phổi tỉnh Điện Biên","levels":null,"lat":21.38392787550088,"lng":103.03663526172244,"osm_type":"way","osm_id":1204399202}},{"type":"Feature","geometry":{"type":"MultiPolygon","coordinates":[[[[103.022933,21.383721],[103.023488,21.38291],[103.02378,21.38303],[103.023818,21.383032],[103.024049,21.383179],[103.024215,21.38296],[103.024483,21.383117],[103.024445,21.383177],[103.024668,21.383337],[103.024628,21.383384],[103.024987,21.383651],[103.024309,21.384318],[103.022933,21.383721]]]]},"properties":{"group":"edu_health","tag":"amenity=hospital","name":"Bệnh viện Y học cổ truyền - Phục hồi chức năng tỉnh Điện Biên","levels":null,"lat":21.383598321103005,"lng":103.02396725123721,"osm_type":"way","osm_id":1204399203}},{"type":"Feature","geometry":{"type":"MultiPolygon","coordinates":[[[[103.033975,21.40622],[103.034182,21.406008],[103.034657,21.405918],[103.035464,21.405921],[103.035434,21.406412],[103.035279,21.406875],[103.034426,21.406865],[103.034246,21.40673],[103.034206,21.40658],[103.033975,21.40622]]]]},"properties":{"group":"edu_health","tag":"amenity=hospital","name":null,"levels":null,"lat":21.406374619259868,"lng":103.03478459287936,"osm_type":"way","osm_id":1204399204}},{"type":"Feature","geometry":{"type":"MultiPolygon","coordinates":[[[[102.762008,21.808882],[102.76205,21.808734],[102.76218,21.808442],[102.762264,21.808333],[102.762435,21.808106],[102.762986,21.808333],[102.762932,21.808432],[102.762629,21.808957],[102.762368,21.809296],[102.762031,21.809152],[102.762008,21.808882]]]]},"properties":{"group":"edu_health","tag":"amenity=hospital","name":"Trung tâm Y tế huyện Nậm Pồ","levels":null,"lat":21.808682397098988,"lng":102.76243671039065,"osm_type":"way","osm_id":1204399206}},{"type":"Feature","geometry":{"type":"MultiPolygon","coordinates":[[[[103.354581,21.851396],[103.354911,21.850672],[103.354809,21.850622],[103.355032,21.850259],[103.355104,21.850186],[103.355209,21.850164],[103.355692,21.850157],[103.355917,21.850246],[103.355938,21.850363],[103.355726,21.850565],[103.355678,21.850662],[103.355665,21.850779],[103.355761,21.851128],[103.355262,21.85173],[103.355155,21.851785],[103.354989,21.851675],[103.354838,21.851536],[103.354581,21.851396]]]]},"properties":{"group":"edu_health","tag":"amenity=hospital","name":"Trung tâm Y tế Tủa Chùa","levels":null,"lat":21.85090639004182,"lng":103.35525635589144,"osm_type":"way","osm_id":1204399207}},{"type":"Feature","geometry":{"type":"MultiPolygon","coordinates":[[[[103.417726,21.587955],[103.418262,21.586937],[103.418804,21.587167],[103.418959,21.587301],[103.419179,21.587491],[103.419453,21.587825],[103.418702,21.588449],[103.417726,21.587955]]]]},"properties":{"group":"edu_health","tag":"amenity=hospital","name":"Trung tâm Y tế Tuần Giáo","levels":null,"lat":21.587722271318107,"lng":103.4185635378497,"osm_type":"way","osm_id":1204399208}},{"type":"Feature","geometry":{"type":"MultiPolygon","coordinates":[[[[103.217037,21.520027],[103.217668,21.518361],[103.217767,21.518311],[103.218609,21.518578],[103.218486,21.518683],[103.218126,21.519341],[103.217686,21.520225],[103.217037,21.520027]]]]},"properties":{"group":"edu_health","tag":"amenity=hospital","name":"Trung tâm Y tế Mường Ảng","levels":null,"lat":21.51923336789918,"lng":103.21775856085661,"osm_type":"way","osm_id":1204399209}},{"type":"Feature","geometry":{"type":"MultiPolygon","coordinates":[[[[103.230932,21.302265],[103.231061,21.302056],[103.230943,21.301966],[103.231163,21.301756],[103.232096,21.302415],[103.232026,21.3025],[103.232418,21.302805],[103.232059,21.30324],[103.23149,21.302835],[103.231533,21.30266],[103.230932,21.302265]]]]},"properties":{"group":"edu_health","tag":"amenity=hospital","name":"Trung tâm Y tế Điện Biên Đông","levels":null,"lat":21.302498806480735,"lng":103.23165914415058,"osm_type":"way","osm_id":1204399212}},{"type":"Feature","geometry":{"type":"MultiPolygon","coordinates":[[[[103.02076,21.328085],[103.02109,21.328021],[103.021722,21.328026],[103.022028,21.328074],[103.022018,21.328865],[103.021924,21.328882],[103.021819,21.328945],[103.021741,21.329045],[103.021666,21.329252],[103.021618,21.329257],[103.02139,21.32921],[103.021186,21.32915],[103.020867,21.329147],[103.020859,21.329075],[103.020821,21.329067],[103.020837,21.328782],[103.02076,21.328085]]]]},"properties":{"group":"edu_health","tag":"amenity=hospital","name":"Trung tâm Y tế huyện Điện Biên","levels":null,"lat":21.32857808025088,"lng":103.0213946901029,"osm_type":"way","osm_id":1204399213}},{"type":"Feature","geometry":{"type":"MultiPolygon","coordinates":[[[[103.022674,21.386869],[103.022699,21.386484],[103.022745,21.386146],[103.023312,21.386171],[103.023533,21.386181],[103.023645,21.386186],[103.023648,21.386708],[103.023629,21.386808],[103.023562,21.386889],[103.023525,21.386952],[103.023519,21.386973],[103.023503,21.387029],[103.022776,21.386986],[103.022674,21.386869]]]]},"properties":{"group":"edu_health","tag":"amenity=school","name":"Trường Tiểu học Hà Nội - Điện Biên Phủ","levels":null,"lat":21.38658004804735,"lng":103.02316528007427,"osm_type":"way","osm_id":1280900829}},{"type":"Feature","geometry":{"type":"MultiPolygon","coordinates":[[[[103.030653,21.386726],[103.030666,21.386693],[103.031444,21.385425],[103.031634,21.385517],[103.031602,21.385582],[103.032257,21.386034],[103.032286,21.386166],[103.032286,21.386211],[103.03227,21.386244],[103.031487,21.386816],[103.030771,21.387058],[103.030658,21.386768],[103.030653,21.386726]]]]},"properties":{"group":"edu_health","tag":"amenity=school","name":"Trường Trung học cơ sở Him Lam","levels":null,"lat":21.386287209631266,"lng":103.03143849725578,"osm_type":"way","osm_id":1281448727}},{"type":"Feature","geometry":{"type":"MultiPolygon","coordinates":[[[[103.031827,21.3897],[103.032139,21.389364],[103.032234,21.389228],[103.032287,21.389073],[103.032301,21.388741],[103.033487,21.388761],[103.033363,21.389502],[103.032676,21.390273],[103.0324,21.390062],[103.031827,21.3897]]]]},"properties":{"group":"edu_health","tag":"amenity=college","name":"Trường Chính trị tỉnh Điện Biên","levels":null,"lat":21.389399319448195,"lng":103.03272105569717,"osm_type":"way","osm_id":1281453449}},{"type":"Feature","geometry":{"type":"MultiPolygon","coordinates":[[[[103.031522,21.390038],[103.031827,21.3897],[103.0324,21.390062],[103.032676,21.390273],[103.032295,21.390666],[103.031522,21.390038]]]]},"properties":{"group":"edu_health","tag":"amenity=school","name":"Trường Tiểu học Noong Bua","levels":null,"lat":21.390174291812805,"lng":103.0320969116883,"osm_type":"way","osm_id":1281453456}},{"type":"Feature","geometry":{"type":"MultiPolygon","coordinates":[[[[103.031793,21.402836],[103.033479,21.402721],[103.033489,21.403432],[103.032468,21.403524],[103.031877,21.403561],[103.031793,21.402836]]]]},"properties":{"group":"public","tag":"leisure=park","name":"Nghĩa trang liệt sĩ Him Lam","levels":null,"lat":21.403137736779925,"lng":103.03265535048365,"osm_type":"way","osm_id":1329391500}},{"type":"Feature","geometry":{"type":"MultiPolygon","coordinates":[[[[103.023289,21.396326],[103.023384,21.395995],[103.023482,21.39602],[103.024077,21.396103],[103.023982,21.396466],[103.023289,21.396326]]]]},"properties":{"group":"edu_health","tag":"amenity=school","name":"Trường Tiểu học Tô Vĩnh Diện","levels":null,"lat":21.396226199430284,"lng":103.02368824605497,"osm_type":"way","osm_id":1457669605}},{"type":"Feature","geometry":{"type":"MultiPolygon","coordinates":[[[[103.011052,21.391111],[103.011252,21.390446],[103.011871,21.390608],[103.011738,21.39127],[103.011052,21.391111]]]]},"properties":{"group":"edu_health","tag":"amenity=school","name":"Trường Tiểu học Bế Văn Đàn","levels":null,"lat":21.39086376028138,"lng":103.01147564360181,"osm_type":"way","osm_id":1457669609}},{"type":"Feature","geometry":{"type":"MultiPolygon","coordinates":[[[[103.013674,21.373303],[103.013849,21.373175],[103.01397,21.373088],[103.013807,21.372898],[103.013862,21.372855],[103.014022,21.37305],[103.014061,21.373022],[103.014414,21.373444],[103.014238,21.373571],[103.014061,21.373702],[103.013674,21.373303]]]]},"properties":{"group":"edu_health","tag":"amenity=school","name":"Trường Tiểu học Nam Thanh","levels":null,"lat":21.373339572844483,"lng":103.0140408970925,"osm_type":"way","osm_id":1457669612}},{"type":"Feature","geometry":{"type":"MultiPolygon","coordinates":[[[[103.036378,21.401932],[103.036867,21.401042],[103.037855,21.401518],[103.037868,21.401574],[103.037472,21.402413],[103.036378,21.401932]]]]},"properties":{"group":"edu_health","tag":"amenity=school","name":"Trường Trung học cơ sở Trần Can","levels":null,"lat":21.401732503466253,"lng":103.03714506054651,"osm_type":"way","osm_id":1457670659}},{"type":"Feature","geometry":{"type":"MultiPolygon","coordinates":[[[[103.016966,21.398672],[103.017294,21.398662],[103.017287,21.398843],[103.016969,21.398851],[103.016966,21.398672]]]]},"properties":{"group":"apartment","tag":"building=apartments","name":"chung cư cán bộ trung đoàn 82","levels":3.0,"lat":21.398756718978067,"lng":103.01712940616805,"osm_type":"way","osm_id":1457827834}},{"type":"Feature","geometry":{"type":"MultiPolygon","coordinates":[[[[103.007705,21.415824],[103.007763,21.415774],[103.008606,21.415781],[103.008608,21.416607],[103.007754,21.416613],[103.007709,21.416576],[103.007705,21.415824]]]]},"properties":{"group":"edu_health","tag":"amenity=school","name":"Trường Tiểu học - Trung học cơ sở Thanh Trường","levels":null,"lat":21.416193797724265,"lng":103.00815726392673,"osm_type":"way","osm_id":1529280326}},{"type":"Feature","geometry":{"type":"MultiPolygon","coordinates":[[[[103.007721,21.401175],[103.008016,21.401162],[103.008255,21.401135],[103.008416,21.401822],[103.007788,21.401864],[103.007721,21.401175]]]]},"properties":{"group":"edu_health","tag":"amenity=school","name":"Trường Trung học cơ sở Thanh Bình","levels":null,"lat":21.401510109542844,"lng":103.00804733458492,"osm_type":"way","osm_id":1529280328}},{"type":"Feature","geometry":{"type":"Point","coordinates":[103.1564,22.007667]},"properties":{"group":"public","tag":"amenity=community_centre","name":"Khu tái định cư thủy điện Lai Châu","levels":null,"lat":22.007667,"lng":103.1564,"osm_type":"node","osm_id":4411033491}}]}