{"type":"FeatureCollection","features":[{"type":"Feature","properties":{"kind":"boundary","province_code":"48","name":"Thành phố Đà Nẵng","source":"VNSDI","valid_from":"16/6/2025","simplify_tolerance_deg":0.0005},"geometry":{"type":"MultiPolygon","coordinates":[[[[108.15196,15.00104],[108.15621,14.99603],[108.16181,14.97425],[108.14981,14.96228],[108.14464,14.95974],[108.12334,14.96031],[108.11603,14.95786],[108.10888,14.95305],[108.09848,14.95226],[108.09144,14.95348],[108.08776,14.95537],[108.08452,14.95823],[108.0819,14.964],[108.07909,14.96697],[108.07597,14.96865],[108.06345,14.9717],[108.05941,14.97489],[108.04988,14.98899],[108.04667,14.99204],[108.04361,14.99361],[108.02677,14.99772],[108.02076,15.00079],[108.01556,15.00084],[108.01085,14.99861],[108.0087,14.99883],[108.00439,15.00197],[108.00117,15.00228],[107.99026,14.99917],[107.98815,15.00067],[107.98346,15.00644],[107.9827,15.01041],[107.981,15.0111],[107.97904,15.0098],[107.977,15.01028],[107.96971,15.01614],[107.96531,15.02148],[107.96352,15.02665],[107.95708,15.03715],[107.95932,15.04102],[107.95876,15.04456],[107.95625,15.0462],[107.94995,15.05325],[107.96417,15.06536],[107.9723,15.06754],[107.97608,15.06992],[107.9766,15.07661],[107.98315,15.0916],[107.98862,15.09568],[107.98752,15.09985],[107.99165,15.10493],[107.99601,15.11466],[107.99796,15.11702],[108.0018,15.11876],[108.00181,15.12216],[107.99922,15.12439],[107.99839,15.12684],[108.00428,15.1429],[107.99909,15.15602],[107.98765,15.15861],[107.97972,15.16686],[107.97018,15.16821],[107.95649,15.17387],[107.95039,15.17532],[107.94982,15.18362],[107.94884,15.18525],[107.94617,15.18818],[107.93824,15.19077],[107.93559,15.19257],[107.93355,15.19525],[107.93269,15.20195],[107.93058,15.20808],[107.92951,15.20896],[107.92057,15.2103],[107.91465,15.21213],[107.91338,15.20957],[107.9133,15.20752],[107.90042,15.20562],[107.89904,15.20458],[107.89565,15.19872],[107.89155,15.19444],[107.88974,15.19398],[107.88058,15.19773],[107.87923,15.20174],[107.87353,15.20913],[107.87131,15.21025],[107.85445,15.20984],[107.85085,15.20746],[107.84826,15.20706],[107.84211,15.20796],[107.83244,15.20809],[107.82758,15.20933],[107.8201,15.21588],[107.81866,15.21622],[107.8168,15.21499],[107.81648,15.21248],[107.81543,15.21142],[107.8096,15.21152],[107.79692,15.21691],[107.78935,15.21863],[107.78521,15.2181],[107.78024,15.2191],[107.77441,15.22361],[107.77193,15.22727],[107.77174,15.23258],[107.76819,15.23449],[107.75907,15.23743],[107.75737,15.23746],[107.75285,15.23241],[107.74974,15.23061],[107.73654,15.23115],[107.73813,15.23655],[107.73322,15.25414],[107.72762,15.28914],[107.73023,15.30819],[107.70793,15.303],[107.70213,15.31083],[107.6951,15.3159],[107.6928,15.3185],[107.68741,15.3274],[107.6733,15.34295],[107.66843,15.34705],[107.66464,15.35236],[107.66029,15.37283],[107.66119,15.38298],[107.66047,15.38747],[107.65549,15.39515],[107.64544,15.40363],[107.64088,15.40876],[107.63909,15.41312],[107.63681,15.41583],[107.63313,15.41662],[107.6242,15.41346],[107.62396,15.41555],[107.621,15.41773],[107.61058,15.41748],[107.6087,15.4205],[107.6037,15.42147],[107.60151,15.41874],[107.60159,15.41682],[107.60003,15.41484],[107.59527,15.41292],[107.59371,15.41367],[107.58984,15.41312],[107.5751,15.40054],[107.57383,15.39775],[107.57146,15.39826],[107.5695,15.39645],[107.56525,15.39483],[107.56087,15.39449],[107.55876,15.39634],[107.55527,15.39727],[107.55091,15.40023],[107.54803,15.40347],[107.54668,15.40391],[107.54633,15.40543],[107.53842,15.40583],[107.53643,15.40452],[107.5337,15.40617],[107.53075,15.40525],[107.52956,15.40786],[107.52754,15.40974],[107.52277,15.41214],[107.51854,15.41613],[107.5192,15.42519],[107.5228,15.42773],[107.52327,15.43301],[107.52432,15.43506],[107.52715,15.43753],[107.52621,15.44005],[107.52722,15.44232],[107.52514,15.44317],[107.52213,15.44673],[107.52284,15.45012],[107.52179,15.45244],[107.52282,15.45399],[107.52254,15.45722],[107.52045,15.45813],[107.5186,15.46075],[107.51573,15.46055],[107.51778,15.46426],[107.51519,15.46563],[107.51379,15.47301],[107.50912,15.47463],[107.49794,15.47566],[107.49537,15.47865],[107.49385,15.47846],[107.49282,15.47925],[107.48809,15.47916],[107.48731,15.4783],[107.48572,15.47862],[107.48126,15.4771],[107.47809,15.47786],[107.47763,15.48165],[107.48186,15.48393],[107.48256,15.48686],[107.48112,15.48971],[107.48142,15.49078],[107.48021,15.49186],[107.47877,15.49099],[107.47783,15.49129],[107.47301,15.49621],[107.47077,15.49679],[107.47028,15.49901],[107.46742,15.49848],[107.46277,15.5001],[107.46113,15.49805],[107.45929,15.50028],[107.4538,15.50367],[107.45272,15.50315],[107.45115,15.50407],[107.44785,15.50299],[107.44657,15.50382],[107.44515,15.50203],[107.43809,15.50369],[107.43366,15.5029],[107.4318,15.50186],[107.43032,15.49978],[107.43047,15.49839],[107.43184,15.49726],[107.43122,15.49611],[107.43189,15.49207],[107.42952,15.49012],[107.42658,15.49036],[107.42216,15.49354],[107.41904,15.49085],[107.41574,15.49047],[107.41599,15.49364],[107.41489,15.49525],[107.40995,15.49146],[107.40806,15.49416],[107.40223,15.49301],[107.40047,15.49342],[107.39912,15.49246],[107.39615,15.49334],[107.3953,15.49491],[107.39269,15.49434],[107.39261,15.49591],[107.38884,15.49572],[107.38827,15.49447],[107.38669,15.49446],[107.38603,15.49284],[107.38183,15.49352],[107.3823,15.49781],[107.38019,15.50053],[107.37842,15.50136],[107.38049,15.5047],[107.37971,15.50591],[107.38025,15.50933],[107.37969,15.51137],[107.37738,15.5124],[107.37831,15.51732],[107.3745,15.52176],[107.37496,15.52433],[107.37412,15.5251],[107.3749,15.52789],[107.37431,15.53157],[107.37306,15.53229],[107.37293,15.53571],[107.37015,15.54134],[107.36751,15.54243],[107.36653,15.54586],[107.36445,15.54771],[107.36598,15.5501],[107.36394,15.55147],[107.36492,15.55203],[107.36414,15.55385],[107.36475,15.55507],[107.36351,15.55595],[107.36281,15.55802],[107.3661,15.56028],[107.3644,15.56682],[107.36466,15.57024],[107.36115,15.57085],[107.35959,15.57236],[107.35722,15.57007],[107.35227,15.56897],[107.35154,15.56996],[107.35206,15.57138],[107.35081,15.57331],[107.34824,15.57393],[107.34507,15.57251],[107.34235,15.57613],[107.34245,15.57756],[107.34527,15.5781],[107.34665,15.57924],[107.34462,15.58027],[107.3458,15.58417],[107.34961,15.58697],[107.35295,15.58821],[107.35351,15.59165],[107.35101,15.59616],[107.35056,15.59912],[107.34873,15.60149],[107.34514,15.60306],[107.34169,15.60327],[107.34324,15.6142],[107.34159,15.61409],[107.33895,15.61574],[107.33634,15.62084],[107.33447,15.6222],[107.32868,15.62318],[107.32703,15.62426],[107.32527,15.62304],[107.32404,15.62316],[107.32388,15.62418],[107.32172,15.62413],[107.31645,15.62639],[107.30992,15.62478],[107.30343,15.62552],[107.30053,15.62368],[107.29824,15.62406],[107.292,15.62318],[107.28551,15.62629],[107.28288,15.63024],[107.27682,15.63342],[107.27558,15.63488],[107.276,15.63777],[107.27524,15.63924],[107.27646,15.64158],[107.27437,15.64402],[107.27787,15.64835],[107.27785,15.65209],[107.27608,15.65348],[107.27348,15.6521],[107.2713,15.65404],[107.2673,15.65331],[107.26642,15.65452],[107.2648,15.65438],[107.26491,15.65804],[107.26398,15.65842],[107.26566,15.66148],[107.26508,15.66316],[107.26694,15.66541],[107.26821,15.66925],[107.26712,15.67047],[107.27087,15.67227],[107.27162,15.67537],[107.27458,15.6784],[107.27617,15.68168],[107.27631,15.68396],[107.27364,15.68571],[107.27295,15.68821],[107.27434,15.69057],[107.27428,15.69214],[107.2773,15.69676],[107.27634,15.69783],[107.27639,15.6998],[107.27283,15.70051],[107.27201,15.70149],[107.27245,15.70256],[107.27647,15.70471],[107.27667,15.70697],[107.27396,15.70795],[107.27274,15.70661],[107.27145,15.70671],[107.26895,15.70989],[107.26542,15.71128],[107.26638,15.71225],[107.26646,15.72072],[107.26551,15.72121],[107.26313,15.71979],[107.25818,15.72236],[107.25538,15.72132],[107.25249,15.7218],[107.24951,15.72528],[107.25068,15.72751],[107.24937,15.72917],[107.24961,15.73187],[107.25343,15.73488],[107.25436,15.73838],[107.25,15.74221],[107.24987,15.74376],[107.24887,15.74456],[107.24309,15.7453],[107.23601,15.74322],[107.23412,15.74435],[107.23027,15.7428],[107.22314,15.74294],[107.2178,15.73924],[107.21603,15.74067],[107.21345,15.73875],[107.21293,15.7452],[107.21153,15.74938],[107.21137,15.75679],[107.21258,15.75839],[107.21445,15.75823],[107.21728,15.7606],[107.21691,15.76161],[107.21872,15.76653],[107.21806,15.76732],[107.21814,15.77015],[107.21957,15.77299],[107.21902,15.77688],[107.22552,15.78279],[107.22747,15.78332],[107.22889,15.7828],[107.22976,15.78347],[107.22645,15.79412],[107.22564,15.80075],[107.22861,15.80335],[107.22876,15.80465],[107.2258,15.80597],[107.2217,15.8113],[107.22101,15.81433],[107.21626,15.82264],[107.21459,15.82416],[107.21123,15.82523],[107.21066,15.82682],[107.21305,15.82762],[107.21594,15.82993],[107.21753,15.82869],[107.22019,15.82982],[107.22137,15.83101],[107.22061,15.8327],[107.22156,15.8339],[107.22123,15.83568],[107.22636,15.83618],[107.2293,15.83858],[107.23176,15.83781],[107.23348,15.84364],[107.23695,15.84287],[107.24267,15.8397],[107.24492,15.83982],[107.24801,15.83853],[107.25052,15.84004],[107.25085,15.84171],[107.25722,15.84862],[107.26179,15.85044],[107.26354,15.84977],[107.26989,15.85137],[107.2716,15.85392],[107.27092,15.85887],[107.27561,15.86158],[107.277,15.86111],[107.27812,15.85821],[107.28278,15.85771],[107.28848,15.86168],[107.28882,15.86452],[107.28986,15.86576],[107.29467,15.866],[107.29828,15.86934],[107.30268,15.8659],[107.30308,15.86686],[107.30956,15.87046],[107.30998,15.87179],[107.31214,15.87336],[107.31203,15.87633],[107.31576,15.88057],[107.31554,15.88425],[107.31613,15.8847],[107.31757,15.88362],[107.31906,15.88433],[107.32066,15.88683],[107.32357,15.88705],[107.32877,15.89006],[107.33363,15.88781],[107.33858,15.89077],[107.34291,15.89046],[107.34823,15.89395],[107.35151,15.89359],[107.35243,15.89224],[107.35512,15.89293],[107.35894,15.89215],[107.36023,15.89304],[107.36243,15.8917],[107.36473,15.89288],[107.36407,15.89359],[107.36497,15.89478],[107.36449,15.89624],[107.36617,15.89583],[107.37129,15.89806],[107.37365,15.89619],[107.37444,15.89644],[107.37505,15.89438],[107.37743,15.8921],[107.3793,15.89213],[107.3786,15.89088],[107.38043,15.88993],[107.38037,15.88883],[107.38276,15.88875],[107.38514,15.8867],[107.38611,15.88917],[107.38864,15.89064],[107.38752,15.89236],[107.38975,15.89183],[107.3942,15.89251],[107.39523,15.89367],[107.39879,15.89396],[107.40171,15.89929],[107.4067,15.90117],[107.40602,15.90303],[107.40937,15.90994],[107.41555,15.91244],[107.41756,15.91904],[107.41875,15.92019],[107.41846,15.92334],[107.4198,15.92667],[107.42317,15.92652],[107.42834,15.93072],[107.42881,15.93356],[107.42681,15.93652],[107.42977,15.94124],[107.43298,15.95534],[107.43263,15.95668],[107.43431,15.95704],[107.43519,15.96128],[107.43648,15.96331],[107.43897,15.96476],[107.4386,15.96698],[107.44016,15.96923],[107.43993,15.97068],[107.44135,15.97172],[107.44248,15.97533],[107.4472,15.9821],[107.44375,15.98774],[107.44335,15.99055],[107.44871,15.99011],[107.45059,15.99114],[107.45149,15.99333],[107.45294,15.99407],[107.4539,15.99817],[107.45561,15.99901],[107.45602,16.00539],[107.45841,16.00788],[107.45824,16.00927],[107.46054,16.01056],[107.46209,16.01356],[107.46418,16.0153],[107.46552,16.02005],[107.46543,16.02303],[107.47555,16.03476],[107.48062,16.03529],[107.48526,16.03774],[107.48614,16.03951],[107.48876,16.0409],[107.49627,16.03896],[107.50123,16.03425],[107.50464,16.02896],[107.50683,16.02131],[107.51199,16.01647],[107.51887,16.01454],[107.52208,16.01604],[107.52547,16.01634],[107.54347,16.01085],[107.54782,16.01068],[107.55462,16.01478],[107.55882,16.01958],[107.56018,16.02234],[107.55939,16.03167],[107.55263,16.04191],[107.55311,16.04422],[107.56292,16.05098],[107.57161,16.0552],[107.57584,16.05446],[107.58769,16.05661],[107.60111,16.05741],[107.60548,16.0595],[107.61981,16.06386],[107.62485,16.05562],[107.62587,16.04959],[107.62457,16.04566],[107.62003,16.03863],[107.62,16.0345],[107.62108,16.03203],[107.63072,16.03095],[107.63631,16.02916],[107.65158,16.01961],[107.66365,16.01855],[107.66961,16.01301],[107.6723,16.00935],[107.67503,16.00531],[107.67753,15.99899],[107.69237,15.99553],[107.69899,15.99513],[107.70729,15.99631],[107.7204,16.00445],[107.72404,16.00791],[107.7273,16.01518],[107.72819,16.0195],[107.72587,16.02685],[107.72661,16.03009],[107.74551,16.04228],[107.75265,16.04416],[107.75757,16.04337],[107.75974,16.04725],[107.77044,16.05342],[107.77363,16.05837],[107.77527,16.06413],[107.78264,16.0645],[107.78606,16.06702],[107.78844,16.06673],[107.79808,16.06185],[107.80709,16.05348],[107.81251,16.05286],[107.81571,16.05351],[107.81866,16.05741],[107.82176,16.06622],[107.82305,16.07366],[107.82284,16.07954],[107.82378,16.08296],[107.82697,16.08851],[107.83497,16.09816],[107.8558,16.11351],[107.85567,16.12617],[107.85986,16.13542],[107.858,16.13771],[107.85786,16.14358],[107.85913,16.15311],[107.86468,16.15631],[107.87313,16.15835],[107.8749,16.1609],[107.87586,16.16771],[107.87488,16.17174],[107.8723,16.17797],[107.86766,16.18195],[107.86743,16.18391],[107.87723,16.18908],[107.87515,16.19518],[107.87517,16.19633],[107.87667,16.19745],[107.8955,16.20569],[107.91073,16.21546],[107.91415,16.21414],[107.91771,16.20859],[107.92935,16.19802],[107.9362,16.19524],[107.9421,16.19462],[107.95081,16.19026],[107.95568,16.18921],[107.96145,16.1917],[107.968,16.19333],[107.97406,16.19959],[107.97867,16.20235],[107.98002,16.20697],[107.9826,16.20952],[107.98776,16.21358],[107.98939,16.21369],[107.99835,16.20774],[108.00517,16.20451],[108.01331,16.19491],[108.02653,16.19318],[108.03249,16.19164],[108.04342,16.18771],[108.05521,16.18067],[108.06143,16.18055],[108.06371,16.18355],[108.06524,16.18399],[108.06964,16.18258],[108.08182,16.18283],[108.08686,16.1822],[108.09246,16.18037],[108.09375,16.18111],[108.0949,16.18356],[108.1,16.18671],[108.10533,16.18608],[108.11078,16.18283],[108.11486,16.18157],[108.12199,16.18223],[108.13918,16.19371],[108.14441,16.19891],[108.15611,16.20212],[108.15871,16.20614],[108.16155,16.20598],[108.17108,16.20303],[108.18091,16.20682],[108.18853,16.20808],[108.19398,16.21013],[108.19327,16.20125],[108.19231,16.20036],[108.1797,16.20015],[108.17741,16.19915],[108.17446,16.19507],[108.15928,16.19132],[108.15611,16.18925],[108.15419,16.18655],[108.15366,16.18277],[108.15281,16.16856],[108.15387,16.16252],[108.15252,16.16094],[108.15012,16.16064],[108.14919,16.16071],[108.14538,16.16473],[108.14251,16.16504],[108.13967,16.16359],[108.13738,16.16069],[108.13658,16.1574],[108.13714,16.15022],[108.13899,16.14698],[108.13854,16.14486],[108.13579,16.14158],[108.13386,16.14101],[108.13068,16.14125],[108.12782,16.14253],[108.12594,16.14219],[108.12378,16.13886],[108.12294,16.13394],[108.12426,16.12778],[108.13215,16.11235],[108.14756,16.09512],[108.15965,16.08601],[108.16977,16.08023],[108.17888,16.07634],[108.18699,16.07399],[108.19501,16.07299],[108.19934,16.07328],[108.20196,16.07429],[108.20588,16.07961],[108.20749,16.08516],[108.20913,16.08789],[108.21567,16.0956],[108.21653,16.09492],[108.22101,16.0951],[108.22397,16.09662],[108.22331,16.10699],[108.2254,16.10893],[108.22738,16.1092],[108.22909,16.10258],[108.2325,16.10231],[108.23432,16.10304],[108.23592,16.09874],[108.23458,16.09477],[108.23729,16.09301],[108.24231,16.104],[108.24167,16.11068],[108.22294,16.11896],[108.2179,16.11665],[108.21694,16.11688],[108.21483,16.11949],[108.21421,16.12237],[108.21551,16.12464],[108.22083,16.12807],[108.22663,16.13427],[108.23411,16.1466],[108.24362,16.15129],[108.24805,16.15496],[108.2589,16.15162],[108.26048,16.15013],[108.26368,16.1437],[108.2715,16.1346],[108.27536,16.13316],[108.28092,16.13684],[108.28321,16.13724],[108.28783,16.13642],[108.29313,16.13325],[108.30013,16.12551],[108.30559,16.12291],[108.30746,16.12301],[108.30967,16.12509],[108.31317,16.1407],[108.31432,16.14295],[108.31816,16.14367],[108.3225,16.14109],[108.33674,16.12166],[108.33744,16.11892],[108.3188,16.11456],[108.31356,16.11244],[108.30943,16.10692],[108.31017,16.09917],[108.30806,16.09663],[108.30538,16.09586],[108.30291,16.09697],[108.29935,16.10455],[108.29541,16.10539],[108.29214,16.10544],[108.28848,16.10442],[108.27931,16.0983],[108.27419,16.09703],[108.26864,16.09727],[108.26365,16.10116],[108.25921,16.10158],[108.25576,16.09949],[108.25305,16.09624],[108.24862,16.08572],[108.24631,16.07451],[108.24619,16.07034],[108.24715,16.05915],[108.24904,16.05096],[108.25288,16.03975],[108.27146,15.99898],[108.28021,15.98199],[108.29404,15.95847],[108.30317,15.9465],[108.32279,15.92672],[108.33247,15.91886],[108.35391,15.90505],[108.38277,15.88847],[108.39081,15.88059],[108.39474,15.87041],[108.40012,15.87187],[108.40398,15.87075],[108.40424,15.86884],[108.40291,15.86476],[108.40335,15.85378],[108.41039,15.82399],[108.41494,15.81103],[108.42408,15.79034],[108.44223,15.75807],[108.4549,15.73782],[108.50459,15.65923],[108.53566,15.6135],[108.54461,15.60455],[108.54959,15.59781],[108.55662,15.58578],[108.57751,15.55863],[108.58627,15.55077],[108.6074,15.52525],[108.61539,15.51697],[108.62285,15.51096],[108.63833,15.50222],[108.64651,15.49897],[108.65084,15.49809],[108.66271,15.49776],[108.67031,15.50031],[108.67375,15.50371],[108.6752,15.50829],[108.67305,15.51361],[108.67335,15.51512],[108.67458,15.51524],[108.68022,15.50974],[108.68167,15.50776],[108.68165,15.50658],[108.68102,15.50549],[108.6787,15.50589],[108.67706,15.50442],[108.67367,15.49245],[108.67367,15.48746],[108.67669,15.48124],[108.68249,15.47762],[108.6838,15.48373],[108.68508,15.48525],[108.68828,15.48587],[108.69058,15.48295],[108.70016,15.46092],[108.69981,15.4561],[108.69553,15.44393],[108.69624,15.44082],[108.69948,15.43617],[108.71485,15.41999],[108.73247,15.40238],[108.73881,15.39763],[108.72118,15.37468],[108.71538,15.37121],[108.70947,15.37073],[108.70131,15.37232],[108.6919,15.36875],[108.67953,15.36783],[108.67433,15.367],[108.67099,15.36557],[108.6679,15.3657],[108.66419,15.368],[108.66209,15.36824],[108.64416,15.36746],[108.63846,15.36519],[108.62966,15.35826],[108.62148,15.35693],[108.61448,15.35378],[108.60527,15.35215],[108.60386,15.35122],[108.60229,15.34755],[108.59909,15.34519],[108.59568,15.34491],[108.59324,15.34657],[108.59094,15.34679],[108.58715,15.34308],[108.58287,15.34483],[108.57907,15.34518],[108.56202,15.33498],[108.55664,15.33459],[108.55269,15.33609],[108.54642,15.33503],[108.53318,15.32758],[108.52578,15.32035],[108.50725,15.32558],[108.50343,15.3253],[108.49911,15.32335],[108.49551,15.31542],[108.48688,15.30916],[108.48433,15.30816],[108.4798,15.30841],[108.4763,15.31031],[108.46285,15.30957],[108.45118,15.30998],[108.43951,15.31173],[108.43738,15.3126],[108.43626,15.31475],[108.43567,15.32158],[108.43444,15.3252],[108.43236,15.32609],[108.4303,15.3252],[108.42851,15.32255],[108.42633,15.3157],[108.41668,15.30741],[108.41387,15.30738],[108.40734,15.31017],[108.40552,15.30986],[108.40367,15.3085],[108.40336,15.30219],[108.40262,15.30094],[108.39971,15.29992],[108.39185,15.29896],[108.38814,15.30127],[108.38181,15.30329],[108.36772,15.29758],[108.36445,15.29539],[108.36076,15.2953],[108.33513,15.29882],[108.32333,15.30153],[108.31964,15.30129],[108.31715,15.29983],[108.31059,15.29102],[108.30095,15.28585],[108.30041,15.28483],[108.29979,15.27916],[108.30421,15.27606],[108.30595,15.26891],[108.30265,15.25874],[108.29355,15.25268],[108.29042,15.24652],[108.28721,15.24522],[108.28297,15.24487],[108.28148,15.24375],[108.28457,15.23629],[108.29115,15.22839],[108.30418,15.2269],[108.30747,15.22379],[108.30816,15.22137],[108.30473,15.21036],[108.2921,15.20117],[108.29136,15.19955],[108.29203,15.19635],[108.29357,15.19513],[108.29903,15.19433],[108.30274,15.19227],[108.30342,15.18858],[108.30208,15.18526],[108.3001,15.18396],[108.29996,15.18203],[108.30636,15.17411],[108.30331,15.17158],[108.29667,15.16956],[108.29404,15.1673],[108.28818,15.15865],[108.27411,15.12976],[108.26343,15.12397],[108.25795,15.11759],[108.25695,15.11364],[108.25935,15.10453],[108.2597,15.09687],[108.25637,15.08954],[108.25174,15.08529],[108.23573,15.0783],[108.23614,15.07571],[108.24028,15.06971],[108.24172,15.06577],[108.24165,15.06169],[108.23799,15.05009],[108.24297,15.04083],[108.24065,15.03366],[108.23912,15.03217],[108.23147,15.0319],[108.2247,15.03015],[108.21295,15.03279],[108.2088,15.03581],[108.20584,15.03999],[108.20214,15.04244],[108.20004,15.04317],[108.19703,15.04224],[108.19363,15.04304],[108.19176,15.04786],[108.18906,15.05129],[108.18367,15.05591],[108.17563,15.06051],[108.17206,15.06182],[108.1646,15.06062],[108.16181,15.06095],[108.14836,15.04825],[108.14747,15.04652],[108.14761,15.04379],[108.15042,15.03874],[108.15175,15.03341],[108.15175,15.02766],[108.14971,15.01806],[108.15185,15.00956],[108.15129,15.004],[108.15196,15.00104]]],[[[108.19911,16.21291],[108.1998,16.21917],[108.20227,16.22435],[108.20411,16.22569],[108.20631,16.22512],[108.20932,16.22272],[108.21045,16.2198],[108.20816,16.21086],[108.20651,16.21],[108.20046,16.21166],[108.19911,16.21291]]],[[[108.70306,15.45839],[108.70287,15.45922],[108.70378,15.4599],[108.70436,15.4583],[108.70306,15.45839]]],[[[108.68563,15.50547],[108.68668,15.5061],[108.6871,15.50447],[108.68632,15.50449],[108.68563,15.50547]]],[[[111.19683,15.78306],[111.20629,15.78849],[111.21245,15.78921],[111.21344,15.7884],[111.20968,15.77999],[111.19951,15.77929],[111.19737,15.78124],[111.19683,15.78306]]],[[[108.69233,15.818],[108.69811,15.81383],[108.69786,15.81178],[108.6916,15.8113],[108.69041,15.81295],[108.69145,15.81742],[108.69233,15.818]]],[[[108.54206,15.90268],[108.53982,15.9038],[108.53553,15.90209],[108.53287,15.90312],[108.53204,15.90495],[108.53289,15.90761],[108.53509,15.90976],[108.54002,15.91171],[108.54243,15.9141],[108.54323,15.91224],[108.54179,15.91126],[108.54086,15.90851],[108.54152,15.90496],[108.54282,15.9036],[108.54206,15.90268]]],[[[108.47207,15.93179],[108.47246,15.93391],[108.47651,15.9322],[108.47603,15.93143],[108.47402,15.93108],[108.47207,15.93179]]],[[[108.47672,15.94324],[108.47718,15.94492],[108.48007,15.94769],[108.4821,15.94861],[108.4849,15.94832],[108.48274,15.94166],[108.48042,15.93881],[108.47936,15.93825],[108.47838,15.93899],[108.47672,15.94324]]],[[[108.53875,15.95582],[108.53648,15.94853],[108.53822,15.93992],[108.5383,15.93397],[108.53711,15.92953],[108.54013,15.92347],[108.53549,15.92221],[108.53303,15.92403],[108.53038,15.92834],[108.51948,15.93818],[108.5143,15.93884],[108.51173,15.94024],[108.50987,15.94371],[108.50678,15.95739],[108.49938,15.96018],[108.49781,15.95987],[108.49613,15.95771],[108.49186,15.95801],[108.49032,15.96058],[108.48761,15.9627],[108.48604,15.96296],[108.48354,15.96581],[108.48521,15.96741],[108.48808,15.96814],[108.49597,15.97489],[108.50266,15.97943],[108.50397,15.97958],[108.51051,15.97375],[108.50962,15.96949],[108.51266,15.96517],[108.51559,15.9634],[108.52508,15.96033],[108.53599,15.95815],[108.53814,15.95701],[108.53875,15.95582]]],[[[108.41682,15.97233],[108.41726,15.97319],[108.41831,15.9726],[108.41748,15.97194],[108.41682,15.97233]]],[[[108.4226,15.97186],[108.42056,15.97319],[108.42076,15.97382],[108.4229,15.97352],[108.42354,15.97236],[108.4226,15.97186]]],[[[108.44275,15.97077],[108.44332,15.97291],[108.44935,15.97947],[108.45118,15.97916],[108.45204,15.97766],[108.45211,15.97485],[108.44811,15.96791],[108.44695,15.96761],[108.44275,15.97077]]],[[[111.59626,16.23418],[111.60083,16.23776],[111.60421,16.23759],[111.60539,16.23514],[111.60555,16.23187],[111.60401,16.22731],[111.59961,16.22536],[111.59675,16.22733],[111.59575,16.23174],[111.59626,16.23418]]],[[[111.52038,16.44151],[111.51347,16.4427],[111.4996,16.44104],[111.49272,16.44119],[111.49163,16.44178],[111.49156,16.44313],[111.49441,16.44721],[111.5051,16.45539],[111.51021,16.45723],[111.52198,16.45907],[111.53069,16.4621],[111.53518,16.4626],[111.53904,16.46177],[111.54258,16.45912],[111.54391,16.45591],[111.54409,16.44928],[111.54239,16.44268],[111.53904,16.4389],[111.53504,16.43654],[111.53318,16.43646],[111.52038,16.44151]]],[[[111.6141,16.44581],[111.60938,16.44341],[111.60297,16.44235],[111.5851,16.44563],[111.58095,16.44732],[111.57683,16.45086],[111.57409,16.45447],[111.57217,16.45923],[111.57112,16.466],[111.57106,16.47605],[111.57483,16.48565],[111.57884,16.49205],[111.58167,16.49518],[111.58542,16.49779],[111.58467,16.50302],[111.58203,16.50906],[111.58189,16.51321],[111.58475,16.52026],[111.58974,16.52435],[111.59192,16.52467],[111.59399,16.52396],[111.59654,16.51991],[111.59938,16.50043],[111.59905,16.49822],[111.59658,16.49406],[111.59686,16.49027],[111.60579,16.47539],[111.61124,16.46842],[111.62608,16.45897],[111.63021,16.45348],[111.63031,16.44904],[111.62811,16.44591],[111.6141,16.44581]]],[[[111.55945,17.09442],[111.54212,17.09213],[111.527,17.08347],[111.50389,17.07596],[111.4915,17.06958],[111.48436,17.06697],[111.47978,17.06664],[111.47077,17.06892],[111.46279,17.07398],[111.45684,17.08019],[111.45326,17.08691],[111.45445,17.09393],[111.46328,17.10226],[111.50338,17.11697],[111.5258,17.12007],[111.53073,17.11991],[111.54228,17.11762],[111.55248,17.1137],[111.55979,17.10766],[111.56335,17.10128],[111.56386,17.09916],[111.56335,17.0972],[111.55945,17.09442]],[[111.48146,17.09932],[111.47263,17.09491],[111.46889,17.09459],[111.46685,17.09311],[111.46532,17.09066],[111.46481,17.08838],[111.46668,17.08217],[111.46906,17.07841],[111.47076,17.07743],[111.48299,17.07677],[111.48962,17.07775],[111.49132,17.0789],[111.49234,17.08135],[111.50202,17.0838],[111.5078,17.08772],[111.51086,17.09132],[111.51137,17.09524],[111.51052,17.10047],[111.50644,17.10259],[111.49845,17.10243],[111.48146,17.09932]]],[[[112.51567,16.01653],[112.5018,16.01389],[112.49755,16.0106],[112.49452,16.00939],[112.48231,16.00948],[112.47607,16.00662],[112.4588,16.00763],[112.45283,16.00968],[112.44642,16.01485],[112.44529,16.01886],[112.44146,16.02478],[112.44122,16.02914],[112.44428,16.03825],[112.4473,16.0418],[112.45355,16.0451],[112.4756,16.05371],[112.5018,16.0575],[112.51553,16.06264],[112.54105,16.07015],[112.55258,16.0746],[112.57138,16.07973],[112.5921,16.07943],[112.59692,16.07661],[112.5984,16.07265],[112.59792,16.06974],[112.5967,16.06828],[112.5897,16.06307],[112.57283,16.05267],[112.56445,16.04512],[112.55255,16.03264],[112.54525,16.02728],[112.53629,16.02267],[112.51567,16.01653]],[[112.47961,16.04937],[112.47846,16.04938],[112.46131,16.03636],[112.45301,16.03485],[112.45116,16.03353],[112.44951,16.02886],[112.4498,16.02528],[112.45495,16.01657],[112.46192,16.01437],[112.46574,16.01204],[112.4752,16.01309],[112.48005,16.01484],[112.49683,16.01674],[112.50573,16.02084],[112.53302,16.03044],[112.54093,16.0355],[112.55189,16.04434],[112.55418,16.04739],[112.55481,16.05002],[112.55451,16.05134],[112.5503,16.05444],[112.54351,16.05566],[112.51594,16.0503],[112.5018,16.04668],[112.48338,16.04575],[112.48235,16.04601],[112.47961,16.04937]]],[[[111.80931,16.05267],[111.7874,16.03912],[111.77384,16.0348],[111.76967,16.03422],[111.7646,16.03494],[111.74746,16.04763],[111.74269,16.0544],[111.74239,16.06088],[111.74508,16.06506],[111.75312,16.06737],[111.7567,16.06737],[111.78338,16.07501],[111.80186,16.07803],[111.80872,16.07832],[111.81214,16.07746],[111.81527,16.07501],[111.81736,16.07155],[111.81766,16.06939],[111.81512,16.05973],[111.81274,16.05555],[111.80931,16.05267]]],[[[112.00747,16.17008],[112.01097,16.1751],[112.01329,16.17658],[112.01831,16.1773],[112.02371,16.1769],[112.02872,16.17501],[112.03083,16.17277],[112.03178,16.16866],[112.02963,16.16382],[112.02711,16.16178],[112.02344,16.16049],[112.0134,16.16054],[112.00802,16.16504],[112.00747,16.17008]]],[[[111.64109,16.2096],[111.63151,16.19897],[111.61238,16.18836],[111.60103,16.1832],[111.59267,16.18034],[111.58343,16.18008],[111.56643,16.18359],[111.56137,16.18619],[111.55751,16.19082],[111.55722,16.19428],[111.55844,16.20494],[111.56175,16.21358],[111.56535,16.2202],[111.56826,16.22232],[111.57204,16.22079],[111.57458,16.21585],[111.57427,16.2121],[111.57127,16.2049],[111.57065,16.19799],[111.57159,16.19658],[111.5753,16.19488],[111.5781,16.1956],[111.58248,16.1953],[111.5852,16.19241],[111.58901,16.19068],[111.59104,16.19068],[111.5968,16.19141],[111.6139,16.19643],[111.61754,16.19813],[111.62586,16.20417],[111.63543,16.21423],[111.64798,16.21967],[111.65604,16.22166],[111.66741,16.22314],[111.67635,16.22679],[111.68768,16.22704],[111.68888,16.22646],[111.68887,16.22444],[111.68557,16.22042],[111.67154,16.217],[111.66319,16.21703],[111.65005,16.21505],[111.64109,16.2096]]],[[[111.69306,16.2276],[111.69485,16.2299],[111.69891,16.23049],[111.70738,16.22813],[111.70797,16.22611],[111.70707,16.22409],[111.70378,16.22295],[111.6996,16.22297],[111.69335,16.22529],[111.69306,16.2276]]],[[[111.62136,16.23746],[111.62424,16.24071],[111.62829,16.24054],[111.63031,16.23923],[111.63166,16.23726],[111.63216,16.23449],[111.6313,16.23074],[111.62859,16.22813],[111.62487,16.22847],[111.62134,16.23175],[111.62067,16.2355],[111.62136,16.23746]]],[[[111.67173,16.24807],[111.67612,16.24822],[111.67865,16.24593],[111.67931,16.24364],[111.6788,16.24054],[111.67744,16.23778],[111.67557,16.23615],[111.67287,16.23567],[111.66882,16.23682],[111.66781,16.2396],[111.66851,16.24466],[111.67173,16.24807]]],[[[111.80952,16.26558],[111.81036,16.25174],[111.80825,16.24742],[111.80465,16.24282],[111.79627,16.23622],[111.78728,16.22673],[111.76159,16.21615],[111.7398,16.21248],[111.73518,16.21373],[111.72252,16.21975],[111.72193,16.22033],[111.72223,16.22235],[111.72763,16.22381],[111.73417,16.2226],[111.73803,16.21999],[111.7446,16.21968],[111.74879,16.22312],[111.75203,16.22366],[111.75684,16.22309],[111.76909,16.22738],[111.77567,16.23226],[111.78555,16.24145],[111.78766,16.2475],[111.78919,16.25557],[111.78832,16.26278],[111.78625,16.26769],[111.78164,16.273],[111.77615,16.27725],[111.7678,16.27901],[111.74303,16.28054],[111.73736,16.27911],[111.72691,16.27829],[111.71856,16.27918],[111.71568,16.27781],[111.71183,16.27727],[111.67113,16.28337],[111.65976,16.27505],[111.65468,16.27275],[111.64839,16.26758],[111.63286,16.26128],[111.61761,16.25268],[111.60475,16.24204],[111.58758,16.23125],[111.58346,16.22601],[111.57557,16.22248],[111.56996,16.22576],[111.56988,16.22676],[111.57159,16.22858],[111.57937,16.23519],[111.61584,16.2596],[111.63678,16.27483],[111.6592,16.2863],[111.67377,16.28833],[111.69323,16.29051],[111.69979,16.28818],[111.70733,16.28766],[111.73053,16.28837],[111.73711,16.29123],[111.74307,16.29121],[111.76069,16.29345],[111.77531,16.29282],[111.78814,16.29076],[111.79031,16.29014],[111.79647,16.28611],[111.80212,16.28003],[111.80657,16.27309],[111.80952,16.26558]]],[[[111.71353,16.26931],[111.71843,16.27028],[111.7213,16.26929],[111.72247,16.26602],[111.72127,16.26243],[111.71687,16.26016],[111.714,16.26083],[111.71232,16.26214],[111.71132,16.2654],[111.71353,16.26931]]],[[[111.73924,16.27738],[111.74127,16.27803],[111.74565,16.27703],[111.74733,16.27311],[111.74613,16.2692],[111.7414,16.26775],[111.73903,16.26825],[111.73718,16.26972],[111.73634,16.27152],[111.73652,16.27364],[111.73924,16.27738]]],[[[112.66931,16.32775],[112.67084,16.32959],[112.67446,16.33138],[112.67969,16.33141],[112.68721,16.32794],[112.69821,16.32626],[112.70471,16.32366],[112.70762,16.32058],[112.70784,16.31697],[112.70675,16.31498],[112.70059,16.31324],[112.69075,16.31345],[112.68245,16.31565],[112.67492,16.31884],[112.66994,16.32298],[112.66895,16.32531],[112.66931,16.32775]]],[[[112.35395,16.28493],[112.33901,16.28707],[112.33393,16.28894],[112.33109,16.29098],[112.32909,16.29426],[112.32923,16.29872],[112.33385,16.30616],[112.33939,16.31074],[112.35142,16.31771],[112.3843,16.33127],[112.40144,16.33969],[112.41218,16.34693],[112.41988,16.35318],[112.42489,16.35854],[112.43281,16.37038],[112.4408,16.38423],[112.44695,16.39083],[112.45169,16.39239],[112.45754,16.39249],[112.46219,16.39165],[112.4666,16.38957],[112.47666,16.38008],[112.48999,16.36363],[112.49492,16.35102],[112.49546,16.34262],[112.49476,16.33166],[112.48977,16.31992],[112.48586,16.31565],[112.48172,16.31269],[112.4445,16.29968],[112.42544,16.29695],[112.40148,16.29106],[112.36522,16.2858],[112.35395,16.28493]]],[[[112.0831,16.33857],[112.07557,16.33187],[112.07057,16.32991],[112.05339,16.33274],[112.03079,16.33815],[112.02524,16.33868],[112.01699,16.3366],[111.98225,16.32372],[111.97013,16.32419],[111.94951,16.32039],[111.94678,16.32148],[111.94622,16.3238],[111.94646,16.32597],[111.94862,16.33035],[111.95878,16.34296],[111.97246,16.3535],[111.98098,16.35856],[112.0072,16.36546],[112.03301,16.36647],[112.06519,16.35826],[112.08238,16.35025],[112.08383,16.34202],[112.0831,16.33857]],[[111.98304,16.32987],[112.0212,16.34729],[112.02628,16.34711],[112.02853,16.34875],[112.02252,16.35129],[111.99751,16.35492],[111.98567,16.35056],[111.97852,16.34548],[111.9742,16.34475],[111.97194,16.3433],[111.96912,16.3404],[111.96837,16.33586],[111.96912,16.33332],[111.97288,16.33059],[111.97758,16.32932],[111.98304,16.32987]]],[[[112.53628,16.37692],[112.5378,16.37809],[112.55404,16.38158],[112.56096,16.37976],[112.56236,16.37565],[112.55967,16.36658],[112.55416,16.35397],[112.54186,16.33767],[112.53386,16.33592],[112.52769,16.33797],[112.52556,16.34258],[112.52479,16.35267],[112.53112,16.36862],[112.53628,16.37692]]],[[[112.61888,16.43085],[112.63773,16.42816],[112.64381,16.42544],[112.64968,16.4203],[112.65179,16.41629],[112.6514,16.41296],[112.64741,16.41061],[112.63649,16.40856],[112.62988,16.40901],[112.62317,16.41189],[112.61869,16.41594],[112.61552,16.42179],[112.61436,16.42623],[112.61617,16.42969],[112.61888,16.43085]]],[[[111.71286,16.45231],[111.71541,16.45042],[111.71586,16.44843],[111.71512,16.44641],[111.70857,16.44484],[111.70584,16.44605],[111.70597,16.44733],[111.70851,16.44635],[111.71036,16.44879],[111.70719,16.45051],[111.70643,16.4529],[111.70949,16.45107],[111.71083,16.45093],[111.71286,16.45231]]],[[[111.6597,16.46659],[111.6644,16.46375],[111.66504,16.46054],[111.6623,16.456],[111.65488,16.45092],[111.64928,16.44868],[111.64504,16.44858],[111.6382,16.45001],[111.63551,16.45234],[111.63446,16.45576],[111.63467,16.4589],[111.64193,16.46614],[111.64451,16.46691],[111.65423,16.46733],[111.6597,16.46659]]],[[[112.47613,16.46545],[112.47484,16.46743],[112.47474,16.46985],[112.47865,16.4764],[112.48269,16.47793],[112.48552,16.47805],[112.48811,16.47689],[112.48976,16.4731],[112.48684,16.46919],[112.47967,16.46539],[112.47613,16.46545]]],[[[112.47985,16.48614],[112.48261,16.49127],[112.48629,16.49513],[112.49006,16.49756],[112.49312,16.49821],[112.49605,16.49786],[112.49821,16.49662],[112.50006,16.49414],[112.49915,16.48859],[112.49326,16.48145],[112.48784,16.47983],[112.48457,16.48071],[112.48109,16.48217],[112.47985,16.48614]]],[[[111.69593,16.56865],[111.69955,16.57104],[111.70401,16.57191],[111.71103,16.56707],[111.72136,16.55729],[111.73502,16.55708],[111.74387,16.55428],[111.75752,16.54386],[111.76791,16.53896],[111.77208,16.53613],[111.78551,16.51325],[111.78653,16.50659],[111.78457,16.49891],[111.76938,16.47788],[111.76143,16.46309],[111.75528,16.45796],[111.73917,16.44943],[111.7333,16.44905],[111.73056,16.45062],[111.72864,16.45506],[111.73037,16.46207],[111.73008,16.46371],[111.7234,16.46857],[111.72055,16.47296],[111.72301,16.49073],[111.72262,16.49682],[111.72082,16.50086],[111.71729,16.50292],[111.71244,16.50282],[111.70954,16.50136],[111.70182,16.49431],[111.69612,16.49067],[111.69294,16.4899],[111.68929,16.49168],[111.68757,16.49562],[111.68996,16.50685],[111.68976,16.51142],[111.68635,16.51585],[111.67799,16.52101],[111.67474,16.52553],[111.67525,16.53019],[111.68077,16.53823],[111.68173,16.54212],[111.67949,16.54631],[111.67555,16.54891],[111.66772,16.55118],[111.65902,16.5477],[111.64977,16.54799],[111.64699,16.54702],[111.64569,16.54348],[111.64825,16.53627],[111.64862,16.5308],[111.64694,16.52712],[111.64511,16.5255],[111.64241,16.52456],[111.63463,16.52544],[111.62852,16.52997],[111.62609,16.53075],[111.61765,16.52603],[111.61187,16.52513],[111.60656,16.5255],[111.60066,16.52811],[111.59621,16.5327],[111.59445,16.53588],[111.59414,16.54195],[111.59793,16.54606],[111.60103,16.54662],[111.60692,16.54484],[111.6089,16.54511],[111.61792,16.55337],[111.63022,16.55788],[111.6338,16.55851],[111.65009,16.56541],[111.65568,16.56945],[111.66057,16.57425],[111.67772,16.58076],[111.68241,16.58175],[111.68954,16.58074],[111.69075,16.57891],[111.69251,16.56982],[111.69396,16.56847],[111.69593,16.56865]]],[[[112.53242,16.52647],[112.54571,16.52958],[112.55636,16.52871],[112.55879,16.52736],[112.56023,16.52502],[112.56033,16.52286],[112.55902,16.52073],[112.55577,16.51928],[112.54903,16.51827],[112.52935,16.51617],[112.52646,16.51695],[112.52529,16.51834],[112.52541,16.52036],[112.52735,16.52341],[112.53242,16.52647]]],[[[112.56839,16.54655],[112.57671,16.55096],[112.59269,16.5572],[112.59652,16.55731],[112.59931,16.5551],[112.5994,16.55029],[112.59849,16.5483],[112.59105,16.53915],[112.58522,16.53388],[112.57735,16.53235],[112.57197,16.5346],[112.56939,16.53841],[112.56839,16.54655]]],[[[112.69706,16.42381],[112.69358,16.42487],[112.69141,16.42715],[112.69051,16.43046],[112.691,16.4345],[112.70795,16.46623],[112.71457,16.48652],[112.72071,16.50059],[112.73146,16.51498],[112.73536,16.51893],[112.7403,16.52168],[112.75344,16.52671],[112.75764,16.52975],[112.76172,16.53507],[112.76394,16.54302],[112.76164,16.57485],[112.76362,16.59076],[112.76309,16.59464],[112.7605,16.59707],[112.75406,16.5984],[112.75122,16.60027],[112.75024,16.60278],[112.75036,16.60915],[112.74828,16.61551],[112.74493,16.61833],[112.73713,16.62214],[112.73276,16.62665],[112.73222,16.62937],[112.73261,16.63606],[112.72787,16.64354],[112.72913,16.65006],[112.72906,16.65385],[112.72568,16.66053],[112.72303,16.6626],[112.71573,16.66581],[112.71322,16.67245],[112.70609,16.67378],[112.70422,16.67505],[112.70324,16.67684],[112.70319,16.68036],[112.70494,16.68328],[112.71392,16.69109],[112.72166,16.69394],[112.73016,16.69452],[112.7336,16.69352],[112.73599,16.69143],[112.73496,16.68303],[112.73625,16.679],[112.74534,16.67031],[112.76035,16.65023],[112.76359,16.63889],[112.76359,16.62809],[112.76444,16.62458],[112.77462,16.60764],[112.77734,16.60164],[112.77879,16.59],[112.7787,16.54346],[112.77577,16.52773],[112.76895,16.50788],[112.75276,16.47227],[112.7479,16.46405],[112.73605,16.44819],[112.72123,16.43414],[112.70943,16.42674],[112.69706,16.42381]]],[[[112.64533,16.58047],[112.64799,16.57751],[112.64835,16.57477],[112.64675,16.57171],[112.64279,16.56825],[112.63842,16.56599],[112.63418,16.56543],[112.62963,16.56582],[112.62692,16.56773],[112.62606,16.5701],[112.62667,16.57346],[112.63154,16.57861],[112.63481,16.57997],[112.64205,16.58131],[112.64533,16.58047]]],[[[111.70343,16.57986],[111.69665,16.5845],[111.69482,16.58731],[111.69519,16.59014],[111.69679,16.59155],[111.70364,16.59377],[111.70939,16.59434],[111.71636,16.59301],[111.71915,16.59136],[111.72296,16.58769],[111.72586,16.58296],[111.72704,16.57622],[111.72998,16.5667],[111.72906,16.56383],[111.72716,16.56207],[111.72425,16.56245],[111.716,16.57066],[111.70823,16.57545],[111.70343,16.57986]]],[[[112.74055,16.60562],[112.74509,16.6041],[112.74832,16.59987],[112.7487,16.59446],[112.74735,16.58941],[112.74031,16.57706],[112.73551,16.57153],[112.72998,16.56778],[112.72403,16.56857],[112.72245,16.57006],[112.72079,16.57415],[112.72066,16.57943],[112.72178,16.58348],[112.7315,16.60027],[112.73686,16.60463],[112.74055,16.60562]]],[[[112.61823,16.58689],[112.62291,16.59272],[112.62946,16.59517],[112.63749,16.59661],[112.64147,16.59642],[112.64445,16.59534],[112.64618,16.59311],[112.6456,16.59188],[112.64297,16.59085],[112.6268,16.58818],[112.62087,16.58469],[112.61894,16.58494],[112.61823,16.58689]]],[[[112.37765,16.75019],[112.37439,16.75206],[112.37214,16.75658],[112.37499,16.76],[112.37883,16.76078],[112.3812,16.76008],[112.3831,16.75847],[112.38433,16.75397],[112.38203,16.75092],[112.37765,16.75019]]],[[[112.35995,16.75586],[112.35788,16.75753],[112.35764,16.76273],[112.3598,16.76604],[112.36175,16.76711],[112.36348,16.76708],[112.36647,16.76367],[112.3667,16.75873],[112.3636,16.75565],[112.35995,16.75586]]],[[[112.34083,16.76748],[112.33819,16.77003],[112.33747,16.77216],[112.33867,16.77556],[112.34112,16.77781],[112.34925,16.78085],[112.35389,16.7808],[112.35626,16.77871],[112.35705,16.77539],[112.3542,16.77094],[112.34684,16.76833],[112.34083,16.76748]]],[[[112.22191,16.75933],[112.21778,16.76063],[112.21284,16.76356],[112.20888,16.76951],[112.20788,16.77294],[112.20792,16.78251],[112.20308,16.79083],[112.20222,16.79388],[112.20267,16.79712],[112.20473,16.79906],[112.20913,16.79873],[112.2231,16.78893],[112.22641,16.7855],[112.22837,16.78023],[112.23021,16.77766],[112.2383,16.77291],[112.24018,16.77014],[112.23927,16.76305],[112.23634,16.75924],[112.23214,16.75832],[112.22191,16.75933]]],[[[112.35426,16.8539],[112.37409,16.8466],[112.37749,16.84247],[112.38004,16.83543],[112.38107,16.82728],[112.3809,16.81281],[112.37914,16.79824],[112.37684,16.79068],[112.3738,16.78744],[112.37087,16.78565],[112.36869,16.78573],[112.36725,16.78701],[112.36471,16.79394],[112.36094,16.79908],[112.35495,16.80415],[112.3458,16.80755],[112.34517,16.8096],[112.34685,16.81503],[112.34598,16.81697],[112.33821,16.82093],[112.32214,16.82008],[112.31298,16.83626],[112.31278,16.84254],[112.31396,16.84697],[112.31843,16.85236],[112.32356,16.85542],[112.33349,16.85572],[112.34365,16.85761],[112.34888,16.85678],[112.35426,16.8539]]],[[[112.88837,16.834],[112.89309,16.83446],[112.8963,16.83243],[112.89879,16.82886],[112.89746,16.82564],[112.89558,16.82419],[112.89193,16.82337],[112.88924,16.82334],[112.88521,16.82502],[112.88411,16.82647],[112.88419,16.82847],[112.88663,16.83257],[112.88837,16.834]]],[[[112.31083,16.96973],[112.32589,16.96132],[112.33579,16.9547],[112.34087,16.94764],[112.34868,16.93243],[112.36153,16.92352],[112.36236,16.92082],[112.36165,16.91869],[112.35571,16.91518],[112.35234,16.9149],[112.34911,16.91679],[112.34658,16.91651],[112.34553,16.91462],[112.34542,16.90526],[112.34437,16.90382],[112.34151,16.90235],[112.32883,16.90237],[112.32235,16.90684],[112.32106,16.91165],[112.32498,16.92532],[112.32438,16.93469],[112.32188,16.94011],[112.31967,16.94281],[112.31156,16.94388],[112.30761,16.94535],[112.30742,16.94765],[112.30952,16.94976],[112.31059,16.95232],[112.30954,16.95432],[112.30114,16.95708],[112.29612,16.95789],[112.28929,16.95563],[112.28731,16.95591],[112.27244,16.96943],[112.26798,16.97078],[112.26258,16.97022],[112.25496,16.96717],[112.25082,16.96637],[112.24415,16.96639],[112.23416,16.96816],[112.2217,16.96195],[112.20767,16.95989],[112.2051,16.96146],[112.20217,16.96677],[112.1908,16.97148],[112.18902,16.97292],[112.18794,16.97546],[112.19304,16.98256],[112.1947,16.9896],[112.19814,16.99261],[112.20839,16.99638],[112.22041,16.99894],[112.23391,17.00594],[112.23878,17.00698],[112.24623,17.00714],[112.25849,17.00441],[112.26795,16.99894],[112.28114,16.99731],[112.28489,16.99384],[112.28975,16.98657],[112.29281,16.98452],[112.29825,16.98298],[112.31083,16.96973]]]]}},{"type":"Feature","properties":{"kind":"buffer","province_code":"48","buffer_m":5000,"source":"derived","simplify_tolerance_deg":0.0005},"geometry":{"type":"MultiPolygon","coordinates":[[[[112.85823,16.86851],[112.86611,16.87373],[112.87706,16.87792],[112.88527,16.87956],[112.89621,16.87958],[112.90403,16.87842],[112.91154,16.87599],[112.91949,16.87209],[112.9269,16.86656],[112.93244,16.86102],[112.93957,16.85082],[112.94349,16.8418],[112.94532,16.83216],[112.94496,16.82237],[112.94286,16.81327],[112.93739,16.80224],[112.93002,16.79323],[112.92125,16.78641],[112.91088,16.78147],[112.9012,16.779],[112.8924,16.77815],[112.88282,16.77856],[112.87406,16.78054],[112.86431,16.78453],[112.85429,16.79116],[112.84655,16.79964],[112.84133,16.80844],[112.83825,16.81815],[112.83758,16.83028],[112.83892,16.83941],[112.84316,16.8501],[112.8479,16.85778],[112.85823,16.86851]]],[[[112.3517,16.23976],[112.33303,16.24203],[112.31865,16.24607],[112.30664,16.25213],[112.29587,16.26132],[112.28796,16.27252],[112.28344,16.28493],[112.28226,16.29798],[112.28481,16.31271],[112.28833,16.32104],[112.29452,16.33069],[112.30008,16.33736],[112.30745,16.344],[112.31548,16.3496],[112.33147,16.35862],[112.36464,16.3723],[112.38023,16.38025],[112.38781,16.38603],[112.4024,16.40993],[112.41335,16.42241],[112.41898,16.42705],[112.42544,16.43097],[112.43232,16.43395],[112.44051,16.43631],[112.43437,16.4446],[112.43113,16.45159],[112.42853,16.46167],[112.42805,16.47165],[112.42962,16.48134],[112.4337,16.49175],[112.43659,16.50332],[112.44091,16.51226],[112.4462,16.51956],[112.45497,16.52865],[112.46434,16.53542],[112.47483,16.54031],[112.48501,16.54279],[112.49425,16.55528],[112.50268,16.56179],[112.50775,16.56486],[112.51956,16.56994],[112.53073,16.57291],[112.53381,16.5769],[112.54021,16.58259],[112.54663,16.58655],[112.5567,16.59181],[112.5733,16.59855],[112.57687,16.60786],[112.58185,16.61571],[112.589,16.62383],[112.60048,16.63237],[112.61068,16.63673],[112.6217,16.63976],[112.63828,16.64182],[112.64724,16.64129],[112.65582,16.63955],[112.66631,16.6353],[112.67272,16.63132],[112.68214,16.62231],[112.68657,16.6151],[112.68723,16.61628],[112.6859,16.62343],[112.68218,16.6344],[112.67319,16.64125],[112.66628,16.6487],[112.6607,16.65812],[112.65759,16.66748],[112.65642,16.67841],[112.65744,16.68922],[112.66068,16.69907],[112.66631,16.70865],[112.67618,16.71962],[112.6891,16.72938],[112.70085,16.73503],[112.71472,16.7387],[112.72951,16.73983],[112.74318,16.73807],[112.75533,16.73353],[112.76603,16.72635],[112.77509,16.71621],[112.77971,16.70721],[112.78222,16.69801],[112.79791,16.67724],[112.80224,16.67013],[112.80548,16.66226],[112.80878,16.6501],[112.81043,16.63764],[112.81656,16.62745],[112.82174,16.61553],[112.82404,16.60622],[112.82529,16.59455],[112.82567,16.54479],[112.82391,16.53039],[112.82088,16.51618],[112.81404,16.49576],[112.80837,16.48157],[112.79147,16.44642],[112.78172,16.43185],[112.77199,16.41936],[112.76219,16.40932],[112.75063,16.39903],[112.74001,16.39166],[112.72983,16.38607],[112.71946,16.38231],[112.70485,16.37901],[112.69394,16.37869],[112.68358,16.38038],[112.67885,16.37663],[112.69074,16.37534],[112.70101,16.37158],[112.71595,16.36808],[112.72245,16.36549],[112.73145,16.36072],[112.73916,16.35416],[112.74828,16.34275],[112.75239,16.33329],[112.7542,16.32317],[112.75413,16.31136],[112.75232,16.30334],[112.74905,16.29577],[112.74279,16.28627],[112.7362,16.27991],[112.72843,16.27494],[112.71979,16.27156],[112.70666,16.26841],[112.6897,16.26825],[112.67846,16.26983],[112.66378,16.27421],[112.65011,16.28055],[112.63955,16.28868],[112.63214,16.29648],[112.62583,16.30807],[112.62337,16.3157],[112.62233,16.32364],[112.62311,16.33406],[112.62503,16.34198],[112.62837,16.34943],[112.63457,16.35802],[112.64031,16.36359],[112.62663,16.3639],[112.61864,16.36513],[112.60827,16.36883],[112.60719,16.36313],[112.60263,16.34895],[112.59712,16.33634],[112.59181,16.32728],[112.57951,16.31097],[112.574,16.3049],[112.56745,16.29987],[112.56009,16.29605],[112.54415,16.29181],[112.53564,16.29073],[112.52606,16.29142],[112.51543,16.28064],[112.50312,16.27249],[112.49105,16.26742],[112.45785,16.25632],[112.43591,16.25286],[112.40781,16.24624],[112.36624,16.24034],[112.3517,16.23976]],[[112.69021,16.53712],[112.68398,16.54444],[112.67399,16.5345],[112.66165,16.52656],[112.64994,16.52214],[112.63519,16.52026],[112.62153,16.50469],[112.61512,16.49917],[112.60604,16.49341],[112.59202,16.48898],[112.58653,16.48421],[112.57524,16.47819],[112.5629,16.4746],[112.54262,16.47214],[112.53897,16.46499],[112.53362,16.4578],[112.52909,16.44873],[112.5223,16.43981],[112.51331,16.43194],[112.49727,16.42376],[112.50853,16.4133],[112.51711,16.41861],[112.52634,16.42192],[112.54444,16.42583],[112.55541,16.42678],[112.56785,16.4248],[112.56799,16.43124],[112.56966,16.43918],[112.57458,16.45017],[112.58044,16.45876],[112.58815,16.46584],[112.59732,16.47105],[112.6083,16.47489],[112.61695,16.47603],[112.62567,16.47558],[112.64452,16.4729],[112.65219,16.47115],[112.65734,16.46904],[112.66492,16.48388],[112.67041,16.50112],[112.67725,16.51743],[112.6825,16.52675],[112.69021,16.53712]]],[[[112.40418,15.99564],[112.39812,16.00803],[112.39531,16.01817],[112.39459,16.02449],[112.39468,16.0323],[112.39619,16.04098],[112.40056,16.05403],[112.40635,16.06458],[112.41408,16.07354],[112.42514,16.0817],[112.44381,16.09023],[112.45944,16.09613],[112.46702,16.09816],[112.48911,16.10126],[112.52505,16.11267],[112.53757,16.11741],[112.55488,16.12221],[112.56145,16.12391],[112.5713,16.12495],[112.59533,16.12454],[112.60398,16.12316],[112.61448,16.11918],[112.6215,16.11517],[112.63019,16.10831],[112.63637,16.10081],[112.6412,16.09214],[112.6444,16.08018],[112.64505,16.07287],[112.64448,16.06556],[112.64201,16.05496],[112.63868,16.04773],[112.63409,16.04118],[112.6223,16.03025],[112.60173,16.01698],[112.58681,16.00196],[112.57341,15.99123],[112.55818,15.98274],[112.54928,15.97924],[112.52121,15.97163],[112.50903,15.96642],[112.49156,15.96405],[112.48189,15.96176],[112.46329,15.96172],[112.45293,15.96277],[112.43739,15.96693],[112.42328,15.97446],[112.4168,15.97948],[112.41004,15.98654],[112.40418,15.99564]]],[[[112.14956,17.00125],[112.15512,17.01354],[112.15986,17.01983],[112.16819,17.02757],[112.17686,17.03286],[112.1897,17.03802],[112.20381,17.04195],[112.2138,17.04682],[112.22207,17.04972],[112.23467,17.05202],[112.25032,17.05219],[112.26069,17.05078],[112.27105,17.04812],[112.28331,17.04297],[112.29678,17.03999],[112.30482,17.03627],[112.31394,17.02966],[112.32086,17.02265],[112.33039,17.01581],[112.34003,17.00567],[112.3614,16.99267],[112.37137,16.98409],[112.37798,16.97564],[112.38518,16.963],[112.39116,16.95869],[112.39764,16.95222],[112.40205,16.94592],[112.40543,16.93886],[112.4088,16.92516],[112.40885,16.9166],[112.40783,16.91015],[112.40343,16.89847],[112.39884,16.89139],[112.39503,16.88712],[112.4066,16.87914],[112.41567,16.86867],[112.42242,16.85552],[112.42658,16.84027],[112.42772,16.82808],[112.42742,16.80877],[112.42571,16.79406],[112.42314,16.78175],[112.42682,16.77489],[112.42967,16.76642],[112.4309,16.75841],[112.43083,16.75025],[112.42912,16.74112],[112.42712,16.73558],[112.42201,16.72662],[112.41511,16.71884],[112.40626,16.71228],[112.39441,16.70722],[112.38331,16.70504],[112.36846,16.70584],[112.36032,16.70806],[112.35401,16.71084],[112.34514,16.71294],[112.33822,16.71584],[112.33211,16.71941],[112.32558,16.72475],[112.3129,16.73113],[112.3051,16.73786],[112.29763,16.74766],[112.29446,16.75395],[112.29214,16.76103],[112.29084,16.77346],[112.29262,16.78509],[112.2866,16.7906],[112.28028,16.7992],[112.27078,16.81674],[112.26685,16.82933],[112.26611,16.84373],[112.26832,16.85753],[112.27402,16.87037],[112.28323,16.88219],[112.27952,16.88876],[112.27646,16.89697],[112.27483,16.90476],[112.27442,16.91243],[112.26501,16.91617],[112.25673,16.92151],[112.24222,16.92119],[112.23105,16.91759],[112.21278,16.91487],[112.20299,16.9149],[112.19339,16.91684],[112.1815,16.92227],[112.17137,16.93026],[112.16258,16.93542],[112.15406,16.94295],[112.14895,16.94973],[112.14336,16.96166],[112.14186,16.96821],[112.14134,16.97764],[112.14249,16.98586],[112.14656,16.99669],[112.14956,17.00125]]],[[[112.16128,16.77075],[112.15704,16.7823],[112.15545,16.79471],[112.15703,16.80737],[112.15966,16.81469],[112.16337,16.82157],[112.17197,16.83158],[112.18109,16.83807],[112.19332,16.84294],[112.20768,16.84451],[112.2193,16.843],[112.22968,16.83933],[112.24911,16.8266],[112.25739,16.81977],[112.26614,16.80919],[112.2745,16.80153],[112.2805,16.79297],[112.28564,16.7805],[112.28709,16.76778],[112.28537,16.75543],[112.28226,16.74542],[112.27754,16.73657],[112.27034,16.72797],[112.26143,16.72112],[112.2519,16.71646],[112.24139,16.71375],[112.23031,16.71313],[112.21398,16.71476],[112.20354,16.71746],[112.19276,16.72235],[112.1821,16.72953],[112.17409,16.73788],[112.16748,16.74859],[112.16322,16.75934],[112.16128,16.77075]]],[[[111.9735,16.27851],[111.9572,16.27579],[111.94767,16.27521],[111.9363,16.27698],[111.92692,16.28031],[111.91769,16.28613],[111.91036,16.29322],[111.90482,16.30171],[111.90079,16.3135],[111.89965,16.32103],[111.90007,16.3308],[111.90158,16.33834],[111.90655,16.34989],[111.91186,16.35818],[111.92202,16.37079],[111.9295,16.37816],[111.9481,16.39207],[111.95662,16.39712],[111.96707,16.40172],[111.99664,16.4095],[112.00531,16.41064],[112.03806,16.41142],[112.07707,16.40199],[112.09388,16.39555],[112.10526,16.38965],[112.11261,16.38469],[112.11884,16.37846],[112.12372,16.3712],[112.12766,16.36129],[112.1297,16.35125],[112.13041,16.33938],[112.12878,16.3294],[112.12529,16.31928],[112.11763,16.30804],[112.10936,16.30013],[112.09741,16.29191],[112.08517,16.28689],[112.0728,16.28474],[112.06275,16.28533],[112.04558,16.28816],[112.02833,16.29236],[111.99163,16.27943],[111.98423,16.27855],[111.9735,16.27851]]],[[[111.96082,16.1703],[111.96196,16.18002],[111.96523,16.18927],[111.97575,16.20475],[111.98533,16.21288],[111.99666,16.21883],[112.01146,16.22203],[112.02187,16.22239],[112.03406,16.22099],[112.04564,16.21715],[112.05513,16.21229],[112.06322,16.20546],[112.07024,16.19696],[112.07492,16.18775],[112.07757,16.17919],[112.07843,16.16843],[112.07638,16.1552],[112.07154,16.14374],[112.0653,16.13468],[112.05953,16.12911],[112.05035,16.12257],[112.03931,16.11797],[112.03252,16.11614],[112.01789,16.11514],[112.0008,16.117],[111.98885,16.12204],[111.97806,16.13],[111.97304,16.13512],[111.96669,16.14408],[111.96215,16.1565],[111.96082,16.1703]]],[[[111.74598,16.11168],[111.77505,16.1195],[111.79453,16.12269],[111.80669,16.1235],[111.81363,16.12329],[111.82389,16.12122],[111.83314,16.11783],[111.84458,16.11019],[111.85064,16.10449],[111.85763,16.09437],[111.86148,16.08624],[111.8639,16.07538],[111.86428,16.06792],[111.8634,16.0605],[111.85983,16.04682],[111.85595,16.03785],[111.84899,16.02709],[111.84331,16.02139],[111.83484,16.01482],[111.81165,16.00049],[111.80258,15.99636],[111.79226,15.99296],[111.77625,15.98946],[111.76032,15.98978],[111.74586,15.99353],[111.73711,15.9984],[111.71987,16.01117],[111.70807,16.02303],[111.70242,16.03158],[111.69817,16.04091],[111.69588,16.05467],[111.69659,16.06945],[111.69909,16.07771],[111.70341,16.08651],[111.70969,16.09453],[111.71571,16.1002],[111.72267,16.10472],[111.73036,16.10797],[111.74113,16.11107],[111.74598,16.11168]]],[[[111.52407,16.24128],[111.5372,16.25914],[111.55318,16.27261],[111.58845,16.29623],[111.60936,16.31141],[111.62566,16.32072],[111.639,16.32705],[111.64592,16.32964],[111.65317,16.33113],[111.68811,16.33546],[111.69664,16.33561],[111.71133,16.33294],[111.72051,16.33335],[111.73305,16.33636],[111.76276,16.33863],[111.78296,16.33743],[111.80337,16.33355],[111.81012,16.33108],[111.81639,16.32763],[111.82256,16.3236],[111.83114,16.31637],[111.84174,16.3039],[111.85016,16.2892],[111.85311,16.28169],[111.85605,16.2689],[111.85696,16.25372],[111.85574,16.24125],[111.85253,16.23241],[111.84543,16.2201],[111.83408,16.20773],[111.82747,16.20252],[111.81643,16.19143],[111.8028,16.18376],[111.7787,16.17409],[111.77021,16.17171],[111.74744,16.16787],[111.73731,16.16733],[111.7273,16.16892],[111.71582,16.17259],[111.70457,16.17781],[111.70056,16.17774],[111.68262,16.17294],[111.66932,16.17179],[111.66434,16.16685],[111.65554,16.16021],[111.63486,16.14874],[111.62083,16.14226],[111.60122,16.13589],[111.58479,16.13488],[111.56492,16.13725],[111.55353,16.14013],[111.54455,16.14365],[111.53948,16.14626],[111.52914,16.1535],[111.5178,16.16707],[111.51317,16.17673],[111.51101,16.18717],[111.51075,16.19833],[111.51167,16.20744],[111.5147,16.22066],[111.51801,16.2293],[111.52407,16.24128]]],[[[111.51017,16.39674],[111.49168,16.39598],[111.48408,16.39675],[111.47671,16.39872],[111.46868,16.40241],[111.46106,16.40763],[111.45466,16.41421],[111.44973,16.42189],[111.44649,16.43037],[111.44497,16.44065],[111.44522,16.44841],[111.44684,16.45602],[111.4507,16.46505],[111.45646,16.47367],[111.46542,16.48264],[111.47629,16.49096],[111.48231,16.49484],[111.48887,16.49778],[111.50276,16.50186],[111.51029,16.50304],[111.52534,16.50702],[111.53406,16.50765],[111.5352,16.5096],[111.53546,16.51757],[111.53769,16.52781],[111.54194,16.53854],[111.54777,16.54784],[111.54931,16.5545],[111.55241,16.56229],[111.55996,16.57345],[111.56929,16.58183],[111.57942,16.58759],[111.59251,16.59128],[111.60265,16.59632],[111.62596,16.60482],[111.63539,16.61231],[111.64256,16.61596],[111.66437,16.6241],[111.67179,16.62973],[111.67897,16.63334],[111.69297,16.63778],[111.70464,16.63932],[111.71286,16.63943],[111.73028,16.63617],[111.74341,16.62999],[111.7524,16.62321],[111.76133,16.61341],[111.76816,16.60208],[111.77187,16.59047],[111.78098,16.58306],[111.79786,16.57407],[111.80805,16.56496],[111.81406,16.55664],[111.82852,16.5308],[111.83249,16.5171],[111.83308,16.50358],[111.83062,16.48959],[111.82487,16.47602],[111.80893,16.4539],[111.80085,16.43889],[111.7943,16.43084],[111.78103,16.42026],[111.75911,16.4085],[111.74605,16.40449],[111.7379,16.40363],[111.73096,16.40384],[111.71972,16.40076],[111.70707,16.39965],[111.6985,16.40069],[111.69027,16.40325],[111.68377,16.40621],[111.67669,16.41091],[111.66333,16.40556],[111.65038,16.40348],[111.64401,16.40356],[111.60717,16.39728],[111.59823,16.3973],[111.58824,16.39857],[111.56785,16.40359],[111.55562,16.39597],[111.54667,16.39276],[111.53724,16.39138],[111.52644,16.39172],[111.51774,16.39379],[111.51017,16.39674]]],[[[111.55709,17.04819],[111.54289,17.04096],[111.52216,17.03426],[111.508,17.02729],[111.50087,17.02467],[111.4878,17.02187],[111.47193,17.02206],[111.467,17.02288],[111.4586,17.02507],[111.44777,17.02958],[111.43726,17.03593],[111.42516,17.04662],[111.41737,17.05608],[111.40971,17.07071],[111.40721,17.07969],[111.40683,17.09257],[111.4086,17.10302],[111.4137,17.11595],[111.4199,17.12432],[111.42736,17.13191],[111.43356,17.13711],[111.44355,17.14324],[111.47081,17.15374],[111.49393,17.16125],[111.51763,17.16487],[111.53232,17.1651],[111.55289,17.16166],[111.56942,17.15583],[111.58058,17.14995],[111.58822,17.14401],[111.59972,17.13132],[111.60691,17.11749],[111.6093,17.10941],[111.61051,17.09875],[111.60859,17.08615],[111.60454,17.07597],[111.59674,17.06555],[111.59072,17.0601],[111.58127,17.05445],[111.5679,17.04979],[111.55709,17.04819]]],[[[111.15259,15.79741],[111.1558,15.80457],[111.16023,15.81109],[111.16575,15.81678],[111.17813,15.82503],[111.1882,15.83017],[111.2006,15.83337],[111.21546,15.83434],[111.22349,15.83315],[111.23197,15.83029],[111.23987,15.826],[111.24677,15.82032],[111.25241,15.81344],[111.25676,15.80516],[111.25953,15.79536],[111.25992,15.78445],[111.25871,15.77697],[111.25624,15.76979],[111.25047,15.75767],[111.24492,15.75036],[111.23881,15.74467],[111.23174,15.74014],[111.22275,15.73656],[111.2129,15.7346],[111.20288,15.73398],[111.19071,15.73488],[111.17932,15.73853],[111.16987,15.74437],[111.16437,15.74928],[111.15795,15.75703],[111.15409,15.76386],[111.1515,15.77123],[111.15024,15.77892],[111.15045,15.78846],[111.15259,15.79741]]],[[[107.16535,15.74352],[107.16453,15.75816],[107.16601,15.7674],[107.16925,15.77623],[107.17274,15.7822],[107.17361,15.78786],[107.17653,15.79521],[107.17365,15.79815],[107.16868,15.80593],[107.16553,15.81381],[107.16399,15.82165],[107.16393,15.82999],[107.16519,15.8375],[107.16773,15.84469],[107.1717,15.85169],[107.17847,15.85955],[107.1859,15.865],[107.19363,15.87214],[107.21327,15.88439],[107.22379,15.88788],[107.23631,15.88883],[107.23962,15.8924],[107.25253,15.90088],[107.25935,15.90396],[107.26953,15.90626],[107.27728,15.90944],[107.28378,15.91738],[107.29077,15.9227],[107.29985,15.9273],[107.31936,15.93435],[107.32906,15.93524],[107.33588,15.93756],[107.34304,15.93889],[107.35008,15.93911],[107.36327,15.94264],[107.37164,15.94328],[107.37617,15.94274],[107.37958,15.94956],[107.38557,15.95744],[107.38679,15.96507],[107.38933,15.97352],[107.39694,15.98775],[107.39688,15.99488],[107.39893,16.00438],[107.4033,16.01374],[107.40865,16.0208],[107.41483,16.02631],[107.42109,16.03626],[107.42273,16.04125],[107.42766,16.04958],[107.43758,16.06131],[107.44794,16.07121],[107.4571,16.07629],[107.46141,16.07762],[107.47109,16.08275],[107.48097,16.08548],[107.49123,16.08606],[107.50811,16.08302],[107.51634,16.07981],[107.52134,16.07695],[107.52608,16.08108],[107.54144,16.09112],[107.55122,16.09592],[107.56001,16.099],[107.58953,16.10196],[107.60792,16.10777],[107.61718,16.1091],[107.62653,16.10861],[107.63585,16.10632],[107.6441,16.10247],[107.65141,16.09712],[107.65865,16.08918],[107.66219,16.08379],[107.66915,16.06979],[107.67082,16.06321],[107.67636,16.06205],[107.68882,16.05655],[107.69595,16.06417],[107.7038,16.07027],[107.72166,16.08114],[107.73488,16.08643],[107.73866,16.09216],[107.74514,16.09866],[107.75283,16.10378],[107.76142,16.10731],[107.77695,16.11137],[107.78739,16.11222],[107.7986,16.12648],[107.81041,16.13677],[107.81128,16.14],[107.81285,16.15886],[107.81468,16.16685],[107.81796,16.17439],[107.82107,16.17897],[107.82165,16.19263],[107.82485,16.20239],[107.83189,16.21312],[107.83546,16.22006],[107.84047,16.22655],[107.8481,16.2332],[107.86,16.23969],[107.87511,16.24663],[107.88828,16.25542],[107.89532,16.25817],[107.90404,16.26021],[107.91204,16.26067],[107.92331,16.25917],[107.93212,16.25622],[107.93906,16.25241],[107.94733,16.24593],[107.95045,16.24222],[107.96484,16.25297],[107.97227,16.25624],[107.98154,16.25851],[107.9911,16.25889],[107.99993,16.25774],[108.00733,16.25543],[108.01424,16.25196],[108.03298,16.24081],[108.03737,16.23709],[108.0487,16.23404],[108.06208,16.22903],[108.08158,16.22803],[108.08531,16.22963],[108.09412,16.23157],[108.10315,16.23183],[108.11135,16.23093],[108.12366,16.23941],[108.13143,16.24251],[108.13704,16.24618],[108.14671,16.24984],[108.15698,16.25133],[108.16466,16.25109],[108.1691,16.25619],[108.17517,16.26139],[108.18278,16.26601],[108.19116,16.26913],[108.20055,16.27077],[108.20957,16.27059],[108.21547,16.26963],[108.22542,16.26637],[108.23587,16.2601],[108.24819,16.24778],[108.25406,16.23631],[108.2567,16.22571],[108.25686,16.21518],[108.25336,16.19995],[108.26525,16.19749],[108.27728,16.19327],[108.28594,16.18847],[108.29262,16.18291],[108.30602,16.18777],[108.31529,16.18899],[108.32293,16.18866],[108.33098,16.18714],[108.33972,16.18383],[108.35056,16.17722],[108.35966,16.16869],[108.37858,16.14172],[108.38171,16.13469],[108.38357,16.12726],[108.38408,16.11819],[108.38287,16.10865],[108.3796,16.09958],[108.37443,16.09138],[108.36759,16.08442],[108.35938,16.07902],[108.34982,16.07514],[108.34412,16.06766],[108.33792,16.06188],[108.32876,16.05611],[108.3144,16.05137],[108.30525,16.05064],[108.29869,16.05127],[108.31377,16.01808],[108.32149,16.00307],[108.33289,15.98361],[108.34326,15.97072],[108.36033,15.95523],[108.38374,15.94068],[108.37903,15.94582],[108.37435,15.95362],[108.37061,15.96585],[108.37017,15.97544],[108.37177,15.98471],[108.37546,15.99372],[108.38115,16.002],[108.38857,16.00886],[108.39589,16.01339],[108.40599,16.01707],[108.41236,16.01838],[108.41926,16.01917],[108.4267,16.01892],[108.43134,16.02139],[108.44006,16.02407],[108.44914,16.02504],[108.45775,16.02442],[108.46641,16.02216],[108.47678,16.01699],[108.48127,16.01962],[108.49076,16.02329],[108.50085,16.02487],[108.51105,16.02428],[108.51947,16.02223],[108.52668,16.01908],[108.53323,16.0148],[108.54293,16.00626],[108.54646,16.00218],[108.55568,15.99916],[108.56376,15.9948],[108.57331,15.98672],[108.57849,15.97995],[108.58204,15.973],[108.58445,15.9649],[108.5854,15.95547],[108.58431,15.94619],[108.58494,15.93555],[108.5888,15.92216],[108.58974,15.91578],[108.58857,15.89473],[108.58557,15.88547],[108.58208,15.87909],[108.57759,15.87333],[108.56821,15.86523],[108.55993,15.86092],[108.55064,15.85824],[108.53735,15.85685],[108.52693,15.85765],[108.51389,15.8618],[108.50477,15.86702],[108.49723,15.87393],[108.4919,15.8812],[108.48852,15.88805],[108.47577,15.8859],[108.46526,15.88651],[108.45422,15.88962],[108.44536,15.89444],[108.44037,15.89851],[108.44364,15.89457],[108.44864,15.88384],[108.45027,15.87728],[108.45088,15.87056],[108.44977,15.8592],[108.45727,15.83051],[108.46564,15.8109],[108.48266,15.78073],[108.55529,15.66615],[108.5724,15.64156],[108.58254,15.63088],[108.58999,15.62042],[108.59444,15.6123],[108.61335,15.58778],[108.62258,15.57916],[108.6424,15.55517],[108.646,15.55145],[108.65012,15.55434],[108.65924,15.55832],[108.66902,15.56032],[108.67987,15.56017],[108.69008,15.55789],[108.69951,15.55346],[108.70962,15.54522],[108.71525,15.54184],[108.72239,15.5352],[108.72542,15.53135],[108.72973,15.52392],[108.73243,15.5162],[108.73383,15.50522],[108.7335,15.50069],[108.73865,15.48954],[108.74348,15.48371],[108.74637,15.47849],[108.74908,15.47152],[108.75103,15.4595],[108.75007,15.44974],[108.76407,15.43575],[108.77311,15.42827],[108.77856,15.4213],[108.78252,15.41343],[108.78484,15.40498],[108.78544,15.39625],[108.78429,15.38757],[108.78136,15.3791],[108.77626,15.3704],[108.75817,15.34713],[108.75285,15.34148],[108.74247,15.33382],[108.73424,15.32985],[108.72691,15.32739],[108.71334,15.32567],[108.70654,15.32591],[108.69885,15.32403],[108.68559,15.32262],[108.67778,15.32084],[108.66577,15.32051],[108.65714,15.32178],[108.64859,15.31693],[108.63073,15.31144],[108.62607,15.30796],[108.61813,15.30391],[108.60849,15.30089],[108.58983,15.29813],[108.58326,15.29472],[108.57202,15.29078],[108.56042,15.28946],[108.55118,15.28218],[108.54088,15.27756],[108.53129,15.27545],[108.5191,15.27579],[108.50447,15.26728],[108.49512,15.26417],[108.48582,15.26291],[108.47334,15.26357],[108.46851,15.26467],[108.44949,15.26479],[108.43601,15.2665],[108.42897,15.26383],[108.41853,15.25844],[108.40246,15.25442],[108.39152,15.2537],[108.38417,15.25452],[108.3746,15.25126],[108.36568,15.25019],[108.34943,15.25139],[108.34771,15.24635],[108.35233,15.2362],[108.35467,15.22492],[108.35455,15.21652],[108.34928,15.19702],[108.34975,15.19029],[108.3527,15.17939],[108.35283,15.17006],[108.35098,15.16091],[108.34724,15.15231],[108.34175,15.14465],[108.3346,15.13785],[108.32736,15.13301],[108.31243,15.10398],[108.30634,15.09722],[108.30585,15.09028],[108.3042,15.08329],[108.30129,15.0758],[108.29411,15.06296],[108.28755,15.05588],[108.28962,15.0407],[108.28845,15.03075],[108.28353,15.01571],[108.27686,15.00514],[108.2658,14.99507],[108.2574,14.99056],[108.24822,14.98782],[108.22927,14.98514],[108.22162,14.98503],[108.20649,14.98755],[108.20805,14.982],[108.20838,14.97141],[108.20688,14.96256],[108.20409,14.95514],[108.1986,14.94634],[108.19298,14.93994],[108.18239,14.92992],[108.17696,14.92551],[108.1709,14.92194],[108.15686,14.9161],[108.14747,14.9146],[108.13361,14.91469],[108.12405,14.91029],[108.11504,14.90823],[108.09852,14.90704],[108.08326,14.90896],[108.07624,14.91073],[108.06591,14.91541],[108.05637,14.92191],[108.04972,14.92848],[108.04106,14.93203],[108.034,14.93663],[108.02462,14.94477],[108.01836,14.95317],[108.01574,14.9538],[108.006,14.95364],[107.99883,14.95489],[107.99026,14.95395],[107.98047,14.95496],[107.97112,14.95793],[107.96262,14.96274],[107.9514,14.97274],[107.93887,14.98221],[107.93324,14.98794],[107.92884,14.99328],[107.92226,15.00407],[107.92062,15.00825],[107.91447,15.01874],[107.91167,15.02693],[107.90706,15.03548],[107.90424,15.04423],[107.9033,15.05335],[107.90428,15.06247],[107.90714,15.0712],[107.91175,15.0792],[107.92267,15.09047],[107.93643,15.10154],[107.94583,15.12015],[107.95026,15.12703],[107.94194,15.13077],[107.92998,15.13465],[107.92159,15.13974],[107.91449,15.14643],[107.90996,15.15304],[107.90163,15.15025],[107.89324,15.14889],[107.88473,15.14902],[107.87639,15.15065],[107.86066,15.15669],[107.85177,15.1623],[107.84361,15.16207],[107.82473,15.16349],[107.81521,15.16593],[107.80165,15.1669],[107.78264,15.17315],[107.76983,15.17502],[107.76011,15.17831],[107.74918,15.18529],[107.73124,15.18622],[107.72158,15.18832],[107.7126,15.19234],[107.70469,15.19811],[107.69822,15.20536],[107.69366,15.21318],[107.69086,15.22143],[107.68973,15.23004],[107.6901,15.23532],[107.6872,15.24672],[107.68436,15.26413],[107.67554,15.27046],[107.66867,15.27854],[107.65966,15.28649],[107.64929,15.30102],[107.63005,15.32133],[107.62626,15.32664],[107.62187,15.33428],[107.61908,15.34261],[107.61391,15.36941],[107.61075,15.37035],[107.60734,15.36623],[107.60032,15.36053],[107.59339,15.3567],[107.57498,15.35056],[107.5639,15.34931],[107.5526,15.34999],[107.54238,15.35297],[107.5291,15.35999],[107.51698,15.36205],[107.50789,15.36583],[107.49997,15.37127],[107.48433,15.38538],[107.47928,15.3917],[107.4742,15.40187],[107.47165,15.41605],[107.47326,15.43279],[107.46658,15.43404],[107.45641,15.43782],[107.44742,15.44378],[107.44398,15.44722],[107.43402,15.44512],[107.41739,15.44517],[107.39269,15.44813],[107.38396,15.44766],[107.37285,15.44913],[107.36439,15.45158],[107.35461,15.45679],[107.34639,15.46411],[107.34146,15.4708],[107.33371,15.48846],[107.33157,15.5046],[107.32968,15.5092],[107.32794,15.51909],[107.32146,15.53015],[107.32015,15.53432],[107.31325,15.53935],[107.30353,15.55076],[107.29898,15.55947],[107.29614,15.56992],[107.29598,15.57835],[107.29019,15.578],[107.28082,15.57928],[107.26507,15.58526],[107.24603,15.59943],[107.24189,15.60341],[107.23562,15.61154],[107.23212,15.61844],[107.23033,15.62419],[107.22316,15.634],[107.22005,15.64159],[107.21858,15.648],[107.21735,15.65678],[107.21792,15.66563],[107.22345,15.68632],[107.21588,15.69362],[107.20721,15.69394],[107.19855,15.6959],[107.19043,15.69942],[107.18314,15.70437],[107.17696,15.71057],[107.17211,15.7178],[107.16875,15.72578],[107.16535,15.74352]],[[108.42573,15.92672],[108.41374,15.92687],[108.40458,15.92859],[108.4155,15.92069],[108.42564,15.91067],[108.43482,15.90451],[108.42939,15.91353],[108.42688,15.92059],[108.42573,15.92672]]],[[[108.69182,15.86322],[108.705,15.86152],[108.71262,15.85881],[108.72602,15.85024],[108.73395,15.84278],[108.73822,15.83693],[108.74223,15.82884],[108.74449,15.82038],[108.74503,15.81021],[108.7432,15.80018],[108.74165,15.79581],[108.73514,15.78459],[108.72909,15.77819],[108.72203,15.7731],[108.71283,15.76888],[108.70554,15.76699],[108.69302,15.7661],[108.68384,15.76671],[108.67496,15.76906],[108.66673,15.77304],[108.65947,15.77852],[108.65226,15.78691],[108.64752,15.79516],[108.64464,15.80418],[108.64376,15.81358],[108.64491,15.82295],[108.64883,15.83581],[108.65368,15.84397],[108.66024,15.85119],[108.6684,15.85701],[108.67568,15.86036],[108.68345,15.86245],[108.69182,15.86322]]]]}}]}