{"type":"FeatureCollection","features":[{"type":"Feature","properties":{"kind":"boundary","province_code":"14","name":"Tỉnh Sơn La","source":"VNSDI","valid_from":"16/6/2025","simplify_tolerance_deg":0.0005},"geometry":{"type":"Polygon","coordinates":[[[103.80009,20.82548],[103.79336,20.81913],[103.78558,20.81404],[103.77557,20.80507],[103.77558,20.80333],[103.7783,20.79812],[103.77833,20.79405],[103.78688,20.77979],[103.78753,20.77651],[103.78716,20.7707],[103.78515,20.76526],[103.78749,20.75463],[103.79103,20.75021],[103.78961,20.7471],[103.78162,20.74337],[103.77365,20.7377],[103.76934,20.7365],[103.76397,20.73879],[103.75373,20.73446],[103.73707,20.73472],[103.73111,20.73371],[103.72847,20.7304],[103.72997,20.72305],[103.73353,20.71515],[103.73482,20.70877],[103.73427,20.70005],[103.73762,20.6933],[103.74511,20.68155],[103.74513,20.67903],[103.7433,20.67689],[103.73268,20.66927],[103.72221,20.66764],[103.71358,20.66758],[103.69512,20.66279],[103.68711,20.66215],[103.68196,20.66308],[103.677,20.66633],[103.67492,20.6698],[103.67294,20.68372],[103.66996,20.69589],[103.66664,20.69896],[103.66458,20.69972],[103.65762,20.69676],[103.6533,20.69712],[103.64855,20.69901],[103.6381,20.71867],[103.62074,20.72802],[103.6127,20.73086],[103.60897,20.73412],[103.60396,20.74201],[103.60003,20.7445],[103.59508,20.7462],[103.58148,20.7488],[103.56956,20.74793],[103.56339,20.74845],[103.55744,20.74744],[103.55375,20.74547],[103.55046,20.74602],[103.54341,20.75196],[103.53707,20.75431],[103.52717,20.75124],[103.52121,20.75081],[103.51647,20.75154],[103.51048,20.75439],[103.50696,20.75726],[103.50363,20.76149],[103.50005,20.76978],[103.49919,20.77365],[103.49297,20.77862],[103.48962,20.78401],[103.48281,20.78686],[103.47881,20.79611],[103.47969,20.81064],[103.46224,20.82712],[103.45977,20.8273],[103.45772,20.8265],[103.45405,20.82337],[103.4477,20.82041],[103.44322,20.81631],[103.44145,20.80874],[103.4413,20.80352],[103.43991,20.79847],[103.43807,20.79671],[103.41401,20.7963],[103.40707,20.7914],[103.39919,20.78295],[103.3919,20.78622],[103.38428,20.7877],[103.38138,20.7898],[103.36474,20.80668],[103.36145,20.80664],[103.3516,20.80423],[103.34769,20.80438],[103.32493,20.81694],[103.30986,20.82104],[103.29772,20.8217],[103.29378,20.82437],[103.29211,20.82648],[103.29326,20.83423],[103.28745,20.83805],[103.28498,20.83802],[103.27887,20.83274],[103.26699,20.82836],[103.26189,20.82502],[103.259,20.82518],[103.23417,20.83751],[103.22919,20.84152],[103.22751,20.8446],[103.22617,20.85329],[103.2336,20.86943],[103.23377,20.87214],[103.23291,20.87484],[103.22751,20.87943],[103.22125,20.88672],[103.21563,20.89189],[103.2152,20.89343],[103.21558,20.89619],[103.22767,20.89587],[103.23645,20.89395],[103.24778,20.89386],[103.25725,20.89687],[103.26787,20.90241],[103.27203,20.90245],[103.27773,20.89869],[103.27976,20.89871],[103.28242,20.89994],[103.28854,20.90693],[103.28905,20.90875],[103.28742,20.91144],[103.27854,20.9216],[103.27635,20.9265],[103.27569,20.93734],[103.27778,20.94138],[103.28276,20.94555],[103.28626,20.94719],[103.29525,20.94638],[103.29695,20.947],[103.29789,20.94911],[103.29696,20.95583],[103.29796,20.97081],[103.29696,20.97879],[103.29181,20.99318],[103.28358,20.99757],[103.28291,21.00021],[103.28494,21.01027],[103.28826,21.01874],[103.28863,21.02337],[103.28772,21.02858],[103.27831,21.04757],[103.27713,21.0568],[103.27752,21.06042],[103.28604,21.06765],[103.28884,21.07643],[103.28623,21.07986],[103.28213,21.09029],[103.28686,21.09177],[103.28816,21.09916],[103.28668,21.1],[103.28906,21.10199],[103.29462,21.09791],[103.30093,21.09745],[103.30923,21.09467],[103.31779,21.09489],[103.32332,21.09358],[103.33834,21.08706],[103.34579,21.0829],[103.35501,21.07495],[103.36159,21.07093],[103.37208,21.06681],[103.37689,21.06413],[103.3807,21.06089],[103.38419,21.06052],[103.39995,21.06557],[103.40954,21.0643],[103.4149,21.06449],[103.42343,21.06729],[103.42413,21.06961],[103.42183,21.07911],[103.41817,21.08496],[103.41239,21.09754],[103.40795,21.10462],[103.40585,21.11073],[103.40577,21.13199],[103.40249,21.14],[103.39761,21.14813],[103.39759,21.15004],[103.41065,21.1642],[103.41355,21.16422],[103.42303,21.16023],[103.42608,21.16025],[103.42983,21.16274],[103.4331,21.1689],[103.43588,21.18051],[103.43717,21.19633],[103.43284,21.20733],[103.43281,21.21033],[103.43448,21.21716],[103.43282,21.22702],[103.43388,21.23335],[103.43355,21.23541],[103.43023,21.24259],[103.42708,21.25277],[103.42839,21.25385],[103.43047,21.25282],[103.43688,21.2646],[103.43942,21.27226],[103.44001,21.2848],[103.43117,21.31075],[103.42823,21.31372],[103.41888,21.31772],[103.41452,21.31822],[103.39869,21.31698],[103.39446,21.31857],[103.38142,21.32799],[103.3718,21.33062],[103.3693,21.33305],[103.36926,21.33659],[103.37167,21.34275],[103.38303,21.35376],[103.38732,21.36034],[103.3883,21.36389],[103.38811,21.36757],[103.38459,21.3704],[103.36407,21.37238],[103.36173,21.37345],[103.3604,21.37561],[103.3599,21.38174],[103.35824,21.38649],[103.35558,21.39056],[103.35074,21.39473],[103.34107,21.40104],[103.33825,21.40553],[103.33089,21.41361],[103.33115,21.41661],[103.3376,21.42513],[103.34207,21.42817],[103.34599,21.42848],[103.35242,21.42623],[103.35591,21.42585],[103.36026,21.42767],[103.368,21.42923],[103.37247,21.42806],[103.37625,21.4281],[103.37783,21.42947],[103.37882,21.43262],[103.38039,21.43454],[103.38679,21.4346],[103.39352,21.4377],[103.4049,21.43108],[103.40876,21.42834],[103.40991,21.42657],[103.41863,21.42883],[103.43747,21.43142],[103.44247,21.43314],[103.44751,21.43629],[103.44965,21.43854],[103.44792,21.44417],[103.44805,21.44622],[103.45593,21.45747],[103.45603,21.46128],[103.45346,21.47052],[103.45197,21.48205],[103.44864,21.4867],[103.44861,21.48901],[103.45269,21.50295],[103.4554,21.5072],[103.4616,21.51271],[103.45951,21.518],[103.46139,21.51925],[103.46956,21.51769],[103.47651,21.52075],[103.48117,21.52079],[103.48523,21.52192],[103.4894,21.52672],[103.49417,21.53017],[103.50068,21.5335],[103.50649,21.53478],[103.51567,21.53405],[103.51726,21.53529],[103.52065,21.54499],[103.51859,21.56133],[103.51914,21.56515],[103.52257,21.56716],[103.5247,21.56646],[103.53211,21.56655],[103.53241,21.57002],[103.53091,21.5812],[103.53145,21.58556],[103.538,21.59189],[103.53946,21.5998],[103.55475,21.61438],[103.55758,21.62287],[103.55932,21.62355],[103.55974,21.62574],[103.54293,21.64589],[103.54276,21.64834],[103.54579,21.65096],[103.55465,21.65376],[103.55739,21.65624],[103.5592,21.66314],[103.563,21.66964],[103.56612,21.67212],[103.56854,21.67773],[103.57086,21.6798],[103.58232,21.68494],[103.58568,21.68401],[103.58995,21.6786],[103.59304,21.67617],[103.59537,21.67551],[103.59666,21.67784],[103.59632,21.68328],[103.5874,21.70147],[103.58542,21.7099],[103.57769,21.72405],[103.57263,21.7365],[103.56981,21.74152],[103.56081,21.7522],[103.55899,21.75941],[103.55691,21.76307],[103.54324,21.77426],[103.54131,21.77738],[103.54151,21.7811],[103.54637,21.79705],[103.54603,21.80086],[103.54041,21.80926],[103.5389,21.81429],[103.54085,21.82343],[103.54008,21.82683],[103.53742,21.83035],[103.53464,21.83183],[103.53084,21.83248],[103.52819,21.8345],[103.52961,21.8386],[103.52928,21.84214],[103.52391,21.85381],[103.52267,21.86116],[103.51929,21.86358],[103.51313,21.86625],[103.50796,21.87315],[103.49598,21.8744],[103.49362,21.87643],[103.48872,21.88537],[103.48451,21.89692],[103.4868,21.9013],[103.48735,21.90444],[103.48601,21.90633],[103.48087,21.91024],[103.47937,21.91404],[103.47963,21.91622],[103.48281,21.9198],[103.48366,21.92239],[103.48302,21.92702],[103.48402,21.92962],[103.4872,21.93264],[103.48596,21.93863],[103.48741,21.94028],[103.49675,21.94535],[103.49767,21.94964],[103.50642,21.95615],[103.50403,21.96391],[103.50223,21.96671],[103.49677,21.97103],[103.50029,21.98014],[103.50222,21.98215],[103.51015,21.98677],[103.51313,21.99079],[103.51246,21.99867],[103.51358,22.0029],[103.51229,22.0118],[103.51356,22.01431],[103.51777,22.01928],[103.52596,22.0248],[103.54157,22.02987],[103.54751,22.02906],[103.55412,22.02566],[103.57003,22.01949],[103.60152,22.01215],[103.60506,22.01071],[103.61423,22.00119],[103.63019,21.99208],[103.63416,21.99057],[103.63798,21.99096],[103.6442,21.99434],[103.64751,21.99449],[103.65084,21.99321],[103.65228,21.99012],[103.65244,21.98667],[103.6585,21.97981],[103.66056,21.96352],[103.66475,21.95284],[103.66656,21.95023],[103.67258,21.94683],[103.68433,21.94525],[103.68703,21.94278],[103.68861,21.93767],[103.68903,21.93291],[103.68301,21.92238],[103.68367,21.92048],[103.6897,21.91601],[103.70034,21.9099],[103.70448,21.90338],[103.70554,21.89863],[103.70411,21.8879],[103.70566,21.88517],[103.71103,21.8843],[103.72229,21.87888],[103.72232,21.87566],[103.71715,21.86461],[103.71051,21.85664],[103.70725,21.8509],[103.70552,21.84421],[103.69602,21.83795],[103.69584,21.82937],[103.69677,21.82593],[103.70022,21.82393],[103.70814,21.82268],[103.7116,21.82057],[103.71468,21.81809],[103.71676,21.81287],[103.71882,21.8105],[103.72317,21.80863],[103.7298,21.80844],[103.74127,21.8099],[103.75348,21.81029],[103.75655,21.80936],[103.75822,21.80723],[103.75776,21.80211],[103.75428,21.79136],[103.75394,21.78672],[103.75512,21.78303],[103.75921,21.78116],[103.77605,21.77867],[103.77875,21.77595],[103.78214,21.76621],[103.78433,21.76349],[103.79086,21.76032],[103.79393,21.75796],[103.79666,21.75226],[103.7986,21.75102],[103.80243,21.7451],[103.80465,21.74018],[103.80811,21.73853],[103.81498,21.73846],[103.82727,21.73615],[103.83075,21.74191],[103.83265,21.74288],[103.83509,21.74099],[103.83613,21.73814],[103.83387,21.73372],[103.83352,21.72978],[103.83435,21.72181],[103.83738,21.70933],[103.84086,21.7034],[103.84585,21.70105],[103.8497,21.69751],[103.8535,21.6917],[103.86286,21.69141],[103.87436,21.68613],[103.87818,21.68651],[103.88032,21.68867],[103.88116,21.69629],[103.88069,21.70689],[103.88258,21.7094],[103.89181,21.70172],[103.90777,21.69552],[103.91705,21.69749],[103.9234,21.70027],[103.93338,21.69438],[103.9353,21.69189],[103.93648,21.68785],[103.93554,21.67772],[103.93647,21.67129],[103.93776,21.66952],[103.9594,21.66989],[103.9631,21.66872],[103.96758,21.66482],[103.96937,21.6646],[103.98175,21.67718],[103.98405,21.67731],[104.00113,21.67384],[104.00445,21.67231],[104.00854,21.66568],[104.0243,21.67133],[104.02928,21.67151],[104.03528,21.66868],[104.04552,21.66088],[104.05088,21.65829],[104.07868,21.65047],[104.09019,21.64232],[104.10377,21.64598],[104.11307,21.64756],[104.13238,21.65398],[104.14561,21.65524],[104.16114,21.65591],[104.16688,21.65403],[104.1762,21.64896],[104.19225,21.64701],[104.19606,21.64787],[104.21312,21.67093],[104.2177,21.67238],[104.22547,21.67254],[104.241,21.6713],[104.25208,21.67159],[104.25463,21.67005],[104.25529,21.66636],[104.25708,21.66458],[104.26052,21.66341],[104.27313,21.66394],[104.29084,21.65985],[104.29902,21.65274],[104.30233,21.65251],[104.31174,21.65494],[104.31747,21.65532],[104.33491,21.65479],[104.3376,21.6529],[104.33901,21.64957],[104.33867,21.64111],[104.33346,21.63811],[104.32586,21.63094],[104.32143,21.6258],[104.31903,21.62031],[104.31587,21.61649],[104.30128,21.60666],[104.28896,21.60149],[104.28847,21.59898],[104.29154,21.59495],[104.29687,21.57234],[104.28862,21.56671],[104.27762,21.55261],[104.27675,21.55046],[104.28202,21.53882],[104.29136,21.52826],[104.2937,21.51743],[104.29373,21.51088],[104.29173,21.50325],[104.28605,21.49525],[104.28492,21.49143],[104.28545,21.48667],[104.28297,21.47511],[104.28286,21.47094],[104.28478,21.46749],[104.28977,21.46275],[104.3015,21.45494],[104.30252,21.45304],[104.29927,21.44254],[104.30057,21.43719],[104.30376,21.43375],[104.31101,21.43211],[104.31713,21.42916],[104.31994,21.42631],[104.32662,21.41062],[104.32942,21.40897],[104.33502,21.40815],[104.34035,21.40913],[104.34263,21.41164],[104.34426,21.41665],[104.34692,21.41844],[104.34997,21.41738],[104.36402,21.40124],[104.36823,21.39923],[104.37293,21.39913],[104.38042,21.40178],[104.38524,21.40227],[104.39071,21.40086],[104.40003,21.39065],[104.41136,21.38665],[104.41672,21.38095],[104.41953,21.37548],[104.42019,21.3706],[104.41984,21.36369],[104.42099,21.36048],[104.4238,21.35822],[104.43143,21.3548],[104.44921,21.35688],[104.4576,21.35441],[104.4693,21.35242],[104.47552,21.35327],[104.47945,21.35555],[104.49375,21.37203],[104.5039,21.37718],[104.5082,21.38195],[104.52425,21.40856],[104.52882,21.4125],[104.53339,21.41454],[104.54,21.41432],[104.5503,21.41089],[104.55755,21.40984],[104.56428,21.40998],[104.57064,21.4113],[104.57928,21.40978],[104.58093,21.41157],[104.58155,21.41514],[104.58459,21.42051],[104.58751,21.42278],[104.59285,21.42184],[104.60507,21.41461],[104.61132,21.40628],[104.61539,21.40296],[104.63296,21.39216],[104.64047,21.38622],[104.64683,21.38397],[104.65458,21.38303],[104.67404,21.37557],[104.67811,21.37558],[104.68306,21.37678],[104.6856,21.37905],[104.68787,21.38489],[104.68849,21.39501],[104.68949,21.3993],[104.69178,21.40061],[104.69894,21.40221],[104.70283,21.40468],[104.70575,21.40481],[104.70817,21.40291],[104.71364,21.40053],[104.7186,21.40019],[104.72457,21.40139],[104.73079,21.40568],[104.73396,21.40486],[104.73537,21.40212],[104.73348,21.39402],[104.73412,21.38723],[104.73955,21.37511],[104.74559,21.36855],[104.74866,21.35557],[104.74994,21.35355],[104.76189,21.34678],[104.76672,21.3469],[104.76876,21.34405],[104.76928,21.33285],[104.77094,21.32976],[104.77386,21.32774],[104.78085,21.32763],[104.78491,21.32918],[104.79176,21.33431],[104.79494,21.33443],[104.79964,21.33182],[104.80333,21.33087],[104.81399,21.33434],[104.81649,21.32568],[104.81999,21.32158],[104.82728,21.31654],[104.84142,21.31013],[104.84317,21.30849],[104.84247,21.28485],[104.84306,21.27474],[104.84162,21.26572],[104.84279,21.26258],[104.84891,21.25808],[104.84993,21.25521],[104.85111,21.24565],[104.85563,21.23581],[104.8549,21.23417],[104.85068,21.23335],[104.84792,21.23089],[104.84501,21.22788],[104.84472,21.22569],[104.8555,21.22037],[104.86031,21.21532],[104.86396,21.20958],[104.86439,21.20631],[104.86018,21.19469],[104.85175,21.18266],[104.85175,21.18047],[104.85831,21.17583],[104.85904,21.1731],[104.8541,21.16052],[104.8528,21.15492],[104.85367,21.1515],[104.85804,21.14809],[104.8662,21.14564],[104.871,21.14291],[104.8777,21.1369],[104.89532,21.12967],[104.90289,21.12148],[104.90828,21.11889],[104.91133,21.11616],[104.9125,21.11192],[104.89888,21.10858],[104.88971,21.10502],[104.87916,21.09996],[104.87617,21.09772],[104.87339,21.09173],[104.8724,21.08593],[104.86962,21.07844],[104.86783,21.0762],[104.85667,21.07862],[104.85369,21.07656],[104.85265,21.07246],[104.85825,21.05909],[104.86665,21.0322],[104.86931,21.02859],[104.87445,21.02726],[104.88016,21.02345],[104.89044,21.00879],[104.89596,20.98918],[104.90094,20.981],[104.92408,20.96141],[104.93521,20.94077],[104.94242,20.93173],[104.95937,20.91707],[104.96565,20.91288],[104.97193,20.91079],[104.9744,20.90831],[104.97935,20.89175],[104.99572,20.87081],[104.99804,20.86965],[104.99984,20.85354],[104.9973,20.84839],[104.99757,20.84625],[104.99904,20.84512],[105.00188,20.84567],[105.00449,20.8451],[105.00591,20.84368],[105.00629,20.84075],[105.00072,20.82828],[105.00013,20.82147],[104.99774,20.81808],[104.99782,20.81451],[105.00188,20.8142],[105.01433,20.80619],[105.01865,20.80597],[105.02559,20.80282],[105.03111,20.79883],[105.03302,20.79476],[105.03133,20.79206],[105.02949,20.78076],[105.03081,20.77657],[105.03065,20.77362],[105.0198,20.77915],[105.01659,20.77811],[105.00733,20.77043],[105.0006,20.76981],[104.99916,20.76496],[104.9941,20.76037],[104.99075,20.75443],[104.98991,20.74933],[104.99281,20.75076],[104.99637,20.75107],[105.00355,20.74808],[105.0098,20.74441],[105.01702,20.7314],[105.01661,20.72857],[105.0142,20.72668],[105.00227,20.72305],[104.98363,20.72394],[104.96752,20.73083],[104.9453,20.74347],[104.93822,20.74622],[104.91796,20.74323],[104.9099,20.74644],[104.88694,20.75999],[104.8673,20.76252],[104.86175,20.75779],[104.85959,20.75371],[104.84761,20.75407],[104.84468,20.75319],[104.83743,20.74635],[104.83689,20.74104],[104.83767,20.73435],[104.83898,20.73319],[104.84393,20.7321],[104.84555,20.73043],[104.84015,20.72134],[104.83923,20.71705],[104.84503,20.70689],[104.84975,20.70293],[104.83703,20.69956],[104.83545,20.69738],[104.83662,20.69362],[104.83952,20.68861],[104.84084,20.68387],[104.84077,20.67832],[104.83892,20.67247],[104.83695,20.66054],[104.84496,20.65324],[104.84642,20.65086],[104.82693,20.64274],[104.82026,20.63843],[104.81518,20.63226],[104.81041,20.62971],[104.79893,20.61928],[104.80082,20.58851],[104.79935,20.58562],[104.7872,20.58293],[104.77625,20.57703],[104.76513,20.58153],[104.76019,20.58074],[104.75151,20.5768],[104.7415,20.57397],[104.7394,20.57463],[104.7269,20.58966],[104.7225,20.60025],[104.71951,20.60272],[104.71564,20.60454],[104.70177,20.60418],[104.69791,20.60335],[104.69037,20.59721],[104.68721,20.59621],[104.68352,20.59786],[104.68384,20.61193],[104.68313,20.61474],[104.68102,20.61722],[104.67469,20.62167],[104.66327,20.6243],[104.66186,20.62529],[104.64795,20.64164],[104.63627,20.65347],[104.6378,20.65883],[104.63778,20.66619],[104.63695,20.66986],[104.63496,20.67278],[104.62049,20.67292],[104.60487,20.67424],[104.59808,20.675],[104.59191,20.67712],[104.58676,20.68059],[104.5849,20.6833],[104.5859,20.69453],[104.5846,20.70062],[104.57748,20.7068],[104.55904,20.71982],[104.55184,20.72164],[104.54208,20.71765],[104.53427,20.71675],[104.53027,20.71413],[104.5265,20.70463],[104.52414,20.7025],[104.52147,20.70201],[104.51828,20.70326],[104.50993,20.70962],[104.50909,20.71562],[104.50826,20.71659],[104.49901,20.71482],[104.4949,20.71597],[104.49169,20.72002],[104.49045,20.72408],[104.48783,20.73898],[104.48873,20.74528],[104.48427,20.75649],[104.48207,20.76723],[104.48011,20.76984],[104.46794,20.77832],[104.46352,20.78005],[104.45096,20.78223],[104.44951,20.78387],[104.44857,20.78813],[104.44771,20.79916],[104.4441,20.80012],[104.43937,20.8],[104.43249,20.79824],[104.42664,20.79367],[104.42479,20.79337],[104.41158,20.8032],[104.39928,20.81748],[104.38566,20.82779],[104.37938,20.83],[104.37794,20.82873],[104.37827,20.82293],[104.37756,20.82186],[104.3755,20.82156],[104.37003,20.82483],[104.363,20.83497],[104.35391,20.84249],[104.33727,20.85839],[104.33542,20.85897],[104.33038,20.85701],[104.3276,20.85729],[104.32564,20.8598],[104.33116,20.8666],[104.33258,20.87202],[104.33265,20.88035],[104.33005,20.88537],[104.32384,20.89251],[104.30793,20.90599],[104.29628,20.90895],[104.29421,20.91097],[104.29419,20.916],[104.29314,20.92007],[104.29004,20.92344],[104.28436,20.92642],[104.28106,20.92727],[104.27378,20.9224],[104.26864,20.92074],[104.26248,20.91655],[104.26044,20.91141],[104.25975,20.90628],[104.25715,20.90152],[104.25324,20.89976],[104.24809,20.90206],[104.24292,20.90669],[104.2396,20.91132],[104.24017,20.921],[104.24178,20.92739],[104.24154,20.93397],[104.23824,20.9359],[104.22629,20.93778],[104.21267,20.94236],[104.19452,20.94692],[104.1885,20.95657],[104.18314,20.95713],[104.17553,20.95554],[104.15473,20.95525],[104.13664,20.94784],[104.12922,20.95067],[104.12609,20.95781],[104.12273,20.96864],[104.11983,20.97191],[104.10414,20.97667],[104.10044,20.97646],[104.09534,20.96869],[104.08898,20.96381],[104.08282,20.96088],[104.07129,20.95965],[104.06514,20.95594],[104.05753,20.95338],[104.05425,20.95143],[104.05302,20.94987],[104.05678,20.94157],[104.05496,20.9373],[104.04943,20.93185],[104.04843,20.92817],[104.04768,20.91616],[104.04441,20.91169],[104.03805,20.90837],[104.03272,20.90408],[104.02779,20.90308],[104.00575,20.90547],[103.99545,20.90541],[103.99215,20.90655],[103.98925,20.90963],[103.97461,20.91303],[103.96988,20.91203],[103.96151,20.90153],[103.95599,20.89646],[103.94817,20.89584],[103.94363,20.89677],[103.93701,20.90235],[103.93226,20.90367],[103.92135,20.90322],[103.91395,20.90201],[103.9057,20.90389],[103.8991,20.90637],[103.89293,20.90555],[103.89089,20.90186],[103.88168,20.8958],[103.86841,20.88023],[103.85838,20.87281],[103.85165,20.86463],[103.84838,20.86229],[103.84611,20.86227],[103.83846,20.86706],[103.83204,20.87224],[103.82668,20.87356],[103.82174,20.87275],[103.81705,20.86769],[103.81071,20.86261],[103.81055,20.85622],[103.8079,20.85388],[103.80318,20.85191],[103.80012,20.84821],[103.80311,20.83468],[103.80294,20.82984],[103.80009,20.82548]]]}},{"type":"Feature","properties":{"kind":"buffer","province_code":"14","buffer_m":5000,"source":"derived","simplify_tolerance_deg":0.0005},"geometry":{"type":"Polygon","coordinates":[[[103.17911,20.86258],[103.17544,20.86696],[103.17164,20.87346],[103.1686,20.88199],[103.16713,20.89051],[103.16779,20.9019],[103.16971,20.91001],[103.17318,20.91766],[103.17808,20.92458],[103.18426,20.93055],[103.19148,20.93535],[103.19953,20.93883],[103.20811,20.94086],[103.22802,20.94109],[103.22862,20.94695],[103.23236,20.9571],[103.23935,20.96864],[103.24349,20.97286],[103.23997,20.97836],[103.23605,20.98973],[103.23498,21.00576],[103.23815,21.02107],[103.23432,21.02913],[103.23065,21.04098],[103.22917,21.05256],[103.22958,21.06492],[103.23129,21.07315],[103.23499,21.08153],[103.23397,21.09141],[103.23505,21.09986],[103.23779,21.10797],[103.2437,21.12043],[103.2485,21.12757],[103.25463,21.13375],[103.26509,21.14121],[103.27419,21.145],[103.28394,21.14695],[103.2939,21.14697],[103.30365,21.14508],[103.31409,21.14065],[103.33509,21.13743],[103.35351,21.13029],[103.35019,21.14014],[103.34944,21.14767],[103.35025,21.15841],[103.3529,21.16692],[103.35727,21.17478],[103.37266,21.19226],[103.38276,21.20107],[103.38522,21.20238],[103.38464,21.20988],[103.38558,21.21806],[103.38475,21.2279],[103.3812,21.23819],[103.37901,21.24973],[103.37914,21.25723],[103.38059,21.26461],[103.38457,21.27392],[103.37651,21.27661],[103.36486,21.2829],[103.35977,21.28662],[103.3455,21.29273],[103.33714,21.29922],[103.32897,21.30833],[103.32473,21.3159],[103.32209,21.32408],[103.32109,21.33612],[103.32267,21.34736],[103.31868,21.35301],[103.31411,21.36356],[103.30667,21.36939],[103.29055,21.3889],[103.28578,21.39774],[103.28318,21.40734],[103.28313,21.42023],[103.28459,21.42822],[103.28754,21.43582],[103.29833,21.45133],[103.30338,21.45696],[103.30934,21.46175],[103.32129,21.46896],[103.32944,21.47181],[103.33801,21.47323],[103.35496,21.47285],[103.36401,21.47706],[103.38933,21.48275],[103.40092,21.48222],[103.40044,21.48856],[103.40167,21.49918],[103.40459,21.51029],[103.40684,21.51685],[103.41279,21.52843],[103.41481,21.53487],[103.41905,21.54254],[103.42476,21.54932],[103.43175,21.55496],[103.44214,21.5607],[103.45145,21.56349],[103.46249,21.56434],[103.47122,21.56993],[103.47328,21.57901],[103.47665,21.58645],[103.48137,21.59321],[103.48509,21.5969],[103.48594,21.60038],[103.49044,21.60929],[103.49365,21.61315],[103.49572,21.61876],[103.49995,21.62551],[103.49648,21.63391],[103.49469,21.6454],[103.4949,21.65346],[103.49663,21.66136],[103.49982,21.66885],[103.50438,21.67568],[103.51017,21.68164],[103.51893,21.68825],[103.53004,21.7049],[103.53275,21.70777],[103.52895,21.71708],[103.52014,21.72798],[103.51561,21.73697],[103.50629,21.74525],[103.49965,21.75469],[103.4958,21.76256],[103.49363,21.77097],[103.4932,21.77962],[103.49535,21.79422],[103.49206,21.80478],[103.48563,21.81332],[103.48199,21.82169],[103.48022,21.83183],[103.47015,21.83624],[103.46111,21.84306],[103.45535,21.84896],[103.44589,21.86467],[103.44083,21.87641],[103.43799,21.88485],[103.4369,21.89215],[103.43419,21.89834],[103.43154,21.90864],[103.43151,21.91923],[103.43373,21.92995],[103.43571,21.93428],[103.44053,21.95366],[103.444,21.96083],[103.44884,21.96744],[103.44889,21.97606],[103.45297,21.9907],[103.45943,22.00408],[103.46417,22.01001],[103.46507,22.02076],[103.46875,22.03115],[103.47586,22.04247],[103.48007,22.04744],[103.48967,22.05601],[103.49786,22.06153],[103.51021,22.06754],[103.53336,22.07443],[103.54361,22.07511],[103.55957,22.07284],[103.58563,22.06261],[103.62069,22.05363],[103.63122,22.04868],[103.64235,22.03953],[103.65572,22.03905],[103.6658,22.03632],[103.67732,22.03098],[103.68453,22.02553],[103.6905,22.01888],[103.70312,21.99684],[103.70644,21.98515],[103.70944,21.98384],[103.71801,21.97759],[103.72609,21.96924],[103.73033,21.96259],[103.7333,21.95537],[103.73684,21.93898],[103.74585,21.92654],[103.74935,21.91983],[103.75078,21.91533],[103.76044,21.90648],[103.76586,21.89816],[103.76926,21.88894],[103.77049,21.87604],[103.76951,21.86655],[103.76483,21.85407],[103.77135,21.85239],[103.78048,21.8486],[103.78859,21.84313],[103.79531,21.83621],[103.80149,21.82712],[103.80458,21.81952],[103.80566,21.81414],[103.814,21.80677],[103.82024,21.79893],[103.82234,21.79457],[103.83,21.78787],[103.83733,21.78788],[103.84666,21.78614],[103.85544,21.78272],[103.86333,21.77774],[103.87202,21.77002],[103.87704,21.76321],[103.88108,21.7545],[103.89152,21.75384],[103.90032,21.75145],[103.91323,21.74437],[103.9216,21.74545],[103.93118,21.74489],[103.94045,21.74256],[103.94905,21.73854],[103.95903,21.73265],[103.96627,21.72741],[103.972,21.72133],[103.97878,21.72231],[103.9885,21.72233],[104.01035,21.71822],[104.01751,21.71596],[104.0275,21.71669],[104.03553,21.71634],[104.04339,21.71474],[104.05686,21.70911],[104.07067,21.69996],[104.09266,21.69375],[104.09901,21.69113],[104.11769,21.69704],[104.12752,21.69896],[104.15891,21.70108],[104.16808,21.70066],[104.17562,21.69893],[104.18004,21.7038],[104.1883,21.70968],[104.19771,21.71377],[104.20938,21.71692],[104.22444,21.71775],[104.2603,21.71614],[104.26953,21.71373],[104.28017,21.7084],[104.29582,21.70559],[104.31177,21.70027],[104.34433,21.69914],[104.3546,21.69606],[104.36656,21.68903],[104.37305,21.68351],[104.37837,21.67698],[104.38375,21.66633],[104.38638,21.65779],[104.38718,21.64894],[104.38649,21.63568],[104.38468,21.62773],[104.38139,21.62021],[104.37671,21.61337],[104.37081,21.60743],[104.36254,21.60143],[104.35392,21.58875],[104.34444,21.58006],[104.34476,21.56752],[104.34286,21.5589],[104.33922,21.5508],[104.33552,21.54566],[104.33991,21.53223],[104.34187,21.51764],[104.3419,21.51109],[104.34051,21.50009],[104.33617,21.48599],[104.33872,21.48364],[104.34447,21.47537],[104.34924,21.4634],[104.35452,21.46309],[104.36668,21.4598],[104.37686,21.45491],[104.3861,21.44731],[104.39799,21.44588],[104.41246,21.44121],[104.42059,21.43634],[104.42828,21.42919],[104.44085,21.4224],[104.45283,21.41088],[104.45858,21.40276],[104.46364,21.40732],[104.47104,21.4119],[104.48185,21.43002],[104.48621,21.4363],[104.49162,21.44183],[104.50186,21.44998],[104.50815,21.45335],[104.52362,21.45882],[104.53509,21.45973],[104.54899,21.45874],[104.55597,21.45697],[104.56557,21.46304],[104.57543,21.46655],[104.58586,21.46797],[104.60172,21.46629],[104.61045,21.46393],[104.61855,21.46009],[104.63675,21.44867],[104.64721,21.43742],[104.6562,21.43191],[104.66432,21.43785],[104.67341,21.44242],[104.6919,21.44872],[104.70065,21.44986],[104.71249,21.44958],[104.71637,21.44872],[104.72639,21.45071],[104.73511,21.45072],[104.74686,21.44842],[104.75637,21.44489],[104.76487,21.43954],[104.77198,21.43263],[104.77878,21.42172],[104.78231,21.4123],[104.78354,21.40237],[104.78293,21.39694],[104.78733,21.39113],[104.78961,21.38644],[104.79301,21.38479],[104.80036,21.37923],[104.80447,21.3786],[104.81415,21.37956],[104.82307,21.37875],[104.83167,21.3764],[104.83966,21.3726],[104.84677,21.36748],[104.85274,21.36121],[104.85771,21.35315],[104.87005,21.3465],[104.87719,21.34051],[104.88277,21.33425],[104.88706,21.32714],[104.88992,21.31943],[104.89125,21.31136],[104.891,21.27997],[104.89561,21.26956],[104.89809,21.25795],[104.90303,21.24388],[104.90379,21.23517],[104.9095,21.2243],[104.91219,21.21195],[104.91232,21.20173],[104.91,21.19174],[104.9062,21.18127],[104.90711,21.17419],[104.91467,21.17108],[104.92464,21.16555],[104.93408,21.15658],[104.94149,21.15164],[104.95042,21.14259],[104.95495,21.13536],[104.95797,21.12748],[104.9606,21.11449],[104.96021,21.10565],[104.95799,21.09705],[104.95404,21.08901],[104.94849,21.08186],[104.94156,21.07585],[104.93352,21.07123],[104.91603,21.06605],[104.91206,21.05708],[104.92037,21.04835],[104.93417,21.02775],[104.94057,21.00837],[104.95307,20.99816],[104.96291,20.98818],[104.97797,20.96262],[104.98928,20.95283],[104.9983,20.94863],[105.00705,20.94173],[105.01591,20.93127],[105.02026,20.92217],[105.02346,20.91249],[105.04029,20.89138],[105.04395,20.88336],[105.0468,20.86749],[105.05146,20.85841],[105.05374,20.84913],[105.05418,20.83918],[105.06524,20.83074],[105.0702,20.82527],[105.07482,20.81826],[105.07844,20.80992],[105.08097,20.79908],[105.08108,20.79166],[105.0787,20.78041],[105.07875,20.77125],[105.07726,20.76221],[105.07386,20.75363],[105.06869,20.74588],[105.06388,20.74115],[105.06508,20.73439],[105.06477,20.72541],[105.06236,20.7144],[105.05878,20.7067],[105.05375,20.69976],[105.04502,20.69193],[105.03745,20.68707],[105.02903,20.68365],[105.00973,20.67838],[105.00019,20.67784],[104.98364,20.67872],[104.97341,20.67975],[104.96365,20.6828],[104.94754,20.68969],[104.93001,20.6993],[104.91704,20.69802],[104.9079,20.69901],[104.89778,20.70214],[104.89652,20.6921],[104.89354,20.68409],[104.88881,20.67647],[104.88847,20.67298],[104.89272,20.66334],[104.89441,20.65478],[104.89432,20.64609],[104.89246,20.63757],[104.8889,20.62954],[104.88376,20.6223],[104.87724,20.61612],[104.86572,20.60923],[104.8524,20.60373],[104.84864,20.59998],[104.84899,20.5892],[104.84788,20.57883],[104.84426,20.56896],[104.83719,20.55764],[104.82976,20.55055],[104.82087,20.54516],[104.80434,20.54022],[104.79416,20.53505],[104.78549,20.53265],[104.77651,20.53181],[104.76465,20.53315],[104.75039,20.52945],[104.73682,20.52896],[104.72629,20.53106],[104.71532,20.53546],[104.70743,20.5408],[104.69713,20.55217],[104.68434,20.55108],[104.67521,20.55242],[104.66652,20.55538],[104.65508,20.56136],[104.64833,20.56698],[104.64282,20.57368],[104.63873,20.58122],[104.63706,20.5866],[104.63297,20.5891],[104.62333,20.59814],[104.59528,20.62978],[104.58156,20.63253],[104.57539,20.63464],[104.5638,20.64039],[104.55184,20.64943],[104.54317,20.66105],[104.53073,20.65763],[104.52133,20.65679],[104.51194,20.65768],[104.49973,20.66152],[104.4879,20.66816],[104.48255,20.67223],[104.47164,20.67637],[104.46318,20.68193],[104.45298,20.69311],[104.44851,20.69998],[104.44541,20.7075],[104.44091,20.72664],[104.43996,20.73827],[104.43051,20.74129],[104.42146,20.74648],[104.41901,20.74871],[104.41383,20.74934],[104.40476,20.75225],[104.39042,20.76101],[104.38104,20.76824],[104.37266,20.77653],[104.36559,20.77731],[104.3573,20.77969],[104.34414,20.7867],[104.33617,20.79267],[104.3262,20.80513],[104.31686,20.81345],[104.31272,20.81428],[104.3036,20.81808],[104.29551,20.82357],[104.2888,20.83049],[104.2819,20.84084],[104.27874,20.84946],[104.27764,20.8606],[104.26607,20.85618],[104.25763,20.85473],[104.24906,20.85472],[104.24061,20.85613],[104.22741,20.86122],[104.22079,20.8648],[104.21486,20.86932],[104.20294,20.88146],[104.1948,20.8947],[104.19305,20.90066],[104.17494,20.90561],[104.16637,20.91027],[104.14656,20.90359],[104.13711,20.90262],[104.12764,20.90342],[104.1111,20.90877],[104.10264,20.91295],[104.09764,20.91678],[104.09594,20.91368],[104.09262,20.89988],[104.08741,20.89059],[104.07686,20.87827],[104.05763,20.86537],[104.05048,20.86204],[104.04285,20.85987],[104.02516,20.85793],[103.98582,20.8612],[103.97489,20.85487],[103.96353,20.85172],[103.95342,20.85065],[103.93778,20.85168],[103.92539,20.85492],[103.92037,20.85734],[103.91014,20.8571],[103.89824,20.84472],[103.89287,20.84075],[103.88977,20.83698],[103.87759,20.82633],[103.86875,20.82131],[103.85898,20.81818],[103.84898,20.8171],[103.84401,20.8062],[103.84096,20.80154],[103.83299,20.79231],[103.83491,20.78468],[103.83562,20.77384],[103.83522,20.76789],[103.838,20.76025],[103.83919,20.75087],[103.83829,20.74146],[103.83532,20.73243],[103.8299,20.72231],[103.82465,20.71607],[103.81831,20.71078],[103.79535,20.69733],[103.79082,20.69564],[103.79258,20.68929],[103.79329,20.6819],[103.79214,20.66915],[103.78855,20.65943],[103.78087,20.64858],[103.76749,20.63699],[103.7593,20.63158],[103.75031,20.62719],[103.74054,20.62465],[103.72105,20.62241],[103.70677,20.61892],[103.6912,20.61709],[103.67801,20.61774],[103.66321,20.62143],[103.64942,20.62926],[103.64134,20.63592],[103.63505,20.6441],[103.62861,20.65796],[103.62141,20.66165],[103.6142,20.66732],[103.606,20.67746],[103.60108,20.68657],[103.58733,20.69242],[103.57987,20.69776],[103.57429,20.70317],[103.57035,20.70305],[103.56191,20.7009],[103.55359,20.70025],[103.54528,20.70096],[103.53341,20.70373],[103.52849,20.70598],[103.51337,20.70619],[103.50149,20.70857],[103.49469,20.71121],[103.4887,20.71406],[103.47537,20.72312],[103.46489,20.73461],[103.45737,20.74823],[103.45104,20.75323],[103.4334,20.75106],[103.42441,20.74442],[103.41578,20.7405],[103.40649,20.73825],[103.3969,20.73778],[103.38741,20.7391],[103.36393,20.74671],[103.35485,20.7519],[103.34642,20.75917],[103.33765,20.76016],[103.32993,20.76235],[103.3047,20.77548],[103.2848,20.77814],[103.27522,20.78185],[103.26968,20.78039],[103.25608,20.78004],[103.24526,20.78184],[103.23514,20.7859],[103.2098,20.7985],[103.19783,20.80719],[103.19137,20.81351],[103.18632,20.82089],[103.18161,20.83086],[103.17849,20.84683],[103.17804,20.85521],[103.17911,20.86258]]]}}]}