{"type":"FeatureCollection","features":[{"type":"Feature","geometry":{"type":"MultiPolygon","coordinates":[[[[104.600878,20.861607],[104.602772,20.860639],[104.603764,20.862498],[104.601895,20.863443],[104.60144,20.862622],[104.600878,20.861607]]]]},"properties":{"group":"public","tag":"leisure=park","name":null,"levels":null,"lat":20.86204366810913,"lng":104.6023266885156,"osm_type":"way","osm_id":882391795}},{"type":"Feature","geometry":{"type":"MultiPolygon","coordinates":[[[[103.939258,21.308473],[103.939273,21.308408],[103.93931,21.308361],[103.939349,21.308312],[103.939395,21.308282],[103.939512,21.308252],[103.939759,21.308256],[103.940005,21.308267],[103.940917,21.308308],[103.940917,21.308372],[103.941119,21.308372],[103.941323,21.308376],[103.94132,21.308295],[103.941368,21.307887],[103.941368,21.307729],[103.941604,21.307716],[103.941716,21.307712],[103.941755,21.307584],[103.941728,21.307523],[103.941701,21.307271],[103.941651,21.307114],[103.942347,21.307047],[103.942359,21.307613],[103.942352,21.307831],[103.942444,21.307971],[103.942612,21.308121],[103.942743,21.308263],[103.942866,21.308444],[103.942973,21.308619],[103.943021,21.30883],[103.943021,21.309646],[103.943234,21.30983],[103.943854,21.310548],[103.944118,21.310983],[103.94414,21.311043],[103.944119,21.311103],[103.944061,21.311147],[103.94361,21.311374],[103.943394,21.311545],[103.943692,21.31188],[103.943923,21.312196],[103.943886,21.312481],[103.943168,21.312274],[103.942373,21.312071],[103.941841,21.311912],[103.941252,21.312194],[103.940826,21.312284],[103.94025,21.312267],[103.940029,21.31214],[103.940198,21.312075],[103.940614,21.311207],[103.940634,21.311046],[103.940694,21.310881],[103.940655,21.310792],[103.940253,21.310138],[103.940314,21.310102],[103.940313,21.31006],[103.940311,21.309992],[103.940094,21.309917],[103.939421,21.308796],[103.939258,21.308473]]]]},"properties":{"group":"edu_health","tag":"amenity=university","name":"Trường Đại học Tây Bắc","levels":null,"lat":21.310045451534695,"lng":103.9417866480092,"osm_type":"way","osm_id":971276884}},{"type":"Feature","geometry":{"type":"MultiPolygon","coordinates":[[[[103.984027,21.27877],[103.984051,21.27862],[103.98531,21.277379],[103.98609,21.278145],[103.986298,21.278385],[103.986384,21.278617],[103.986415,21.279553],[103.98637,21.279596],[103.986412,21.280186],[103.986441,21.280552],[103.986462,21.281585],[103.986511,21.282458],[103.986481,21.282523],[103.986432,21.282574],[103.986371,21.2826],[103.98449,21.28267],[103.984486,21.281866],[103.984382,21.279692],[103.984308,21.279402],[103.984243,21.279159],[103.984099,21.278905],[103.984027,21.27877]]]]},"properties":{"group":"edu_health","tag":"amenity=college","name":"Trường Chính trị tỉnh Sơn La","levels":null,"lat":21.280211215014702,"lng":103.98538579011075,"osm_type":"way","osm_id":1016556929}},{"type":"Feature","geometry":{"type":"MultiPolygon","coordinates":[[[[103.908981,21.323473],[103.909043,21.323393],[103.909163,21.323053],[103.909346,21.323091],[103.909338,21.323128],[103.909464,21.323161],[103.909432,21.323301],[103.909426,21.323496],[103.909389,21.323533],[103.909048,21.323526],[103.908981,21.323473]]]]},"properties":{"group":"public","tag":"leisure=park","name":null,"levels":null,"lat":21.323323166212546,"lng":103.90924534228343,"osm_type":"way","osm_id":1028840317}},{"type":"Feature","geometry":{"type":"MultiPolygon","coordinates":[[[[103.912378,21.327183],[103.912512,21.327036],[103.912635,21.326963],[103.91274,21.326926],[103.913319,21.326953],[103.913308,21.327208],[103.912378,21.327183]]]]},"properties":{"group":"public","tag":"leisure=park","name":"Công viên 26-10","levels":null,"lat":21.327075089209586,"lng":103.91290639495789,"osm_type":"way","osm_id":1028840318}},{"type":"Feature","geometry":{"type":"MultiPolygon","coordinates":[[[[103.913767,21.327341],[103.913824,21.327061],[103.91388,21.326968],[103.913979,21.326958],[103.914108,21.326967],[103.914199,21.327053],[103.91422,21.327101],[103.914242,21.327203],[103.914228,21.327388],[103.913767,21.327341]]]]},"properties":{"group":"public","tag":"leisure=park","name":null,"levels":null,"lat":21.327180850049043,"lng":103.9140158852771,"osm_type":"way","osm_id":1028840319}},{"type":"Feature","geometry":{"type":"MultiPolygon","coordinates":[[[[103.916896,21.323579],[103.916901,21.323539],[103.917255,21.32316],[103.917306,21.323147],[103.917352,21.32316],[103.917601,21.323367],[103.917615,21.323404],[103.917615,21.323439],[103.917266,21.323799],[103.917226,21.323819],[103.917186,21.323817],[103.916917,21.323607],[103.916896,21.323579]]]]},"properties":{"group":"mall","tag":"shop=mall","name":"Vincom Plaza Sơn La","levels":null,"lat":21.323483382366636,"lng":103.91725918135923,"osm_type":"way","osm_id":1028840325}},{"type":"Feature","geometry":{"type":"MultiPolygon","coordinates":[[[[103.917515,21.32288],[103.917888,21.322695],[103.917971,21.322692],[103.918202,21.322832],[103.918197,21.322905],[103.917907,21.323217],[103.917515,21.322912],[103.917515,21.32288]]]]},"properties":{"group":"public","tag":"leisure=park","name":null,"levels":null,"lat":21.32292338218322,"lng":103.91788118269587,"osm_type":"way","osm_id":1028840326}},{"type":"Feature","geometry":{"type":"MultiPolygon","coordinates":[[[[103.918776,21.326218],[103.918795,21.326151],[103.919436,21.325776],[103.920002,21.326743],[103.919771,21.326892],[103.919334,21.327122],[103.918792,21.326275],[103.918776,21.326218]]]]},"properties":{"group":"public","tag":"amenity=community_centre","name":"Trung tâm Hoạt động thanh thiếu nhi tỉnh Sơn La","levels":null,"lat":21.3264559209594,"lng":103.9193784538447,"osm_type":"way","osm_id":1028840328}},{"type":"Feature","geometry":{"type":"MultiPolygon","coordinates":[[[[103.91843,21.327026],[103.918722,21.326836],[103.918645,21.326729],[103.918857,21.326606],[103.919072,21.326922],[103.919056,21.326934],[103.918611,21.327249],[103.918546,21.32717],[103.91843,21.327026]]]]},"properties":{"group":"edu_health","tag":"amenity=school","name":"Trường Trung học cơ sở Quyết Thắng","levels":null,"lat":21.326935776449147,"lng":103.91876029225224,"osm_type":"way","osm_id":1028840332}},{"type":"Feature","geometry":{"type":"MultiPolygon","coordinates":[[[[103.994497,21.289364],[103.995466,21.287252],[103.996163,21.287522],[103.996174,21.288031],[103.99634,21.288231],[103.996298,21.289653],[103.996286,21.290041],[103.994497,21.289364]]]]},"properties":{"group":"edu_health","tag":"amenity=college","name":"Trường Cao đẳng Kỹ thuật Công nghệ Sơn La","levels":null,"lat":21.288717133502498,"lng":103.99560212600223,"osm_type":"way","osm_id":1028840336}},{"type":"Feature","geometry":{"type":"MultiPolygon","coordinates":[[[[103.994111,21.289758],[103.994345,21.289306],[103.994497,21.289364],[103.996286,21.290041],[103.996298,21.289653],[103.996708,21.289678],[103.997941,21.290218],[103.997882,21.291373],[103.997405,21.292147],[103.996987,21.292812],[103.995903,21.29234],[103.996059,21.29186],[103.996083,21.291638],[103.995992,21.291353],[103.995758,21.29089],[103.995605,21.290683],[103.995224,21.290373],[103.994953,21.290208],[103.994111,21.289758]]]]},"properties":{"group":"edu_health","tag":"amenity=school","name":"Trường Phổ thông Dân tộc Nội trú tỉnh Sơn La","levels":null,"lat":21.290896509070922,"lng":103.99649473985484,"osm_type":"way","osm_id":1028840337}},{"type":"Feature","geometry":{"type":"MultiPolygon","coordinates":[[[[103.973005,21.279816],[103.973353,21.279459],[103.973589,21.279208],[103.973764,21.279029],[103.974434,21.279598],[103.974432,21.279676],[103.974242,21.279852],[103.973689,21.280409],[103.973005,21.279816]]]]},"properties":{"group":"edu_health","tag":"amenity=school","name":"Trường Tiểu học Kim Đồng","levels":null,"lat":21.2797191731002,"lng":103.97373360142608,"osm_type":"way","osm_id":1028840350}},{"type":"Feature","geometry":{"type":"MultiPolygon","coordinates":[[[[103.969174,21.284793],[103.970412,21.283423],[103.971306,21.284124],[103.970913,21.284558],[103.970409,21.285116],[103.970068,21.285494],[103.969174,21.284793]]]]},"properties":{"group":"public","tag":"amenity=community_centre","name":"Trung tâm Hoạt động Thanh thiếu nhi tỉnh Sơn La (cơ sở 2)","levels":null,"lat":21.284458483496707,"lng":103.97024004761745,"osm_type":"way","osm_id":1028840354}},{"type":"Feature","geometry":{"type":"MultiPolygon","coordinates":[[[[103.96631,21.285256],[103.967781,21.284351],[103.968712,21.285618],[103.968143,21.28601],[103.96866,21.28665],[103.968544,21.286725],[103.96825,21.286915],[103.967933,21.286538],[103.967796,21.286637],[103.96749,21.28686],[103.966827,21.285959],[103.96631,21.285256]]]]},"properties":{"group":"edu_health","tag":"amenity=school","name":"Trường Trung học phổ thông chuyên Sơn La","levels":null,"lat":21.285637252284975,"lng":103.96760389517357,"osm_type":"way","osm_id":1028840355}},{"type":"Feature","geometry":{"type":"MultiPolygon","coordinates":[[[[104.446027,21.245074],[104.447025,21.244546],[104.44741,21.245346],[104.44741,21.24537],[104.447399,21.245391],[104.447376,21.245409],[104.446496,21.245852],[104.446027,21.245074]]]]},"properties":{"group":"edu_health","tag":"amenity=school","name":"Trường PTDTNT Trung học cơ sở & Trung học phổ thông Bắc Yên","levels":null,"lat":21.2452070504368,"lng":104.4467426815364,"osm_type":"way","osm_id":1029571199}},{"type":"Feature","geometry":{"type":"MultiPolygon","coordinates":[[[[104.645853,20.840798],[104.645875,20.840741],[104.645929,20.840711],[104.646055,20.840682],[104.646147,20.840643],[104.646266,20.840578],[104.646364,20.840475],[104.646342,20.840283],[104.646354,20.84025],[104.646397,20.840195],[104.646736,20.840143],[104.646955,20.8401],[104.646996,20.840068],[104.64709,20.840008],[104.647311,20.840277],[104.647482,20.840315],[104.647622,20.840205],[104.647746,20.840329],[104.647747,20.840387],[104.647583,20.840567],[104.647416,20.840619],[104.647131,20.840831],[104.646849,20.841091],[104.6465,20.841466],[104.646452,20.841502],[104.646356,20.841571],[104.646303,20.841585],[104.646266,20.841582],[104.646178,20.841559],[104.646118,20.84147],[104.646018,20.841262],[104.645936,20.841082],[104.645898,20.840947],[104.645853,20.840798]]]]},"properties":{"group":"edu_health","tag":"amenity=school","name":"Trường PTDTNT Trung học cơ sở & Trung học phổ thông Mộc Châu","levels":null,"lat":20.840737252650484,"lng":104.6466797080184,"osm_type":"way","osm_id":1029571201}},{"type":"Feature","geometry":{"type":"MultiPolygon","coordinates":[[[[104.675651,21.277259],[104.676501,21.277204],[104.677832,21.27711],[104.677974,21.276975],[104.678046,21.27789],[104.678112,21.278316],[104.677865,21.278391],[104.677708,21.278395],[104.677456,21.278502],[104.677134,21.278558],[104.676994,21.278555],[104.676751,21.27848],[104.675735,21.27855],[104.675651,21.277259]]]]},"properties":{"group":"edu_health","tag":"amenity=school","name":"Trường PTDTNT Trung học cơ sở & Trung học phổ thông Phù Yên","levels":null,"lat":21.27783497350397,"lng":104.67687249367552,"osm_type":"way","osm_id":1029571202}},{"type":"Feature","geometry":{"type":"MultiPolygon","coordinates":[[[[103.991616,21.265574],[103.991619,21.265504],[103.992072,21.265114],[103.992152,21.265106],[103.992271,21.265016],[103.992461,21.264844],[103.992469,21.264761],[103.993158,21.264141],[103.993198,21.264139],[103.99535,21.266366],[103.995339,21.266428],[103.993772,21.267768],[103.993722,21.267761],[103.991616,21.265574]]]]},"properties":{"group":"edu_health","tag":"amenity=hospital","name":"Bệnh viện Đa khoa tỉnh Sơn La","levels":null,"lat":21.265965124030597,"lng":103.9934804074811,"osm_type":"way","osm_id":1030008088}},{"type":"Feature","geometry":{"type":"MultiPolygon","coordinates":[[[[103.952397,21.296481],[103.952635,21.296241],[103.952611,21.296204],[103.952751,21.296084],[103.952847,21.295984],[103.952936,21.295831],[103.953231,21.295617],[103.953129,21.295477],[103.953432,21.295284],[103.953687,21.295682],[103.953982,21.295776],[103.954022,21.295999],[103.954502,21.296616],[103.954151,21.296851],[103.953606,21.297134],[103.953413,21.297251],[103.953371,21.297224],[103.952941,21.296961],[103.952678,21.296751],[103.952534,21.296581],[103.952397,21.296481]]]]},"properties":{"group":"edu_health","tag":"amenity=hospital","name":"Bệnh viện Quân y 6","levels":null,"lat":21.29636749483426,"lng":103.953443738962,"osm_type":"way","osm_id":1030008089}},{"type":"Feature","geometry":{"type":"MultiPolygon","coordinates":[[[[103.996222,21.296883],[103.996934,21.295574],[103.99775,21.295966],[103.998755,21.296365],[103.998159,21.297499],[103.997829,21.297695],[103.99715,21.297184],[103.996222,21.296883]]]]},"properties":{"group":"edu_health","tag":"amenity=school","name":"Trường Cao đẳng Sơn La","levels":null,"lat":21.296627426344315,"lng":103.99750080096571,"osm_type":"way","osm_id":1072233858}},{"type":"Feature","geometry":{"type":"MultiPolygon","coordinates":[[[[103.914288,21.352603],[103.914432,21.352023],[103.915047,21.352178],[103.914775,21.352705],[103.914288,21.352603]]]]},"properties":{"group":"public","tag":"leisure=park","name":null,"levels":null,"lat":21.352365216724863,"lng":103.91463788687784,"osm_type":"way","osm_id":1072233873}},{"type":"Feature","geometry":{"type":"MultiPolygon","coordinates":[[[[104.618734,20.848361],[104.618764,20.848231],[104.618884,20.8481],[104.618791,20.848005],[104.618793,20.847855],[104.618831,20.847604],[104.618868,20.847434],[104.618925,20.847361],[104.618986,20.847331],[104.619094,20.847331],[104.619426,20.847514],[104.619499,20.847764],[104.619616,20.847925],[104.619694,20.848002],[104.619713,20.848078],[104.619713,20.848163],[104.619694,20.848228],[104.619877,20.848394],[104.619971,20.848539],[104.619979,20.848704],[104.619952,20.848779],[104.61974,20.849183],[104.619456,20.849496],[104.619346,20.849396],[104.619442,20.849301],[104.619322,20.849151],[104.619303,20.849015],[104.619338,20.848958],[104.618734,20.848361]]]]},"properties":{"group":"edu_health","tag":"amenity=hospital","name":"Bệnh viện Đa khoa khu vực Mộc Châu","levels":null,"lat":20.848329471116234,"lng":104.61934194729443,"osm_type":"way","osm_id":1125854001}},{"type":"Feature","geometry":{"type":"MultiPolygon","coordinates":[[[[103.910862,21.35078],[103.911404,21.348631],[103.912181,21.348744],[103.912208,21.349246],[103.912452,21.349291],[103.912519,21.349326],[103.912533,21.349391],[103.912407,21.350153],[103.912506,21.350195],[103.912431,21.350573],[103.912919,21.350645],[103.912959,21.350707],[103.9129,21.35105],[103.910862,21.35078]]]]},"properties":{"group":"edu_health","tag":"amenity=hospital","name":"Bệnh viện Đa khoa tỉnh Sơn La","levels":null,"lat":21.3499659910489,"lng":103.91182449512807,"osm_type":"way","osm_id":1166093800}},{"type":"Feature","geometry":{"type":"MultiPolygon","coordinates":[[[[103.914927,21.349971],[103.915141,21.349017],[103.915227,21.349007],[103.915398,21.349322],[103.915656,21.350041],[103.915635,21.350096],[103.915576,21.350116],[103.914927,21.349971]]]]},"properties":{"group":"public","tag":"leisure=park","name":null,"levels":null,"lat":21.349659116603807,"lng":103.9152708661297,"osm_type":"way","osm_id":1166093808}},{"type":"Feature","geometry":{"type":"MultiPolygon","coordinates":[[[[103.911402,21.348582],[103.911606,21.347681],[103.912043,21.347781],[103.912266,21.347768],[103.912416,21.34808],[103.912344,21.3481],[103.912212,21.348687],[103.911402,21.348582]]]]},"properties":{"group":"edu_health","tag":"amenity=college","name":"Trường Cao đẳng Y tế Sơn La","levels":null,"lat":21.348199422891984,"lng":103.91190040570619,"osm_type":"way","osm_id":1166093809}},{"type":"Feature","geometry":{"type":"MultiPolygon","coordinates":[[[[103.912378,21.347703],[103.912445,21.347601],[103.913229,21.347421],[103.913478,21.348313],[103.91348,21.348447],[103.913434,21.348536],[103.912724,21.34869],[103.912617,21.34861],[103.912378,21.347703]]]]},"properties":{"group":"edu_health","tag":"amenity=hospital","name":"Bệnh viện Phong và Da liễu tỉnh Sơn La","levels":null,"lat":21.348063709863272,"lng":103.9129410305579,"osm_type":"way","osm_id":1166093810}},{"type":"Feature","geometry":{"type":"MultiPolygon","coordinates":[[[[103.913758,21.348687],[103.913803,21.348633],[103.914407,21.348453],[103.914897,21.34856],[103.915088,21.34876],[103.914868,21.349757],[103.914812,21.349787],[103.914806,21.349844],[103.914779,21.349877],[103.914492,21.349817],[103.914254,21.349527],[103.91409,21.349489],[103.914039,21.349444],[103.913758,21.348687]]]]},"properties":{"group":"edu_health","tag":"amenity=hospital","name":"Bệnh viện Nội tiết tỉnh Sơn La","levels":null,"lat":21.349078515379897,"lng":103.91447446291771,"osm_type":"way","osm_id":1166093811}},{"type":"Feature","geometry":{"type":"MultiPolygon","coordinates":[[[[103.909029,21.355357],[103.909211,21.354607],[103.909801,21.354747],[103.90964,21.355412],[103.909278,21.355357],[103.909029,21.355357]]]]},"properties":{"group":"edu_health","tag":"amenity=hospital","name":"Bệnh viện Y dược cổ truyền tỉnh Sơn La","levels":null,"lat":21.35502438366795,"lng":103.90941588833807,"osm_type":"way","osm_id":1166093812}},{"type":"Feature","geometry":{"type":"MultiPolygon","coordinates":[[[[103.90871,21.356019],[103.908806,21.355546],[103.909152,21.355449],[103.909675,21.355512],[103.909697,21.356099],[103.90927,21.356099],[103.90871,21.356019]]]]},"properties":{"group":"edu_health","tag":"amenity=hospital","name":"Bệnh viện Phục hồi chức năng tỉnh Sơn La","levels":null,"lat":21.355788907125486,"lng":103.90923561640106,"osm_type":"way","osm_id":1166093813}},{"type":"Feature","geometry":{"type":"MultiPolygon","coordinates":[[[[103.911283,21.310117],[103.911304,21.309777],[103.911559,21.309749],[103.91196,21.30955],[103.912494,21.309365],[103.912864,21.309235],[103.913575,21.309235],[103.913468,21.310109],[103.911411,21.310102],[103.911283,21.310117]]]]},"properties":{"group":"edu_health","tag":"amenity=hospital","name":"Bệnh viện Tâm thần tỉnh Sơn La","levels":null,"lat":21.309738579835265,"lng":103.91259001796915,"osm_type":"way","osm_id":1166093814}},{"type":"Feature","geometry":{"type":"MultiPolygon","coordinates":[[[[103.91079,21.351261],[103.910902,21.350854],[103.911597,21.350932],[103.911538,21.351191],[103.911431,21.351391],[103.91079,21.351261]]]]},"properties":{"group":"edu_health","tag":"amenity=hospital","name":"Bệnh viện Mắt tỉnh Sơn La","levels":null,"lat":21.351110320070333,"lng":103.91119657505014,"osm_type":"way","osm_id":1166093815}},{"type":"Feature","geometry":{"type":"MultiPolygon","coordinates":[[[[104.103606,21.214315],[104.103627,21.214065],[104.103911,21.21335],[104.104169,21.21342],[104.104437,21.213405],[104.104925,21.213525],[104.104893,21.21375],[104.105151,21.2138],[104.104791,21.21482],[104.103616,21.214495],[104.103606,21.214315]]]]},"properties":{"group":"edu_health","tag":"amenity=hospital","name":"Bệnh viện Đa khoa khu vực Mai Sơn","levels":null,"lat":21.214065710673786,"lng":104.10434900599392,"osm_type":"way","osm_id":1166093817}},{"type":"Feature","geometry":{"type":"MultiPolygon","coordinates":[[[[104.107962,21.21472],[104.108074,21.21442],[104.108332,21.21394],[104.108852,21.21324],[104.108986,21.213195],[104.109405,21.213345],[104.10912,21.2138],[104.108884,21.213885],[104.108552,21.214525],[104.108568,21.214955],[104.107962,21.21472]]]]},"properties":{"group":"edu_health","tag":"amenity=hospital","name":"Bệnh viện Phổi tỉnh Sơn La","levels":null,"lat":21.214022657104262,"lng":104.10862904626613,"osm_type":"way","osm_id":1166093818}},{"type":"Feature","geometry":{"type":"MultiPolygon","coordinates":[[[[104.89732,20.754072],[104.897426,20.753964],[104.897466,20.753824],[104.89745,20.75365],[104.897699,20.753575],[104.897766,20.753831],[104.897967,20.754205],[104.897525,20.754408],[104.89732,20.754072]]]]},"properties":{"group":"edu_health","tag":"amenity=school","name":"Trường Trung học cơ sở xã Pà Cò","levels":null,"lat":20.754018827668357,"lng":104.8976259989273,"osm_type":"way","osm_id":1196254950}},{"type":"Feature","geometry":{"type":"MultiPolygon","coordinates":[[[[104.897699,20.753575],[104.898099,20.753485],[104.89812,20.753563],[104.898364,20.754028],[104.898381,20.754124],[104.898013,20.754293],[104.897967,20.754205],[104.897766,20.753831],[104.897699,20.753575]]]]},"properties":{"group":"edu_health","tag":"amenity=school","name":"Trường Tiểu học xã Pà Cò","levels":null,"lat":20.75387476879862,"lng":104.89803752645214,"osm_type":"way","osm_id":1196254951}},{"type":"Feature","geometry":{"type":"MultiPolygon","coordinates":[[[[104.918317,20.745552],[104.918755,20.745063],[104.9195,20.745874],[104.919062,20.74621],[104.918939,20.7463],[104.918611,20.745906],[104.918317,20.745552]]]]},"properties":{"group":"edu_health","tag":"amenity=school","name":"Trường Phổ thông DTNT Trung học cơ sở&Trung học phổ thông B huyện Mai Châu","levels":null,"lat":20.745698209868397,"lng":104.91888774791022,"osm_type":"way","osm_id":1196254959}},{"type":"Feature","geometry":{"type":"MultiPolygon","coordinates":[[[[104.674298,20.838569],[104.674384,20.838394],[104.674566,20.838198],[104.675554,20.837918],[104.675752,20.83874],[104.674588,20.839026],[104.674298,20.838569]]]]},"properties":{"group":"edu_health","tag":"amenity=hospital","name":"Bệnh viện Đa khoa khu vực Vân Hồ - cơ sở Thảo Nguyên","levels":null,"lat":20.838492450695874,"lng":104.67504542600044,"osm_type":"way","osm_id":1204405289}},{"type":"Feature","geometry":{"type":"MultiPolygon","coordinates":[[[[104.438484,21.242677],[104.43854,21.242439],[104.438623,21.242284],[104.438822,21.242279],[104.439259,21.242257],[104.439691,21.24225],[104.440182,21.24224],[104.441123,21.242239],[104.44108,21.242764],[104.440227,21.243029],[104.44005,21.243062],[104.438591,21.243004],[104.438484,21.242677]]]]},"properties":{"group":"edu_health","tag":"amenity=hospital","name":"Bệnh viện Đa khoa khu vực Bắc Yên","levels":null,"lat":21.242623541320913,"lng":104.43977650335734,"osm_type":"way","osm_id":1204405290}},{"type":"Feature","geometry":{"type":"MultiPolygon","coordinates":[[[[104.643786,21.258709],[104.643963,21.257989],[104.644971,21.258434],[104.644355,21.259604],[104.644033,21.259449],[104.643877,21.259264],[104.643797,21.258949],[104.643786,21.258709]]]]},"properties":{"group":"edu_health","tag":"amenity=hospital","name":"Bệnh viện Đa khoa khu vực Phù Yên","levels":null,"lat":21.258764387941117,"lng":104.64428003956816,"osm_type":"way","osm_id":1204405291}},{"type":"Feature","geometry":{"type":"MultiPolygon","coordinates":[[[[103.636162,21.638578],[103.637739,21.636726],[103.63779,21.636711],[103.637833,21.636716],[103.638488,21.637234],[103.638501,21.637274],[103.638493,21.637314],[103.636908,21.639142],[103.636162,21.638578]]]]},"properties":{"group":"edu_health","tag":"amenity=hospital","name":"Bệnh viện Đa khoa khu vực Quỳnh Nhai","levels":null,"lat":21.63791326268644,"lng":103.63734766343883,"osm_type":"way","osm_id":1204405292}},{"type":"Feature","geometry":{"type":"MultiPolygon","coordinates":[[[[103.637873,21.636598],[103.638812,21.635466],[103.639515,21.636015],[103.638571,21.637137],[103.637873,21.636598]]]]},"properties":{"group":"public","tag":"leisure=park","name":null,"levels":null,"lat":21.63630278292827,"lng":103.6386935368579,"osm_type":"way","osm_id":1204405293}},{"type":"Feature","geometry":{"type":"MultiPolygon","coordinates":[[[[103.753138,21.037519],[103.753417,21.036688],[103.753583,21.036172],[103.753707,21.036127],[103.754447,21.036097],[103.754983,21.036233],[103.755493,21.036513],[103.755123,21.037369],[103.754903,21.03809],[103.753138,21.037519]]]]},"properties":{"group":"edu_health","tag":"amenity=hospital","name":"Bệnh viện Đa khoa huyện Sông Mã","levels":null,"lat":21.037002131201664,"lng":103.75431697273342,"osm_type":"way","osm_id":1204405294}},{"type":"Feature","geometry":{"type":"MultiPolygon","coordinates":[[[[103.606315,20.942021],[103.606696,20.940979],[103.608283,20.941551],[103.607769,20.942623],[103.606315,20.942021]]]]},"properties":{"group":"edu_health","tag":"amenity=hospital","name":"Bệnh viện Đa khoa khu vực Sốp Cộp","levels":null,"lat":20.941790754207815,"lng":103.60727662354583,"osm_type":"way","osm_id":1204405295}},{"type":"Feature","geometry":{"type":"MultiPolygon","coordinates":[[[[103.694181,21.431555],[103.694253,21.430777],[103.694277,21.430237],[103.694811,21.430259],[103.695165,21.430255],[103.695165,21.431111],[103.695189,21.431418],[103.694988,21.431445],[103.69498,21.431655],[103.694513,21.431678],[103.694516,21.431583],[103.694181,21.431555]]]]},"properties":{"group":"edu_health","tag":"amenity=hospital","name":"Bệnh viện Đa khoa khu vực Thuận Châu","levels":null,"lat":21.43093743414323,"lng":103.69469468458753,"osm_type":"way","osm_id":1204405296}},{"type":"Feature","geometry":{"type":"MultiPolygon","coordinates":[[[[104.30706,21.050174],[104.307224,21.049781],[104.307108,21.049738],[104.307186,21.049481],[104.307656,21.049646],[104.308254,21.049708],[104.308425,21.049711],[104.308442,21.049924],[104.308318,21.050284],[104.308034,21.050196],[104.307905,21.050542],[104.30706,21.050174]]]]},"properties":{"group":"edu_health","tag":"amenity=hospital","name":"Bệnh viện Đa khoa khu vực Yên Châu","levels":null,"lat":21.049988669706273,"lng":104.3077315074492,"osm_type":"way","osm_id":1204405297}},{"type":"Feature","geometry":{"type":"MultiPolygon","coordinates":[[[[103.913122,21.323996],[103.913126,21.322958],[103.913348,21.322959],[103.913344,21.323997],[103.913122,21.323996]]]]},"properties":{"group":"public","tag":"leisure=park","name":null,"levels":null,"lat":21.32347757513648,"lng":103.91323485178283,"osm_type":"way","osm_id":1225629528}},{"type":"Feature","geometry":{"type":"MultiPolygon","coordinates":[[[[103.909867,21.325142],[103.910619,21.325124],[103.910768,21.325295],[103.910909,21.325813],[103.910226,21.32608],[103.909867,21.325142]]]]},"properties":{"group":"public","tag":"leisure=park","name":null,"levels":null,"lat":21.325540670254288,"lng":103.91040379027694,"osm_type":"way","osm_id":1225629531}},{"type":"Feature","geometry":{"type":"MultiPolygon","coordinates":[[[[103.952431,21.291825],[103.952828,21.291491],[103.952457,21.291126],[103.952999,21.290526],[103.953546,21.290946],[103.953702,21.290991],[103.955816,21.290681],[103.956443,21.290316],[103.956491,21.290341],[103.956754,21.290221],[103.957656,21.291586],[103.955853,21.29261],[103.955349,21.293055],[103.954871,21.293595],[103.954212,21.293119],[103.95364,21.292764],[103.952642,21.292027],[103.952431,21.291825]]]]},"properties":{"group":"edu_health","tag":"amenity=college","name":"Trường Cao đẳng Sơn La","levels":null,"lat":21.291743371867113,"lng":103.9549691931092,"osm_type":"way","osm_id":1227267810}},{"type":"Feature","geometry":{"type":"MultiPolygon","coordinates":[[[[104.017358,21.50725],[104.017391,21.507068],[104.019107,21.506381],[104.019188,21.506417],[104.019515,21.507512],[104.019324,21.507864],[104.019225,21.508218],[104.018136,21.508428],[104.017632,21.507579],[104.017358,21.50725]]]]},"properties":{"group":"edu_health","tag":"amenity=hospital","name":"Bệnh viện Đa khoa khu vực Mường La","levels":null,"lat":21.50743187872947,"lng":104.01854265189046,"osm_type":"way","osm_id":1415613759}},{"type":"Feature","geometry":{"type":"Point","coordinates":[103.90696,21.332691]},"properties":{"group":"public","tag":"amenity=community_centre","name":null,"levels":null,"lat":21.3326911,"lng":103.9069601,"osm_type":"node","osm_id":5193583323}},{"type":"Feature","geometry":{"type":"Point","coordinates":[104.665867,20.818233]},"properties":{"group":"public","tag":"amenity=community_centre","name":null,"levels":null,"lat":20.8182329,"lng":104.6658672,"osm_type":"node","osm_id":6876935285}},{"type":"Feature","geometry":{"type":"Point","coordinates":[103.916716,21.320518]},"properties":{"group":"edu_health","tag":"amenity=hospital","name":null,"levels":null,"lat":21.3205185,"lng":103.9167157,"osm_type":"node","osm_id":12545857401}},{"type":"Feature","geometry":{"type":"Point","coordinates":[103.914153,21.321267]},"properties":{"group":"edu_health","tag":"amenity=school","name":null,"levels":null,"lat":21.3212673,"lng":103.9141528,"osm_type":"node","osm_id":12545857402}}]}