{"type":"FeatureCollection","features":[{"type":"Feature","properties":{"kind":"boundary","province_code":"25","name":"Tỉnh Phú Thọ","source":"VNSDI","valid_from":"16/6/2025","simplify_tolerance_deg":0.0005},"geometry":{"type":"Polygon","coordinates":[[[105.05649,20.56933],[105.05239,20.56144],[105.04765,20.5586],[105.03356,20.55976],[105.02757,20.56159],[105.02114,20.56028],[105.0037,20.57315],[104.98755,20.57419],[104.98546,20.5721],[104.97309,20.57463],[104.96927,20.57677],[104.96016,20.57949],[104.96066,20.57941],[104.96279,20.58883],[104.96276,20.59475],[104.96763,20.59418],[104.96851,20.59534],[104.9599,20.60807],[104.95779,20.61353],[104.95779,20.61585],[104.95954,20.61982],[104.9606,20.62561],[104.95902,20.62859],[104.9541,20.63289],[104.94882,20.63967],[104.94514,20.64265],[104.93477,20.64662],[104.89992,20.66878],[104.88873,20.66992],[104.88066,20.66429],[104.8724,20.66213],[104.86046,20.66097],[104.85448,20.66196],[104.85203,20.66063],[104.84642,20.65086],[104.84496,20.65324],[104.83695,20.66054],[104.83892,20.67247],[104.84077,20.67832],[104.84084,20.68387],[104.83952,20.68861],[104.83662,20.69362],[104.83545,20.69738],[104.83703,20.69956],[104.84975,20.70293],[104.84503,20.70689],[104.83923,20.71705],[104.84015,20.72134],[104.84555,20.73043],[104.84393,20.7321],[104.83898,20.73319],[104.83767,20.73435],[104.83689,20.74104],[104.83743,20.74635],[104.84468,20.75319],[104.84761,20.75407],[104.85959,20.75371],[104.86175,20.75779],[104.8673,20.76252],[104.88694,20.75999],[104.9099,20.74644],[104.91796,20.74323],[104.93822,20.74622],[104.9453,20.74347],[104.96752,20.73083],[104.98363,20.72394],[105.00227,20.72305],[105.0142,20.72668],[105.01661,20.72857],[105.01702,20.7314],[105.0098,20.74441],[105.00355,20.74808],[104.99637,20.75107],[104.99281,20.75076],[104.98991,20.74933],[104.99075,20.75443],[104.9941,20.76037],[104.99916,20.76496],[105.0006,20.76981],[105.00733,20.77043],[105.01659,20.77811],[105.0198,20.77915],[105.03065,20.77362],[105.03081,20.77657],[105.02949,20.78076],[105.03133,20.79206],[105.03302,20.79476],[105.03111,20.79883],[105.02559,20.80282],[105.01865,20.80597],[105.01433,20.80619],[105.00188,20.8142],[104.99782,20.81451],[104.99774,20.81808],[105.00013,20.82147],[105.00072,20.82828],[105.00629,20.84075],[105.00591,20.84368],[105.00449,20.8451],[105.00188,20.84567],[104.99904,20.84512],[104.99757,20.84625],[104.9973,20.84839],[104.99984,20.85354],[104.99804,20.86965],[104.99572,20.87081],[104.97935,20.89175],[104.9744,20.90831],[104.97193,20.91079],[104.96565,20.91288],[104.95937,20.91707],[104.94242,20.93173],[104.93521,20.94077],[104.92408,20.96141],[104.90094,20.981],[104.89596,20.98918],[104.89044,21.00879],[104.88016,21.02345],[104.87445,21.02726],[104.86931,21.02859],[104.86665,21.0322],[104.85825,21.05909],[104.85265,21.07246],[104.85369,21.07656],[104.85667,21.07862],[104.86783,21.0762],[104.86962,21.07844],[104.8724,21.08593],[104.87339,21.09173],[104.87617,21.09772],[104.87916,21.09996],[104.88971,21.10502],[104.89888,21.10858],[104.9125,21.11192],[104.91133,21.11616],[104.90828,21.11889],[104.90289,21.12148],[104.89532,21.12967],[104.8777,21.1369],[104.871,21.14291],[104.8662,21.14564],[104.85804,21.14809],[104.85367,21.1515],[104.8528,21.15492],[104.8541,21.16052],[104.85904,21.1731],[104.85831,21.17583],[104.85175,21.18047],[104.85175,21.18266],[104.86018,21.19469],[104.86439,21.20631],[104.86396,21.20958],[104.86031,21.21532],[104.8555,21.22037],[104.84472,21.22569],[104.84501,21.22788],[104.84792,21.23089],[104.85068,21.23335],[104.8549,21.23417],[104.85563,21.23581],[104.85111,21.24565],[104.84993,21.25521],[104.84891,21.25808],[104.84279,21.26258],[104.84162,21.26572],[104.84306,21.27474],[104.84247,21.28485],[104.84317,21.30849],[104.84142,21.31013],[104.82728,21.31654],[104.81999,21.32158],[104.81649,21.32568],[104.81399,21.33434],[104.82174,21.33673],[104.84372,21.33758],[104.84829,21.3389],[104.84943,21.34021],[104.84574,21.34664],[104.84548,21.35045],[104.84624,21.35152],[104.85399,21.352],[104.85488,21.35403],[104.8555,21.36451],[104.85855,21.36606],[104.86313,21.36606],[104.8658,21.36369],[104.87381,21.34797],[104.87966,21.34416],[104.88411,21.3425],[104.89338,21.3431],[104.89719,21.34572],[104.89973,21.35025],[104.90024,21.35287],[104.89947,21.35644],[104.89502,21.36287],[104.88815,21.36835],[104.88345,21.37525],[104.88243,21.38299],[104.88407,21.38883],[104.88585,21.39133],[104.8955,21.39586],[104.90642,21.41362],[104.90782,21.41671],[104.90705,21.42934],[104.91187,21.4347],[104.91276,21.43815],[104.91187,21.44589],[104.91047,21.44994],[104.90118,21.46351],[104.89621,21.47304],[104.89315,21.48233],[104.88564,21.49864],[104.88309,21.50971],[104.88384,21.52508],[104.88078,21.53127],[104.87721,21.53531],[104.87238,21.53865],[104.86945,21.54222],[104.86805,21.54567],[104.87033,21.55401],[104.8744,21.55604],[104.89132,21.55938],[104.90225,21.5688],[104.90289,21.57058],[104.89996,21.57332],[104.89881,21.57606],[104.8983,21.58237],[104.89384,21.59452],[104.89128,21.60547],[104.88835,21.61154],[104.88911,21.61274],[104.89217,21.61226],[104.89752,21.60893],[104.90375,21.60834],[104.90681,21.60953],[104.90769,21.61322],[104.9068,21.61834],[104.90425,21.62346],[104.90425,21.62692],[104.90895,21.63347],[104.91341,21.63681],[104.92468,21.64042],[104.93312,21.64175],[104.93667,21.64531],[104.93777,21.64776],[104.93803,21.65194],[104.95064,21.65677],[104.95489,21.66118],[104.95702,21.65981],[104.96722,21.64871],[104.9708,21.64683],[104.97282,21.64756],[104.97382,21.65552],[104.97741,21.65835],[104.98334,21.66097],[104.98603,21.66359],[104.98614,21.66611],[104.97953,21.67281],[104.98043,21.67407],[104.98942,21.6772],[104.99857,21.67941],[104.99969,21.68046],[105.0002,21.68945],[105.00189,21.69096],[105.01615,21.68802],[105.02027,21.68826],[105.02677,21.69358],[105.03089,21.69927],[105.03474,21.69989],[105.03952,21.69544],[105.04642,21.69123],[105.05306,21.68863],[105.05651,21.68838],[105.06142,21.68974],[105.06328,21.68949],[105.06938,21.68516],[105.07575,21.68268],[105.08478,21.68218],[105.09271,21.67996],[105.09828,21.68056],[105.0998,21.68741],[105.09679,21.69802],[105.09495,21.70005],[105.08943,21.70099],[105.08675,21.70224],[105.08642,21.70333],[105.08826,21.70801],[105.09144,21.70988],[105.09161,21.71159],[105.09061,21.71378],[105.08673,21.71725],[105.09333,21.71967],[105.1007,21.71714],[105.10677,21.71038],[105.11175,21.7062],[105.11897,21.70503],[105.1247,21.70317],[105.13191,21.69876],[105.1344,21.69806],[105.14312,21.69967],[105.14711,21.69967],[105.14935,21.69874],[105.15645,21.68256],[105.15886,21.68272],[105.16402,21.68752],[105.16745,21.68831],[105.1726,21.68767],[105.17758,21.68494],[105.18153,21.68077],[105.18792,21.67759],[105.19315,21.67367],[105.19611,21.66891],[105.20023,21.66474],[105.20417,21.66314],[105.22392,21.66119],[105.23483,21.65887],[105.23717,21.65192],[105.23579,21.6428],[105.231,21.63453],[105.22473,21.6303],[105.22643,21.62587],[105.2314,21.6196],[105.23463,21.61797],[105.24533,21.61679],[105.24856,21.61447],[105.2508,21.61075],[105.25154,21.60565],[105.25029,21.60217],[105.24488,21.5971],[105.24717,21.59399],[105.24856,21.58586],[105.24996,21.58275],[105.25902,21.57174],[105.26336,21.56814],[105.27242,21.56335],[105.27344,21.56203],[105.27409,21.55724],[105.27295,21.55448],[105.26748,21.55004],[105.26679,21.54643],[105.27065,21.54303],[105.28043,21.54217],[105.28975,21.54003],[105.29407,21.53769],[105.29679,21.53471],[105.29736,21.53176],[105.29516,21.51993],[105.30102,21.50941],[105.30612,21.50916],[105.31392,21.51249],[105.3198,21.51296],[105.3241,21.50793],[105.32606,21.50669],[105.33695,21.50441],[105.33925,21.50685],[105.33894,21.51052],[105.34157,21.51449],[105.34518,21.51754],[105.35797,21.51874],[105.36355,21.5227],[105.3711,21.52483],[105.37667,21.5242],[105.38355,21.52052],[105.3891,21.51408],[105.39368,21.51162],[105.40188,21.51344],[105.40909,21.5125],[105.41793,21.50759],[105.42382,21.50176],[105.42709,21.50236],[105.43301,21.50694],[105.45006,21.50995],[105.45829,21.51819],[105.46878,21.51908],[105.47776,21.5208],[105.48484,21.51964],[105.50554,21.53212],[105.51047,21.53425],[105.51702,21.53392],[105.52228,21.53758],[105.52591,21.5443],[105.52758,21.55255],[105.54277,21.57506],[105.55148,21.57052],[105.55781,21.56598],[105.58324,21.5404],[105.60213,21.5256],[105.61426,21.50818],[105.62783,21.49385],[105.63569,21.47711],[105.63989,21.47168],[105.64539,21.46661],[105.65093,21.46301],[105.65914,21.45938],[105.66708,21.45962],[105.6724,21.45891],[105.67606,21.45633],[105.68737,21.44258],[105.6969,21.43962],[105.70168,21.44046],[105.70663,21.43958],[105.71155,21.43151],[105.71429,21.43047],[105.71705,21.432],[105.72146,21.43301],[105.72384,21.43214],[105.72548,21.42974],[105.72361,21.42255],[105.72157,21.41845],[105.72141,21.41611],[105.72668,21.41123],[105.73181,21.41069],[105.74009,21.4146],[105.7489,21.41559],[105.75567,21.41179],[105.76168,21.40285],[105.7653,21.39427],[105.76027,21.38007],[105.761,21.37852],[105.76868,21.37455],[105.77252,21.3711],[105.77525,21.36715],[105.77614,21.36252],[105.77742,21.3608],[105.77943,21.36011],[105.78478,21.36062],[105.78675,21.35504],[105.78288,21.35382],[105.78526,21.34807],[105.78512,21.34287],[105.7783,21.33882],[105.77534,21.33464],[105.76968,21.32166],[105.76236,21.31354],[105.76081,21.31047],[105.76026,21.30777],[105.76112,21.30543],[105.75925,21.3024],[105.73759,21.28772],[105.73618,21.28065],[105.72471,21.2669],[105.72379,21.26162],[105.7244,21.25402],[105.72784,21.24522],[105.73085,21.24205],[105.73565,21.24094],[105.73746,21.23628],[105.72451,21.22495],[105.72071,21.22501],[105.71379,21.22309],[105.69812,21.21686],[105.6893,21.22083],[105.68613,21.22738],[105.68553,21.23042],[105.6864,21.23202],[105.6881,21.23279],[105.68804,21.23425],[105.68691,21.23492],[105.68486,21.23524],[105.68096,21.23381],[105.67821,21.2284],[105.67565,21.22763],[105.67293,21.22995],[105.67354,21.23195],[105.67149,21.23332],[105.6691,21.23358],[105.66732,21.23884],[105.6664,21.23917],[105.66186,21.23511],[105.65918,21.23457],[105.6555,21.23533],[105.65235,21.23816],[105.64704,21.2367],[105.64447,21.23466],[105.64389,21.2315],[105.64568,21.22688],[105.65084,21.22602],[105.65464,21.22732],[105.65886,21.22365],[105.659,21.22097],[105.65526,21.21864],[105.64356,21.21565],[105.63842,21.21767],[105.63598,21.21743],[105.63651,21.21464],[105.63937,21.21155],[105.63923,21.20711],[105.63186,21.20856],[105.62855,21.21109],[105.62289,21.20748],[105.61604,21.2083],[105.61438,21.20586],[105.61485,21.2038],[105.62163,21.19869],[105.62485,21.1895],[105.63073,21.18373],[105.63133,21.18223],[105.63107,21.18044],[105.62663,21.18144],[105.62432,21.18105],[105.62866,21.16974],[105.62599,21.17032],[105.62372,21.17226],[105.57799,21.16501],[105.56921,21.16058],[105.52159,21.15447],[105.49644,21.15851],[105.48805,21.16356],[105.46974,21.17846],[105.46622,21.20913],[105.46159,21.22568],[105.45971,21.22967],[105.45538,21.23458],[105.45082,21.24162],[105.44603,21.24374],[105.44743,21.25184],[105.44326,21.2721],[105.43767,21.27952],[105.42979,21.28791],[105.42343,21.29294],[105.4135,21.29775],[105.3982,21.30281],[105.39167,21.30375],[105.38979,21.30354],[105.38212,21.29711],[105.36229,21.2829],[105.35588,21.27141],[105.35554,21.26125],[105.35186,21.23694],[105.34571,21.22547],[105.32923,21.20698],[105.31586,21.19788],[105.31051,21.19705],[105.30477,21.19467],[105.30196,21.19253],[105.30068,21.1899],[105.29906,21.17781],[105.29699,21.17498],[105.29364,21.17304],[105.29013,21.16916],[105.28884,21.16498],[105.28884,21.16139],[105.29264,21.15332],[105.30328,21.13806],[105.31186,21.12848],[105.31758,21.11861],[105.31963,21.10979],[105.31913,21.10322],[105.31316,21.08875],[105.30525,21.07454],[105.3004,21.06872],[105.29608,21.05878],[105.2943,21.04924],[105.29566,21.03995],[105.30064,21.02858],[105.31433,21.01765],[105.31869,21.01233],[105.32229,21.01678],[105.32484,21.01868],[105.32815,21.01796],[105.3317,21.01176],[105.33399,21.01151],[105.34672,21.01458],[105.35053,21.01243],[105.35409,21.00885],[105.35536,21.00861],[105.37065,21.01501],[105.37651,21.01833],[105.38059,21.0219],[105.38517,21.02284],[105.391,21.01425],[105.39226,21.00758],[105.3953,21.0028],[105.39911,21.00041],[105.4191,20.99668],[105.41954,20.99113],[105.42147,20.98558],[105.42375,20.98343],[105.43061,20.98055],[105.43771,20.97267],[105.44353,20.95931],[105.44632,20.95621],[105.45723,20.9495],[105.46385,20.9483],[105.47504,20.94826],[105.4791,20.94706],[105.48924,20.93559],[105.49305,20.93249],[105.49762,20.93033],[105.50459,20.92978],[105.50752,20.92546],[105.51348,20.92208],[105.51971,20.92057],[105.52488,20.92031],[105.52873,20.92092],[105.53325,20.92351],[105.54065,20.92569],[105.55963,20.92543],[105.57759,20.92969],[105.58161,20.92607],[105.58275,20.9221],[105.58197,20.91922],[105.5783,20.91599],[105.57137,20.91205],[105.55981,20.90866],[105.55691,20.90489],[105.55632,20.90038],[105.55765,20.89461],[105.55378,20.88958],[105.55721,20.88164],[105.58423,20.85794],[105.58688,20.84676],[105.5852,20.84198],[105.58181,20.83615],[105.57804,20.82592],[105.57534,20.82266],[105.56932,20.82174],[105.56489,20.82219],[105.56231,20.82101],[105.55968,20.81847],[105.55818,20.80985],[105.55895,20.80914],[105.57702,20.8089],[105.58257,20.81177],[105.58598,20.81948],[105.58868,20.82941],[105.59026,20.83115],[105.59384,20.83147],[105.59551,20.83242],[105.59679,20.83394],[105.59808,20.84063],[105.59922,20.84107],[105.61117,20.83668],[105.61673,20.83122],[105.61887,20.83067],[105.62409,20.83177],[105.63385,20.83739],[105.63622,20.83789],[105.63572,20.83507],[105.63653,20.83089],[105.64011,20.82939],[105.64154,20.82707],[105.641,20.82406],[105.6376,20.82454],[105.63386,20.82213],[105.63152,20.8198],[105.6301,20.81652],[105.63437,20.80101],[105.63317,20.79712],[105.63453,20.79338],[105.64866,20.79274],[105.64808,20.77493],[105.65094,20.75758],[105.65628,20.74439],[105.66704,20.73502],[105.66143,20.72518],[105.67125,20.709],[105.67976,20.69961],[105.68165,20.69557],[105.67906,20.68418],[105.6773,20.68247],[105.67001,20.68022],[105.66917,20.67906],[105.67257,20.67043],[105.67286,20.66659],[105.67373,20.66522],[105.67629,20.66473],[105.67734,20.66893],[105.67943,20.66775],[105.68083,20.66243],[105.67941,20.64553],[105.68186,20.64092],[105.68613,20.63843],[105.68331,20.63255],[105.68023,20.63033],[105.67744,20.62944],[105.67143,20.63168],[105.66573,20.62915],[105.66536,20.62564],[105.66629,20.61796],[105.66746,20.61717],[105.67296,20.6166],[105.68612,20.61645],[105.68998,20.62033],[105.69392,20.62102],[105.69694,20.61996],[105.69656,20.61882],[105.69838,20.61622],[105.70398,20.61223],[105.70691,20.60014],[105.71879,20.59707],[105.72491,20.6014],[105.73162,20.60195],[105.74685,20.59462],[105.75516,20.58694],[105.76143,20.58042],[105.76608,20.57371],[105.76955,20.56377],[105.77108,20.55669],[105.77349,20.55113],[105.77692,20.54596],[105.78168,20.54167],[105.79389,20.51669],[105.7995,20.51132],[105.80446,20.50316],[105.80766,20.50108],[105.81949,20.50309],[105.82047,20.4961],[105.82516,20.48878],[105.84268,20.48028],[105.84842,20.47946],[105.85286,20.477],[105.8513,20.45929],[105.85543,20.42913],[105.85662,20.42718],[105.84187,20.42103],[105.83731,20.42107],[105.8321,20.42484],[105.83017,20.42502],[105.82906,20.42395],[105.82942,20.41869],[105.82781,20.41772],[105.82323,20.41883],[105.81952,20.42357],[105.80863,20.42855],[105.80324,20.43381],[105.79869,20.43986],[105.79387,20.44835],[105.79221,20.45408],[105.78655,20.45295],[105.78859,20.44763],[105.78374,20.43894],[105.78079,20.43621],[105.77477,20.43472],[105.77375,20.44047],[105.75583,20.44155],[105.75261,20.43941],[105.75147,20.43245],[105.75607,20.41952],[105.75526,20.41381],[105.7534,20.41241],[105.75296,20.4102],[105.75279,20.40737],[105.75424,20.40398],[105.75288,20.39904],[105.75322,20.39611],[105.75618,20.38786],[105.75942,20.38191],[105.75872,20.377],[105.75602,20.36956],[105.75375,20.36738],[105.74945,20.36698],[105.74741,20.36792],[105.74481,20.37339],[105.74574,20.3807],[105.74444,20.3832],[105.74202,20.38413],[105.73377,20.38458],[105.73066,20.3863],[105.73122,20.39313],[105.72917,20.39899],[105.72349,20.40462],[105.71546,20.40807],[105.69667,20.41163],[105.69368,20.41169],[105.68563,20.40984],[105.68512,20.40569],[105.68754,20.40296],[105.69418,20.40172],[105.69694,20.39771],[105.69473,20.39072],[105.70536,20.38519],[105.70721,20.38311],[105.70488,20.37399],[105.71494,20.35463],[105.71949,20.34742],[105.72534,20.34142],[105.73372,20.33691],[105.72837,20.33486],[105.71971,20.3283],[105.71154,20.32404],[105.70811,20.32653],[105.70357,20.32489],[105.69695,20.31406],[105.69428,20.3128],[105.68985,20.30721],[105.68544,20.30552],[105.67844,20.30628],[105.66809,20.31071],[105.66551,20.31389],[105.66346,20.31853],[105.65984,20.32196],[105.65363,20.32442],[105.64228,20.33714],[105.63556,20.34302],[105.62805,20.34719],[105.62339,20.34721],[105.61665,20.34894],[105.61046,20.35628],[105.60037,20.36314],[105.58535,20.36856],[105.58302,20.36906],[105.5812,20.36833],[105.57235,20.36104],[105.56664,20.35887],[105.55886,20.35914],[105.54927,20.36039],[105.54385,20.36308],[105.53763,20.36896],[105.53297,20.37068],[105.53038,20.37069],[105.52648,20.36875],[105.52335,20.36242],[105.51841,20.36024],[105.51063,20.35977],[105.50285,20.36053],[105.49068,20.3669],[105.48447,20.37204],[105.47852,20.37474],[105.46244,20.37625],[105.42953,20.38657],[105.42616,20.38658],[105.42149,20.3844],[105.41083,20.37564],[105.40434,20.37468],[105.39553,20.37568],[105.37558,20.38548],[105.36314,20.39038],[105.35173,20.39041],[105.34266,20.39457],[105.31753,20.41023],[105.30561,20.41659],[105.29238,20.41856],[105.28474,20.42241],[105.27761,20.43102],[105.27269,20.43298],[105.25842,20.43422],[105.26493,20.44714],[105.26469,20.45812],[105.26236,20.46397],[105.25355,20.47033],[105.24265,20.47498],[105.24033,20.48034],[105.24579,20.48692],[105.24476,20.48936],[105.23412,20.4962],[105.22661,20.50451],[105.2186,20.50803],[105.2115,20.51493],[105.20676,20.51797],[105.20353,20.51879],[105.19274,20.51738],[105.18304,20.51982],[105.177,20.51659],[105.16967,20.5168],[105.16429,20.52126],[105.16278,20.52531],[105.16193,20.5326],[105.15999,20.53666],[105.15547,20.54173],[105.15051,20.54396],[105.13951,20.54518],[105.13628,20.54782],[105.13326,20.5539],[105.12895,20.55775],[105.12141,20.5616],[105.11451,20.56303],[105.1102,20.56506],[105.1089,20.56809],[105.10524,20.57134],[105.102,20.57134],[105.09747,20.56972],[105.09122,20.57094],[105.08712,20.57459],[105.08001,20.57702],[105.06987,20.5752],[105.06038,20.57217],[105.05649,20.56933]]]}},{"type":"Feature","properties":{"kind":"buffer","province_code":"25","buffer_m":5000,"source":"derived","simplify_tolerance_deg":0.0005},"geometry":{"type":"Polygon","coordinates":[[[104.79125,20.67868],[104.78753,20.69325],[104.78777,20.70344],[104.79148,20.71527],[104.79156,20.72248],[104.78903,20.73643],[104.78952,20.75061],[104.79218,20.76174],[104.79688,20.77104],[104.80306,20.7785],[104.81301,20.78724],[104.82107,20.79259],[104.83012,20.79629],[104.83771,20.79787],[104.84348,20.8018],[104.85309,20.80572],[104.86337,20.80758],[104.87384,20.80732],[104.89348,20.80479],[104.90327,20.80252],[104.91235,20.79839],[104.92605,20.79034],[104.94038,20.7914],[104.94866,20.79036],[104.95621,20.78813],[104.95772,20.78992],[104.95554,20.79293],[104.95177,20.8014],[104.94949,20.81189],[104.94969,20.82132],[104.95209,20.83172],[104.94951,20.84311],[104.94974,20.85401],[104.9421,20.86314],[104.93638,20.87142],[104.93339,20.87895],[104.91074,20.89769],[104.90392,20.90461],[104.89199,20.92091],[104.88508,20.93395],[104.86776,20.94817],[104.85918,20.95854],[104.85419,20.96673],[104.8492,20.9785],[104.8465,20.98888],[104.8393,20.99324],[104.83236,20.99962],[104.82685,21.00666],[104.82194,21.0155],[104.81275,21.04436],[104.80674,21.05893],[104.80491,21.06683],[104.80461,21.0749],[104.80583,21.0829],[104.80954,21.09455],[104.81358,21.10154],[104.81885,21.10776],[104.82652,21.11392],[104.81578,21.12364],[104.81035,21.13182],[104.80602,21.14432],[104.80468,21.15444],[104.80625,21.16655],[104.8047,21.17103],[104.80363,21.18261],[104.80453,21.19135],[104.80672,21.19821],[104.80232,21.20431],[104.79857,21.21288],[104.79676,21.222],[104.79726,21.23345],[104.79969,21.24292],[104.7962,21.2508],[104.79403,21.25903],[104.79354,21.26749],[104.79467,21.27819],[104.79442,21.28312],[104.78249,21.29326],[104.7736,21.30517],[104.77004,21.31387],[104.76601,21.33097],[104.7662,21.33953],[104.7681,21.34791],[104.77164,21.3558],[104.77671,21.36292],[104.78312,21.36902],[104.79063,21.37387],[104.79898,21.3773],[104.80946,21.38026],[104.81869,21.39363],[104.82511,21.39957],[104.83259,21.40427],[104.84044,21.4078],[104.84583,21.41643],[104.85184,21.42332],[104.85886,21.42872],[104.86037,21.43962],[104.853,21.45314],[104.84796,21.46661],[104.84149,21.48067],[104.83861,21.48907],[104.83606,21.50014],[104.83519,21.51019],[104.83134,21.51461],[104.82309,21.52954],[104.82054,21.5385],[104.81998,21.54776],[104.82373,21.56527],[104.82721,21.57407],[104.83254,21.582],[104.8395,21.58873],[104.84489,21.59213],[104.84153,21.60113],[104.84027,21.60978],[104.84081,21.61851],[104.84312,21.62697],[104.84788,21.63605],[104.85359,21.64324],[104.86356,21.65081],[104.87361,21.66415],[104.87896,21.66883],[104.8903,21.67647],[104.90123,21.68068],[104.90472,21.68457],[104.91271,21.69039],[104.923,21.69491],[104.9294,21.69952],[104.93768,21.7034],[104.94608,21.70558],[104.95472,21.71229],[104.96061,21.71503],[104.96717,21.72234],[104.9768,21.72953],[104.9858,21.73357],[104.9955,21.73577],[105.0032,21.73599],[105.00879,21.73944],[105.02051,21.74349],[105.03475,21.74511],[105.04763,21.74331],[105.05191,21.74846],[105.05906,21.75425],[105.06877,21.75923],[105.08464,21.76414],[105.09311,21.76488],[105.10158,21.76422],[105.1098,21.76215],[105.1247,21.75633],[105.13152,21.75187],[105.13657,21.74716],[105.14272,21.74486],[105.15706,21.74391],[105.16879,21.7401],[105.1779,21.73513],[105.18164,21.7319],[105.1882,21.73044],[105.20181,21.72401],[105.21788,21.71297],[105.22608,21.70638],[105.24505,21.70306],[105.25389,21.70039],[105.26202,21.69618],[105.26913,21.69058],[105.27497,21.6838],[105.27932,21.67609],[105.28263,21.66676],[105.28493,21.65745],[105.28475,21.64425],[105.29046,21.63671],[105.2964,21.62517],[105.29921,21.61173],[105.29924,21.6005],[105.30351,21.59786],[105.31132,21.58996],[105.31721,21.58081],[105.3188,21.5764],[105.32477,21.57251],[105.3353,21.56153],[105.34097,21.56255],[105.35729,21.56814],[105.36695,21.56988],[105.37679,21.56973],[105.39174,21.56715],[105.40051,21.56348],[105.41008,21.55802],[105.42495,21.5552],[105.42845,21.55367],[105.43624,21.55838],[105.44485,21.56161],[105.4719,21.56561],[105.48488,21.5729],[105.5062,21.60445],[105.51307,21.61064],[105.5211,21.61543],[105.52997,21.61865],[105.53934,21.62017],[105.54885,21.61992],[105.55812,21.61792],[105.57383,21.61067],[105.5866,21.60232],[105.59762,21.59266],[105.61677,21.57283],[105.63582,21.55793],[105.64388,21.54879],[105.65277,21.53529],[105.66759,21.51933],[105.67237,21.51178],[105.67592,21.50411],[105.68701,21.502],[105.69447,21.49909],[105.70497,21.49247],[105.71403,21.48416],[105.72318,21.48204],[105.73433,21.47634],[105.74122,21.47431],[105.75022,21.46996],[105.75804,21.46395],[105.76244,21.45879],[105.77357,21.45441],[105.78034,21.45061],[105.78926,21.44416],[105.79634,21.43594],[105.8064,21.41953],[105.81002,21.41095],[105.81283,21.40131],[105.81304,21.39708],[105.82097,21.39041],[105.82632,21.38343],[105.83017,21.37563],[105.83404,21.36335],[105.83485,21.35414],[105.83206,21.33292],[105.82907,21.32445],[105.82436,21.3167],[105.81602,21.30844],[105.81295,21.30188],[105.80732,21.29338],[105.80085,21.27968],[105.79491,21.27204],[105.78741,21.26573],[105.77929,21.26022],[105.7841,21.2474],[105.7855,21.23893],[105.78516,21.23036],[105.78311,21.222],[105.77942,21.21415],[105.77422,21.2071],[105.76607,21.19892],[105.7488,21.18591],[105.74087,21.18242],[105.72913,21.18012],[105.70893,21.1728],[105.70057,21.1717],[105.69214,21.172],[105.67893,21.17529],[105.67562,21.15989],[105.67265,21.15141],[105.66796,21.14365],[105.66175,21.1369],[105.65424,21.13144],[105.64574,21.12746],[105.63657,21.12513],[105.62709,21.12454],[105.61861,21.12559],[105.59378,21.12166],[105.58408,21.11758],[105.57572,21.11578],[105.52807,21.10966],[105.52076,21.10926],[105.51347,21.1099],[105.48832,21.11394],[105.47908,21.11634],[105.47052,21.12042],[105.45805,21.12821],[105.4494,21.13469],[105.43703,21.14529],[105.43098,21.15167],[105.4263,21.159],[105.42318,21.16703],[105.41874,21.20128],[105.41702,21.20745],[105.41123,21.21251],[105.40572,21.21905],[105.40158,21.22642],[105.39971,21.23209],[105.39784,21.2236],[105.39483,21.21659],[105.38868,21.20513],[105.38309,21.197],[105.36563,21.17741],[105.35913,21.17156],[105.34495,21.16176],[105.35413,21.15008],[105.35985,21.14021],[105.36467,21.12881],[105.36738,21.11532],[105.36762,21.10662],[105.36609,21.09334],[105.35801,21.07238],[105.35114,21.05943],[105.35379,21.0593],[105.36348,21.06416],[105.37548,21.0676],[105.38446,21.0683],[105.39342,21.06741],[105.40308,21.06481],[105.41087,21.06107],[105.41782,21.05606],[105.42368,21.04995],[105.43064,21.04036],[105.43638,21.03889],[105.44496,21.03482],[105.45251,21.02923],[105.45873,21.02233],[105.46384,21.01299],[105.47532,21.00088],[105.4805,20.99309],[105.48948,20.9914],[105.50111,20.98727],[105.50804,20.98319],[105.51951,20.97258],[105.52776,20.96915],[105.5344,20.97053],[105.55312,20.97058],[105.5678,20.97396],[105.57705,20.9749],[105.58631,20.97415],[105.59525,20.97175],[105.60353,20.96777],[105.61084,20.96237],[105.6206,20.95257],[105.62505,20.94553],[105.62807,20.93784],[105.63066,20.92628],[105.63072,20.91856],[105.6286,20.90806],[105.62553,20.90001],[105.6209,20.89265],[105.6183,20.88987],[105.6249,20.88185],[105.635,20.88309],[105.64423,20.88247],[105.65317,20.88021],[105.66148,20.87637],[105.66885,20.87111],[105.67502,20.86462],[105.67975,20.85715],[105.68513,20.84692],[105.68796,20.83956],[105.68948,20.83098],[105.68948,20.82318],[105.68859,20.81769],[105.69283,20.81067],[105.69591,20.80126],[105.69676,20.79145],[105.69631,20.77741],[105.69741,20.77022],[105.70575,20.76188],[105.71041,20.75461],[105.71354,20.74665],[105.71503,20.73828],[105.71485,20.73062],[105.7238,20.71782],[105.72834,20.70647],[105.72964,20.69883],[105.72953,20.6911],[105.72676,20.67665],[105.72855,20.6682],[105.72852,20.65934],[105.73085,20.6551],[105.7323,20.65032],[105.73569,20.64676],[105.74215,20.64607],[105.75197,20.64293],[105.76737,20.63585],[105.78059,20.62686],[105.7889,20.61918],[105.79712,20.61074],[105.8064,20.59838],[105.81179,20.58782],[105.8168,20.57232],[105.82105,20.56766],[105.82564,20.56007],[105.83202,20.54659],[105.84255,20.54278],[105.85004,20.53802],[105.85645,20.53204],[105.86291,20.52213],[105.8709,20.51952],[105.88193,20.51303],[105.88885,20.50701],[105.89439,20.49984],[105.89833,20.49178],[105.90077,20.48155],[105.90095,20.47066],[105.89971,20.45962],[105.90211,20.44185],[105.9042,20.43391],[105.9047,20.42553],[105.90355,20.4172],[105.90077,20.40921],[105.89647,20.40185],[105.8908,20.39536],[105.88395,20.38997],[105.87615,20.38586],[105.8614,20.3797],[105.83547,20.37308],[105.82562,20.37255],[105.81587,20.37392],[105.80713,20.37643],[105.8064,20.37096],[105.80021,20.35167],[105.796,20.34441],[105.79046,20.33799],[105.7811,20.33025],[105.77774,20.31865],[105.77322,20.31109],[105.76725,20.30448],[105.76004,20.29906],[105.75383,20.296],[105.74431,20.28943],[105.73226,20.2834],[105.72263,20.2741],[105.71574,20.26909],[105.70359,20.26364],[105.69592,20.26139],[105.68795,20.26036],[105.67292,20.26136],[105.66161,20.26392],[105.64557,20.27075],[105.63697,20.27622],[105.62697,20.28692],[105.61796,20.29408],[105.60871,20.3041],[105.59452,20.30879],[105.58606,20.31404],[105.58339,20.3166],[105.57498,20.31433],[105.56487,20.31368],[105.55225,20.31435],[105.53385,20.31761],[105.52146,20.31511],[105.51368,20.31464],[105.49791,20.31555],[105.48899,20.31722],[105.48056,20.32045],[105.46238,20.33056],[105.44808,20.33309],[105.43532,20.33685],[105.42634,20.33284],[105.41183,20.33002],[105.3986,20.32979],[105.38128,20.33249],[105.35341,20.34518],[105.34084,20.34636],[105.33061,20.34978],[105.31607,20.35688],[105.28956,20.37315],[105.27682,20.37577],[105.26966,20.3787],[105.26001,20.38362],[105.25156,20.38966],[105.24527,20.39073],[105.23653,20.39396],[105.22862,20.39872],[105.22185,20.40483],[105.21648,20.41207],[105.2127,20.42014],[105.21066,20.42876],[105.21044,20.43758],[105.21107,20.44103],[105.20502,20.4468],[105.19959,20.45482],[105.19361,20.4696],[105.18936,20.47227],[105.18751,20.4726],[105.17695,20.47137],[105.16593,20.47172],[105.15579,20.4735],[105.14628,20.47728],[105.13785,20.48288],[105.1268,20.49292],[105.12221,20.49932],[105.11993,20.50411],[105.11552,20.50598],[105.10798,20.51103],[105.09756,20.52107],[105.08701,20.52558],[105.0824,20.52648],[105.07345,20.52044],[105.06407,20.5161],[105.0539,20.51377],[105.04344,20.51356],[105.02558,20.51544],[105.01342,20.51565],[105.00473,20.51777],[104.99661,20.52138],[104.98833,20.52718],[104.97522,20.52792],[104.96285,20.53045],[104.95556,20.53252],[104.9374,20.53966],[104.92936,20.54475],[104.92258,20.55126],[104.91732,20.55891],[104.9138,20.56739],[104.91216,20.57637],[104.91247,20.58548],[104.91444,20.59325],[104.91018,20.60812],[104.89128,20.62013],[104.87861,20.61738],[104.87157,20.61231],[104.86264,20.60829],[104.85303,20.60607],[104.84314,20.60575],[104.83339,20.60733],[104.82419,20.61076],[104.81593,20.61588],[104.80292,20.62857],[104.79716,20.6351],[104.79281,20.64253],[104.79001,20.65059],[104.78886,20.659],[104.79125,20.67868]]]}}]}