{"type":"FeatureCollection","features":[{"type":"Feature","properties":{"kind":"boundary","province_code":"31","name":"Thành phố Hải Phòng","source":"VNSDI","valid_from":"16/6/2025","simplify_tolerance_deg":0.0005},"geometry":{"type":"MultiPolygon","coordinates":[[[[106.43097,20.66364],[106.42634,20.66807],[106.42233,20.67456],[106.40234,20.68999],[106.40288,20.69353],[106.41159,20.70476],[106.41609,20.7074],[106.42056,20.70756],[106.42118,20.70837],[106.42082,20.71363],[106.40885,20.72245],[106.40753,20.7284],[106.4018,20.72833],[106.3955,20.72383],[106.38816,20.7165],[106.38177,20.71163],[106.37597,20.71116],[106.3723,20.70993],[106.36187,20.70284],[106.35783,20.70103],[106.35392,20.70038],[106.34796,20.70151],[106.34566,20.70302],[106.34072,20.71018],[106.33384,20.7108],[106.33224,20.71007],[106.32455,20.70192],[106.32112,20.69943],[106.3093,20.69412],[106.30275,20.69016],[106.29934,20.69064],[106.29499,20.69557],[106.29375,20.69842],[106.29338,20.70666],[106.29081,20.70888],[106.28463,20.71142],[106.28304,20.70923],[106.28284,20.70416],[106.28778,20.6993],[106.28867,20.69494],[106.28424,20.69294],[106.28045,20.69222],[106.27643,20.69271],[106.274,20.6937],[106.27116,20.69676],[106.26646,20.70374],[106.26214,20.70383],[106.25038,20.698],[106.24908,20.6948],[106.24992,20.69307],[106.25477,20.68977],[106.26785,20.68749],[106.26941,20.68404],[106.25251,20.68579],[106.24942,20.68672],[106.24507,20.69556],[106.22708,20.70615],[106.2221,20.7197],[106.21794,20.72543],[106.21222,20.72942],[106.21162,20.73061],[106.21262,20.73218],[106.21861,20.73292],[106.21896,20.73819],[106.21543,20.74965],[106.21201,20.75115],[106.2047,20.75195],[106.19991,20.75442],[106.19783,20.75673],[106.19303,20.76554],[106.18787,20.76651],[106.1841,20.76292],[106.18147,20.76308],[106.18011,20.76395],[106.17285,20.77651],[106.16661,20.78387],[106.16528,20.78456],[106.16219,20.78419],[106.16011,20.78072],[106.15781,20.77966],[106.15362,20.7807],[106.14858,20.78475],[106.14281,20.79263],[106.14077,20.79982],[106.13136,20.80648],[106.13298,20.80872],[106.13837,20.80984],[106.1405,20.8143],[106.14078,20.81692],[106.13891,20.82174],[106.13398,20.8251],[106.12872,20.83172],[106.13337,20.8403],[106.13832,20.8528],[106.14183,20.85799],[106.14274,20.86994],[106.14406,20.87555],[106.14696,20.88144],[106.14721,20.88862],[106.14417,20.89175],[106.13835,20.89375],[106.13664,20.90314],[106.13715,20.90434],[106.14124,20.90616],[106.14836,20.9143],[106.15264,20.91666],[106.15561,20.91974],[106.1496,20.92453],[106.14835,20.92869],[106.15209,20.93505],[106.15303,20.9448],[106.15769,20.94907],[106.15801,20.95031],[106.15479,20.95506],[106.15049,20.95815],[106.13524,20.96084],[106.13429,20.9628],[106.13398,20.96986],[106.13813,20.97528],[106.12805,20.98315],[106.1306,20.99505],[106.13246,20.99886],[106.137,21.00092],[106.13949,21.00025],[106.15091,20.98937],[106.15376,20.98868],[106.16283,20.98929],[106.1673,20.98802],[106.1688,20.98456],[106.16359,20.97523],[106.16832,20.96905],[106.1731,20.97349],[106.17711,20.97588],[106.20459,20.98381],[106.2306,20.99626],[106.23872,20.99534],[106.24,20.99568],[106.24253,20.99858],[106.24363,20.99869],[106.24973,20.99744],[106.25327,20.99644],[106.26558,20.98895],[106.27325,20.99207],[106.27275,20.9944],[106.27337,21.00007],[106.27654,21.00608],[106.29461,21.02052],[106.29503,21.0247],[106.29323,21.03271],[106.29406,21.03982],[106.29641,21.04342],[106.30578,21.05239],[106.30941,21.05738],[106.30927,21.05903],[106.30355,21.06927],[106.30217,21.07426],[106.30256,21.08448],[106.29526,21.10622],[106.29506,21.11002],[106.2954,21.11339],[106.29928,21.12146],[106.30722,21.12759],[106.31157,21.1291],[106.31403,21.13098],[106.31688,21.13497],[106.3208,21.14228],[106.32294,21.1499],[106.32071,21.15972],[106.31238,21.17224],[106.30904,21.18213],[106.30906,21.18448],[106.31151,21.19106],[106.31293,21.19288],[106.31446,21.19345],[106.32344,21.19225],[106.32441,21.18473],[106.33102,21.18009],[106.33303,21.17513],[106.34001,21.17025],[106.34182,21.16737],[106.34475,21.16515],[106.34628,21.16571],[106.34714,21.1702],[106.34838,21.17153],[106.35364,21.17138],[106.36306,21.17338],[106.3658,21.17974],[106.37167,21.18644],[106.37495,21.19437],[106.37642,21.19572],[106.3863,21.19714],[106.39059,21.19897],[106.41235,21.2112],[106.41451,21.21304],[106.41858,21.22283],[106.42416,21.23082],[106.42799,21.23121],[106.43668,21.22849],[106.44702,21.22976],[106.45438,21.23206],[106.46452,21.22713],[106.46862,21.2271],[106.48074,21.22925],[106.48651,21.23315],[106.48835,21.23349],[106.49343,21.22943],[106.50143,21.22545],[106.50031,21.21687],[106.50034,21.20243],[106.49485,21.19928],[106.49458,21.19832],[106.49623,21.18507],[106.48894,21.17916],[106.48695,21.17468],[106.48679,21.1733],[106.48892,21.1674],[106.48839,21.16539],[106.4837,21.1597],[106.47985,21.14707],[106.48427,21.14081],[106.48452,21.13006],[106.47667,21.12424],[106.47208,21.11884],[106.46953,21.1179],[106.46151,21.11568],[106.45511,21.1185],[106.44492,21.11802],[106.4424,21.11731],[106.44158,21.11632],[106.4412,21.11398],[106.44229,21.11124],[106.44192,21.11],[106.43972,21.10873],[106.43914,21.10678],[106.44266,21.10182],[106.44609,21.09864],[106.44919,21.09696],[106.44824,21.09176],[106.44146,21.08067],[106.4441,21.07598],[106.45513,21.06907],[106.45567,21.0654],[106.45924,21.06517],[106.47031,21.06761],[106.47423,21.0693],[106.47954,21.06945],[106.48754,21.06806],[106.49636,21.0614],[106.49838,21.0584],[106.50128,21.05724],[106.50482,21.05713],[106.51383,21.06003],[106.51771,21.0597],[106.51921,21.05694],[106.51936,21.05341],[106.5146,21.04825],[106.51458,21.04694],[106.51572,21.04603],[106.52544,21.05019],[106.53138,21.04761],[106.53489,21.0483],[106.53804,21.05185],[106.54352,21.0536],[106.54777,21.05392],[106.55505,21.05272],[106.56088,21.05607],[106.56537,21.05422],[106.57134,21.05496],[106.57419,21.05696],[106.57642,21.0567],[106.58586,21.04974],[106.59451,21.04128],[106.60224,21.03828],[106.60424,21.03677],[106.60882,21.03071],[106.60996,21.02324],[106.62402,21.01191],[106.63417,21.01128],[106.63832,21.0122],[106.64075,21.01307],[106.64564,21.01834],[106.64972,21.01938],[106.65335,21.01893],[106.66926,21.01351],[106.67951,21.00839],[106.69883,21.00102],[106.72294,20.99667],[106.73123,20.99789],[106.73944,20.99757],[106.74522,20.99637],[106.75168,20.99386],[106.76038,20.98746],[106.76578,20.97909],[106.76756,20.97462],[106.769,20.96758],[106.76995,20.95008],[106.77106,20.9252],[106.77078,20.91534],[106.76961,20.90968],[106.76667,20.90358],[106.75532,20.88933],[106.75322,20.88422],[106.75388,20.87513],[106.7589,20.85882],[106.76163,20.85306],[106.76439,20.84969],[106.77346,20.84254],[106.78495,20.83597],[106.79217,20.83374],[106.8116,20.83258],[106.81832,20.83144],[106.82338,20.82935],[106.83066,20.82151],[106.83634,20.8127],[106.82859,20.80583],[106.8165,20.80504],[106.81543,20.8027],[106.81551,20.79592],[106.8144,20.79513],[106.81227,20.79515],[106.80481,20.7985],[106.80217,20.79744],[106.80171,20.79458],[106.80091,20.79412],[106.77797,20.79356],[106.7732,20.78747],[106.76338,20.78184],[106.76117,20.77578],[106.76249,20.77347],[106.77081,20.77035],[106.77352,20.76745],[106.77679,20.76025],[106.78059,20.7461],[106.78818,20.72784],[106.7921,20.72436],[106.79708,20.72276],[106.80094,20.7195],[106.7926,20.7049],[106.79153,20.70108],[106.79342,20.69683],[106.79745,20.69618],[106.79872,20.69398],[106.79543,20.68921],[106.79583,20.68483],[106.79863,20.68308],[106.80386,20.68424],[106.81024,20.67561],[106.80949,20.6735],[106.806,20.67132],[106.80132,20.67237],[106.79941,20.67471],[106.7994,20.67763],[106.7977,20.68018],[106.78896,20.68753],[106.78676,20.69197],[106.78655,20.6953],[106.78343,20.69952],[106.7816,20.69914],[106.78097,20.69771],[106.78115,20.69473],[106.77967,20.69078],[106.77198,20.68977],[106.76542,20.69145],[106.76421,20.69243],[106.76707,20.70198],[106.76867,20.70346],[106.77308,20.7053],[106.7731,20.70731],[106.77159,20.70882],[106.76947,20.70924],[106.76658,20.70738],[106.76392,20.70408],[106.76248,20.70048],[106.761,20.69952],[106.75159,20.69755],[106.74767,20.69581],[106.74161,20.68976],[106.7383,20.68424],[106.73445,20.68027],[106.73087,20.67834],[106.72406,20.67685],[106.72,20.67707],[106.71083,20.68003],[106.70597,20.68253],[106.70037,20.68683],[106.69718,20.6862],[106.69684,20.68399],[106.70636,20.67022],[106.70921,20.664],[106.71051,20.65991],[106.71047,20.65653],[106.7094,20.65316],[106.70547,20.64494],[106.69624,20.63195],[106.68423,20.62507],[106.6822,20.62337],[106.67993,20.61714],[106.67252,20.61371],[106.66447,20.61253],[106.65374,20.61773],[106.65167,20.61724],[106.63754,20.62644],[106.63426,20.62785],[106.63122,20.62782],[106.62187,20.6251],[106.61383,20.62598],[106.60977,20.62791],[106.60627,20.6311],[106.60168,20.63948],[106.59449,20.63711],[106.59188,20.63541],[106.58504,20.62687],[106.56989,20.61979],[106.56623,20.61977],[106.5599,20.62604],[106.55184,20.6275],[106.54696,20.62678],[106.54189,20.62243],[106.54142,20.61142],[106.53997,20.60815],[106.53833,20.60669],[106.52925,20.60246],[106.52011,20.6025],[106.51793,20.60844],[106.51618,20.6108],[106.50987,20.61416],[106.49465,20.6161],[106.49216,20.61541],[106.49134,20.61432],[106.48914,20.60817],[106.48308,20.60019],[106.4793,20.59831],[106.47198,20.5978],[106.47028,20.59973],[106.46939,20.60733],[106.46594,20.61386],[106.4614,20.61682],[106.45157,20.61915],[106.45017,20.62088],[106.45474,20.63169],[106.45549,20.63537],[106.45467,20.63987],[106.44632,20.64878],[106.44096,20.65633],[106.43097,20.66364]]],[[[106.81737,20.66803],[106.81787,20.66735],[106.81682,20.6656],[106.81354,20.66734],[106.81466,20.66832],[106.81737,20.66803]]],[[[107.0112,20.70979],[107.0123,20.71031],[107.01294,20.70942],[107.01169,20.70889],[107.0112,20.70979]]],[[[107.01592,20.70929],[107.01579,20.71013],[107.01759,20.71043],[107.01752,20.70962],[107.01592,20.70929]]],[[[107.02139,20.7156],[107.02286,20.71199],[107.02502,20.71054],[107.02455,20.70938],[107.0226,20.70871],[107.02109,20.71079],[107.01994,20.70946],[107.01887,20.70945],[107.0179,20.71317],[107.01691,20.71429],[107.01885,20.7159],[107.02139,20.7156]]],[[[107.01551,20.71636],[107.01718,20.71833],[107.01834,20.71681],[107.0178,20.71602],[107.01551,20.71636]]],[[[107.0119,20.71875],[107.01063,20.72072],[107.01113,20.72256],[107.01373,20.72119],[107.01537,20.71856],[107.0119,20.71875]]],[[[107.01037,20.72316],[107.00733,20.72441],[107.00694,20.72523],[107.00956,20.72534],[107.01082,20.72391],[107.01037,20.72316]]],[[[107.00408,20.73377],[107.0052,20.73357],[107.00468,20.73215],[107.0039,20.73234],[107.00408,20.73377]]],[[[106.99251,20.73603],[106.9935,20.73645],[106.99403,20.73541],[106.99295,20.73508],[106.99251,20.73603]]],[[[107.01063,20.7429],[107.01203,20.74347],[107.01177,20.74148],[107.01095,20.74174],[107.01063,20.7429]]],[[[106.82228,20.76689],[106.82172,20.77139],[106.82229,20.77587],[106.82375,20.77892],[106.82508,20.77957],[106.82965,20.77924],[106.83128,20.77979],[106.83438,20.78396],[106.83742,20.78336],[106.83757,20.77858],[106.8362,20.77467],[106.82812,20.76252],[106.82526,20.7615],[106.82228,20.76689]]],[[[106.98089,20.85724],[106.98271,20.85613],[106.98087,20.85081],[106.98064,20.84743],[106.98208,20.84581],[106.98461,20.84784],[106.98637,20.8566],[106.99229,20.86112],[106.99595,20.86119],[107.00189,20.8578],[107.0038,20.85549],[107.00276,20.85174],[107.00058,20.84836],[107.00081,20.84545],[107.00233,20.84532],[107.00393,20.84771],[107.00443,20.85086],[107.00574,20.85184],[107.00661,20.85162],[107.00795,20.84579],[107.01087,20.8406],[107.01421,20.83941],[107.01514,20.84061],[107.01142,20.84535],[107.00882,20.85169],[107.00824,20.85393],[107.00874,20.85949],[107.01261,20.86128],[107.02348,20.86207],[107.03598,20.86135],[107.03701,20.86048],[107.03779,20.85559],[107.04068,20.85206],[107.04586,20.84775],[107.04655,20.84292],[107.04543,20.83772],[107.04789,20.83411],[107.0538,20.83132],[107.05502,20.8313],[107.05735,20.83311],[107.06039,20.83272],[107.06107,20.83104],[107.06041,20.82889],[107.06042,20.82519],[107.06148,20.8235],[107.0694,20.81779],[107.07252,20.81799],[107.07371,20.82127],[107.07609,20.82363],[107.07863,20.82312],[107.09097,20.81559],[107.091,20.81269],[107.09175,20.81167],[107.10381,20.8062],[107.10719,20.80282],[107.10955,20.79908],[107.11046,20.79113],[107.10962,20.78675],[107.10418,20.78715],[107.09911,20.79156],[107.09642,20.79135],[107.09616,20.78782],[107.10019,20.78113],[107.10079,20.77691],[107.09159,20.77641],[107.08656,20.77704],[107.07669,20.78046],[107.06996,20.77583],[107.07126,20.77069],[107.0654,20.7689],[107.05989,20.77531],[107.056,20.77525],[107.04923,20.77329],[107.0489,20.77222],[107.04959,20.77137],[107.05659,20.76806],[107.05715,20.76692],[107.05528,20.76497],[107.04611,20.76195],[107.04498,20.76101],[107.04575,20.75804],[107.05061,20.75458],[107.06659,20.74956],[107.07135,20.74686],[107.07288,20.74429],[107.07226,20.73931],[107.07148,20.73817],[107.06974,20.73705],[107.0648,20.73639],[107.06386,20.73807],[107.06659,20.74043],[107.06631,20.74253],[107.05906,20.74735],[107.05662,20.74753],[107.0558,20.74672],[107.05551,20.74386],[107.05994,20.73764],[107.05844,20.72726],[107.0596,20.72156],[107.05811,20.71884],[107.05312,20.71431],[107.0489,20.71221],[107.04695,20.71191],[107.04443,20.71393],[107.04502,20.71574],[107.04959,20.71932],[107.04983,20.72232],[107.04773,20.72488],[107.04514,20.7252],[107.04384,20.7224],[107.0415,20.72257],[107.04065,20.72339],[107.0395,20.72895],[107.03506,20.73115],[107.0309,20.73139],[107.03052,20.72915],[107.03344,20.72759],[107.03534,20.7213],[107.03518,20.72049],[107.03375,20.72032],[107.03098,20.72193],[107.02729,20.72723],[107.02618,20.72772],[107.02449,20.72674],[107.02428,20.72258],[107.02185,20.72313],[107.01695,20.72763],[107.01462,20.73104],[107.01451,20.7323],[107.01729,20.73439],[107.0251,20.73499],[107.03111,20.73354],[107.03959,20.7335],[107.04176,20.73662],[107.04155,20.73886],[107.0385,20.73879],[107.03408,20.73672],[107.03213,20.73685],[107.02498,20.74026],[107.02272,20.74],[107.02137,20.73899],[107.01271,20.7382],[107.01219,20.73982],[107.01733,20.74495],[107.01656,20.74693],[107.01455,20.7476],[107.01077,20.74446],[107.0084,20.74459],[107.00449,20.74905],[107.00071,20.75037],[106.99835,20.75019],[106.99673,20.74877],[106.99609,20.74699],[106.99917,20.74315],[106.99783,20.73863],[107.00188,20.73101],[107.00117,20.7285],[106.99867,20.72795],[106.99499,20.73603],[106.99324,20.73737],[106.98693,20.73927],[106.97887,20.74814],[106.96897,20.75588],[106.96802,20.75739],[106.96871,20.75875],[106.97339,20.75818],[106.97575,20.76001],[106.97518,20.76468],[106.96838,20.77522],[106.95305,20.79277],[106.94645,20.79459],[106.91833,20.7988],[106.91697,20.79968],[106.91708,20.80226],[106.91926,20.8056],[106.9192,20.80747],[106.90868,20.82623],[106.90882,20.82743],[106.91733,20.83938],[106.92008,20.8448],[106.92397,20.84814],[106.92832,20.84946],[106.92995,20.84795],[106.9359,20.84622],[106.94486,20.84497],[106.94992,20.84996],[106.95107,20.85815],[106.95036,20.86005],[106.94452,20.86121],[106.94295,20.86243],[106.94278,20.86364],[106.94286,20.86513],[106.94391,20.86609],[106.94857,20.86782],[106.95011,20.86923],[106.95015,20.87726],[106.95103,20.87857],[106.95358,20.8782],[106.95608,20.87312],[106.95296,20.86042],[106.9564,20.85547],[106.96036,20.85471],[106.96864,20.85544],[106.97573,20.85454],[106.98089,20.85724]]],[[[106.90956,20.79561],[106.90164,20.7918],[106.9003,20.79192],[106.89695,20.79707],[106.88727,20.79362],[106.88421,20.79319],[106.87947,20.79393],[106.87768,20.79263],[106.87786,20.78753],[106.87706,20.78685],[106.86083,20.78616],[106.85664,20.78787],[106.85199,20.79148],[106.84869,20.7961],[106.8447,20.80922],[106.84508,20.81054],[106.8487,20.81228],[106.8845,20.81642],[106.89112,20.81399],[106.89257,20.81249],[106.89331,20.80892],[106.89713,20.80659],[106.89846,20.80594],[106.90219,20.80647],[106.90316,20.80594],[106.90928,20.79796],[106.90956,20.79561]]],[[[106.84925,20.82739],[106.85161,20.82889],[106.85652,20.83529],[106.86197,20.83633],[106.87045,20.8324],[106.88076,20.82219],[106.88074,20.82116],[106.88018,20.82024],[106.87774,20.81975],[106.84676,20.81562],[106.84451,20.81593],[106.8431,20.81734],[106.84941,20.82263],[106.84925,20.82739]]],[[[106.94937,20.85067],[106.94723,20.85078],[106.94737,20.85217],[106.94958,20.85137],[106.94937,20.85067]]],[[[106.94354,20.85159],[106.94358,20.8526],[106.94487,20.85191],[106.94486,20.85051],[106.94354,20.85159]]],[[[106.94106,20.85266],[106.942,20.85265],[106.94227,20.85156],[106.94138,20.85154],[106.94106,20.85266]]],[[[106.94641,20.85308],[106.94734,20.85475],[106.94786,20.85449],[106.94729,20.85304],[106.94641,20.85308]]],[[[106.94884,20.85714],[106.94996,20.85696],[106.94995,20.85617],[106.94865,20.85622],[106.94884,20.85714]]],[[[106.94646,20.85603],[106.94619,20.85752],[106.94671,20.85805],[106.94775,20.85537],[106.94646,20.85603]]],[[[106.94924,20.85819],[106.94977,20.85969],[106.95046,20.8593],[106.94924,20.85819]]],[[[106.94485,20.85946],[106.94571,20.86025],[106.94654,20.85942],[106.94548,20.85871],[106.94485,20.85946]]],[[[107.00459,20.85864],[107.00262,20.85852],[107.00014,20.86191],[107.00086,20.86215],[107.00442,20.85986],[107.00459,20.85864]]],[[[106.96057,20.86258],[106.96128,20.86055],[106.95946,20.85975],[106.95962,20.85849],[106.95781,20.85759],[106.95583,20.85879],[106.95669,20.86038],[106.95656,20.86278],[106.95552,20.86391],[106.95619,20.86485],[106.95853,20.86281],[106.96057,20.86258]]],[[[106.98752,20.86555],[106.987,20.8643],[106.9837,20.86347],[106.98265,20.86388],[106.98195,20.86607],[106.98282,20.86719],[106.98752,20.86555]]],[[[106.97602,20.86853],[106.97586,20.86399],[106.97238,20.8603],[106.96667,20.85875],[106.96357,20.85943],[106.96273,20.86311],[106.96436,20.86664],[106.96379,20.87145],[106.96248,20.87329],[106.96029,20.8737],[106.95919,20.87715],[106.96224,20.87699],[106.96568,20.87501],[106.96507,20.87263],[106.96589,20.87172],[106.97519,20.87084],[106.97602,20.86853]]],[[[106.96222,20.86797],[106.96135,20.86674],[106.9595,20.8669],[106.9591,20.86488],[106.95798,20.86519],[106.95809,20.86727],[106.95674,20.86881],[106.95788,20.87169],[106.95936,20.87167],[106.95872,20.86994],[106.95908,20.86795],[106.96222,20.86797]]],[[[106.97838,20.86869],[106.97818,20.8701],[106.97853,20.87083],[106.97989,20.86876],[106.97951,20.86807],[106.97838,20.86869]]],[[[106.94321,20.87232],[106.94473,20.86779],[106.94429,20.86691],[106.94256,20.86959],[106.9406,20.86977],[106.94008,20.87058],[106.94163,20.87058],[106.94242,20.8724],[106.94321,20.87232]]],[[[106.93828,20.87177],[106.93916,20.87205],[106.93969,20.87109],[106.93853,20.87067],[106.93828,20.87177]]],[[[106.94592,20.87231],[106.94689,20.87429],[106.94771,20.87061],[106.94608,20.8702],[106.94592,20.87231]]],[[[106.94359,20.87791],[106.94487,20.87812],[106.94485,20.87679],[106.94394,20.877],[106.94359,20.87791]]],[[[106.94895,20.87626],[106.9476,20.87876],[106.94827,20.87882],[106.94976,20.87665],[106.94895,20.87626]]],[[[106.94682,20.88037],[106.94777,20.88133],[106.94811,20.8797],[106.9473,20.87942],[106.94682,20.88037]]],[[[107.04615,20.69143],[107.04739,20.69135],[107.04727,20.69038],[107.04565,20.6904],[107.04615,20.69143]]],[[[107.04679,20.69341],[107.04346,20.69364],[107.04315,20.69455],[107.04658,20.69479],[107.04679,20.69341]]],[[[107.06843,20.69601],[107.06921,20.69654],[107.06997,20.69508],[107.06915,20.69503],[107.06843,20.69601]]],[[[107.0663,20.6964],[107.06744,20.69845],[107.06814,20.69843],[107.06844,20.69739],[107.06732,20.69559],[107.06663,20.69539],[107.0663,20.6964]]],[[[107.04497,20.70013],[107.04538,20.70117],[107.04618,20.70114],[107.04661,20.69902],[107.04497,20.70013]]],[[[107.07152,20.70196],[107.07248,20.70191],[107.07264,20.70099],[107.07181,20.70103],[107.07152,20.70196]]],[[[107.04594,20.70316],[107.04376,20.70362],[107.04385,20.70446],[107.04475,20.7046],[107.04594,20.70316]]],[[[107.02706,20.70565],[107.02793,20.70571],[107.02813,20.70472],[107.02707,20.70459],[107.02706,20.70565]]],[[[107.04599,20.70563],[107.04474,20.70689],[107.04727,20.70702],[107.04734,20.7057],[107.04599,20.70563]]],[[[107.03852,20.70898],[107.04286,20.70341],[107.04285,20.70278],[107.04069,20.70335],[107.0387,20.70618],[107.03635,20.7071],[107.03575,20.71007],[107.03675,20.7098],[107.03753,20.70823],[107.03852,20.70898]]],[[[107.02272,20.70612],[107.02084,20.70623],[107.0208,20.70687],[107.02296,20.70805],[107.02272,20.70612]]],[[[107.02672,20.70741],[107.02761,20.70785],[107.02838,20.70681],[107.02744,20.70641],[107.02672,20.70741]]],[[[107.04061,20.70693],[107.04101,20.70801],[107.04255,20.70736],[107.04208,20.70651],[107.04061,20.70693]]],[[[107.06257,20.70775],[107.06365,20.70825],[107.06432,20.70788],[107.063,20.70688],[107.06257,20.70775]]],[[[107.06727,20.70798],[107.06749,20.70914],[107.0686,20.70853],[107.06806,20.70746],[107.06727,20.70798]]],[[[107.02758,20.70861],[107.02581,20.71089],[107.02653,20.71088],[107.02834,20.70986],[107.0285,20.70892],[107.02758,20.70861]]],[[[107.04563,20.70988],[107.0456,20.71113],[107.04663,20.71151],[107.04718,20.70911],[107.04563,20.70988]]],[[[107.06712,20.7131],[107.06735,20.71088],[107.0639,20.71184],[107.06353,20.71328],[107.06522,20.71589],[107.06639,20.71501],[107.06488,20.713],[107.06712,20.7131]]],[[[107.02934,20.71814],[107.02725,20.71924],[107.02711,20.7198],[107.02976,20.72078],[107.03147,20.71864],[107.02934,20.71814]]],[[[107.07084,20.71903],[107.07183,20.72025],[107.07328,20.72018],[107.07217,20.71845],[107.07084,20.71903]]],[[[107.06421,20.71803],[107.06338,20.7185],[107.06528,20.72043],[107.06295,20.71996],[107.06248,20.72154],[107.06328,20.72374],[107.06445,20.72191],[107.06656,20.72105],[107.06593,20.71923],[107.06421,20.71803]]],[[[107.02767,20.72189],[107.02705,20.72347],[107.0287,20.72356],[107.02767,20.72189]]],[[[107.06459,20.72454],[107.06573,20.72472],[107.06581,20.72369],[107.06476,20.72368],[107.06459,20.72454]]],[[[107.06252,20.72384],[107.06158,20.72471],[107.0619,20.72563],[107.06323,20.72534],[107.06252,20.72384]]],[[[107.06876,20.73549],[107.07012,20.7349],[107.07012,20.72658],[107.06838,20.72467],[107.06235,20.72696],[107.06134,20.72857],[107.06232,20.73284],[107.06876,20.73549]]],[[[107.05998,20.7335],[107.06076,20.73415],[107.06183,20.73321],[107.06093,20.73283],[107.05998,20.7335]]],[[[107.06093,20.73674],[107.06165,20.73745],[107.0624,20.73712],[107.06232,20.73455],[107.06093,20.73674]]],[[[107.06093,20.7393],[107.06149,20.73999],[107.06263,20.73887],[107.06162,20.73851],[107.06093,20.7393]]],[[[107.05995,20.73997],[107.05883,20.74181],[107.06039,20.74124],[107.05995,20.73997]]],[[[107.06382,20.74407],[107.06324,20.74244],[107.06073,20.74334],[107.05957,20.74222],[107.05878,20.74253],[107.05998,20.74446],[107.06382,20.74407]]],[[[107.0857,20.74511],[107.07877,20.74835],[107.06833,20.75633],[107.06437,20.75659],[107.06092,20.75534],[107.05567,20.75605],[107.05422,20.75839],[107.05607,20.76318],[107.05814,20.76362],[107.06719,20.76215],[107.07334,20.75827],[107.07721,20.7569],[107.08192,20.75283],[107.0863,20.74729],[107.08674,20.74582],[107.0857,20.74511]]],[[[107.05794,20.75452],[107.0592,20.75494],[107.05976,20.75428],[107.0586,20.7538],[107.05794,20.75452]]],[[[107.0621,20.7546],[107.06275,20.75542],[107.06419,20.75463],[107.06247,20.75361],[107.0621,20.7546]]],[[[107.04825,20.75746],[107.04854,20.75861],[107.04982,20.75747],[107.04926,20.75702],[107.04825,20.75746]]],[[[107.05259,20.7605],[107.0501,20.75902],[107.04947,20.7598],[107.05117,20.76107],[107.05259,20.7605]]],[[[107.06549,20.76465],[107.06529,20.76353],[107.06336,20.76412],[107.06356,20.76468],[107.06549,20.76465]]],[[[107.05991,20.76565],[107.05869,20.76563],[107.05804,20.76631],[107.05968,20.7666],[107.05991,20.76565]]],[[[107.06436,20.76675],[107.06456,20.76819],[107.06543,20.76701],[107.06436,20.76675]]],[[[107.05642,20.76931],[107.05318,20.77029],[107.05352,20.7715],[107.05608,20.77049],[107.05642,20.76931]]],[[[107.05663,20.77126],[107.05761,20.77217],[107.05824,20.77122],[107.05725,20.77048],[107.05663,20.77126]]],[[[107.0715,20.82199],[107.06937,20.82296],[107.071,20.82421],[107.0715,20.82199]]],[[[107.07485,20.82572],[107.07027,20.82498],[107.06668,20.82248],[107.06524,20.8253],[107.0669,20.82601],[107.06777,20.82442],[107.07178,20.8279],[107.07488,20.82644],[107.07485,20.82572]]],[[[107.06137,20.82658],[107.06125,20.82892],[107.06238,20.82847],[107.06231,20.82667],[107.06137,20.82658]]],[[[107.06412,20.82836],[107.06369,20.83097],[107.06479,20.83133],[107.06533,20.82964],[107.06651,20.82883],[107.06506,20.82764],[107.06412,20.82836]]],[[[107.0669,20.82982],[107.06767,20.83014],[107.06848,20.82944],[107.06765,20.82891],[107.0669,20.82982]]],[[[107.0694,20.83104],[107.07044,20.83046],[107.06917,20.82981],[107.06876,20.83041],[107.0694,20.83104]]],[[[107.06604,20.83047],[107.06587,20.83189],[107.06714,20.83097],[107.06604,20.83047]]],[[[107.06202,20.83301],[107.06299,20.83299],[107.06282,20.8317],[107.06186,20.83214],[107.06202,20.83301]]],[[[107.04931,20.83933],[107.04917,20.84381],[107.04947,20.84403],[107.05227,20.83964],[107.05003,20.83849],[107.04931,20.83933]]],[[[107.73128,20.12414],[107.72939,20.12506],[107.72912,20.12758],[107.72787,20.12855],[107.71836,20.12697],[107.71685,20.12735],[107.71651,20.12962],[107.72075,20.1335],[107.72937,20.1385],[107.7333,20.14256],[107.74057,20.14603],[107.74148,20.14381],[107.74055,20.14119],[107.73743,20.13599],[107.73502,20.12832],[107.73255,20.12466],[107.73128,20.12414]]],[[[107.16106,20.61371],[107.16154,20.6143],[107.16271,20.61399],[107.16335,20.61095],[107.1622,20.61102],[107.16106,20.61371]]],[[[107.14832,20.61643],[107.15014,20.61577],[107.15122,20.61287],[107.14817,20.61282],[107.14644,20.6136],[107.14832,20.61643]]],[[[107.1685,20.61497],[107.16837,20.61293],[107.1674,20.61497],[107.16783,20.61772],[107.16912,20.61722],[107.16928,20.6159],[107.17104,20.61536],[107.1685,20.61497]]],[[[107.20342,20.61775],[107.20469,20.61771],[107.20893,20.61446],[107.2092,20.61326],[107.20422,20.614],[107.20193,20.61529],[107.20198,20.61649],[107.20342,20.61775]]],[[[107.2096,20.61534],[107.21049,20.61666],[107.21142,20.61559],[107.21073,20.61486],[107.2096,20.61534]]],[[[107.21213,20.6154],[107.21258,20.61647],[107.2137,20.61614],[107.21336,20.61514],[107.21213,20.6154]]],[[[107.12981,20.61513],[107.13026,20.61766],[107.13131,20.61769],[107.1313,20.61551],[107.12981,20.61513]]],[[[107.13698,20.61638],[107.13786,20.61783],[107.13867,20.61737],[107.13773,20.61606],[107.13698,20.61638]]],[[[107.20589,20.61844],[107.20716,20.61865],[107.2072,20.6176],[107.20606,20.61744],[107.20589,20.61844]]],[[[107.20862,20.61819],[107.21032,20.61892],[107.21087,20.61824],[107.20905,20.61751],[107.20862,20.61819]]],[[[107.14249,20.61767],[107.14123,20.61576],[107.13947,20.61921],[107.13703,20.61833],[107.13579,20.62022],[107.13997,20.6206],[107.14238,20.61936],[107.14249,20.61767]]],[[[107.13219,20.62174],[107.1326,20.62254],[107.1337,20.62192],[107.13318,20.62098],[107.13219,20.62174]]],[[[107.13552,20.62128],[107.13593,20.62263],[107.13782,20.62219],[107.13775,20.62124],[107.13552,20.62128]]],[[[107.20194,20.6239],[107.20243,20.62469],[107.20335,20.62443],[107.20268,20.62294],[107.20194,20.6239]]],[[[107.13652,20.6233],[107.13509,20.62367],[107.13411,20.62259],[107.13397,20.62494],[107.13602,20.62473],[107.13652,20.6233]]],[[[107.15695,20.62885],[107.16188,20.62403],[107.16166,20.62145],[107.16054,20.62003],[107.15945,20.61993],[107.15408,20.62396],[107.15364,20.62694],[107.15457,20.62854],[107.15695,20.62885]]],[[[107.13343,20.62599],[107.13424,20.62767],[107.13399,20.62549],[107.13343,20.62599]]],[[[107.16078,20.62807],[107.16177,20.62751],[107.16108,20.62654],[107.16017,20.62725],[107.16078,20.62807]]],[[[107.13076,20.65079],[107.13253,20.65166],[107.13328,20.65077],[107.13158,20.64971],[107.13076,20.65079]]],[[[107.13054,20.65281],[107.13123,20.65353],[107.13223,20.65311],[107.13164,20.65195],[107.13054,20.65281]]],[[[107.13552,20.65425],[107.13618,20.65513],[107.13717,20.65443],[107.1365,20.65356],[107.13552,20.65425]]],[[[107.0734,20.70094],[107.07441,20.70156],[107.07493,20.70098],[107.07347,20.69987],[107.0734,20.70094]]],[[[107.07607,20.70248],[107.0736,20.70189],[107.07324,20.70211],[107.07419,20.70436],[107.07638,20.70432],[107.07607,20.70248]]],[[[107.07178,20.70489],[107.07247,20.70542],[107.07361,20.70443],[107.07281,20.70375],[107.07178,20.70489]]],[[[107.08818,20.72503],[107.08819,20.72572],[107.08899,20.7257],[107.08961,20.72453],[107.08818,20.72503]]],[[[107.08153,20.71929],[107.07853,20.72249],[107.07735,20.72878],[107.07996,20.7318],[107.0819,20.72965],[107.08091,20.72949],[107.08045,20.72597],[107.08259,20.72006],[107.08265,20.71943],[107.08153,20.71929]]],[[[107.08171,20.72696],[107.08256,20.72799],[107.08337,20.72757],[107.08255,20.72627],[107.08171,20.72696]]],[[[107.08534,20.72955],[107.08575,20.73063],[107.08725,20.72982],[107.08683,20.72923],[107.08534,20.72955]]],[[[107.08231,20.73224],[107.08008,20.73562],[107.08075,20.73695],[107.08409,20.73397],[107.0845,20.73144],[107.08231,20.73224]]],[[[107.07854,20.73484],[107.07741,20.7347],[107.07798,20.73621],[107.07871,20.73587],[107.07854,20.73484]]],[[[107.07969,20.74122],[107.0788,20.73965],[107.07781,20.73955],[107.07492,20.74169],[107.07475,20.74311],[107.07532,20.74355],[107.07703,20.74153],[107.07969,20.74122]]],[[[107.07831,20.75777],[107.07903,20.75853],[107.07994,20.75817],[107.0791,20.75705],[107.07831,20.75777]]],[[[107.08847,20.75782],[107.08878,20.75869],[107.08987,20.75841],[107.08925,20.75711],[107.08847,20.75782]]],[[[107.07452,20.76078],[107.07498,20.76007],[107.07398,20.75964],[107.07271,20.76051],[107.07452,20.76078]]],[[[107.08149,20.77517],[107.0934,20.77395],[107.10087,20.774],[107.10154,20.77274],[107.09774,20.76515],[107.09365,20.76477],[107.08833,20.7629],[107.08763,20.76187],[107.08778,20.75875],[107.08532,20.75738],[107.07316,20.76229],[107.07239,20.76481],[107.07335,20.76555],[107.07431,20.76877],[107.07172,20.77407],[107.07242,20.77553],[107.07384,20.77616],[107.07592,20.77491],[107.07641,20.76899],[107.07785,20.76833],[107.08236,20.76953],[107.08078,20.77356],[107.08149,20.77517]]],[[[107.07177,20.76743],[107.07264,20.76808],[107.07348,20.76722],[107.07255,20.76677],[107.07177,20.76743]]],[[[107.10518,20.76853],[107.10491,20.77248],[107.10524,20.77263],[107.10634,20.77101],[107.10599,20.76838],[107.10518,20.76853]]],[[[107.07852,20.77224],[107.07668,20.77284],[107.07637,20.77373],[107.07884,20.77288],[107.07852,20.77224]]],[[[107.09802,20.77475],[107.0989,20.77571],[107.09995,20.77502],[107.09893,20.77399],[107.09802,20.77475]]],[[[107.07513,20.77726],[107.07661,20.77746],[107.0768,20.77598],[107.07574,20.77601],[107.07513,20.77726]]],[[[107.07767,20.77717],[107.07814,20.77784],[107.0793,20.77698],[107.07901,20.77664],[107.07767,20.77717]]],[[[107.1019,20.78151],[107.09953,20.78315],[107.10085,20.78397],[107.1019,20.78151]]],[[[107.10312,20.7858],[107.10391,20.7868],[107.10481,20.78521],[107.1044,20.78498],[107.10312,20.7858]]],[[[107.10302,20.81129],[107.1045,20.80867],[107.10334,20.80868],[107.09948,20.81143],[107.09967,20.81403],[107.1005,20.81382],[107.10081,20.81199],[107.10302,20.81129]]],[[[107.08406,20.82651],[107.08476,20.82706],[107.0856,20.8262],[107.08469,20.8257],[107.08406,20.82651]]]]}},{"type":"Feature","properties":{"kind":"buffer","province_code":"31","buffer_m":5000,"source":"derived","simplify_tolerance_deg":0.0005},"geometry":{"type":"MultiPolygon","coordinates":[[[[107.71214,20.08246],[107.70439,20.08368],[107.69516,20.087],[107.68685,20.09202],[107.6798,20.09854],[107.67432,20.10627],[107.67014,20.11553],[107.66834,20.12407],[107.66832,20.13277],[107.67006,20.14132],[107.6737,20.15018],[107.67964,20.15869],[107.68962,20.16795],[107.69877,20.17371],[107.70149,20.17646],[107.70902,20.18159],[107.72351,20.18862],[107.73187,20.19066],[107.74137,20.19124],[107.75002,20.19037],[107.75837,20.18804],[107.76613,20.18433],[107.77305,20.17937],[107.77959,20.17246],[107.78381,20.1662],[107.78689,20.15938],[107.78897,20.15079],[107.78938,20.14001],[107.78706,20.12944],[107.77563,20.10413],[107.76726,20.09337],[107.75998,20.08752],[107.75034,20.08263],[107.74149,20.07995],[107.73224,20.07893],[107.72177,20.0798],[107.71214,20.08246]]],[[[106.08435,20.81462],[106.08098,20.82649],[106.08075,20.83462],[106.08208,20.84265],[106.0945,20.87133],[106.09495,20.87478],[106.09093,20.88633],[106.08933,20.89512],[106.08857,20.90361],[106.08952,20.91209],[106.09266,20.92144],[106.09896,20.93148],[106.09602,20.93469],[106.09054,20.94406],[106.08752,20.95233],[106.08624,20.96131],[106.08427,20.96448],[106.08112,20.97338],[106.07999,20.98271],[106.08093,20.99206],[106.08347,21.00396],[106.08691,21.01393],[106.09288,21.02453],[106.09818,21.03056],[106.10674,21.03716],[106.11448,21.0414],[106.12292,21.04422],[106.13347,21.04602],[106.14184,21.04591],[106.15326,21.04358],[106.1615,21.04045],[106.17178,21.0335],[106.18123,21.03129],[106.1903,21.02768],[106.20455,21.03485],[106.2192,21.04019],[106.2376,21.04356],[106.24609,21.04383],[106.24742,21.05078],[106.24974,21.05734],[106.25521,21.06671],[106.25425,21.079],[106.24819,21.09705],[106.24705,21.10783],[106.24754,21.1176],[106.25039,21.12926],[106.25542,21.14035],[106.26136,21.14925],[106.26794,21.15582],[106.26323,21.16845],[106.26151,21.17539],[106.26099,21.18486],[106.2617,21.19223],[106.26368,21.1994],[106.26897,21.21212],[106.27417,21.21963],[106.2802,21.226],[106.28739,21.23119],[106.29703,21.23558],[106.30507,21.23779],[106.31341,21.23865],[106.33262,21.23663],[106.34124,21.23425],[106.34721,21.23138],[106.35837,21.23763],[106.37193,21.24108],[106.37595,21.24331],[106.384,21.2558],[106.39279,21.26508],[106.40134,21.27062],[106.41303,21.27485],[106.42184,21.2764],[106.43081,21.27639],[106.43863,21.2749],[106.45316,21.27727],[106.46378,21.27641],[106.4686,21.27504],[106.47902,21.27785],[106.48716,21.27869],[106.49534,21.27823],[106.50449,21.2761],[106.515,21.27148],[106.52147,21.26655],[106.53084,21.26122],[106.53816,21.25462],[106.54385,21.24671],[106.54765,21.23787],[106.54939,21.22847],[106.54809,21.19729],[106.54563,21.18729],[106.54396,21.18408],[106.54379,21.17852],[106.54132,21.16938],[106.53609,21.15999],[106.53504,21.15448],[106.53184,21.14646],[106.53279,21.13225],[106.53156,21.12075],[106.52914,21.11323],[106.52421,21.10475],[106.53388,21.1023],[106.54167,21.0988],[106.55145,21.10041],[106.57337,21.10217],[106.58949,21.10021],[106.59746,21.09736],[106.60476,21.09322],[106.62277,21.079],[106.63433,21.07204],[106.64259,21.06405],[106.65606,21.0642],[106.67025,21.06126],[106.68526,21.05615],[106.71193,21.04477],[106.725,21.04252],[106.73908,21.04301],[106.75562,21.04052],[106.77,21.03567],[106.78132,21.02947],[106.79001,21.02306],[106.7993,21.014],[106.80872,20.99941],[106.81476,20.98319],[106.81702,20.96959],[106.81905,20.92781],[106.81884,20.91416],[106.81678,20.90099],[106.8134,20.89103],[106.80632,20.87821],[106.82017,20.87708],[106.83249,20.87432],[106.84345,20.87888],[106.85466,20.88112],[106.86748,20.88125],[106.87707,20.87926],[106.88556,20.87601],[106.8913,20.8813],[106.8945,20.89044],[106.89988,20.89901],[106.91011,20.91051],[106.92083,20.91907],[106.93091,20.92382],[106.93981,20.92602],[106.94869,20.92659],[106.95777,20.92556],[106.97651,20.92017],[106.98872,20.91476],[106.99446,20.91349],[107.0035,20.90951],[107.00726,20.90684],[107.02668,20.90719],[107.04195,20.90653],[107.05175,20.90407],[107.06048,20.90026],[107.06822,20.89489],[107.0752,20.88793],[107.08093,20.87844],[107.08636,20.87337],[107.1049,20.86818],[107.11245,20.86422],[107.11887,20.85929],[107.1247,20.85287],[107.1294,20.85002],[107.13613,20.8444],[107.14448,20.8345],[107.15482,20.81431],[107.15708,20.80584],[107.15846,20.79355],[107.1579,20.78315],[107.15401,20.76961],[107.15349,20.76101],[107.15172,20.75433],[107.14879,20.7478],[107.14439,20.74118],[107.13666,20.73375],[107.13763,20.72193],[107.13656,20.71482],[107.13324,20.70555],[107.12975,20.69987],[107.13699,20.70035],[107.14464,20.69968],[107.15205,20.6979],[107.15923,20.69499],[107.16769,20.68963],[107.17464,20.68296],[107.18002,20.67502],[107.18239,20.66855],[107.18554,20.66681],[107.19884,20.6698],[107.20447,20.66992],[107.21694,20.66799],[107.22489,20.66499],[107.23215,20.66071],[107.24467,20.65078],[107.2503,20.64549],[107.255,20.63929],[107.25983,20.62886],[107.26161,20.62075],[107.26177,20.61231],[107.25972,20.60214],[107.25528,20.59268],[107.24967,20.58539],[107.24412,20.58035],[107.23755,20.57607],[107.22739,20.5714],[107.21878,20.56895],[107.20981,20.56792],[107.20154,20.56837],[107.18785,20.57178],[107.17308,20.5666],[107.16203,20.56556],[107.15323,20.56644],[107.14835,20.56781],[107.14074,20.56814],[107.13279,20.57006],[107.12657,20.56991],[107.11674,20.57161],[107.1082,20.57474],[107.10086,20.57903],[107.09446,20.58449],[107.08905,20.59116],[107.08547,20.59756],[107.08302,20.60442],[107.08164,20.61264],[107.08187,20.62077],[107.08572,20.63461],[107.08435,20.63796],[107.08257,20.6516],[107.0746,20.64989],[107.06875,20.64998],[107.0606,20.64682],[107.05413,20.64546],[107.05,20.64499],[107.03625,20.64584],[107.02845,20.64802],[107.02115,20.65141],[107.01421,20.6562],[107.00755,20.66289],[106.99026,20.66841],[106.98292,20.67267],[106.97849,20.67615],[106.97184,20.68338],[106.96544,20.69557],[106.95921,20.7025],[106.9357,20.72325],[106.92773,20.73265],[106.92276,20.74214],[106.92058,20.75032],[106.91358,20.748],[106.90521,20.7467],[106.89891,20.74678],[106.89236,20.74396],[106.8846,20.74195],[106.87056,20.74109],[106.86427,20.73272],[106.85856,20.72753],[106.84884,20.72176],[106.84871,20.71445],[106.84669,20.70573],[106.8499,20.70125],[106.8556,20.69568],[106.86163,20.68639],[106.86515,20.67592],[106.86598,20.66781],[106.86524,20.65969],[106.86081,20.64658],[106.85591,20.639],[106.85101,20.63367],[106.8453,20.62912],[106.83543,20.62391],[106.82734,20.62148],[106.81874,20.62042],[106.80626,20.62139],[106.79914,20.62338],[106.78711,20.62928],[106.78069,20.63153],[106.77109,20.63721],[106.76363,20.64442],[106.75509,20.63927],[106.74576,20.62027],[106.73555,20.60591],[106.72877,20.59865],[106.72003,20.59238],[106.71383,20.58507],[106.70739,20.58002],[106.69538,20.5736],[106.6903,20.5717],[106.67771,20.56849],[106.66692,20.56737],[106.65847,20.56766],[106.65021,20.56934],[106.63007,20.57684],[106.62451,20.58008],[106.60849,20.58083],[106.59902,20.58335],[106.58613,20.57723],[106.57221,20.5746],[106.56112,20.56688],[106.55556,20.56406],[106.54801,20.56083],[106.53582,20.55767],[106.52068,20.55694],[106.51064,20.55814],[106.50513,20.55978],[106.49682,20.55615],[106.48605,20.55354],[106.48066,20.55282],[106.46652,20.55287],[106.45707,20.55481],[106.44824,20.55848],[106.44036,20.56375],[106.43381,20.56994],[106.42683,20.58074],[106.4212,20.5841],[106.41427,20.59028],[106.40941,20.59655],[106.40538,20.60447],[106.40307,20.61185],[106.40212,20.61949],[106.40258,20.62725],[106.3926,20.63564],[106.38564,20.64459],[106.36886,20.6573],[106.36239,20.65586],[106.35075,20.65526],[106.33891,20.65715],[106.32432,20.64975],[106.31604,20.6467],[106.30554,20.64499],[106.29398,20.64528],[106.2841,20.64098],[106.27449,20.63907],[106.25742,20.63972],[106.23786,20.64272],[106.22633,20.64706],[106.21873,20.65192],[106.21225,20.65805],[106.20752,20.66443],[106.20306,20.66652],[106.19568,20.67186],[106.18756,20.68041],[106.18269,20.68881],[106.17971,20.69651],[106.17477,20.70106],[106.16881,20.71],[106.16484,20.72082],[106.15315,20.72651],[106.14531,20.73276],[106.14193,20.7369],[106.13564,20.73876],[106.12504,20.74434],[106.11556,20.75189],[106.10947,20.75846],[106.10021,20.77206],[106.0919,20.78065],[106.08674,20.78967],[106.08386,20.79956],[106.08342,20.8098],[106.08435,20.81462]]]]}}]}