{"type":"FeatureCollection","features":[{"type":"Feature","properties":{"kind":"boundary","province_code":"42","name":"Tỉnh Hà Tĩnh","source":"VNSDI","valid_from":"16/6/2025","simplify_tolerance_deg":0.0005},"geometry":{"type":"MultiPolygon","coordinates":[[[[105.72173,18.02328],[105.72003,18.01947],[105.72173,18.00711],[105.70531,17.99242],[105.65707,17.99329],[105.64358,17.99256],[105.64157,17.99384],[105.63699,17.99217],[105.63314,17.99186],[105.62198,17.99999],[105.6172,18.00637],[105.61541,18.01088],[105.61282,18.01196],[105.60424,18.00892],[105.60095,18.00671],[105.59935,18.00508],[105.59869,18.00204],[105.59562,18.0034],[105.59461,18.00458],[105.59411,18.00908],[105.59023,18.00958],[105.58696,18.01135],[105.58465,18.01067],[105.58128,18.01426],[105.58372,18.01978],[105.58107,18.02272],[105.57966,18.02674],[105.5815,18.02947],[105.58274,18.03535],[105.58575,18.03795],[105.58473,18.03979],[105.58574,18.04306],[105.58259,18.04836],[105.5823,18.0553],[105.58073,18.06201],[105.57558,18.06139],[105.57351,18.06264],[105.57232,18.06473],[105.57232,18.0662],[105.57541,18.06896],[105.57155,18.07931],[105.57125,18.08381],[105.56876,18.08608],[105.56406,18.08228],[105.55724,18.08043],[105.55509,18.08044],[105.55213,18.08191],[105.54753,18.08075],[105.54024,18.08232],[105.53963,18.08325],[105.5396,18.09623],[105.53866,18.10206],[105.53963,18.10485],[105.53942,18.10612],[105.53749,18.1071],[105.53637,18.10877],[105.53556,18.11406],[105.52781,18.11975],[105.52618,18.1224],[105.52222,18.12577],[105.51904,18.12593],[105.51477,18.12475],[105.51361,18.12407],[105.51132,18.11937],[105.509,18.12235],[105.50645,18.12382],[105.50492,18.12627],[105.5037,18.12921],[105.5032,18.13352],[105.50617,18.13468],[105.50405,18.1384],[105.50425,18.14051],[105.50692,18.14584],[105.51071,18.14671],[105.51266,18.14915],[105.51266,18.15023],[105.51083,18.15248],[105.51125,18.15679],[105.51058,18.16094],[105.50896,18.16276],[105.5079,18.16776],[105.50441,18.17258],[105.5059,18.17507],[105.50528,18.17651],[105.50563,18.17898],[105.50047,18.18952],[105.49853,18.18855],[105.49754,18.1838],[105.49423,18.17959],[105.49355,18.17701],[105.4919,18.17587],[105.48916,18.17606],[105.48809,18.17768],[105.4871,18.18134],[105.48735,18.18624],[105.48964,18.19377],[105.49263,18.19635],[105.49361,18.19886],[105.49373,18.20041],[105.49151,18.20259],[105.48658,18.20088],[105.48297,18.19695],[105.48058,18.19593],[105.47766,18.19782],[105.46972,18.19899],[105.46674,18.202],[105.46404,18.20201],[105.46133,18.20318],[105.46155,18.20428],[105.46038,18.20481],[105.45895,18.20489],[105.45469,18.20197],[105.45305,18.20209],[105.45251,18.2044],[105.44857,18.20304],[105.44422,18.20447],[105.44308,18.20399],[105.44202,18.20292],[105.44217,18.20178],[105.44314,18.20077],[105.44629,18.1999],[105.44696,18.1989],[105.44627,18.19339],[105.44162,18.18904],[105.44182,18.18733],[105.4389,18.18101],[105.43733,18.17991],[105.43156,18.17874],[105.42782,18.18304],[105.42302,18.18307],[105.42195,18.18407],[105.42041,18.18334],[105.41695,18.1764],[105.41507,18.1744],[105.41409,18.17125],[105.41505,18.16659],[105.4146,18.16459],[105.41233,18.15679],[105.40975,18.15365],[105.40455,18.15673],[105.40366,18.1596],[105.40133,18.1596],[105.40006,18.16061],[105.39633,18.15884],[105.39214,18.15945],[105.3919,18.16106],[105.39063,18.16235],[105.38909,18.16254],[105.38688,18.1643],[105.38388,18.17033],[105.38159,18.16946],[105.38001,18.16702],[105.37639,18.1654],[105.37688,18.16184],[105.37628,18.16027],[105.36726,18.161],[105.3635,18.16448],[105.35914,18.17559],[105.35675,18.17896],[105.35389,18.18042],[105.35256,18.18336],[105.35115,18.1842],[105.34665,18.1827],[105.33613,18.18214],[105.33774,18.1853],[105.33798,18.19088],[105.32912,18.19162],[105.3294,18.19334],[105.32585,18.19456],[105.31995,18.20051],[105.32078,18.20359],[105.32551,18.20889],[105.32576,18.21032],[105.32511,18.21634],[105.32553,18.22049],[105.32396,18.22329],[105.32337,18.22837],[105.32561,18.23283],[105.32493,18.23728],[105.32834,18.2424],[105.33091,18.25307],[105.33046,18.25572],[105.32882,18.25845],[105.3298,18.26317],[105.32849,18.26464],[105.32246,18.26476],[105.32067,18.26649],[105.3197,18.26649],[105.31677,18.26461],[105.31405,18.26435],[105.31052,18.26635],[105.30507,18.25698],[105.30679,18.2539],[105.30625,18.24932],[105.30272,18.24388],[105.30212,18.23815],[105.30001,18.23555],[105.29793,18.23948],[105.29605,18.24124],[105.29583,18.24267],[105.29637,18.24876],[105.29967,18.2547],[105.29803,18.25585],[105.29293,18.255],[105.29024,18.25615],[105.28805,18.25464],[105.28709,18.25895],[105.28582,18.25995],[105.2816,18.26093],[105.28057,18.25702],[105.27727,18.25423],[105.27592,18.25409],[105.27495,18.25445],[105.27316,18.25875],[105.27174,18.25983],[105.26994,18.25976],[105.26754,18.25797],[105.26432,18.25912],[105.25641,18.25888],[105.25601,18.26472],[105.25766,18.26586],[105.25804,18.26851],[105.25655,18.27274],[105.25385,18.27504],[105.24819,18.28643],[105.24625,18.28824],[105.24308,18.29624],[105.24129,18.29584],[105.23995,18.29748],[105.2362,18.2982],[105.23096,18.30294],[105.22667,18.30279],[105.22264,18.30452],[105.2177,18.30303],[105.21606,18.30689],[105.20782,18.31471],[105.19419,18.31802],[105.18962,18.32246],[105.18438,18.3249],[105.18498,18.32784],[105.18419,18.33175],[105.18686,18.33629],[105.18739,18.34001],[105.19028,18.34645],[105.18913,18.34918],[105.18906,18.35326],[105.18591,18.35635],[105.18595,18.36115],[105.18335,18.36201],[105.18348,18.36429],[105.17851,18.37068],[105.17881,18.37197],[105.18173,18.37505],[105.18174,18.38006],[105.18468,18.38458],[105.18392,18.38701],[105.17977,18.39027],[105.17655,18.38932],[105.17231,18.3921],[105.16911,18.39127],[105.16727,18.39223],[105.16631,18.38747],[105.1642,18.38688],[105.15844,18.38663],[105.15461,18.3883],[105.1511,18.38838],[105.14997,18.38988],[105.15071,18.39198],[105.14585,18.39986],[105.14728,18.40391],[105.1433,18.40669],[105.13903,18.40746],[105.13828,18.40832],[105.13793,18.41211],[105.14016,18.41455],[105.14039,18.41974],[105.13958,18.41995],[105.1365,18.41635],[105.13041,18.41542],[105.12779,18.41671],[105.12483,18.41702],[105.12342,18.41859],[105.12059,18.41922],[105.12075,18.42287],[105.11872,18.42731],[105.11857,18.43263],[105.11039,18.43427],[105.10705,18.43943],[105.10664,18.44269],[105.10388,18.44735],[105.10597,18.4525],[105.10857,18.45529],[105.1051,18.45884],[105.1057,18.46192],[105.10875,18.46543],[105.1078,18.46783],[105.10848,18.47357],[105.10735,18.47568],[105.10983,18.47868],[105.10916,18.48226],[105.10984,18.48505],[105.11389,18.49142],[105.11387,18.49227],[105.11156,18.49285],[105.11061,18.4939],[105.11308,18.49653],[105.11273,18.49873],[105.11072,18.50081],[105.11025,18.50279],[105.11054,18.50694],[105.11212,18.50961],[105.11097,18.51206],[105.11459,18.51554],[105.11536,18.51937],[105.11971,18.52217],[105.11961,18.52352],[105.11527,18.52848],[105.11499,18.53163],[105.11655,18.53658],[105.11605,18.53951],[105.12152,18.5411],[105.12879,18.54821],[105.12917,18.5492],[105.12766,18.55398],[105.12814,18.55578],[105.13263,18.5593],[105.13579,18.55984],[105.14014,18.56224],[105.13948,18.56425],[105.13438,18.56948],[105.13559,18.58208],[105.13855,18.58336],[105.13874,18.58417],[105.13789,18.58534],[105.13633,18.58542],[105.13472,18.59065],[105.13514,18.59202],[105.13919,18.59438],[105.13973,18.59749],[105.14338,18.59717],[105.14411,18.60011],[105.15004,18.60548],[105.15577,18.60651],[105.15946,18.61327],[105.16404,18.61169],[105.16772,18.61149],[105.17211,18.60695],[105.17438,18.60596],[105.17767,18.60592],[105.18131,18.6024],[105.1887,18.60236],[105.20996,18.59898],[105.21683,18.59715],[105.22246,18.59345],[105.22696,18.58821],[105.22904,18.58799],[105.23077,18.58832],[105.23399,18.59238],[105.23663,18.5974],[105.24118,18.6035],[105.25099,18.60993],[105.26142,18.61555],[105.27622,18.62177],[105.28638,18.62219],[105.29041,18.62118],[105.29709,18.61801],[105.3028,18.61252],[105.30598,18.60767],[105.30787,18.60652],[105.32577,18.60206],[105.33653,18.5949],[105.35971,18.5832],[105.36578,18.58097],[105.38027,18.58006],[105.39604,18.58153],[105.40995,18.58668],[105.42823,18.58795],[105.43465,18.58937],[105.43794,18.59133],[105.44227,18.59895],[105.44416,18.60013],[105.46803,18.60558],[105.47363,18.60766],[105.47562,18.60979],[105.47637,18.61351],[105.47833,18.61428],[105.49408,18.61063],[105.50451,18.61024],[105.51346,18.59949],[105.51743,18.58784],[105.52398,18.57813],[105.53262,18.5626],[105.53915,18.55558],[105.54461,18.55257],[105.54732,18.5527],[105.55032,18.55417],[105.55614,18.55829],[105.56463,18.56037],[105.57227,18.55978],[105.5748,18.55885],[105.58314,18.55895],[105.58652,18.56234],[105.58975,18.56995],[105.5962,18.57486],[105.60055,18.57637],[105.61538,18.57728],[105.61733,18.57889],[105.61721,18.57521],[105.61803,18.57302],[105.62137,18.56948],[105.62574,18.56811],[105.64362,18.57587],[105.66597,18.58431],[105.67131,18.58361],[105.67727,18.57885],[105.67995,18.57934],[105.68315,18.58199],[105.68949,18.59606],[105.68973,18.61919],[105.69082,18.62765],[105.69385,18.63252],[105.70425,18.63535],[105.70531,18.63664],[105.7079,18.64481],[105.71093,18.6501],[105.71341,18.66256],[105.71613,18.66739],[105.72166,18.67144],[105.72807,18.67303],[105.74385,18.66806],[105.75195,18.66745],[105.76582,18.67198],[105.76884,18.67527],[105.76976,18.67928],[105.76873,18.68359],[105.75648,18.70516],[105.75188,18.72139],[105.74397,18.73663],[105.74264,18.74209],[105.74266,18.74654],[105.74494,18.75097],[105.74977,18.75526],[105.76593,18.76409],[105.76802,18.7668],[105.77563,18.76042],[105.77804,18.75517],[105.7884,18.71815],[105.79351,18.68993],[105.8002,18.6634],[105.81339,18.62673],[105.82698,18.59647],[105.84192,18.56848],[105.85649,18.54454],[105.85706,18.54327],[105.85654,18.53986],[105.85789,18.53613],[105.86369,18.52832],[105.86449,18.52774],[105.86774,18.52798],[105.89408,18.49046],[105.91936,18.45994],[105.92402,18.45082],[105.92783,18.45059],[105.93203,18.45721],[105.93268,18.4613],[105.93534,18.46549],[105.93938,18.47064],[105.94111,18.47197],[105.94237,18.47193],[105.94348,18.47004],[105.94317,18.46828],[105.93976,18.46548],[105.93906,18.46282],[105.94186,18.4569],[105.96149,18.42467],[105.98484,18.3928],[106.01533,18.35648],[106.0468,18.32206],[106.07088,18.2987],[106.08856,18.28343],[106.10056,18.27474],[106.11143,18.27112],[106.11531,18.26778],[106.12297,18.26597],[106.14185,18.26745],[106.15071,18.2674],[106.16436,18.26502],[106.17663,18.25849],[106.20711,18.23448],[106.20997,18.23309],[106.21363,18.2327],[106.22113,18.22451],[106.22848,18.22283],[106.23039,18.21963],[106.23568,18.21564],[106.23946,18.21735],[106.2516,18.21463],[106.27736,18.18443],[106.29569,18.16524],[106.3306,18.13393],[106.35275,18.11576],[106.35666,18.11077],[106.36373,18.10849],[106.3693,18.10778],[106.37266,18.1056],[106.38792,18.09987],[106.3994,18.09851],[106.4042,18.09925],[106.40718,18.10102],[106.40789,18.11151],[106.40999,18.11834],[106.41159,18.12094],[106.41662,18.12474],[106.42068,18.12558],[106.4213,18.12171],[106.42263,18.12077],[106.43335,18.12236],[106.43483,18.12194],[106.43269,18.11672],[106.42416,18.10727],[106.422,18.10057],[106.42154,18.0936],[106.42271,18.08746],[106.42871,18.07826],[106.43284,18.06553],[106.43967,18.04855],[106.45266,18.05533],[106.45891,18.03064],[106.45195,18.02733],[106.4547,18.01967],[106.46768,18.0003],[106.47143,17.99757],[106.48249,17.98362],[106.49348,17.96641],[106.49554,17.9647],[106.50435,17.96349],[106.51015,17.95993],[106.50486,17.96164],[106.49597,17.9606],[106.47991,17.95362],[106.47211,17.95596],[106.46688,17.95595],[106.45838,17.95393],[106.45147,17.95035],[106.44871,17.95033],[106.4444,17.95218],[106.44398,17.96843],[106.43551,17.97206],[106.41845,17.97481],[106.39389,17.98127],[106.38429,17.98463],[106.36069,17.98925],[106.33863,17.99104],[106.3289,17.97792],[106.32376,17.96302],[106.32218,17.96239],[106.31534,17.96341],[106.30778,17.96247],[106.3028,17.95931],[106.29364,17.94629],[106.28441,17.93955],[106.28079,17.93298],[106.28113,17.93139],[106.28415,17.92828],[106.28508,17.92411],[106.28454,17.92136],[106.28103,17.91754],[106.27949,17.91699],[106.27473,17.91975],[106.27212,17.91987],[106.26842,17.91829],[106.26518,17.91466],[106.26182,17.91337],[106.25575,17.92],[106.24421,17.92693],[106.24073,17.92793],[106.22467,17.92909],[106.2095,17.92568],[106.20713,17.92435],[106.19942,17.91644],[106.19666,17.91723],[106.19364,17.92125],[106.18962,17.92266],[106.18486,17.9219],[106.17465,17.91558],[106.16537,17.91622],[106.14204,17.91962],[106.09632,17.93119],[106.07952,17.9337],[106.06268,17.93907],[106.04585,17.94606],[106.04916,17.95838],[106.04911,17.96141],[106.04737,17.96362],[106.04785,17.96504],[106.06677,17.98175],[106.07752,17.98864],[106.05602,18.01115],[106.04639,18.02573],[106.04219,18.02604],[106.02697,18.02419],[106.02114,18.02513],[106.01694,18.02884],[106.01604,18.03412],[106.00731,18.04239],[105.9959,18.05135],[105.99367,18.05606],[105.98726,18.06261],[105.98085,18.06416],[105.9758,18.06298],[105.96785,18.05567],[105.96558,18.05657],[105.96273,18.05941],[105.95838,18.05943],[105.95169,18.05783],[105.95045,18.05843],[105.94975,18.05932],[105.95021,18.06475],[105.94783,18.0692],[105.93595,18.08337],[105.9346,18.08736],[105.93313,18.08885],[105.93173,18.08908],[105.91979,18.08161],[105.91051,18.08762],[105.90656,18.0889],[105.89576,18.08992],[105.88803,18.08454],[105.87161,18.06689],[105.86643,18.06641],[105.85361,18.06751],[105.83568,18.06581],[105.82743,18.0635],[105.813,18.05297],[105.83305,18.04527],[105.83487,18.04191],[105.83454,18.039],[105.82901,18.03196],[105.82514,18.03233],[105.82062,18.0342],[105.81773,18.0375],[105.80777,18.03193],[105.81063,18.02761],[105.81023,18.02627],[105.78786,18.0247],[105.77849,18.01732],[105.77703,18.01711],[105.76937,18.02383],[105.75838,18.0259],[105.75453,18.02794],[105.75037,18.034],[105.73842,18.03652],[105.7307,18.03405],[105.72173,18.02328]]],[[[106.4546,18.10319],[106.46061,18.10611],[106.4638,18.10497],[106.4643,18.10212],[106.46148,18.10095],[106.45235,18.09965],[106.45192,18.1005],[106.4546,18.10319]]],[[[106.48892,18.11642],[106.48864,18.11745],[106.48971,18.11748],[106.48981,18.11703],[106.48892,18.11642]]],[[[106.11791,18.27967],[106.11581,18.28125],[106.11718,18.28161],[106.11871,18.28001],[106.11791,18.27967]]]]}},{"type":"Feature","properties":{"kind":"buffer","province_code":"42","buffer_m":5000,"source":"derived","simplify_tolerance_deg":0.0005},"geometry":{"type":"Polygon","coordinates":[[[105.0566,18.449],[105.05858,18.46863],[105.06028,18.47443],[105.06013,18.47828],[105.06151,18.48685],[105.06345,18.49401],[105.06307,18.50696],[105.06469,18.52141],[105.06783,18.53047],[105.06967,18.54842],[105.07185,18.55562],[105.07524,18.56238],[105.07988,18.56866],[105.08467,18.57296],[105.08807,18.57932],[105.08763,18.59493],[105.08967,18.6045],[105.09378,18.61397],[105.10455,18.62772],[105.13311,18.65083],[105.14184,18.65524],[105.15133,18.65782],[105.16118,18.65846],[105.17095,18.65714],[105.18367,18.65406],[105.19777,18.64672],[105.21842,18.64341],[105.23819,18.65494],[105.25939,18.66404],[105.27082,18.6667],[105.28757,18.66739],[105.30233,18.66494],[105.31339,18.66087],[105.3266,18.65336],[105.33405,18.64684],[105.34549,18.64316],[105.3618,18.6333],[105.3781,18.62529],[105.38443,18.62588],[105.39446,18.62941],[105.41054,18.63229],[105.41656,18.63691],[105.42609,18.64192],[105.44432,18.64669],[105.45121,18.652],[105.4599,18.65624],[105.46931,18.65868],[105.47946,18.65948],[105.48818,18.6585],[105.49936,18.65609],[105.51195,18.65518],[105.52052,18.6528],[105.52805,18.64947],[105.53486,18.64493],[105.54073,18.63933],[105.55022,18.6282],[105.55766,18.6156],[105.56112,18.60615],[105.56905,18.61189],[105.58435,18.61886],[105.61375,18.62398],[105.62265,18.62382],[105.63402,18.62101],[105.64276,18.62439],[105.64524,18.63975],[105.64929,18.64965],[105.65358,18.65695],[105.65922,18.66337],[105.66651,18.66934],[105.67015,18.68103],[105.67721,18.69309],[105.68576,18.70221],[105.6941,18.70834],[105.70352,18.71305],[105.6979,18.72636],[105.69657,18.73182],[105.69535,18.74673],[105.6966,18.75685],[105.70019,18.76645],[105.70699,18.77797],[105.71762,18.78843],[105.7258,18.79424],[105.73551,18.79956],[105.74322,18.80531],[105.75135,18.80912],[105.7601,18.81138],[105.76913,18.812],[105.77813,18.81097],[105.78675,18.80832],[105.79721,18.8025],[105.80509,18.79622],[105.81394,18.78695],[105.81878,18.77967],[105.82292,18.76949],[105.8307,18.74268],[105.83494,18.72628],[105.84279,18.68615],[105.85245,18.65601],[105.86089,18.6349],[105.86943,18.61647],[105.88336,18.5903],[105.89718,18.56759],[105.90077,18.56035],[105.90959,18.54983],[105.93301,18.5163],[105.93793,18.51724],[105.94902,18.51686],[105.95864,18.51447],[105.96763,18.51017],[105.97571,18.50401],[105.98199,18.49683],[105.98736,18.48702],[105.99021,18.47711],[105.99057,18.46597],[106.01176,18.43423],[106.02424,18.41801],[106.06113,18.37474],[106.08145,18.35286],[106.1032,18.33172],[106.10959,18.32613],[106.11747,18.32683],[106.12793,18.32565],[106.13786,18.32228],[106.14689,18.31694],[106.15194,18.31256],[106.16952,18.31044],[106.17612,18.30882],[106.18737,18.30453],[106.20574,18.29413],[106.23056,18.27488],[106.24004,18.27021],[106.24768,18.2641],[106.25394,18.2608],[106.26527,18.25813],[106.27452,18.25419],[106.28187,18.24938],[106.28814,18.24334],[106.31345,18.21369],[106.32971,18.19673],[106.36226,18.16753],[106.37929,18.1538],[106.38878,18.1613],[106.39851,18.16652],[106.41224,18.1702],[106.42436,18.17066],[106.44593,18.16607],[106.45565,18.16264],[106.46509,18.15663],[106.47504,18.16092],[106.48216,18.16245],[106.49359,18.16271],[106.50289,18.16099],[106.51184,18.15744],[106.51919,18.15284],[106.52559,18.14695],[106.53051,18.14039],[106.53414,18.1331],[106.53614,18.12652],[106.53707,18.11972],[106.53688,18.1123],[106.53539,18.10492],[106.53205,18.09665],[106.52708,18.08917],[106.52068,18.08276],[106.51632,18.07949],[106.50739,18.07476],[106.50002,18.07266],[106.49731,18.06958],[106.50489,18.04127],[106.50617,18.03267],[106.50593,18.02822],[106.5165,18.01597],[106.52462,18.00434],[106.53673,17.99736],[106.54455,17.99097],[106.55007,17.98419],[106.55415,17.97653],[106.55664,17.96828],[106.55745,17.95972],[106.55656,17.95117],[106.55399,17.94294],[106.54984,17.93532],[106.54425,17.92859],[106.53743,17.92299],[106.52963,17.91872],[106.52112,17.91594],[106.51222,17.91475],[106.50557,17.91508],[106.49104,17.90967],[106.47954,17.9084],[106.47043,17.90925],[106.46325,17.90656],[106.44907,17.90511],[106.43383,17.90732],[106.42578,17.91013],[106.41839,17.91428],[106.40843,17.92282],[106.40214,17.9322],[106.36553,17.94215],[106.36163,17.93591],[106.35452,17.92865],[106.34814,17.92414],[106.34106,17.92072],[106.33182,17.91818],[106.32852,17.90471],[106.32442,17.89704],[106.31839,17.88906],[106.31095,17.88251],[106.30456,17.87831],[106.296,17.87462],[106.28786,17.87249],[106.28153,17.87195],[106.27222,17.86923],[106.26101,17.86816],[106.2515,17.86924],[106.24243,17.87213],[106.23414,17.8767],[106.22878,17.88103],[106.21781,17.87478],[106.21075,17.87253],[106.20266,17.87132],[106.19552,17.87126],[106.18765,17.8724],[106.18194,17.8709],[106.17125,17.87048],[106.15825,17.87152],[106.13491,17.87492],[106.08658,17.88688],[106.06456,17.89081],[106.04256,17.89815],[106.02748,17.90439],[106.01932,17.90863],[106.01218,17.9143],[106.00602,17.92151],[106.0017,17.92934],[105.99907,17.93783],[105.99822,17.94696],[106.00042,17.96037],[106.00007,17.96426],[106.00112,17.9735],[106.00443,17.98298],[105.9936,17.98836],[105.98297,17.99724],[105.97302,18.01083],[105.96312,18.01068],[105.95248,18.0128],[105.94708,18.01282],[105.93846,18.01441],[105.93029,18.0175],[105.91993,18.02388],[105.91244,18.03151],[105.90819,18.03789],[105.90377,18.03338],[105.8949,18.02753],[105.88205,18.02278],[105.87809,18.0221],[105.87573,18.01667],[105.86966,18.00789],[105.85914,17.99709],[105.85213,17.9925],[105.84438,17.98919],[105.83347,17.98701],[105.82504,17.98331],[105.81742,17.98144],[105.8059,17.9807],[105.7992,17.97666],[105.79041,17.9735],[105.77998,17.97198],[105.76993,17.9724],[105.76021,17.97485],[105.75639,17.97655],[105.74185,17.96262],[105.73256,17.9552],[105.72466,17.95116],[105.71512,17.94818],[105.70513,17.9472],[105.65796,17.94807],[105.6295,17.94677],[105.62233,17.94784],[105.6154,17.94994],[105.60211,17.95714],[105.59518,17.95695],[105.58563,17.95858],[105.57551,17.96261],[105.55664,17.97422],[105.55066,17.97893],[105.54361,17.98691],[105.53881,17.99435],[105.53559,18.00253],[105.5325,18.02313],[105.53287,18.03342],[105.53394,18.03722],[105.52471,18.03961],[105.51519,18.04396],[105.50692,18.05022],[105.50031,18.05808],[105.49589,18.06603],[105.49342,18.07357],[105.49283,18.07795],[105.48217,18.08375],[105.47289,18.09195],[105.46581,18.10068],[105.46095,18.10961],[105.4574,18.11994],[105.45592,18.13209],[105.45634,18.13872],[105.45527,18.13835],[105.4537,18.13485],[105.44407,18.12254],[105.43663,18.11645],[105.42804,18.11195],[105.41866,18.10924],[105.40891,18.10844],[105.39918,18.10958],[105.38991,18.1126],[105.38684,18.11435],[105.38154,18.11546],[105.36335,18.11594],[105.35373,18.11767],[105.34468,18.12127],[105.33237,18.13026],[105.32528,18.13825],[105.31507,18.14165],[105.30724,18.14633],[105.30051,18.15238],[105.29461,18.16067],[105.28389,18.17119],[105.27782,18.17994],[105.27446,18.1881],[105.27284,18.19877],[105.26714,18.20304],[105.25992,18.21166],[105.25446,18.21389],[105.24249,18.21566],[105.23386,18.21913],[105.22611,18.22416],[105.21955,18.23054],[105.21443,18.23804],[105.21085,18.2463],[105.20873,18.25867],[105.19938,18.26135],[105.19115,18.26561],[105.18396,18.27135],[105.1812,18.27462],[105.16955,18.27941],[105.15363,18.29054],[105.14747,18.29662],[105.1426,18.30369],[105.1392,18.3115],[105.13738,18.31979],[105.137,18.33496],[105.13897,18.34464],[105.12856,18.34862],[105.11907,18.35511],[105.11325,18.36101],[105.10906,18.36703],[105.10517,18.37592],[105.09042,18.38439],[105.08387,18.39072],[105.07873,18.39815],[105.07699,18.40226],[105.07099,18.40924],[105.06667,18.41586],[105.06055,18.4287],[105.05732,18.43934],[105.0566,18.449]]]}}]}