{"type":"FeatureCollection","features":[{"type":"Feature","geometry":{"type":"MultiPolygon","coordinates":[[[[105.903755,18.342996],[105.903955,18.342144],[105.904845,18.342333],[105.904646,18.343184],[105.903755,18.342996]]]]},"properties":{"group":"public","tag":"leisure=park","name":null,"levels":null,"lat":18.3426642,"lng":105.90430045000002,"osm_type":"way","osm_id":367547094}},{"type":"Feature","geometry":{"type":"MultiPolygon","coordinates":[[[[105.904605,18.342028],[105.904951,18.340382],[105.905063,18.340336],[105.906514,18.340631],[105.906133,18.34232],[105.904605,18.342028]]]]},"properties":{"group":"public","tag":"leisure=park","name":null,"levels":null,"lat":18.341322379474615,"lng":105.90555396298713,"osm_type":"way","osm_id":367547096}},{"type":"Feature","geometry":{"type":"MultiPolygon","coordinates":[[[[105.911694,18.34675],[105.911992,18.345293],[105.912069,18.345221],[105.912957,18.345205],[105.913048,18.345267],[105.913658,18.347028],[105.913573,18.347175],[105.911745,18.346831],[105.911694,18.34675]]]]},"properties":{"group":"edu_health","tag":"amenity=hospital","name":"Trung tâm Y tế Thành Sen","levels":null,"lat":18.346208268287164,"lng":105.91263436914451,"osm_type":"way","osm_id":367547097}},{"type":"Feature","geometry":{"type":"MultiPolygon","coordinates":[[[[105.893873,18.345003],[105.894825,18.34327],[105.896543,18.344063],[105.896473,18.344442],[105.896671,18.344539],[105.89632,18.346031],[105.89469,18.345208],[105.8946,18.345367],[105.893873,18.345003]]]]},"properties":{"group":"edu_health","tag":"amenity=hospital","name":"Bệnh viện Đa khoa tỉnh Hà Tĩnh","levels":null,"lat":18.344632906134386,"lng":105.89540108031358,"osm_type":"way","osm_id":367547098}},{"type":"Feature","geometry":{"type":"MultiPolygon","coordinates":[[[[105.891272,18.350482],[105.892076,18.34978],[105.892156,18.349782],[105.892815,18.350406],[105.892804,18.350486],[105.8922,18.35106],[105.891845,18.351048],[105.891272,18.350482]]]]},"properties":{"group":"public","tag":"leisure=park","name":"Công viên Trần Phú","levels":null,"lat":18.350461218720223,"lng":105.89206429977466,"osm_type":"way","osm_id":367547100}},{"type":"Feature","geometry":{"type":"MultiPolygon","coordinates":[[[[105.900275,18.355881],[105.900581,18.354844],[105.902117,18.355243],[105.901819,18.356313],[105.900275,18.355881]]]]},"properties":{"group":"edu_health","tag":"amenity=university","name":"Khoa Kinh tế - Đại học Hà Tĩnh","levels":null,"lat":18.355571998417005,"lng":105.90120131174763,"osm_type":"way","osm_id":367547103}},{"type":"Feature","geometry":{"type":"MultiPolygon","coordinates":[[[[105.898162,18.339599],[105.898225,18.339352],[105.898502,18.339395],[105.898808,18.339443],[105.898756,18.339688],[105.898641,18.339681],[105.898542,18.340107],[105.898174,18.34003],[105.898268,18.339625],[105.898162,18.339599]]]]},"properties":{"group":"public","tag":"amenity=community_centre","name":"Trung tâm Văn hóa Thành phố Hà Tĩnh","levels":null,"lat":18.339695960734975,"lng":105.89844620061398,"osm_type":"way","osm_id":367547104}},{"type":"Feature","geometry":{"type":"MultiPolygon","coordinates":[[[[105.895941,18.355037],[105.896949,18.354074],[105.898487,18.355476],[105.899338,18.355733],[105.898908,18.357279],[105.897957,18.357041],[105.895941,18.355037]]]]},"properties":{"group":"edu_health","tag":"amenity=college","name":"Trường Cao đẳng nghề Việt-Đức Hà Tĩnh","levels":null,"lat":18.355731781040163,"lng":105.89772666978439,"osm_type":"way","osm_id":367547106}},{"type":"Feature","geometry":{"type":"MultiPolygon","coordinates":[[[[105.900951,18.340472],[105.901145,18.339657],[105.902116,18.3398],[105.901838,18.341077],[105.901156,18.34095],[105.90115,18.340752],[105.901064,18.34064],[105.900951,18.340472]]]]},"properties":{"group":"edu_health","tag":"amenity=school","name":"Trường Trung học phổ thông Phan Đình Phùng","levels":null,"lat":18.340330988045736,"lng":105.90152366377288,"osm_type":"way","osm_id":367547107}},{"type":"Feature","geometry":{"type":"MultiPolygon","coordinates":[[[[105.897379,18.342562],[105.897406,18.342474],[105.8977,18.342538],[105.897971,18.342586],[105.898807,18.342757],[105.899423,18.34287],[105.899592,18.342905],[105.899636,18.342914],[105.899612,18.343013],[105.897379,18.342562]]]]},"properties":{"group":"public","tag":"leisure=park","name":null,"levels":null,"lat":18.342747034040283,"lng":105.89853279380529,"osm_type":"way","osm_id":367757184}},{"type":"Feature","geometry":{"type":"MultiPolygon","coordinates":[[[[105.900954,18.335334],[105.900974,18.335286],[105.901548,18.334859],[105.902029,18.334549],[105.902635,18.335157],[105.902494,18.335296],[105.902348,18.33539],[105.901298,18.335918],[105.901028,18.335459],[105.900954,18.335334]]]]},"properties":{"group":"public","tag":"leisure=park","name":null,"levels":null,"lat":18.33523631402573,"lng":105.901761970743,"osm_type":"way","osm_id":367757192}},{"type":"Feature","geometry":{"type":"MultiPolygon","coordinates":[[[[105.883978,18.355231],[105.885096,18.354416],[105.885338,18.354377],[105.88552,18.354368],[105.886268,18.355137],[105.884993,18.356383],[105.883978,18.355231]]]]},"properties":{"group":"edu_health","tag":"amenity=hospital","name":"Bệnh viện Y học cổ truyền Hà Tĩnh","levels":null,"lat":18.355274784566596,"lng":105.88513324267078,"osm_type":"way","osm_id":367757194}},{"type":"Feature","geometry":{"type":"MultiPolygon","coordinates":[[[[105.901654,18.339456],[105.901889,18.338408],[105.902424,18.338516],[105.90219,18.339564],[105.901654,18.339456]]]]},"properties":{"group":"public","tag":"leisure=park","name":"Công viên Lý Tự Trọng","levels":null,"lat":18.338986150000004,"lng":105.90203910000001,"osm_type":"way","osm_id":367757195}},{"type":"Feature","geometry":{"type":"MultiPolygon","coordinates":[[[[105.901995,18.347954],[105.902087,18.347615],[105.902586,18.347723],[105.902748,18.347708],[105.903051,18.34779],[105.903249,18.347996],[105.903162,18.348382],[105.902735,18.348332],[105.902616,18.348251],[105.902131,18.348084],[105.902156,18.347992],[105.901995,18.347954]]]]},"properties":{"group":"edu_health","tag":"amenity=school","name":"Trường Trung học cơ sở Lê Bình","levels":null,"lat":18.347990063994235,"lng":105.90265522465248,"osm_type":"way","osm_id":367757208}},{"type":"Feature","geometry":{"type":"MultiPolygon","coordinates":[[[[105.890792,18.332954],[105.891541,18.331982],[105.891576,18.33196],[105.891616,18.331953],[105.892642,18.332684],[105.892842,18.332827],[105.892522,18.334026],[105.892497,18.334056],[105.892449,18.334107],[105.892386,18.334149],[105.892319,18.334149],[105.890811,18.333078],[105.890792,18.33302],[105.890792,18.332954]]]]},"properties":{"group":"edu_health","tag":"amenity=school","name":"Trường Trung học cơ sở Lê Văn Thiêm","levels":null,"lat":18.333034526861002,"lng":105.89188835487036,"osm_type":"way","osm_id":367757210}},{"type":"Feature","geometry":{"type":"MultiPolygon","coordinates":[[[[105.902029,18.334549],[105.90281,18.333919],[105.903007,18.333758],[105.903119,18.333802],[105.903163,18.33391],[105.903346,18.334498],[105.903337,18.334549],[105.902635,18.335157],[105.902029,18.334549]]]]},"properties":{"group":"edu_health","tag":"amenity=school","name":"Trường Trung học cơ sở Nam Hà","levels":null,"lat":18.33446794505307,"lng":105.9027596146783,"osm_type":"way","osm_id":367757213}},{"type":"Feature","geometry":{"type":"MultiPolygon","coordinates":[[[[105.914834,18.324564],[105.915663,18.324551],[105.915768,18.325379],[105.914853,18.325355],[105.914834,18.324564]]]]},"properties":{"group":"edu_health","tag":"amenity=school","name":"Trường Trung học cơ sở Đại Nài","levels":null,"lat":18.324968859785482,"lng":105.91528326310427,"osm_type":"way","osm_id":367757215}},{"type":"Feature","geometry":{"type":"MultiPolygon","coordinates":[[[[105.883159,18.341112],[105.883286,18.340494],[105.884269,18.340693],[105.884135,18.341306],[105.883159,18.341112]]]]},"properties":{"group":"edu_health","tag":"amenity=school","name":"Trường Trung học cơ sở Thạch Linh","levels":null,"lat":18.340900823626917,"lng":105.88371201867113,"osm_type":"way","osm_id":367757218}},{"type":"Feature","geometry":{"type":"MultiPolygon","coordinates":[[[[105.894563,18.361451],[105.894619,18.361435],[105.895716,18.36113],[105.895722,18.361147],[105.896057,18.362231],[105.894904,18.362552],[105.894563,18.361451]]]]},"properties":{"group":"edu_health","tag":"amenity=school","name":"Trường Trung học phổ thông Thành Sen","levels":null,"lat":18.361840943574567,"lng":105.89531019081485,"osm_type":"way","osm_id":367757220}},{"type":"Feature","geometry":{"type":"MultiPolygon","coordinates":[[[[105.901309,18.336018],[105.90135,18.335998],[105.902008,18.335676],[105.902299,18.336212],[105.902377,18.336215],[105.902525,18.336498],[105.901751,18.336863],[105.901309,18.336018]]]]},"properties":{"group":"edu_health","tag":"amenity=school","name":"Trường Tiểu học Nam Hà","levels":null,"lat":18.33627377901277,"lng":105.90190066694471,"osm_type":"way","osm_id":367757225}},{"type":"Feature","geometry":{"type":"MultiPolygon","coordinates":[[[[105.915959,18.322617],[105.916664,18.322603],[105.916684,18.323487],[105.915979,18.323501],[105.915959,18.322617]]]]},"properties":{"group":"edu_health","tag":"amenity=school","name":"Trường Tiểu học Đại Nài","levels":null,"lat":18.323052289555303,"lng":105.91632142463621,"osm_type":"way","osm_id":367757227}},{"type":"Feature","geometry":{"type":"MultiPolygon","coordinates":[[[[105.913295,18.323625],[105.913441,18.323481],[105.913399,18.323066],[105.913528,18.322989],[105.913548,18.322648],[105.915778,18.322617],[105.915917,18.324451],[105.915243,18.324467],[105.914426,18.32447],[105.914077,18.324495],[105.913295,18.323625]]]]},"properties":{"group":"edu_health","tag":"amenity=university","name":"Trường Đại học Hà Tĩnh (cơ sở Đại Nài)","levels":null,"lat":18.323531465129626,"lng":105.91469649587344,"osm_type":"way","osm_id":367757229}},{"type":"Feature","geometry":{"type":"MultiPolygon","coordinates":[[[[105.864279,18.367541],[105.864289,18.3675],[105.864433,18.367411],[105.864873,18.367024],[105.86525,18.366617],[105.865179,18.366799],[105.865042,18.367175],[105.864822,18.367695],[105.864712,18.367958],[105.864674,18.368178],[105.864701,18.368331],[105.864612,18.368177],[105.864314,18.367604],[105.864279,18.367541]]]]},"properties":{"group":"public","tag":"leisure=park","name":null,"levels":null,"lat":18.367480801015066,"lng":105.86471511390612,"osm_type":"way","osm_id":368004513}},{"type":"Feature","geometry":{"type":"MultiPolygon","coordinates":[[[[105.856785,18.374589],[105.856788,18.374504],[105.856838,18.374316],[105.856851,18.374236],[105.856801,18.374011],[105.856866,18.373901],[105.857118,18.373567],[105.858107,18.373749],[105.858026,18.374754],[105.858017,18.374772],[105.857995,18.374799],[105.856868,18.374652],[105.856804,18.374629],[105.856785,18.374589]]]]},"properties":{"group":"edu_health","tag":"amenity=school","name":"Trường Trung học phổ thông Lý Tự Trọng","levels":null,"lat":18.374196043729672,"lng":105.85746177737055,"osm_type":"way","osm_id":368004531}},{"type":"Feature","geometry":{"type":"MultiPolygon","coordinates":[[[[105.426301,18.498876],[105.426712,18.49883],[105.426736,18.499023],[105.426827,18.499018],[105.426932,18.499723],[105.426355,18.499804],[105.426301,18.498876]]]]},"properties":{"group":"edu_health","tag":"amenity=school","name":"Trường Trung học cơ sở Phố Diệm","levels":null,"lat":18.499331629561027,"lng":105.42659062619467,"osm_type":"way","osm_id":525918349}},{"type":"Feature","geometry":{"type":"MultiPolygon","coordinates":[[[[105.89456,18.349433],[105.8947,18.349301],[105.894617,18.349222],[105.894948,18.348909],[105.895603,18.349534],[105.895133,18.349979],[105.89456,18.349433]]]]},"properties":{"group":"edu_health","tag":"amenity=school","name":"Trường Trung học cơ sở Nguyễn Du","levels":null,"lat":18.34944864345145,"lng":105.89505758478008,"osm_type":"way","osm_id":556904766}},{"type":"Feature","geometry":{"type":"MultiPolygon","coordinates":[[[[105.901387,18.347555],[105.901402,18.347502],[105.901436,18.347511],[105.901473,18.347385],[105.901539,18.347403],[105.901505,18.347519],[105.901528,18.347535],[105.901512,18.347588],[105.901387,18.347555]]]]},"properties":{"group":"apartment","tag":"building=apartments","name":"Nhà văn Hóa Tỉnh","levels":null,"lat":18.3474962246714,"lng":105.90147445825437,"osm_type":"way","osm_id":556906527}},{"type":"Feature","geometry":{"type":"MultiPolygon","coordinates":[[[[105.901536,18.347571],[105.9016,18.347398],[105.901679,18.347424],[105.901654,18.347491],[105.901681,18.3475],[105.901681,18.347527],[105.901782,18.347561],[105.901752,18.347643],[105.901536,18.347571]]]]},"properties":{"group":"apartment","tag":"building=apartments","name":"Bệnh Viện Y Học Cổ Truyền","levels":null,"lat":18.347533635283355,"lng":105.90164895239292,"osm_type":"way","osm_id":556906528}},{"type":"Feature","geometry":{"type":"MultiPolygon","coordinates":[[[[105.901553,18.348264],[105.901595,18.348071],[105.901689,18.348082],[105.901616,18.348281],[105.901553,18.348264]]]]},"properties":{"group":"apartment","tag":"building=apartments","name":"Ngân hàng VP Bank","levels":null,"lat":18.348168894148383,"lng":105.90161530084103,"osm_type":"way","osm_id":556941831}},{"type":"Feature","geometry":{"type":"MultiPolygon","coordinates":[[[[105.893222,18.344868],[105.893405,18.344623],[105.893496,18.344506],[105.893815,18.344731],[105.893664,18.344925],[105.893547,18.344962],[105.893485,18.345045],[105.893222,18.344868]]]]},"properties":{"group":"apartment","tag":"building=apartments","name":null,"levels":null,"lat":18.34478243345418,"lng":105.89351535214422,"osm_type":"way","osm_id":556949577}},{"type":"Feature","geometry":{"type":"MultiPolygon","coordinates":[[[[105.897298,18.349348],[105.897336,18.34931],[105.897678,18.349618],[105.897896,18.349822],[105.897859,18.349859],[105.897298,18.349348]]]]},"properties":{"group":"public","tag":"leisure=park","name":null,"levels":null,"lat":18.349584312418017,"lng":105.89759789423431,"osm_type":"way","osm_id":556953224}},{"type":"Feature","geometry":{"type":"MultiPolygon","coordinates":[[[[105.898449,18.342764],[105.898463,18.342696],[105.898807,18.342757],[105.898794,18.342825],[105.898449,18.342764]]]]},"properties":{"group":"public","tag":"leisure=park","name":"Công Viên","levels":null,"lat":18.342760332806623,"lng":105.8986282081372,"osm_type":"way","osm_id":556954981}},{"type":"Feature","geometry":{"type":"MultiPolygon","coordinates":[[[[105.901417,18.347924],[105.901458,18.347847],[105.901697,18.347924],[105.901673,18.347997],[105.901417,18.347924]]]]},"properties":{"group":"apartment","tag":"building=apartments","name":"Công Ty Xây Dựng Số 1","levels":null,"lat":18.347922699999998,"lng":105.90155901926909,"osm_type":"way","osm_id":556955143}},{"type":"Feature","geometry":{"type":"MultiPolygon","coordinates":[[[[105.900832,18.3478],[105.900887,18.347653],[105.901035,18.347703],[105.900981,18.34785],[105.900832,18.3478]]]]},"properties":{"group":"apartment","tag":"building=apartments","name":"Hội quán tổ 14 Phường bắc hà","levels":null,"lat":18.347751480229025,"lng":105.90093380645695,"osm_type":"way","osm_id":556955145}},{"type":"Feature","geometry":{"type":"MultiPolygon","coordinates":[[[[105.890186,18.345967],[105.890265,18.345897],[105.890439,18.346062],[105.89036,18.346138],[105.890186,18.345967]]]]},"properties":{"group":"edu_health","tag":"amenity=hospital","name":null,"levels":null,"lat":18.346016560991043,"lng":105.8903129853719,"osm_type":"way","osm_id":556971533}},{"type":"Feature","geometry":{"type":"MultiPolygon","coordinates":[[[[105.900289,18.351131],[105.900298,18.35091],[105.900494,18.35043],[105.901028,18.350555],[105.900825,18.351282],[105.900289,18.351131]]]]},"properties":{"group":"edu_health","tag":"amenity=hospital","name":"Bệnh viện Phục hồi chức năng Hà Tĩnh","levels":null,"lat":18.350849605365294,"lng":105.90064634602159,"osm_type":"way","osm_id":557027236}},{"type":"Feature","geometry":{"type":"MultiPolygon","coordinates":[[[[105.90513,18.331371],[105.90514,18.33132],[105.905243,18.331313],[105.905246,18.33137],[105.90513,18.331371]]]]},"properties":{"group":"edu_health","tag":"amenity=hospital","name":"nhà thuốc Tuấn Thảo","levels":null,"lat":18.3313440054214,"lng":105.90519088723663,"osm_type":"way","osm_id":557042925}},{"type":"Feature","geometry":{"type":"MultiPolygon","coordinates":[[[[105.904806,18.332361],[105.904937,18.332366],[105.904977,18.332368],[105.904982,18.332424],[105.904929,18.332419],[105.90482,18.332408],[105.904806,18.332361]]]]},"properties":{"group":"edu_health","tag":"amenity=hospital","name":"nhà thuốc Đông Đô","levels":null,"lat":18.33239020719675,"lng":105.90489878899365,"osm_type":"way","osm_id":557046553}},{"type":"Feature","geometry":{"type":"MultiPolygon","coordinates":[[[[105.897929,18.348809],[105.897944,18.348725],[105.898036,18.34874],[105.898022,18.348823],[105.897929,18.348809]]]]},"properties":{"group":"apartment","tag":"building=apartments","name":null,"levels":null,"lat":18.34877433475685,"lng":105.89798263109819,"osm_type":"way","osm_id":557163397}},{"type":"Feature","geometry":{"type":"MultiPolygon","coordinates":[[[[105.897384,18.348583],[105.897451,18.348505],[105.897509,18.34855],[105.897442,18.348628],[105.897384,18.348583]]]]},"properties":{"group":"apartment","tag":"building=apartments","name":null,"levels":null,"lat":18.348566450000003,"lng":105.89744665,"osm_type":"way","osm_id":557164289}},{"type":"Feature","geometry":{"type":"MultiPolygon","coordinates":[[[[105.897724,18.348215],[105.897729,18.348172],[105.897784,18.348178],[105.897778,18.348221],[105.897724,18.348215]]]]},"properties":{"group":"apartment","tag":"building=apartments","name":null,"levels":null,"lat":18.34819624369942,"lng":105.89775377705833,"osm_type":"way","osm_id":557164438}},{"type":"Feature","geometry":{"type":"MultiPolygon","coordinates":[[[[105.916019,18.331801],[105.91602,18.331751],[105.91604,18.331699],[105.916078,18.331657],[105.916129,18.33163],[105.916186,18.33162],[105.916244,18.33163],[105.916294,18.331658],[105.916332,18.331701],[105.916352,18.331753],[105.916348,18.331809],[105.916334,18.331855],[105.916302,18.331896],[105.916259,18.331924],[105.916208,18.331939],[105.916156,18.331938],[105.916106,18.331921],[105.916064,18.331891],[105.916034,18.331849],[105.916019,18.331801]]]]},"properties":{"group":"public","tag":"leisure=park","name":null,"levels":null,"lat":18.331780325620354,"lng":105.91618512489856,"osm_type":"way","osm_id":557188512}},{"type":"Feature","geometry":{"type":"MultiPolygon","coordinates":[[[[105.915145,18.332299],[105.915159,18.332156],[105.915308,18.332168],[105.915294,18.332312],[105.915145,18.332299]]]]},"properties":{"group":"public","tag":"leisure=park","name":null,"levels":null,"lat":18.33223378435521,"lng":105.91522638206477,"osm_type":"way","osm_id":557190385}},{"type":"Feature","geometry":{"type":"MultiPolygon","coordinates":[[[[105.915178,18.333122],[105.9153,18.333101],[105.915329,18.333248],[105.915207,18.33327],[105.915178,18.333122]]]]},"properties":{"group":"public","tag":"leisure=park","name":null,"levels":null,"lat":18.333185099999998,"lng":105.9152535,"osm_type":"way","osm_id":557191500}},{"type":"Feature","geometry":{"type":"MultiPolygon","coordinates":[[[[105.892123,18.33042],[105.892259,18.330203],[105.89249,18.330245],[105.892455,18.330466],[105.892123,18.33042]]]]},"properties":{"group":"public","tag":"leisure=garden","name":"Ruộng Nước","levels":null,"lat":18.33033971590283,"lng":105.89232806691359,"osm_type":"way","osm_id":557242918}},{"type":"Feature","geometry":{"type":"MultiPolygon","coordinates":[[[[105.893376,18.329048],[105.893401,18.328932],[105.893561,18.328963],[105.893536,18.329079],[105.893376,18.329048]]]]},"properties":{"group":"public","tag":"leisure=garden","name":null,"levels":null,"lat":18.32900545,"lng":105.89346849999998,"osm_type":"way","osm_id":557242942}},{"type":"Feature","geometry":{"type":"MultiPolygon","coordinates":[[[[105.893415,18.328892],[105.893456,18.328744],[105.893618,18.328784],[105.893576,18.328932],[105.893415,18.328892]]]]},"properties":{"group":"public","tag":"leisure=garden","name":null,"levels":null,"lat":18.328838064263465,"lng":105.89351637119614,"osm_type":"way","osm_id":557242944}},{"type":"Feature","geometry":{"type":"MultiPolygon","coordinates":[[[[105.893463,18.328705],[105.893514,18.328522],[105.893676,18.328563],[105.893626,18.328746],[105.893463,18.328705]]]]},"properties":{"group":"public","tag":"leisure=garden","name":null,"levels":null,"lat":18.328634120835797,"lng":105.89356994376242,"osm_type":"way","osm_id":557242946}},{"type":"Feature","geometry":{"type":"MultiPolygon","coordinates":[[[[105.892885,18.32975],[105.892911,18.329577],[105.893143,18.329609],[105.893116,18.329782],[105.892885,18.32975]]]]},"properties":{"group":"public","tag":"leisure=garden","name":null,"levels":null,"lat":18.329679500000005,"lng":105.89301395000001,"osm_type":"way","osm_id":557242947}},{"type":"Feature","geometry":{"type":"MultiPolygon","coordinates":[[[[105.892921,18.329545],[105.892939,18.329452],[105.893177,18.329493],[105.893159,18.329586],[105.892921,18.329545]]]]},"properties":{"group":"public","tag":"leisure=garden","name":null,"levels":null,"lat":18.329519276569158,"lng":105.89304889959854,"osm_type":"way","osm_id":557242949}},{"type":"Feature","geometry":{"type":"MultiPolygon","coordinates":[[[[105.892956,18.32942],[105.892979,18.329318],[105.893205,18.329364],[105.893182,18.329466],[105.892956,18.32942]]]]},"properties":{"group":"public","tag":"leisure=garden","name":null,"levels":null,"lat":18.329392020563397,"lng":105.89308063262158,"osm_type":"way","osm_id":557242951}},{"type":"Feature","geometry":{"type":"MultiPolygon","coordinates":[[[[105.892988,18.329288],[105.893022,18.329162],[105.893254,18.329219],[105.893219,18.329345],[105.892988,18.329288]]]]},"properties":{"group":"public","tag":"leisure=garden","name":null,"levels":null,"lat":18.3292534,"lng":105.8931206,"osm_type":"way","osm_id":557242953}},{"type":"Feature","geometry":{"type":"MultiPolygon","coordinates":[[[[105.893034,18.329097],[105.893303,18.328718],[105.893384,18.328769],[105.893282,18.329156],[105.893034,18.329097]]]]},"properties":{"group":"public","tag":"leisure=garden","name":null,"levels":null,"lat":18.328963266693986,"lng":105.8932351560379,"osm_type":"way","osm_id":557242955}},{"type":"Feature","geometry":{"type":"MultiPolygon","coordinates":[[[[105.912592,18.32273],[105.912681,18.3227],[105.912681,18.322719],[105.912681,18.322769],[105.912592,18.32273]]]]},"properties":{"group":"edu_health","tag":"amenity=hospital","name":null,"levels":null,"lat":18.322733099999997,"lng":105.9126516,"osm_type":"way","osm_id":557252001}},{"type":"Feature","geometry":{"type":"MultiPolygon","coordinates":[[[[105.931467,18.314373],[105.931625,18.314331],[105.931753,18.314761],[105.931595,18.314804],[105.931467,18.314373]]]]},"properties":{"group":"public","tag":"leisure=garden","name":"Lúa nước","levels":null,"lat":18.3145673,"lng":105.93160979999998,"osm_type":"way","osm_id":557276626}},{"type":"Feature","geometry":{"type":"MultiPolygon","coordinates":[[[[105.931636,18.31433],[105.931767,18.314288],[105.931924,18.314729],[105.931793,18.314771],[105.931636,18.31433]]]]},"properties":{"group":"public","tag":"leisure=garden","name":"Lúa nước","levels":null,"lat":18.31452977498119,"lng":105.93178001530322,"osm_type":"way","osm_id":557276629}},{"type":"Feature","geometry":{"type":"MultiPolygon","coordinates":[[[[105.931859,18.314256],[105.931995,18.314217],[105.932138,18.314669],[105.932003,18.314708],[105.931859,18.314256]]]]},"properties":{"group":"public","tag":"leisure=garden","name":"Lúa nước","levels":null,"lat":18.314462333787578,"lng":105.93199890030678,"osm_type":"way","osm_id":557276631}},{"type":"Feature","geometry":{"type":"MultiPolygon","coordinates":[[[[105.906713,18.374746],[105.906715,18.374652],[105.906774,18.374653],[105.906773,18.374747],[105.906713,18.374746]]]]},"properties":{"group":"apartment","tag":"building=apartments","name":null,"levels":null,"lat":18.374699599999996,"lng":105.90674375,"osm_type":"way","osm_id":574623272}},{"type":"Feature","geometry":{"type":"MultiPolygon","coordinates":[[[[105.863046,18.340923],[105.863067,18.340909],[105.863137,18.341],[105.863117,18.341014],[105.863046,18.340923]]]]},"properties":{"group":"apartment","tag":"building=apartments","name":null,"levels":null,"lat":18.340961231728453,"lng":105.86309164187273,"osm_type":"way","osm_id":592465924}},{"type":"Feature","geometry":{"type":"MultiPolygon","coordinates":[[[[105.863084,18.340851],[105.863093,18.340826],[105.863109,18.340832],[105.8631,18.340856],[105.863084,18.340851]]]]},"properties":{"group":"apartment","tag":"building=apartments","name":null,"levels":null,"lat":18.340841400000002,"lng":105.86309635,"osm_type":"way","osm_id":592465927}},{"type":"Feature","geometry":{"type":"MultiPolygon","coordinates":[[[[105.863054,18.340848],[105.863063,18.340814],[105.863088,18.34082],[105.863078,18.340854],[105.863054,18.340848]]]]},"properties":{"group":"apartment","tag":"building=apartments","name":null,"levels":null,"lat":18.340834329300005,"lng":105.86307065488323,"osm_type":"way","osm_id":592465929}},{"type":"Feature","geometry":{"type":"MultiPolygon","coordinates":[[[[105.863876,18.341511],[105.863877,18.341379],[105.863951,18.341379],[105.86395,18.341512],[105.863876,18.341511]]]]},"properties":{"group":"apartment","tag":"building=apartments","name":null,"levels":null,"lat":18.34144522485274,"lng":105.86391304536555,"osm_type":"way","osm_id":592465930}},{"type":"Feature","geometry":{"type":"MultiPolygon","coordinates":[[[[105.901131,18.339876],[105.901151,18.339786],[105.901439,18.339846],[105.901418,18.339935],[105.901131,18.339876]]]]},"properties":{"group":"edu_health","tag":"amenity=school","name":null,"levels":null,"lat":18.33986074861262,"lng":105.90128483084928,"osm_type":"way","osm_id":593629809}},{"type":"Feature","geometry":{"type":"MultiPolygon","coordinates":[[[[105.901181,18.340178],[105.901222,18.339932],[105.901299,18.339943],[105.901255,18.340211],[105.901181,18.340178]]]]},"properties":{"group":"edu_health","tag":"amenity=school","name":null,"levels":null,"lat":18.340066203815024,"lng":105.90123952670969,"osm_type":"way","osm_id":593632190}},{"type":"Feature","geometry":{"type":"MultiPolygon","coordinates":[[[[105.900785,18.358771],[105.900913,18.358682],[105.90082,18.358562],[105.900861,18.358533],[105.900991,18.358702],[105.900822,18.358819],[105.900785,18.358771]]]]},"properties":{"group":"apartment","tag":"building=apartments","name":null,"levels":null,"lat":18.358687520212655,"lng":105.90088733236273,"osm_type":"way","osm_id":616382802}},{"type":"Feature","geometry":{"type":"MultiPolygon","coordinates":[[[[105.901004,18.358482],[105.901052,18.35846],[105.901147,18.35865],[105.901026,18.358704],[105.901008,18.358667],[105.90108,18.358634],[105.901004,18.358482]]]]},"properties":{"group":"apartment","tag":"building=apartments","name":null,"levels":null,"lat":18.358590050439112,"lng":105.901070396693,"osm_type":"way","osm_id":616382803}},{"type":"Feature","geometry":{"type":"MultiPolygon","coordinates":[[[[105.901168,18.358421],[105.901218,18.358393],[105.901315,18.358549],[105.901198,18.358615],[105.90118,18.358586],[105.901247,18.358549],[105.901168,18.358421]]]]},"properties":{"group":"apartment","tag":"building=apartments","name":null,"levels":null,"lat":18.358504270454823,"lng":105.90123765245045,"osm_type":"way","osm_id":616382804}},{"type":"Feature","geometry":{"type":"MultiPolygon","coordinates":[[[[105.902935,18.361555],[105.903155,18.361412],[105.903239,18.361516],[105.90307,18.361733],[105.902935,18.361555]]]]},"properties":{"group":"public","tag":"leisure=park","name":null,"levels":null,"lat":18.361561537177206,"lng":105.90309179915896,"osm_type":"way","osm_id":616386482}},{"type":"Feature","geometry":{"type":"MultiPolygon","coordinates":[[[[105.903836,18.360921],[105.903921,18.360817],[105.903958,18.360844],[105.903873,18.360949],[105.903836,18.360921]]]]},"properties":{"group":"apartment","tag":"building=apartments","name":null,"levels":null,"lat":18.360882750000002,"lng":105.90389700000003,"osm_type":"way","osm_id":616386503}},{"type":"Feature","geometry":{"type":"MultiPolygon","coordinates":[[[[105.893952,18.335943],[105.894482,18.335344],[105.894544,18.335342],[105.894734,18.335499],[105.894735,18.335559],[105.894202,18.336152],[105.894145,18.336159],[105.893957,18.33601],[105.893952,18.335943]]]]},"properties":{"group":"public","tag":"leisure=park","name":null,"levels":null,"lat":18.33574900268354,"lng":105.89434357360886,"osm_type":"way","osm_id":693930932}},{"type":"Feature","geometry":{"type":"MultiPolygon","coordinates":[[[[105.777886,18.450876],[105.777889,18.450844],[105.779006,18.449484],[105.779068,18.449477],[105.779135,18.449492],[105.779202,18.449528],[105.77968,18.450058],[105.779701,18.450107],[105.779701,18.450156],[105.77968,18.450214],[105.779024,18.45102],[105.778926,18.451101],[105.778839,18.451154],[105.77871,18.451186],[105.778581,18.451191],[105.778453,18.451172],[105.778288,18.45112],[105.777923,18.450944],[105.777899,18.450923],[105.777886,18.450876]]]]},"properties":{"group":"public","tag":"leisure=park","name":"Công viên Tuy Phước","levels":null,"lat":18.450416243141763,"lng":105.77884354279108,"osm_type":"way","osm_id":733348608}},{"type":"Feature","geometry":{"type":"MultiPolygon","coordinates":[[[[105.931164,18.303991],[105.933733,18.301763],[105.933659,18.301686],[105.934101,18.301303],[105.934905,18.301673],[105.935107,18.301716],[105.935432,18.301728],[105.935564,18.301708],[105.936495,18.30124],[105.936746,18.301198],[105.936884,18.301202],[105.937053,18.301249],[105.946356,18.306724],[105.946508,18.30685],[105.943708,18.30933],[105.943013,18.309182],[105.943016,18.309126],[105.941146,18.308518],[105.941138,18.306982],[105.935808,18.307013],[105.935092,18.306636],[105.934319,18.30727],[105.931164,18.303991]]]]},"properties":{"group":"edu_health","tag":"amenity=university","name":"Trường Đại học Hà Tĩnh","levels":null,"lat":18.305096195927316,"lng":105.93846039478154,"osm_type":"way","osm_id":842241330}},{"type":"Feature","geometry":{"type":"MultiPolygon","coordinates":[[[[106.063747,18.221229],[106.064687,18.221311],[106.065752,18.221135],[106.065977,18.222365],[106.063967,18.222697],[106.063747,18.221229]]]]},"properties":{"group":"edu_health","tag":"amenity=school","name":null,"levels":null,"lat":18.22189230329477,"lng":106.06483711378517,"osm_type":"way","osm_id":842241334}},{"type":"Feature","geometry":{"type":"MultiPolygon","coordinates":[[[[106.402619,18.013726],[106.402906,18.013625],[106.40295,18.013737],[106.402662,18.013838],[106.402619,18.013726]]]]},"properties":{"group":"apartment","tag":"building=apartments","name":null,"levels":null,"lat":18.013731299466205,"lng":106.40278421728064,"osm_type":"way","osm_id":880440340}},{"type":"Feature","geometry":{"type":"MultiPolygon","coordinates":[[[[106.40267,18.013858],[106.402958,18.013758],[106.403001,18.013869],[106.402714,18.01397],[106.40267,18.013858]]]]},"properties":{"group":"apartment","tag":"building=apartments","name":null,"levels":null,"lat":18.013863732719887,"lng":106.40283558155201,"osm_type":"way","osm_id":880440341}},{"type":"Feature","geometry":{"type":"MultiPolygon","coordinates":[[[[106.402246,18.014003],[106.402533,18.013903],[106.402577,18.014014],[106.402289,18.014115],[106.402246,18.014003]]]]},"properties":{"group":"apartment","tag":"building=apartments","name":null,"levels":null,"lat":18.014008832719888,"lng":106.402411181552,"osm_type":"way","osm_id":880440342}},{"type":"Feature","geometry":{"type":"MultiPolygon","coordinates":[[[[106.402194,18.013871],[106.402482,18.01377],[106.402525,18.013882],[106.402238,18.013983],[106.402194,18.013871]]]]},"properties":{"group":"apartment","tag":"building=apartments","name":null,"levels":null,"lat":18.013876332719825,"lng":106.40235983154452,"osm_type":"way","osm_id":880440343}},{"type":"Feature","geometry":{"type":"MultiPolygon","coordinates":[[[[106.403515,18.01359],[106.403807,18.013501],[106.403845,18.013615],[106.403553,18.013703],[106.403515,18.01359]]]]},"properties":{"group":"apartment","tag":"building=apartments","name":null,"levels":null,"lat":18.0136021,"lng":106.4036801,"osm_type":"way","osm_id":880440344}},{"type":"Feature","geometry":{"type":"MultiPolygon","coordinates":[[[[106.40347,18.013455],[106.403762,18.013367],[106.4038,18.01348],[106.403508,18.013569],[106.40347,18.013455]]]]},"properties":{"group":"apartment","tag":"building=apartments","name":null,"levels":null,"lat":18.0134676,"lng":106.40363499999998,"osm_type":"way","osm_id":880440345}},{"type":"Feature","geometry":{"type":"MultiPolygon","coordinates":[[[[106.403674,18.014072],[106.403966,18.013983],[106.404004,18.014097],[106.403712,18.014185],[106.403674,18.014072]]]]},"properties":{"group":"apartment","tag":"building=apartments","name":null,"levels":null,"lat":18.014084150000002,"lng":106.40383880000002,"osm_type":"way","osm_id":880440346}},{"type":"Feature","geometry":{"type":"MultiPolygon","coordinates":[[[[106.403629,18.013937],[106.403921,18.013849],[106.403959,18.013962],[106.403667,18.014051],[106.403629,18.013937]]]]},"properties":{"group":"apartment","tag":"building=apartments","name":null,"levels":null,"lat":18.01394965,"lng":106.4037937,"osm_type":"way","osm_id":880440347}},{"type":"Feature","geometry":{"type":"MultiPolygon","coordinates":[[[[106.403259,18.014209],[106.403551,18.014121],[106.403589,18.014234],[106.403297,18.014322],[106.403259,18.014209]]]]},"properties":{"group":"apartment","tag":"building=apartments","name":null,"levels":null,"lat":18.014221581877152,"lng":106.40342428085496,"osm_type":"way","osm_id":880440348}},{"type":"Feature","geometry":{"type":"MultiPolygon","coordinates":[[[[106.403214,18.014074],[106.403506,18.013986],[106.403544,18.0141],[106.403252,18.014188],[106.403214,18.014074]]]]},"properties":{"group":"apartment","tag":"building=apartments","name":null,"levels":null,"lat":18.014087081877157,"lng":106.40337918085498,"osm_type":"way","osm_id":880440349}},{"type":"Feature","geometry":{"type":"MultiPolygon","coordinates":[[[[106.403821,18.014527],[106.404113,18.014438],[106.404151,18.014552],[106.403859,18.01464],[106.403821,18.014527]]]]},"properties":{"group":"apartment","tag":"building=apartments","name":null,"levels":null,"lat":18.014539231883102,"lng":106.40398568085696,"osm_type":"way","osm_id":880440350}},{"type":"Feature","geometry":{"type":"MultiPolygon","coordinates":[[[[106.403776,18.014392],[106.404068,18.014304],[106.404106,18.014417],[106.403814,18.014506],[106.403776,18.014392]]]]},"properties":{"group":"apartment","tag":"building=apartments","name":null,"levels":null,"lat":18.0144047,"lng":106.40394060000001,"osm_type":"way","osm_id":880440351}},{"type":"Feature","geometry":{"type":"MultiPolygon","coordinates":[[[[106.403018,18.014786],[106.40331,18.014697],[106.403348,18.014811],[106.403056,18.014899],[106.403018,18.014786]]]]},"properties":{"group":"apartment","tag":"building=apartments","name":null,"levels":null,"lat":18.014798248842713,"lng":106.40318266812261,"osm_type":"way","osm_id":880440352}},{"type":"Feature","geometry":{"type":"MultiPolygon","coordinates":[[[[106.402973,18.014651],[106.403265,18.014563],[106.403303,18.014676],[106.403011,18.014765],[106.402973,18.014651]]]]},"properties":{"group":"apartment","tag":"building=apartments","name":null,"levels":null,"lat":18.014663749999997,"lng":106.40313759999998,"osm_type":"way","osm_id":880440353}},{"type":"Feature","geometry":{"type":"MultiPolygon","coordinates":[[[[106.402516,18.014932],[106.402807,18.014844],[106.402845,18.014957],[106.402553,18.015046],[106.402516,18.014932]]]]},"properties":{"group":"apartment","tag":"building=apartments","name":null,"levels":null,"lat":18.01494468187715,"lng":106.40268048085498,"osm_type":"way","osm_id":880440354}},{"type":"Feature","geometry":{"type":"MultiPolygon","coordinates":[[[[106.40247,18.014798],[106.402762,18.014709],[106.4028,18.014823],[106.402508,18.014911],[106.40247,18.014798]]]]},"properties":{"group":"apartment","tag":"building=apartments","name":null,"levels":null,"lat":18.014810181877156,"lng":106.402635380855,"osm_type":"way","osm_id":880440355}},{"type":"Feature","geometry":{"type":"MultiPolygon","coordinates":[[[[106.401708,18.015189],[106.402,18.015101],[106.402038,18.015214],[106.401746,18.015302],[106.401708,18.015189]]]]},"properties":{"group":"apartment","tag":"building=apartments","name":null,"levels":null,"lat":18.01520148187715,"lng":106.40187268085499,"osm_type":"way","osm_id":880440356}},{"type":"Feature","geometry":{"type":"MultiPolygon","coordinates":[[[[106.401663,18.015054],[106.401955,18.014966],[106.401993,18.015079],[106.401701,18.015168],[106.401663,18.015054]]]]},"properties":{"group":"apartment","tag":"building=apartments","name":null,"levels":null,"lat":18.015066980719514,"lng":106.40182764897874,"osm_type":"way","osm_id":880440357}},{"type":"Feature","geometry":{"type":"MultiPolygon","coordinates":[[[[106.401551,18.014756],[106.401843,18.014668],[106.401881,18.014782],[106.401589,18.01487],[106.401551,18.014756]]]]},"properties":{"group":"apartment","tag":"building=apartments","name":null,"levels":null,"lat":18.014768981877154,"lng":106.40171638085499,"osm_type":"way","osm_id":880440358}},{"type":"Feature","geometry":{"type":"MultiPolygon","coordinates":[[[[106.401506,18.014622],[106.401798,18.014533],[106.401836,18.014647],[106.401544,18.014735],[106.401506,18.014622]]]]},"properties":{"group":"apartment","tag":"building=apartments","name":null,"levels":null,"lat":18.01463445,"lng":106.40167129999999,"osm_type":"way","osm_id":880440359}},{"type":"Feature","geometry":{"type":"MultiPolygon","coordinates":[[[[106.401968,18.014635],[106.40226,18.014546],[106.402298,18.01466],[106.402006,18.014748],[106.401968,18.014635]]]]},"properties":{"group":"apartment","tag":"building=apartments","name":null,"levels":null,"lat":18.014647331883104,"lng":106.40213328085697,"osm_type":"way","osm_id":880440360}},{"type":"Feature","geometry":{"type":"MultiPolygon","coordinates":[[[[106.401923,18.0145],[106.402215,18.014412],[106.402253,18.014525],[106.401961,18.014614],[106.401923,18.0145]]]]},"properties":{"group":"apartment","tag":"building=apartments","name":null,"levels":null,"lat":18.014512831883103,"lng":106.40208818085699,"osm_type":"way","osm_id":880440361}},{"type":"Feature","geometry":{"type":"MultiPolygon","coordinates":[[[[106.401383,18.014265],[106.401675,18.014177],[106.401713,18.01429],[106.401421,18.014379],[106.401383,18.014265]]]]},"properties":{"group":"apartment","tag":"building=apartments","name":null,"levels":null,"lat":18.0142779,"lng":106.40154820000001,"osm_type":"way","osm_id":880440362}},{"type":"Feature","geometry":{"type":"MultiPolygon","coordinates":[[[[106.401338,18.014131],[106.40163,18.014042],[106.401668,18.014156],[106.401376,18.014244],[106.401338,18.014131]]]]},"properties":{"group":"apartment","tag":"building=apartments","name":null,"levels":null,"lat":18.014143400000002,"lng":106.40150310000001,"osm_type":"way","osm_id":880440363}},{"type":"Feature","geometry":{"type":"MultiPolygon","coordinates":[[[[106.401622,18.013567],[106.40174,18.013529],[106.401838,18.013805],[106.40172,18.013843],[106.401622,18.013567]]]]},"properties":{"group":"apartment","tag":"building=apartments","name":null,"levels":null,"lat":18.013685865152965,"lng":106.40173011676542,"osm_type":"way","osm_id":880440364}},{"type":"Feature","geometry":{"type":"MultiPolygon","coordinates":[[[[106.401762,18.013522],[106.401881,18.013483],[106.401979,18.01376],[106.40186,18.013798],[106.401762,18.013522]]]]},"properties":{"group":"apartment","tag":"building=apartments","name":null,"levels":null,"lat":18.013640617780673,"lng":106.40187075101474,"osm_type":"way","osm_id":880440365}},{"type":"Feature","geometry":{"type":"MultiPolygon","coordinates":[[[[106.402062,18.013418],[106.402181,18.01338],[106.402279,18.013656],[106.40216,18.013694],[106.402062,18.013418]]]]},"properties":{"group":"apartment","tag":"building=apartments","name":null,"levels":null,"lat":18.01353720071335,"lng":106.40217071879498,"osm_type":"way","osm_id":880440366}},{"type":"Feature","geometry":{"type":"MultiPolygon","coordinates":[[[[106.402203,18.013373],[106.402322,18.013335],[106.40242,18.013611],[106.402301,18.013649],[106.402203,18.013373]]]]},"properties":{"group":"apartment","tag":"building=apartments","name":null,"levels":null,"lat":18.01349198221933,"lng":106.40231134898526,"osm_type":"way","osm_id":880440367}},{"type":"Feature","geometry":{"type":"MultiPolygon","coordinates":[[[[106.402463,18.013213],[106.40258,18.013178],[106.402688,18.0135],[106.402571,18.013536],[106.402463,18.013213]]]]},"properties":{"group":"apartment","tag":"building=apartments","name":null,"levels":null,"lat":18.013356758834497,"lng":106.40257528437972,"osm_type":"way","osm_id":880440368}},{"type":"Feature","geometry":{"type":"MultiPolygon","coordinates":[[[[106.402607,18.013166],[106.402731,18.013126],[106.402848,18.01345],[106.402723,18.01349],[106.402607,18.013166]]]]},"properties":{"group":"apartment","tag":"building=apartments","name":null,"levels":null,"lat":18.01330796908774,"lng":106.40272728291988,"osm_type":"way","osm_id":880440369}},{"type":"Feature","geometry":{"type":"MultiPolygon","coordinates":[[[[106.40304,18.013035],[106.403165,18.012994],[106.403282,18.013318],[106.403157,18.013359],[106.40304,18.013035]]]]},"properties":{"group":"apartment","tag":"building=apartments","name":null,"levels":null,"lat":18.013176469087743,"lng":106.40316098291986,"osm_type":"way","osm_id":880440370}},{"type":"Feature","geometry":{"type":"MultiPolygon","coordinates":[[[[106.402896,18.013082],[106.403014,18.013046],[106.403122,18.013369],[106.403004,18.013404],[106.402896,18.013082]]]]},"properties":{"group":"apartment","tag":"building=apartments","name":null,"levels":null,"lat":18.013225279426106,"lng":106.40300901718965,"osm_type":"way","osm_id":880440371}},{"type":"Feature","geometry":{"type":"MultiPolygon","coordinates":[[[[106.403391,18.014658],[106.403734,18.014554],[106.403774,18.014673],[106.403431,18.014777],[106.403391,18.014658]]]]},"properties":{"group":"apartment","tag":"building=apartments","name":null,"levels":null,"lat":18.014665365011318,"lng":106.4035828571399,"osm_type":"way","osm_id":880440372}},{"type":"Feature","geometry":{"type":"MultiPolygon","coordinates":[[[[106.403346,18.014512],[106.403688,18.014416],[106.403723,18.014528],[106.403381,18.014624],[106.403346,18.014512]]]]},"properties":{"group":"apartment","tag":"building=apartments","name":null,"levels":null,"lat":18.014519867635805,"lng":106.4035346230753,"osm_type":"way","osm_id":880440373}},{"type":"Feature","geometry":{"type":"MultiPolygon","coordinates":[[[[106.401757,18.013984],[106.402054,18.013892],[106.402159,18.014198],[106.401862,18.01429],[106.401757,18.013984]]]]},"properties":{"group":"public","tag":"leisure=park","name":null,"levels":null,"lat":18.01409105,"lng":106.4019581,"osm_type":"way","osm_id":880440376}},{"type":"Feature","geometry":{"type":"MultiPolygon","coordinates":[[[[106.367632,18.025476],[106.367669,18.025374],[106.367766,18.025279],[106.367925,18.025187],[106.36809,18.025147],[106.368226,18.025151],[106.368324,18.025197],[106.368343,18.025251],[106.368301,18.025348],[106.368211,18.025446],[106.368071,18.025523],[106.367902,18.025567],[106.367768,18.025565],[106.36765,18.025526],[106.367632,18.025476]]]]},"properties":{"group":"public","tag":"leisure=park","name":null,"levels":null,"lat":18.02535906513836,"lng":106.36798894353144,"osm_type":"way","osm_id":880440383}},{"type":"Feature","geometry":{"type":"MultiPolygon","coordinates":[[[[106.355264,18.051915],[106.355444,18.051907],[106.355444,18.051935],[106.355454,18.051996],[106.355765,18.052007],[106.355776,18.051933],[106.356042,18.051932],[106.356041,18.051894],[106.356175,18.051902],[106.356188,18.052383],[106.355401,18.052599],[106.355367,18.052562],[106.35544,18.052459],[106.355461,18.052263],[106.355406,18.052081],[106.355264,18.051915]]]]},"properties":{"group":"public","tag":"leisure=park","name":null,"levels":null,"lat":18.052215896542194,"lng":106.3557786432411,"osm_type":"way","osm_id":883438183}},{"type":"Feature","geometry":{"type":"MultiPolygon","coordinates":[[[[106.395841,18.029024],[106.395969,18.028796],[106.396038,18.028831],[106.396113,18.028698],[106.396204,18.028745],[106.396089,18.028948],[106.396028,18.028917],[106.395939,18.029074],[106.395841,18.029024]]]]},"properties":{"group":"apartment","tag":"building=apartments","name":null,"levels":6.0,"lat":18.028885113494134,"lng":106.39601971557471,"osm_type":"way","osm_id":884236381}},{"type":"Feature","geometry":{"type":"MultiPolygon","coordinates":[[[[106.397047,18.028857],[106.397099,18.028767],[106.397124,18.028723],[106.397232,18.02878],[106.397154,18.028914],[106.397047,18.028857]]]]},"properties":{"group":"apartment","tag":"building=apartments","name":null,"levels":6.0,"lat":18.02881847577802,"lng":106.39713934354238,"osm_type":"way","osm_id":884236382}},{"type":"Feature","geometry":{"type":"MultiPolygon","coordinates":[[[[106.402029,18.014953],[106.40237,18.014856],[106.402405,18.014968],[106.402064,18.015065],[106.402029,18.014953]]]]},"properties":{"group":"apartment","tag":"building=apartments","name":null,"levels":null,"lat":18.014960567635804,"lng":106.40221682307528,"osm_type":"way","osm_id":884247509}},{"type":"Feature","geometry":{"type":"MultiPolygon","coordinates":[[[[106.402074,18.015099],[106.402417,18.014994],[106.402457,18.015113],[106.402114,18.015218],[106.402074,18.015099]]]]},"properties":{"group":"apartment","tag":"building=apartments","name":null,"levels":null,"lat":18.01510606501132,"lng":106.4022650571399,"osm_type":"way","osm_id":884247510}},{"type":"Feature","geometry":{"type":"MultiPolygon","coordinates":[[[[105.765182,18.664584],[105.765422,18.663698],[105.765778,18.662496],[105.766333,18.662586],[105.766958,18.662754],[105.767213,18.662844],[105.766818,18.663446],[105.766116,18.665419],[105.766075,18.665475],[105.766007,18.665484],[105.765236,18.66476],[105.765196,18.664677],[105.765182,18.664584]]]]},"properties":{"group":"public","tag":"leisure=park","name":null,"levels":null,"lat":18.66383373016796,"lng":105.76606628738926,"osm_type":"way","osm_id":897359038}},{"type":"Feature","geometry":{"type":"MultiPolygon","coordinates":[[[[105.610677,18.567483],[105.610794,18.567278],[105.611008,18.567395],[105.610872,18.567598],[105.610677,18.567483]]]]},"properties":{"group":"public","tag":"leisure=park","name":null,"levels":null,"lat":18.567437494886605,"lng":105.61083908941428,"osm_type":"way","osm_id":926714678}},{"type":"Feature","geometry":{"type":"MultiPolygon","coordinates":[[[[105.915041,18.348293],[105.915179,18.34825],[105.915126,18.34809],[105.915892,18.34806],[105.916014,18.34876],[105.91544,18.348395],[105.915041,18.348482],[105.915041,18.348293]]]]},"properties":{"group":"public","tag":"leisure=park","name":null,"levels":null,"lat":18.348318928206073,"lng":105.91557449032334,"osm_type":"way","osm_id":971461985}},{"type":"Feature","geometry":{"type":"MultiPolygon","coordinates":[[[[105.876972,18.339367],[105.878141,18.3395],[105.877787,18.340671],[105.877036,18.339632],[105.876972,18.339367]]]]},"properties":{"group":"public","tag":"leisure=park","name":null,"levels":null,"lat":18.339849831343955,"lng":105.87760177745565,"osm_type":"way","osm_id":971724653}},{"type":"Feature","geometry":{"type":"MultiPolygon","coordinates":[[[[105.878315,18.34139],[105.879738,18.340451],[105.879633,18.34031],[105.88063,18.340451],[105.881822,18.342074],[105.881051,18.342627],[105.879877,18.343452],[105.878315,18.34139]]]]},"properties":{"group":"public","tag":"leisure=park","name":null,"levels":null,"lat":18.341772339952325,"lng":105.88007666218408,"osm_type":"way","osm_id":971724654}},{"type":"Feature","geometry":{"type":"MultiPolygon","coordinates":[[[[105.878812,18.343508],[105.879343,18.343166],[105.87956,18.343436],[105.878992,18.343741],[105.878812,18.343508]]]]},"properties":{"group":"public","tag":"leisure=park","name":null,"levels":null,"lat":18.343458666362547,"lng":105.87918434655748,"osm_type":"way","osm_id":971757206}},{"type":"Feature","geometry":{"type":"MultiPolygon","coordinates":[[[[105.879115,18.357925],[105.879662,18.356438],[105.879502,18.356355],[105.879744,18.356137],[105.87944,18.355881],[105.880945,18.354443],[105.882222,18.355817],[105.879824,18.358083],[105.879115,18.357925]]]]},"properties":{"group":"edu_health","tag":"amenity=college","name":"Trường Cao đẳng Công nghệ Hà Tĩnh","levels":null,"lat":18.356248765764356,"lng":105.88055522205498,"osm_type":"way","osm_id":1086020937}},{"type":"Feature","geometry":{"type":"MultiPolygon","coordinates":[[[[106.333979,18.043473],[106.334007,18.043359],[106.334759,18.04312],[106.335019,18.043068],[106.338611,18.042028],[106.339363,18.044363],[106.334574,18.045713],[106.334129,18.044002],[106.333979,18.043473]]]]},"properties":{"group":"edu_health","tag":"amenity=college","name":"Trường Cao đẳng Công nghệ Hà Tĩnh (cơ sở 2)","levels":null,"lat":18.043872546456594,"lng":106.3366327720528,"osm_type":"way","osm_id":1086020938}},{"type":"Feature","geometry":{"type":"MultiPolygon","coordinates":[[[[105.592621,18.513812],[105.593061,18.513552],[105.594622,18.514763],[105.593201,18.515526],[105.59275,18.514768],[105.593093,18.514585],[105.592621,18.513812]]]]},"properties":{"group":"edu_health","tag":"amenity=hospital","name":"Trung tâm Y tế Đức Thọ","levels":null,"lat":18.51456689282391,"lng":105.59347642134433,"osm_type":"way","osm_id":1135601628}},{"type":"Feature","geometry":{"type":"MultiPolygon","coordinates":[[[[105.579167,18.52428],[105.58031,18.523654],[105.580512,18.526205],[105.579366,18.526275],[105.579167,18.52428]]]]},"properties":{"group":"edu_health","tag":"amenity=school","name":"Trường Trung học phổ thông Nguyễn Thị Minh Khai","levels":null,"lat":18.525089518378905,"lng":105.57986081678861,"osm_type":"way","osm_id":1135601629}},{"type":"Feature","geometry":{"type":"MultiPolygon","coordinates":[[[[105.884967,18.356444],[105.885573,18.355904],[105.885712,18.355873],[105.885696,18.355781],[105.885782,18.3557],[105.886656,18.355664],[105.886694,18.356723],[105.885886,18.357627],[105.88502,18.35767],[105.884967,18.356444]]]]},"properties":{"group":"edu_health","tag":"amenity=school","name":"Trường Trung học phổ thông chuyên Hà Tĩnh","levels":null,"lat":18.35665624728469,"lng":105.88582041369196,"osm_type":"way","osm_id":1184404983}},{"type":"Feature","geometry":{"type":"MultiPolygon","coordinates":[[[[105.68432,18.533252],[105.685715,18.532815],[105.686418,18.534748],[105.685012,18.535201],[105.68432,18.533252]]]]},"properties":{"group":"edu_health","tag":"amenity=hospital","name":"Trung tâm Y tế Hồng Lĩnh","levels":null,"lat":18.534005917982107,"lng":105.68536621680317,"osm_type":"way","osm_id":1184579314}},{"type":"Feature","geometry":{"type":"MultiPolygon","coordinates":[[[[105.898859,18.366763],[105.899803,18.366065],[105.900822,18.367277],[105.900508,18.367496],[105.90039,18.367363],[105.899797,18.367837],[105.898859,18.366763]]]]},"properties":{"group":"edu_health","tag":"amenity=hospital","name":"Bệnh viện Phổi Hà Tĩnh","levels":null,"lat":18.36696223913511,"lng":105.89981882634142,"osm_type":"way","osm_id":1226201406}},{"type":"Feature","geometry":{"type":"MultiPolygon","coordinates":[[[[105.899797,18.367837],[105.90039,18.367363],[105.900508,18.367496],[105.900822,18.367277],[105.901403,18.366851],[105.902245,18.36793],[105.900711,18.369019],[105.899797,18.367837]]]]},"properties":{"group":"edu_health","tag":"amenity=hospital","name":"Bệnh viện Tâm thần Hà Tĩnh","levels":null,"lat":18.36792413400577,"lng":105.9010210796251,"osm_type":"way","osm_id":1226201407}},{"type":"Feature","geometry":{"type":"MultiPolygon","coordinates":[[[[105.886266,18.340745],[105.88641,18.340022],[105.886531,18.340043],[105.886512,18.340134],[105.88672,18.340178],[105.88659,18.340816],[105.886266,18.340745]]]]},"properties":{"group":"edu_health","tag":"amenity=hospital","name":"Bệnh viện Mắt Hà Tĩnh","levels":null,"lat":18.340442879463826,"lng":105.886491096605,"osm_type":"way","osm_id":1226201408}},{"type":"Feature","geometry":{"type":"MultiPolygon","coordinates":[[[[105.305893,18.457578],[105.305982,18.456814],[105.30676,18.45685],[105.306719,18.457812],[105.305979,18.457967],[105.305893,18.457578]]]]},"properties":{"group":"edu_health","tag":"amenity=hospital","name":"Trung tâm Y tế Hương Sơn - cơ sở 2","levels":null,"lat":18.45736244903105,"lng":105.30632524957026,"osm_type":"way","osm_id":1226201409}},{"type":"Feature","geometry":{"type":"MultiPolygon","coordinates":[[[[106.300143,18.066793],[106.300452,18.066665],[106.300263,18.066305],[106.300944,18.065917],[106.301239,18.066376],[106.30162,18.066259],[106.302017,18.067233],[106.302328,18.067141],[106.302462,18.067544],[106.302119,18.067916],[106.301706,18.068079],[106.301223,18.068125],[106.300885,18.06788],[106.300402,18.067325],[106.300143,18.066793]]]]},"properties":{"group":"edu_health","tag":"amenity=hospital","name":"Trung tâm Y tế Hoành Sơn","levels":null,"lat":18.06712239297869,"lng":106.30124154106855,"osm_type":"way","osm_id":1226201413}},{"type":"Feature","geometry":{"type":"MultiPolygon","coordinates":[[[[105.705259,18.174898],[105.705364,18.174563],[105.705593,18.174644],[105.70596,18.173696],[105.706762,18.173969],[105.706277,18.175173],[105.705259,18.174898]]]]},"properties":{"group":"edu_health","tag":"amenity=hospital","name":"Trung tâm Y tế Hương Khê","levels":null,"lat":18.174466472057645,"lng":105.70606970154246,"osm_type":"way","osm_id":1226374575}},{"type":"Feature","geometry":{"type":"MultiPolygon","coordinates":[[[[105.879812,18.448943],[105.880349,18.447344],[105.881767,18.447805],[105.881183,18.449447],[105.879845,18.449005],[105.879812,18.448943]]]]},"properties":{"group":"edu_health","tag":"amenity=hospital","name":"Bệnh viện Đa khoa Lộc Hà","levels":null,"lat":18.44839297229518,"lng":105.88077617373263,"osm_type":"way","osm_id":1226374576}},{"type":"Feature","geometry":{"type":"MultiPolygon","coordinates":[[[[105.994769,18.251623],[105.995188,18.251363],[105.995718,18.252225],[105.996175,18.252924],[105.995773,18.253212],[105.994769,18.251623]]]]},"properties":{"group":"edu_health","tag":"amenity=hospital","name":"Trung tâm Y tế Cẩm Xuyên","levels":null,"lat":18.2522825174753,"lng":105.99547303991956,"osm_type":"way","osm_id":1226374577}},{"type":"Feature","geometry":{"type":"MultiPolygon","coordinates":[[[[105.777695,18.446261],[105.778053,18.44577],[105.778553,18.446129],[105.779225,18.445225],[105.779937,18.445759],[105.778902,18.447114],[105.777695,18.446261]]]]},"properties":{"group":"edu_health","tag":"amenity=hospital","name":"Trung tâm Y tế Can Lộc","levels":null,"lat":18.446177821838766,"lng":105.77887984746987,"osm_type":"way","osm_id":1226442502}},{"type":"Feature","geometry":{"type":"MultiPolygon","coordinates":[[[[105.761916,18.664818],[105.762274,18.663616],[105.763234,18.663865],[105.762944,18.665122],[105.761916,18.664818]]]]},"properties":{"group":"edu_health","tag":"amenity=hospital","name":"Trung tâm Y tế Tiên Điền","levels":null,"lat":18.66436397983874,"lng":105.76259190370547,"osm_type":"way","osm_id":1226442503}},{"type":"Feature","geometry":{"type":"MultiPolygon","coordinates":[[[[105.852373,18.37852],[105.85305,18.377764],[105.854064,18.378649],[105.853436,18.379367],[105.852373,18.37852]]]]},"properties":{"group":"edu_health","tag":"amenity=hospital","name":"Trung tâm Y tế Thạch Hà","levels":null,"lat":18.378571226019847,"lng":105.8532252469965,"osm_type":"way","osm_id":1226442506}},{"type":"Feature","geometry":{"type":"MultiPolygon","coordinates":[[[[105.507883,18.378264],[105.508122,18.377218],[105.508769,18.377396],[105.509603,18.37747],[105.509347,18.378479],[105.507883,18.378264]]]]},"properties":{"group":"edu_health","tag":"amenity=hospital","name":"Trung tâm Y tế Vũ Quang","levels":null,"lat":18.37787179702659,"lng":105.5087317247575,"osm_type":"way","osm_id":1226442507}},{"type":"Feature","geometry":{"type":"MultiPolygon","coordinates":[[[[105.426071,18.515804],[105.427289,18.515207],[105.427795,18.516107],[105.426578,18.516756],[105.426071,18.515804]]]]},"properties":{"group":"edu_health","tag":"amenity=hospital","name":"Trung tâm Y tế Hương Sơn","levels":null,"lat":18.515971924097432,"lng":105.42692961884352,"osm_type":"way","osm_id":1226442508}},{"type":"Feature","geometry":{"type":"MultiPolygon","coordinates":[[[[105.950301,18.287045],[105.95104,18.286472],[105.952162,18.287793],[105.951316,18.288409],[105.951259,18.288362],[105.950301,18.287045]]]]},"properties":{"group":"edu_health","tag":"amenity=school","name":"Trường Trung học phổ thông Cẩm Bình","levels":null,"lat":18.287445502910213,"lng":105.95121361212142,"osm_type":"way","osm_id":1250186016}},{"type":"Feature","geometry":{"type":"MultiPolygon","coordinates":[[[[105.944086,18.28512],[105.944645,18.284752],[105.945104,18.285383],[105.944484,18.285764],[105.944086,18.28512]]]]},"properties":{"group":"edu_health","tag":"amenity=school","name":null,"levels":null,"lat":18.285258092014523,"lng":105.94458421404806,"osm_type":"way","osm_id":1250186018}},{"type":"Feature","geometry":{"type":"MultiPolygon","coordinates":[[[[105.776911,18.449184],[105.77762,18.448256],[105.778149,18.448694],[105.777443,18.449583],[105.776911,18.449184]]]]},"properties":{"group":"edu_health","tag":"amenity=school","name":"Trường Trung học cơ sở Xuân Diệu","levels":null,"lat":18.448925835852478,"lng":105.77753168101704,"osm_type":"way","osm_id":1258766710}},{"type":"Feature","geometry":{"type":"MultiPolygon","coordinates":[[[[105.777702,18.448172],[105.77855,18.447042],[105.779236,18.447519],[105.778402,18.448694],[105.777702,18.448172]]]]},"properties":{"group":"edu_health","tag":"amenity=school","name":"Trường Trung học cơ sở Nguyễn Tất Thành","levels":null,"lat":18.447861908782862,"lng":105.77847058990923,"osm_type":"way","osm_id":1258766719}},{"type":"Feature","geometry":{"type":"MultiPolygon","coordinates":[[[[105.499206,18.386175],[105.499266,18.385447],[105.501364,18.38562],[105.501268,18.386348],[105.499206,18.386175]]]]},"properties":{"group":"edu_health","tag":"amenity=school","name":"Trường Tiểu học Thị trấn Vũ Quang","levels":null,"lat":18.38589655427563,"lng":105.50027691129391,"osm_type":"way","osm_id":1281871066}},{"type":"Feature","geometry":{"type":"MultiPolygon","coordinates":[[[[105.496749,18.525718],[105.497439,18.525234],[105.497933,18.525843],[105.497338,18.526261],[105.496749,18.525718]]]]},"properties":{"group":"edu_health","tag":"amenity=school","name":"Trường Tiểu học Sơn Châu","levels":null,"lat":18.525756851551996,"lng":105.4973579281438,"osm_type":"way","osm_id":1324177077}},{"type":"Feature","geometry":{"type":"MultiPolygon","coordinates":[[[[105.497338,18.526261],[105.497933,18.525843],[105.498263,18.52622],[105.497806,18.526665],[105.497338,18.526261]]]]},"properties":{"group":"edu_health","tag":"amenity=school","name":"Trường Mầm non Sơn Châu","levels":null,"lat":18.526250759661313,"lng":105.49782280968023,"osm_type":"way","osm_id":1324177081}},{"type":"Feature","geometry":{"type":"MultiPolygon","coordinates":[[[[105.50579,18.515968],[105.506763,18.515701],[105.506772,18.515698],[105.506782,18.515698],[105.506799,18.515712],[105.506936,18.516191],[105.507031,18.516581],[105.507013,18.516839],[105.506876,18.516973],[105.50616,18.517195],[105.50579,18.515968]]]]},"properties":{"group":"edu_health","tag":"amenity=school","name":"Trường Trung học cơ sở Hồ Tùng Mậu","levels":null,"lat":18.5164266974603,"lng":105.50645194946726,"osm_type":"way","osm_id":1324177090}},{"type":"Feature","geometry":{"type":"MultiPolygon","coordinates":[[[[105.905725,18.327905],[105.906383,18.327162],[105.906715,18.326769],[105.906764,18.326816],[105.907055,18.326501],[105.907296,18.326411],[105.907362,18.326287],[105.907666,18.325941],[105.907976,18.326208],[105.907919,18.326252],[105.908001,18.326357],[105.908283,18.32646],[105.90845,18.326271],[105.908643,18.3258],[105.908804,18.325511],[105.90891,18.325275],[105.909003,18.325134],[105.909214,18.324692],[105.913118,18.325865],[105.912498,18.327756],[105.912261,18.328559],[105.91215,18.328934],[105.912038,18.329217],[105.911914,18.329412],[105.90917,18.332582],[105.909015,18.33247],[105.908636,18.332541],[105.907618,18.332458],[105.906985,18.332358],[105.906368,18.332148],[105.906433,18.332042],[105.906729,18.331842],[105.906911,18.331643],[105.907298,18.331487],[105.907121,18.331159],[105.907406,18.331066],[105.907308,18.33084],[105.907714,18.330685],[105.907644,18.330366],[105.907812,18.330304],[105.907756,18.329803],[105.907555,18.329431],[105.906976,18.328899],[105.905725,18.327905]]]]},"properties":{"group":"public","tag":"leisure=park","name":null,"levels":null,"lat":18.32843377358959,"lng":105.90949006870039,"osm_type":"way","osm_id":1351788896}},{"type":"Feature","geometry":{"type":"MultiPolygon","coordinates":[[[[105.574982,18.523869],[105.575602,18.523501],[105.57675,18.52524],[105.57613,18.525608],[105.574982,18.523869]]]]},"properties":{"group":"edu_health","tag":"amenity=school","name":"Trung tâm Giáo dục Nghề nghiệp - Giáo dục Thường xuyên Huyện Đức Thọ","levels":null,"lat":18.524554583975917,"lng":105.57586601265076,"osm_type":"way","osm_id":1389590510}},{"type":"Feature","geometry":{"type":"MultiPolygon","coordinates":[[[[105.706146,18.52984],[105.706166,18.529771],[105.706208,18.529711],[105.706269,18.529668],[105.706341,18.529647],[105.706417,18.529649],[105.706487,18.529675],[105.706544,18.529719],[105.706582,18.529779],[105.706598,18.529847],[105.70659,18.529916],[105.70656,18.529979],[105.706509,18.53003],[105.706444,18.530063],[105.706372,18.530074],[105.7063,18.530063],[105.706235,18.53003],[105.706183,18.529978],[105.706152,18.529912],[105.706146,18.52984]]]]},"properties":{"group":"public","tag":"leisure=park","name":null,"levels":null,"lat":18.529859269798667,"lng":105.70637196984478,"osm_type":"way","osm_id":1411349115}},{"type":"Feature","geometry":{"type":"MultiPolygon","coordinates":[[[[105.706254,18.529864],[105.706259,18.529827],[105.706277,18.529794],[105.706305,18.529767],[105.706327,18.529758],[105.706341,18.529751],[105.70638,18.529747],[105.706419,18.529756],[105.706452,18.529775],[105.706477,18.529804],[105.706491,18.529839],[105.706492,18.529876],[105.706487,18.529891],[105.70648,18.529912],[105.706457,18.529942],[105.706425,18.529963],[105.706387,18.529973],[105.706364,18.529972],[105.706348,18.529972],[105.706312,18.529958],[105.706282,18.529933],[105.706262,18.529901],[105.706254,18.529864]]]]},"properties":{"group":"public","tag":"leisure=garden","name":null,"levels":null,"lat":18.52986072270346,"lng":105.70637344630634,"osm_type":"way","osm_id":1411349116}},{"type":"Feature","geometry":{"type":"MultiPolygon","coordinates":[[[[106.220879,18.173018],[106.2209,18.172961],[106.222134,18.172233],[106.223325,18.174055],[106.221796,18.174972],[106.220879,18.173018]]]]},"properties":{"group":"edu_health","tag":"amenity=hospital","name":"Trung tâm Y tế Kỳ Anh","levels":null,"lat":18.173591050603743,"lng":106.22204595740418,"osm_type":"way","osm_id":1415130102}},{"type":"Feature","geometry":{"type":"MultiPolygon","coordinates":[[[[105.895272,18.336853],[105.895544,18.336525],[105.896317,18.337102],[105.896045,18.33743],[105.895272,18.336853]]]]},"properties":{"group":"mall","tag":"shop=mall","name":null,"levels":null,"lat":18.336977459555015,"lng":105.89579440350438,"osm_type":"way","osm_id":1463900600}},{"type":"Feature","geometry":{"type":"Point","coordinates":[105.904968,18.33274]},"properties":{"group":"edu_health","tag":"amenity=school","name":"Trường Mầm non Trí Đức","levels":null,"lat":18.3327401,"lng":105.9049677,"osm_type":"node","osm_id":4367928943}},{"type":"Feature","geometry":{"type":"Point","coordinates":[105.914471,18.3262]},"properties":{"group":"public","tag":"leisure=park","name":null,"levels":null,"lat":18.3261996,"lng":105.9144706,"osm_type":"node","osm_id":4421789970}},{"type":"Feature","geometry":{"type":"Point","coordinates":[105.890462,18.344715]},"properties":{"group":"edu_health","tag":"amenity=school","name":"Trường Trung cấp Kinh tế Hà Tĩnh","levels":null,"lat":18.3447155,"lng":105.8904624,"osm_type":"node","osm_id":5372176398}},{"type":"Feature","geometry":{"type":"Point","coordinates":[105.889931,18.345596]},"properties":{"group":"edu_health","tag":"amenity=school","name":"Trường Dạy nghề Người khuyết tật Hà Tĩnh","levels":null,"lat":18.3455964,"lng":105.8899313,"osm_type":"node","osm_id":5372176402}},{"type":"Feature","geometry":{"type":"Point","coordinates":[105.892987,18.335906]},"properties":{"group":"edu_health","tag":"amenity=hospital","name":"Nhà thuốc Thành Sen","levels":null,"lat":18.3359062,"lng":105.8929872,"osm_type":"node","osm_id":5374081680}},{"type":"Feature","geometry":{"type":"Point","coordinates":[105.702917,18.539178]},"properties":{"group":"edu_health","tag":"amenity=school","name":null,"levels":null,"lat":18.5391781,"lng":105.7029165,"osm_type":"node","osm_id":5519685626}},{"type":"Feature","geometry":{"type":"Point","coordinates":[105.768404,18.666722]},"properties":{"group":"edu_health","tag":"amenity=school","name":"Trường Trung học phổ thông Nguyễn Du","levels":null,"lat":18.6667224,"lng":105.7684039,"osm_type":"node","osm_id":7261165040}},{"type":"Feature","geometry":{"type":"Point","coordinates":[105.588619,18.54022]},"properties":{"group":"mall","tag":"shop=mall","name":"Chợ Hôm Thị Trấn Đức Thọ","levels":null,"lat":18.5402199,"lng":105.5886193,"osm_type":"node","osm_id":8481408803}},{"type":"Feature","geometry":{"type":"Point","coordinates":[105.58693,18.538592]},"properties":{"group":"edu_health","tag":"amenity=school","name":"Trường Thcs Yên Tuấn","levels":null,"lat":18.5385924,"lng":105.5869296,"osm_type":"node","osm_id":8481408808}},{"type":"Feature","geometry":{"type":"Point","coordinates":[105.570765,18.534789]},"properties":{"group":"edu_health","tag":"amenity=school","name":"Trường Trung học cơ sở Hoàng Xuân Hãn","levels":null,"lat":18.5347888,"lng":105.5707652,"osm_type":"node","osm_id":8481581580}},{"type":"Feature","geometry":{"type":"Point","coordinates":[106.288946,18.076024]},"properties":{"group":"mall","tag":"shop=department_store","name":"Vincom Plaza","levels":null,"lat":18.0760235,"lng":106.2889458,"osm_type":"node","osm_id":12888738901}},{"type":"Feature","geometry":{"type":"Point","coordinates":[106.303104,18.060597]},"properties":{"group":"edu_health","tag":"amenity=college","name":"Trường THPT Nguyễn Trọng Bình","levels":null,"lat":18.060597,"lng":106.3031036,"osm_type":"node","osm_id":14021367755}}]}