{"type":"FeatureCollection","features":[{"type":"Feature","properties":{"kind":"boundary","province_code":"82","name":"Tỉnh Đồng Tháp","source":"VNSDI","valid_from":"16/6/2025","simplify_tolerance_deg":0.0005},"geometry":{"type":"Polygon","coordinates":[[[105.59046,10.24847],[105.56748,10.27101],[105.54856,10.28785],[105.53029,10.29961],[105.51481,10.30629],[105.48964,10.33248],[105.49083,10.33768],[105.4904,10.3445],[105.49102,10.34565],[105.49239,10.3473],[105.51882,10.3638],[105.5191,10.37087],[105.52525,10.37719],[105.52425,10.38796],[105.52066,10.39841],[105.52196,10.40308],[105.52399,10.40408],[105.52965,10.4031],[105.52969,10.40919],[105.53204,10.4116],[105.53717,10.41575],[105.54379,10.41611],[105.55162,10.43195],[105.55449,10.43434],[105.56766,10.42891],[105.57422,10.42895],[105.57295,10.43823],[105.57555,10.44521],[105.57567,10.44796],[105.57287,10.46971],[105.57037,10.47924],[105.5562,10.5124],[105.54497,10.52772],[105.54162,10.53038],[105.53784,10.53227],[105.53348,10.53314],[105.53073,10.53498],[105.52102,10.5446],[105.51011,10.54806],[105.50125,10.54953],[105.49226,10.54957],[105.48157,10.547],[105.47011,10.53964],[105.4507,10.54984],[105.44552,10.55426],[105.43929,10.55241],[105.41895,10.54969],[105.41647,10.55009],[105.40983,10.55326],[105.39844,10.5652],[105.39433,10.56826],[105.38671,10.57119],[105.37713,10.57121],[105.3715,10.57296],[105.36806,10.57747],[105.34975,10.6166],[105.33997,10.64606],[105.33805,10.67212],[105.34122,10.68162],[105.34417,10.68649],[105.34819,10.70275],[105.3513,10.71111],[105.35108,10.71387],[105.34452,10.7209],[105.33867,10.72286],[105.33224,10.72313],[105.32601,10.72231],[105.30749,10.71702],[105.30155,10.71608],[105.29632,10.71632],[105.2901,10.71774],[105.28189,10.72101],[105.27775,10.72382],[105.27586,10.72744],[105.27751,10.73252],[105.28304,10.73752],[105.30119,10.74799],[105.30412,10.75346],[105.30378,10.75875],[105.30055,10.76192],[105.29648,10.76318],[105.27372,10.76427],[105.2692,10.76606],[105.26247,10.77027],[105.25983,10.77412],[105.25809,10.78253],[105.26142,10.79202],[105.26197,10.79583],[105.26116,10.79996],[105.25714,10.80195],[105.23776,10.80552],[105.23451,10.80711],[105.2288,10.81149],[105.22057,10.8266],[105.21564,10.83085],[105.21283,10.83636],[105.20445,10.83969],[105.19492,10.84638],[105.19197,10.85005],[105.18906,10.85958],[105.18973,10.87238],[105.19219,10.89001],[105.19111,10.89132],[105.18821,10.91154],[105.19879,10.91119],[105.21564,10.89972],[105.23897,10.89225],[105.24345,10.89207],[105.25708,10.89536],[105.26498,10.89643],[105.27412,10.88991],[105.28226,10.88832],[105.32479,10.8672],[105.33716,10.86021],[105.34246,10.86773],[105.34818,10.86979],[105.34938,10.87107],[105.35097,10.876],[105.35434,10.87993],[105.35528,10.88062],[105.35743,10.87986],[105.35985,10.88057],[105.36042,10.88162],[105.35952,10.88642],[105.36764,10.88763],[105.36913,10.89087],[105.37065,10.90006],[105.37386,10.90393],[105.37802,10.90222],[105.38029,10.90282],[105.38079,10.90383],[105.38017,10.91007],[105.38088,10.91104],[105.38289,10.91021],[105.38342,10.91068],[105.38423,10.91596],[105.38723,10.91925],[105.39578,10.92624],[105.40465,10.93107],[105.40713,10.93685],[105.42639,10.97188],[105.42945,10.97296],[105.43349,10.97259],[105.44391,10.96158],[105.45024,10.95683],[105.45301,10.95661],[105.45594,10.95752],[105.46402,10.96393],[105.47165,10.96454],[105.47556,10.96365],[105.48259,10.95855],[105.48575,10.9539],[105.48879,10.9512],[105.49596,10.94808],[105.49668,10.94839],[105.49785,10.953],[105.49905,10.95339],[105.50151,10.95163],[105.50152,10.94978],[105.51159,10.93055],[105.51696,10.92626],[105.51632,10.92188],[105.58215,10.89255],[105.59289,10.8735],[105.59643,10.87016],[105.60374,10.85574],[105.6023,10.85211],[105.6114,10.83265],[105.59711,10.83153],[105.59888,10.82804],[105.77986,10.65942],[105.78111,10.65863],[105.80154,10.65505],[105.80714,10.65516],[105.81121,10.65098],[105.83525,10.63733],[105.90916,10.5391],[106.00509,10.53199],[106.09694,10.52268],[106.10341,10.52644],[106.10464,10.54362],[106.104,10.576],[106.18565,10.58048],[106.20548,10.58083],[106.26828,10.58611],[106.28653,10.58657],[106.29554,10.57767],[106.31041,10.56542],[106.31669,10.56953],[106.31913,10.57025],[106.32034,10.56979],[106.33886,10.54871],[106.34686,10.54408],[106.34812,10.54265],[106.34952,10.52931],[106.35189,10.5241],[106.35541,10.5226],[106.3641,10.52189],[106.36864,10.51873],[106.36912,10.51708],[106.36787,10.51406],[106.36854,10.5094],[106.37178,10.50637],[106.37099,10.50136],[106.36937,10.49898],[106.37449,10.49421],[106.37147,10.48912],[106.37344,10.48634],[106.38752,10.47715],[106.38957,10.47664],[106.39379,10.47843],[106.3961,10.48677],[106.40059,10.48532],[106.40362,10.49329],[106.41288,10.48955],[106.41682,10.48729],[106.41716,10.48416],[106.41976,10.48114],[106.4306,10.4735],[106.4342,10.46925],[106.43949,10.46631],[106.44273,10.4578],[106.45355,10.45055],[106.45183,10.45045],[106.44204,10.4455],[106.4296,10.43721],[106.42116,10.43404],[106.41767,10.42694],[106.42354,10.41632],[106.4259,10.41311],[106.42843,10.41181],[106.45175,10.41234],[106.45408,10.41122],[106.45741,10.40764],[106.45706,10.40478],[106.45575,10.40247],[106.44775,10.40408],[106.44688,10.40228],[106.44784,10.39842],[106.45417,10.39547],[106.45617,10.39496],[106.45872,10.39589],[106.46185,10.39966],[106.47357,10.39868],[106.48568,10.40345],[106.48663,10.40487],[106.4859,10.40682],[106.4865,10.40849],[106.50766,10.42305],[106.5097,10.42772],[106.51291,10.42882],[106.51934,10.42522],[106.52519,10.43154],[106.52754,10.43248],[106.52927,10.4326],[106.53175,10.43111],[106.53615,10.42372],[106.53882,10.42213],[106.54298,10.42784],[106.54519,10.42894],[106.54852,10.42828],[106.55846,10.42412],[106.55892,10.42168],[106.55815,10.41538],[106.55938,10.41285],[106.56726,10.41451],[106.57531,10.41412],[106.58514,10.41725],[106.58746,10.41878],[106.58811,10.42169],[106.58435,10.43164],[106.58436,10.43331],[106.58638,10.43653],[106.588,10.43801],[106.59111,10.43664],[106.59626,10.43657],[106.60249,10.43928],[106.61297,10.44568],[106.6273,10.45211],[106.63171,10.45662],[106.63853,10.47875],[106.64249,10.48231],[106.64728,10.48376],[106.65163,10.48327],[106.65673,10.48038],[106.65951,10.47646],[106.66063,10.46905],[106.66074,10.45239],[106.66154,10.4471],[106.6636,10.44206],[106.67033,10.43806],[106.6781,10.43849],[106.68455,10.44137],[106.68735,10.44369],[106.69114,10.44873],[106.70021,10.46491],[106.7058,10.47259],[106.71172,10.47885],[106.73461,10.497],[106.75328,10.46663],[106.78156,10.42847],[106.79688,10.41518],[106.80555,10.40444],[106.81397,10.38767],[106.78231,10.37614],[106.78136,10.29124],[106.78983,10.22932],[106.79427,10.2245],[106.79911,10.2164],[106.80058,10.20916],[106.79958,10.2034],[106.79505,10.19971],[106.78976,10.19751],[106.7888,10.19142],[106.76025,10.19034],[106.74844,10.19279],[106.7376,10.19719],[106.71332,10.20928],[106.70551,10.21455],[106.69573,10.22392],[106.68969,10.22846],[106.67461,10.23604],[106.65814,10.23937],[106.64201,10.2401],[106.59433,10.25028],[106.58481,10.2528],[106.56532,10.2598],[106.53823,10.26663],[106.50944,10.28733],[106.47159,10.30677],[106.44292,10.30895],[106.43141,10.31633],[106.3899,10.34021],[106.37958,10.34035],[106.34622,10.3321],[106.30349,10.31981],[106.27745,10.32619],[106.25989,10.32329],[106.23827,10.31833],[106.2126,10.31662],[106.20296,10.3148],[106.18001,10.3001],[106.14504,10.28484],[106.13377,10.28361],[106.11727,10.28419],[106.10388,10.28319],[106.09893,10.27989],[106.09153,10.27695],[106.08682,10.27663],[106.07893,10.27774],[106.06806,10.28209],[106.03875,10.29702],[106.03007,10.30233],[106.01221,10.31778],[105.9921,10.33047],[105.98821,10.33122],[105.98255,10.33023],[105.97062,10.32387],[105.95947,10.31327],[105.93776,10.29511],[105.92665,10.28343],[105.90088,10.27405],[105.89707,10.27436],[105.89258,10.27721],[105.88786,10.27025],[105.88412,10.26699],[105.8767,10.26501],[105.88631,10.25086],[105.88665,10.24933],[105.89015,10.2451],[105.89265,10.24448],[105.89923,10.24468],[105.90194,10.24204],[105.9019,10.23404],[105.91259,10.22665],[105.91919,10.21094],[105.91293,10.19242],[105.89431,10.18635],[105.87594,10.18961],[105.871,10.17064],[105.87104,10.16829],[105.87439,10.16633],[105.87007,10.15475],[105.86809,10.15315],[105.85161,10.16022],[105.84913,10.15044],[105.82708,10.14986],[105.81815,10.15085],[105.80139,10.15541],[105.77539,10.18837],[105.76445,10.17833],[105.75812,10.18426],[105.74679,10.19741],[105.72779,10.20521],[105.68391,10.14218],[105.68643,10.13932],[105.68274,10.13416],[105.66989,10.14206],[105.66194,10.1482],[105.65019,10.16112],[105.64653,10.16662],[105.62486,10.18637],[105.61963,10.20485],[105.61452,10.21773],[105.60325,10.23455],[105.59046,10.24847]]]}},{"type":"Feature","properties":{"kind":"buffer","province_code":"82","buffer_m":5000,"source":"derived","simplify_tolerance_deg":0.0005},"geometry":{"type":"Polygon","coordinates":[[[105.14558,10.88645],[105.14284,10.90633],[105.14266,10.91494],[105.14414,10.92342],[105.14721,10.93148],[105.15177,10.93881],[105.15766,10.94516],[105.16465,10.95028],[105.17249,10.954],[105.18091,10.95618],[105.18959,10.95674],[105.2003,10.95638],[105.20971,10.9551],[105.21991,10.95131],[105.23659,10.94034],[105.24263,10.93842],[105.25165,10.94026],[105.26547,10.94164],[105.27378,10.9408],[105.2818,10.93847],[105.29263,10.93224],[105.30348,10.92836],[105.32599,10.91681],[105.3309,10.92135],[105.33645,10.93024],[105.34492,10.93885],[105.35342,10.94966],[105.36027,10.95608],[105.36958,10.96326],[105.38904,10.9979],[105.39589,11.00553],[105.40429,11.01144],[105.41345,11.01557],[105.42247,11.01766],[105.43345,11.01823],[105.44312,11.017],[105.45102,11.01437],[105.4602,11.00906],[105.47069,11.00975],[105.48142,11.00876],[105.48851,11.00701],[105.49945,11.00219],[105.50583,10.99802],[105.51607,10.99535],[105.5247,10.9908],[105.5345,10.98291],[105.53986,10.9762],[105.54815,10.95899],[105.55131,10.95587],[105.6009,10.93378],[105.60927,10.92893],[105.61642,10.92244],[105.62203,10.9146],[105.62981,10.9008],[105.63316,10.89704],[105.63726,10.89044],[105.64457,10.87602],[105.64794,10.86717],[105.64907,10.85973],[105.65576,10.84344],[105.6568,10.83639],[105.80216,10.70083],[105.81457,10.69978],[105.82396,10.6972],[105.83259,10.69271],[105.83818,10.68807],[105.85897,10.67597],[105.86603,10.67074],[105.87194,10.66427],[105.93333,10.58246],[106.00553,10.57735],[106.05839,10.57209],[106.05901,10.58378],[106.06134,10.59216],[106.06525,10.59994],[106.07059,10.60683],[106.07716,10.61259],[106.08473,10.617],[106.09301,10.61989],[106.10169,10.62116],[106.18367,10.62566],[106.20334,10.62603],[106.26637,10.63129],[106.2829,10.63198],[106.29277,10.63136],[106.30235,10.62898],[106.31119,10.62463],[106.32228,10.61511],[106.32582,10.61498],[106.33666,10.61203],[106.34369,10.60866],[106.35004,10.60415],[106.36726,10.58479],[106.37334,10.58093],[106.38154,10.57353],[106.38795,10.56478],[106.39043,10.55917],[106.40045,10.55118],[106.40562,10.54528],[106.40995,10.5379],[106.42086,10.53516],[106.43012,10.53143],[106.43975,10.5264],[106.44669,10.5215],[106.45466,10.51226],[106.46381,10.50426],[106.46855,10.50119],[106.4749,10.49487],[106.48003,10.48715],[106.48487,10.48346],[106.49086,10.47664],[106.49447,10.47032],[106.5088,10.47373],[106.51437,10.47578],[106.5278,10.4778],[106.53759,10.47706],[106.54742,10.47412],[106.55845,10.47232],[106.5638,10.47636],[106.57138,10.48013],[106.57953,10.48244],[106.5869,10.48313],[106.59275,10.48623],[106.59844,10.50042],[106.60399,10.50834],[106.60935,10.51397],[106.6162,10.51929],[106.62408,10.5237],[106.63538,10.5275],[106.64794,10.52897],[106.66155,10.52745],[106.67519,10.52201],[106.68514,10.51563],[106.70811,10.53383],[106.71626,10.53841],[106.72517,10.54124],[106.73448,10.54222],[106.7438,10.54129],[106.75273,10.53851],[106.7609,10.53398],[106.76796,10.52789],[106.77363,10.52051],[106.79128,10.4918],[106.81543,10.45921],[106.82698,10.4492],[106.84124,10.43266],[106.84646,10.42456],[106.85487,10.40779],[106.85794,10.39993],[106.85947,10.39164],[106.85942,10.38321],[106.8578,10.37494],[106.85466,10.36711],[106.8501,10.36],[106.84428,10.35384],[106.83742,10.34886],[106.82762,10.34446],[106.82707,10.29407],[106.8334,10.24776],[106.84176,10.23259],[106.84536,10.21806],[106.84625,10.20982],[106.8456,10.20155],[106.84253,10.188],[106.83909,10.1807],[106.83439,10.17412],[106.82767,10.16772],[106.82252,10.16091],[106.8159,10.15502],[106.80825,10.1505],[106.79987,10.14755],[106.79106,10.14625],[106.76772,10.14514],[106.75196,10.14587],[106.73841,10.14867],[106.71986,10.15552],[106.69159,10.16951],[106.67978,10.17719],[106.66622,10.18933],[106.65958,10.1933],[106.63925,10.19496],[106.58378,10.20629],[106.57139,10.20957],[106.55291,10.21627],[106.52697,10.2228],[106.51883,10.22569],[106.51139,10.23004],[106.48536,10.24875],[106.45882,10.26239],[106.43943,10.26386],[106.43195,10.26505],[106.42478,10.26745],[106.37947,10.29372],[106.35813,10.28844],[106.31623,10.27639],[106.30824,10.27484],[106.30011,10.27472],[106.27591,10.28009],[106.24858,10.27428],[106.21988,10.27178],[106.19843,10.25872],[106.15689,10.24117],[106.13878,10.23867],[106.11785,10.23892],[106.1017,10.23286],[106.08991,10.23152],[106.07253,10.23296],[106.0618,10.23581],[106.04849,10.24123],[106.03462,10.24786],[106.00644,10.26363],[105.98852,10.27837],[105.96968,10.26266],[105.95917,10.25167],[105.95328,10.24673],[105.96273,10.22507],[105.96461,10.21639],[105.96474,10.20752],[105.96251,10.19658],[105.95625,10.17806],[105.95282,10.17038],[105.94802,10.16346],[105.94201,10.15754],[105.93499,10.15282],[105.91569,10.14571],[105.90937,10.13162],[105.90401,10.12449],[105.89697,10.11812],[105.88919,10.11305],[105.88054,10.10965],[105.87137,10.10805],[105.86486,10.10824],[105.86131,10.10686],[105.85183,10.1053],[105.83075,10.10448],[105.81305,10.10592],[105.7911,10.11136],[105.78264,10.11418],[105.77489,10.11858],[105.76816,10.12439],[105.76063,10.13347],[105.75568,10.13396],[105.74745,10.13636],[105.73867,10.14114],[105.73087,10.12995],[105.7294,10.12398],[105.72315,10.11234],[105.71418,10.10136],[105.70743,10.09612],[105.69981,10.09222],[105.69159,10.0898],[105.68305,10.08894],[105.6745,10.08968],[105.66625,10.09199],[105.64584,10.10361],[105.63189,10.11415],[105.61605,10.13108],[105.61226,10.13631],[105.59328,10.1537],[105.58772,10.16004],[105.58345,10.1673],[105.57402,10.19671],[105.56745,10.2064],[105.55762,10.21703],[105.53601,10.23823],[105.52084,10.25181],[105.50828,10.25991],[105.49277,10.26664],[105.48223,10.27458],[105.45655,10.30131],[105.45104,10.30831],[105.44701,10.31623],[105.44463,10.32478],[105.44398,10.33363],[105.44507,10.35006],[105.44702,10.35865],[105.45128,10.36796],[105.45701,10.3759],[105.46254,10.38153],[105.47595,10.39009],[105.47509,10.40156],[105.47661,10.4104],[105.4814,10.42389],[105.48668,10.43181],[105.4935,10.43846],[105.51107,10.45258],[105.5156,10.45975],[105.52518,10.469],[105.51536,10.49168],[105.50518,10.49749],[105.49803,10.50384],[105.48959,10.49873],[105.48122,10.49577],[105.47243,10.49448],[105.46355,10.49489],[105.45492,10.49699],[105.43611,10.50636],[105.41649,10.50453],[105.4068,10.50589],[105.39589,10.50956],[105.38575,10.51481],[105.37927,10.51963],[105.3726,10.52638],[105.35838,10.52919],[105.34996,10.53292],[105.34301,10.53761],[105.33688,10.54346],[105.32724,10.55718],[105.30968,10.59448],[105.30437,10.60774],[105.29759,10.62733],[105.2951,10.63756],[105.29248,10.67127],[105.27802,10.67408],[105.26888,10.67727],[105.25835,10.68218],[105.25238,10.68592],[105.24627,10.69102],[105.23844,10.70059],[105.23297,10.71141],[105.23114,10.71818],[105.23019,10.72932],[105.23145,10.7373],[105.22607,10.74275],[105.22052,10.75086],[105.21642,10.76006],[105.21465,10.76636],[105.20083,10.77574],[105.19395,10.78225],[105.18406,10.79835],[105.18124,10.80107],[105.1685,10.8095],[105.1592,10.8182],[105.15152,10.82903],[105.14825,10.83695],[105.14371,10.85412],[105.14411,10.87473],[105.14558,10.88645]]]}}]}