{"type":"FeatureCollection","features":[{"type":"Feature","properties":{"kind":"boundary","province_code":"19","name":"Tỉnh Thái Nguyên","source":"VNSDI","valid_from":"16/6/2025","simplify_tolerance_deg":0.0005},"geometry":{"type":"Polygon","coordinates":[[[105.62896,21.49219],[105.61426,21.50818],[105.60521,21.52184],[105.60099,21.52672],[105.58324,21.5404],[105.55781,21.56598],[105.55148,21.57052],[105.54018,21.57659],[105.5318,21.58251],[105.52289,21.59034],[105.51414,21.59999],[105.50757,21.60899],[105.50342,21.61639],[105.49657,21.63817],[105.49512,21.64046],[105.4903,21.64444],[105.48833,21.65186],[105.48362,21.66108],[105.48223,21.6703],[105.47942,21.67448],[105.48191,21.6788],[105.48591,21.68083],[105.48752,21.68543],[105.48658,21.68988],[105.48236,21.69421],[105.48061,21.69814],[105.48416,21.70205],[105.48969,21.7043],[105.49226,21.70887],[105.49965,21.71827],[105.5017,21.72666],[105.50521,21.73025],[105.51184,21.73246],[105.51664,21.73775],[105.51573,21.74015],[105.50951,21.74686],[105.5104,21.74981],[105.51812,21.75735],[105.52346,21.76427],[105.5239,21.76771],[105.52291,21.77023],[105.51905,21.77198],[105.51329,21.77296],[105.50214,21.77075],[105.49625,21.77299],[105.49379,21.77997],[105.4938,21.78254],[105.49678,21.79127],[105.49517,21.80515],[105.49541,21.82142],[105.49451,21.82708],[105.49599,21.83067],[105.50447,21.83339],[105.50999,21.83337],[105.51733,21.82975],[105.5223,21.83025],[105.52581,21.83298],[105.52767,21.8376],[105.5288,21.84531],[105.52026,21.87531],[105.51991,21.88165],[105.52196,21.8861],[105.5273,21.88866],[105.53876,21.89035],[105.54333,21.89254],[105.54537,21.89528],[105.5463,21.89784],[105.54651,21.90504],[105.5515,21.90896],[105.55354,21.9129],[105.55062,21.92509],[105.55102,21.94737],[105.55316,21.95305],[105.55642,21.95818],[105.55496,21.9583],[105.53529,21.96897],[105.5306,21.97403],[105.52611,21.98077],[105.52124,21.98465],[105.51167,21.98889],[105.50879,21.99226],[105.50627,21.99647],[105.50551,22.00466],[105.49561,22.01526],[105.49208,22.0246],[105.48798,22.04707],[105.4683,22.06897],[105.46653,22.07498],[105.4669,22.07797],[105.47131,22.09358],[105.47323,22.09714],[105.47227,22.10114],[105.46682,22.10406],[105.4641,22.10716],[105.46296,22.11443],[105.46766,22.12204],[105.47411,22.12839],[105.47472,22.13692],[105.48059,22.14345],[105.49251,22.15159],[105.49272,22.15649],[105.49098,22.15886],[105.47774,22.16308],[105.47052,22.16201],[105.46741,22.16401],[105.46139,22.17184],[105.46197,22.18334],[105.46091,22.18501],[105.45234,22.1902],[105.4356,22.20756],[105.4315,22.21274],[105.43277,22.22006],[105.43602,22.22805],[105.43907,22.23187],[105.43927,22.23787],[105.4367,22.25803],[105.43906,22.26129],[105.45071,22.26557],[105.46502,22.2662],[105.47005,22.27284],[105.46934,22.27551],[105.46434,22.27752],[105.46256,22.27919],[105.46257,22.28319],[105.46684,22.28538],[105.48148,22.28879],[105.48871,22.29313],[105.48872,22.29567],[105.48418,22.30053],[105.48018,22.30779],[105.48019,22.31079],[105.48199,22.31345],[105.48701,22.3171],[105.49632,22.3194],[105.49849,22.32539],[105.49854,22.33905],[105.49962,22.34171],[105.51002,22.34701],[105.51325,22.35033],[105.51589,22.36172],[105.51407,22.37831],[105.52168,22.4016],[105.52849,22.40591],[105.53793,22.40707],[105.55497,22.40182],[105.55891,22.40181],[105.56107,22.40414],[105.56144,22.40846],[105.55253,22.41716],[105.55185,22.42815],[105.55333,22.43881],[105.55803,22.45078],[105.56597,22.46474],[105.57281,22.47338],[105.59365,22.48796],[105.59581,22.49262],[105.59593,22.52027],[105.59492,22.53459],[105.58239,22.55626],[105.58004,22.55805],[105.56458,22.56402],[105.55673,22.57337],[105.54965,22.58423],[105.54466,22.60239],[105.52937,22.62038],[105.52939,22.62692],[105.53084,22.6331],[105.53861,22.63398],[105.54116,22.63669],[105.5406,22.64305],[105.54121,22.6485],[105.54357,22.65194],[105.54966,22.65683],[105.55925,22.65897],[105.56475,22.6635],[105.58077,22.66853],[105.59293,22.66648],[105.59919,22.66664],[105.60096,22.66882],[105.59983,22.67809],[105.61105,22.69439],[105.61538,22.69874],[105.61871,22.70072],[105.64238,22.69954],[105.64708,22.70079],[105.65141,22.7055],[105.65988,22.71763],[105.665,22.72288],[105.6699,22.7245],[105.67826,22.72197],[105.68328,22.72128],[105.68974,22.72125],[105.69507,22.72233],[105.69884,22.72431],[105.70207,22.72119],[105.70565,22.72584],[105.70859,22.72744],[105.70956,22.72726],[105.7132,22.72198],[105.71625,22.7217],[105.71911,22.72317],[105.71951,22.72842],[105.72307,22.72888],[105.72413,22.72568],[105.72369,22.72457],[105.72684,22.72409],[105.72989,22.72532],[105.73303,22.72807],[105.73535,22.73176],[105.73575,22.73794],[105.73331,22.74071],[105.73771,22.73984],[105.74293,22.737],[105.75263,22.72792],[105.75829,22.72394],[105.759,22.7216],[105.7579,22.71828],[105.75465,22.71396],[105.75319,22.70997],[105.75389,22.7063],[105.76447,22.69657],[105.76983,22.69438],[105.77282,22.69189],[105.77353,22.68922],[105.77315,22.68689],[105.76853,22.68017],[105.75786,22.66979],[105.75001,22.66383],[105.73913,22.6428],[105.72837,22.63841],[105.72873,22.63653],[105.74115,22.6242],[105.75271,22.60809],[105.75255,22.605],[105.74978,22.60112],[105.74805,22.59489],[105.75088,22.58979],[105.75219,22.58871],[105.75804,22.58703],[105.766,22.58764],[105.76716,22.58713],[105.77407,22.58007],[105.77713,22.57533],[105.77757,22.57145],[105.7743,22.56688],[105.77273,22.56144],[105.77338,22.55476],[105.77499,22.55124],[105.77745,22.55016],[105.78178,22.55004],[105.78814,22.54666],[105.792,22.54227],[105.79892,22.53137],[105.79983,22.52876],[105.80415,22.52511],[105.83563,22.51853],[105.84746,22.51847],[105.8585,22.52103],[105.86717,22.5187],[105.89219,22.5094],[105.90251,22.49969],[105.90787,22.49633],[105.91109,22.49631],[105.91408,22.49774],[105.91876,22.50599],[105.9239,22.51888],[105.93003,22.52646],[105.93493,22.52752],[105.94665,22.52745],[105.95428,22.52637],[105.95787,22.52701],[105.96686,22.53129],[105.97559,22.53728],[106.01897,22.55892],[106.02222,22.55933],[106.0289,22.55852],[106.03277,22.55945],[106.03628,22.56105],[106.0413,22.56523],[106.04312,22.56756],[106.04773,22.57776],[106.05009,22.57717],[106.06034,22.57132],[106.0665,22.56941],[106.07234,22.57253],[106.07853,22.57363],[106.08048,22.57324],[106.08166,22.5727],[106.0823,22.56888],[106.08063,22.56645],[106.07556,22.56218],[106.07446,22.55989],[106.07437,22.55535],[106.07667,22.55343],[106.08727,22.5523],[106.09369,22.5449],[106.09333,22.53874],[106.09422,22.53414],[106.09704,22.52561],[106.10122,22.52152],[106.10057,22.51699],[106.10133,22.51602],[106.11772,22.51274],[106.11914,22.50752],[106.11825,22.49806],[106.11637,22.49237],[106.11553,22.48425],[106.11889,22.47251],[106.11717,22.4698],[106.11012,22.46311],[106.10392,22.45273],[106.09498,22.44517],[106.09471,22.44208],[106.0955,22.44087],[106.10096,22.43607],[106.10016,22.42919],[106.10204,22.42281],[106.09914,22.41457],[106.09962,22.41291],[106.10226,22.41146],[106.10526,22.40822],[106.10815,22.39971],[106.10926,22.39919],[106.11265,22.39871],[106.11686,22.40126],[106.12019,22.40141],[106.1284,22.39976],[106.13661,22.39487],[106.13914,22.39434],[106.14087,22.39478],[106.15042,22.4016],[106.1572,22.4082],[106.16593,22.40847],[106.17067,22.40332],[106.1759,22.40166],[106.17755,22.39326],[106.17884,22.39187],[106.18253,22.3907],[106.18461,22.38896],[106.18994,22.37732],[106.1911,22.37622],[106.19806,22.37536],[106.20224,22.37333],[106.20818,22.36884],[106.21146,22.36165],[106.2137,22.36109],[106.21816,22.35646],[106.21984,22.35017],[106.21975,22.34778],[106.20991,22.3383],[106.20744,22.33443],[106.20135,22.32145],[106.20009,22.31692],[106.19959,22.31065],[106.20344,22.3031],[106.20816,22.29965],[106.21187,22.29066],[106.21462,22.28891],[106.21849,22.29044],[106.22028,22.2906],[106.22195,22.28975],[106.2241,22.28597],[106.22419,22.28245],[106.22508,22.28101],[106.22668,22.2801],[106.23206,22.27946],[106.23635,22.27757],[106.24206,22.27143],[106.24524,22.26645],[106.24675,22.25539],[106.24223,22.24527],[106.24241,22.23708],[106.23714,22.22158],[106.23186,22.21929],[106.2261,22.21414],[106.2212,22.2042],[106.22182,22.19421],[106.2232,22.19014],[106.22554,22.18588],[106.2326,22.17902],[106.23296,22.1768],[106.23192,22.17496],[106.21462,22.16217],[106.20246,22.15068],[106.19856,22.1439],[106.19701,22.14284],[106.19323,22.14346],[106.19053,22.14235],[106.18852,22.13973],[106.18791,22.13609],[106.18641,22.13323],[106.18209,22.1307],[106.1815,22.12897],[106.18486,22.12404],[106.18558,22.11842],[106.17784,22.11322],[106.17097,22.11249],[106.16968,22.11149],[106.16235,22.1003],[106.1606,22.09058],[106.1572,22.08218],[106.15636,22.08159],[106.14502,22.08208],[106.13357,22.08575],[106.12279,22.08528],[106.12086,22.08386],[106.11844,22.07725],[106.11435,22.07124],[106.11185,22.07078],[106.10936,22.07277],[106.1073,22.07326],[106.10152,22.06989],[106.09829,22.06627],[106.098,22.06245],[106.10052,22.05622],[106.102,22.04549],[106.10101,22.04051],[106.09619,22.03611],[106.0961,22.03259],[106.09793,22.02845],[106.10883,22.02151],[106.11071,22.01552],[106.10947,21.99939],[106.11045,21.99695],[106.11435,21.99377],[106.11472,21.9924],[106.1132,21.98834],[106.11382,21.96588],[106.11265,21.96323],[106.10457,21.96207],[106.0997,21.95952],[106.09838,21.95688],[106.09844,21.95444],[106.10119,21.95227],[106.10897,21.95236],[106.1106,21.95065],[106.11041,21.94727],[106.10814,21.94487],[106.0978,21.93815],[106.10617,21.93393],[106.11092,21.93268],[106.12185,21.92443],[106.12884,21.92446],[106.13106,21.92265],[106.13211,21.92013],[106.13209,21.91734],[106.13131,21.91555],[106.12899,21.91399],[106.12774,21.91199],[106.12968,21.90452],[106.1292,21.90215],[106.12757,21.89966],[106.1215,21.89723],[106.11619,21.89386],[106.11393,21.89047],[106.11582,21.88109],[106.11559,21.87141],[106.11488,21.86877],[106.11146,21.86334],[106.11129,21.85151],[106.11197,21.84993],[106.11792,21.84415],[106.1179,21.84236],[106.11659,21.84108],[106.10943,21.83926],[106.10834,21.83719],[106.10753,21.83196],[106.10599,21.83097],[106.10245,21.83063],[106.10122,21.82964],[106.09601,21.82185],[106.09561,21.82007],[106.09935,21.8131],[106.10656,21.80436],[106.10722,21.80127],[106.10708,21.79253],[106.11323,21.78381],[106.1179,21.78206],[106.13496,21.78524],[106.13649,21.78437],[106.14379,21.77299],[106.14922,21.76241],[106.15066,21.76104],[106.15549,21.76014],[106.16542,21.75333],[106.17308,21.7496],[106.17816,21.74392],[106.18022,21.74262],[106.18244,21.74181],[106.18505,21.74186],[106.18867,21.74327],[106.19357,21.74259],[106.1956,21.73741],[106.19742,21.73511],[106.20768,21.73209],[106.21617,21.7278],[106.21793,21.72757],[106.22364,21.73126],[106.22633,21.73138],[106.23367,21.72846],[106.23557,21.7268],[106.23774,21.72025],[106.23787,21.71688],[106.23659,21.71152],[106.2329,21.70216],[106.22707,21.69251],[106.22557,21.68693],[106.22512,21.67933],[106.21977,21.67228],[106.20921,21.66733],[106.20697,21.6647],[106.20443,21.65518],[106.20296,21.6534],[106.19241,21.64778],[106.19138,21.64514],[106.19135,21.64154],[106.193,21.63612],[106.19617,21.62985],[106.19763,21.62009],[106.19676,21.61802],[106.18613,21.60515],[106.17314,21.60985],[106.17141,21.61124],[106.16965,21.61456],[106.16492,21.61837],[106.1619,21.6248],[106.16053,21.62581],[106.15401,21.62536],[106.13024,21.61685],[106.12572,21.61652],[106.11797,21.61657],[106.11139,21.61869],[106.09932,21.62429],[106.09717,21.62438],[106.08618,21.6208],[106.08264,21.61874],[106.07523,21.61255],[106.05751,21.60119],[106.04824,21.58103],[106.03576,21.5725],[106.03313,21.56879],[106.03049,21.56199],[106.03346,21.56043],[106.0378,21.56083],[106.04621,21.55866],[106.04805,21.55765],[106.05085,21.55297],[106.05383,21.55112],[106.05629,21.55182],[106.05356,21.54164],[106.04846,21.53268],[106.04345,21.51796],[106.04342,21.51429],[106.04524,21.51035],[106.04522,21.50786],[106.04376,21.50367],[106.04191,21.48752],[106.04241,21.4856],[106.04536,21.48358],[106.04655,21.47946],[106.0412,21.47423],[106.04088,21.47165],[106.04339,21.46619],[106.04837,21.46224],[106.05009,21.45936],[106.05149,21.45495],[106.05135,21.45094],[106.0502,21.44674],[106.04782,21.44283],[106.04485,21.44046],[106.04239,21.43942],[106.0331,21.44034],[106.02962,21.4395],[106.02736,21.43684],[106.02642,21.43359],[106.02772,21.42986],[106.03217,21.42362],[106.03487,21.41595],[106.03546,21.4127],[106.03503,21.40954],[106.02749,21.39773],[106.02395,21.39553],[106.02131,21.39622],[106.01752,21.4006],[106.01269,21.4035],[106.00944,21.40477],[106.00351,21.40493],[105.99643,21.40623],[105.9856,21.41126],[105.97616,21.41671],[105.96996,21.423],[105.96495,21.4349],[105.96149,21.43535],[105.95824,21.43343],[105.95722,21.43101],[105.95834,21.42211],[105.95633,21.40709],[105.9517,21.40156],[105.94796,21.40016],[105.94385,21.39558],[105.94471,21.38582],[105.94455,21.38104],[105.94325,21.37686],[105.93901,21.3727],[105.92767,21.37444],[105.91825,21.374],[105.91172,21.37537],[105.91019,21.37466],[105.90658,21.36858],[105.90023,21.35248],[105.90009,21.35069],[105.90172,21.3465],[105.90094,21.34387],[105.898,21.34305],[105.89443,21.34319],[105.88704,21.34562],[105.88203,21.33859],[105.88163,21.3362],[105.88967,21.32695],[105.89184,21.32627],[105.89036,21.32569],[105.87593,21.32774],[105.86707,21.33089],[105.86063,21.33768],[105.85402,21.34877],[105.85202,21.35816],[105.85228,21.36648],[105.85051,21.37645],[105.84508,21.37676],[105.83429,21.3753],[105.82756,21.3766],[105.82218,21.37864],[105.81761,21.38168],[105.81196,21.38322],[105.79902,21.38303],[105.79523,21.38078],[105.79089,21.37627],[105.78626,21.36647],[105.78478,21.36062],[105.77943,21.36011],[105.77742,21.3608],[105.77614,21.36252],[105.77525,21.36715],[105.77252,21.3711],[105.76868,21.37455],[105.761,21.37852],[105.76027,21.38007],[105.7653,21.39427],[105.76168,21.40285],[105.75567,21.41179],[105.7489,21.41559],[105.74009,21.4146],[105.73181,21.41069],[105.72668,21.41123],[105.72141,21.41611],[105.72157,21.41845],[105.72361,21.42255],[105.72548,21.42974],[105.72384,21.43214],[105.72146,21.43301],[105.71705,21.432],[105.71429,21.43047],[105.71155,21.43151],[105.70663,21.43958],[105.70168,21.44046],[105.6969,21.43962],[105.68737,21.44258],[105.67606,21.45633],[105.6724,21.45891],[105.66708,21.45962],[105.65914,21.45938],[105.6477,21.46494],[105.64182,21.46969],[105.63709,21.47507],[105.63387,21.4804],[105.62896,21.49219]]]}},{"type":"Feature","properties":{"kind":"buffer","province_code":"19","buffer_m":5000,"source":"derived","simplify_tolerance_deg":0.0005},"geometry":{"type":"Polygon","coordinates":[[[105.38965,22.24147],[105.38844,22.25406],[105.38872,22.26428],[105.39145,22.27418],[105.39649,22.28326],[105.40507,22.29352],[105.41266,22.29922],[105.41882,22.30217],[105.42548,22.31229],[105.43254,22.31859],[105.43513,22.32741],[105.43922,22.33492],[105.44608,22.34381],[105.45118,22.34822],[105.45433,22.35777],[105.45866,22.36586],[105.4659,22.374],[105.46578,22.38193],[105.46736,22.39031],[105.47332,22.40993],[105.48064,22.42565],[105.48683,22.43302],[105.49451,22.43905],[105.50548,22.44536],[105.50784,22.45437],[105.51254,22.46634],[105.52316,22.48593],[105.53385,22.50026],[105.54745,22.51216],[105.54729,22.52147],[105.54129,22.52436],[105.5318,22.53071],[105.51535,22.54985],[105.50473,22.56716],[105.50143,22.57643],[105.50067,22.58168],[105.48766,22.59738],[105.48393,22.60468],[105.48166,22.61248],[105.48094,22.62708],[105.48206,22.6366],[105.48663,22.6516],[105.49162,22.65964],[105.49575,22.66395],[105.50276,22.67631],[105.51197,22.68622],[105.51806,22.69111],[105.52759,22.69708],[105.53701,22.70033],[105.54835,22.70605],[105.5649,22.71127],[105.57069,22.7194],[105.57988,22.72952],[105.59266,22.73885],[105.60087,22.74276],[105.60973,22.74516],[105.62227,22.74592],[105.63498,22.75837],[105.64161,22.76248],[105.64887,22.76552],[105.66521,22.7695],[105.67693,22.76924],[105.68484,22.76751],[105.68724,22.768],[105.69453,22.77086],[105.6979,22.77138],[105.7064,22.77831],[105.71491,22.78254],[105.72415,22.78511],[105.73376,22.78593],[105.74334,22.78495],[105.75514,22.78203],[105.76732,22.77607],[105.77727,22.7689],[105.7951,22.75335],[105.80101,22.74527],[105.80563,22.73386],[105.80725,22.72342],[105.81164,22.71895],[105.81663,22.7112],[105.81987,22.70268],[105.82192,22.69133],[105.82108,22.68023],[105.81852,22.671],[105.80932,22.65576],[105.8035,22.64887],[105.79081,22.63675],[105.79609,22.62827],[105.79855,22.62135],[105.81125,22.60906],[105.81881,22.59846],[105.82409,22.58645],[105.82602,22.57493],[105.83393,22.56495],[105.84166,22.56372],[105.85516,22.56615],[105.86362,22.566],[105.8806,22.56215],[105.89493,22.55728],[105.9001,22.56202],[105.90908,22.56723],[105.91906,22.5705],[105.93523,22.57273],[105.94538,22.57268],[105.98632,22.59442],[105.99845,22.59988],[106.00725,22.60281],[106.00971,22.60617],[106.01588,22.612],[106.0237,22.61702],[106.03417,22.62117],[106.04539,22.62292],[106.05808,22.62215],[106.07047,22.61819],[106.07949,22.61884],[106.0888,22.61782],[106.10162,22.61393],[106.11075,22.60887],[106.11763,22.603],[106.12318,22.59602],[106.12769,22.58687],[106.13043,22.57463],[106.13714,22.5649],[106.14051,22.55652],[106.1413,22.55202],[106.14633,22.54923],[106.15333,22.54341],[106.15899,22.53643],[106.16311,22.52857],[106.16563,22.52088],[106.16751,22.50486],[106.16673,22.49509],[106.16498,22.48654],[106.16724,22.47532],[106.16681,22.46585],[106.16287,22.45394],[106.17718,22.45246],[106.18566,22.44977],[106.19276,22.44613],[106.20437,22.43825],[106.2107,22.43312],[106.21599,22.42705],[106.22091,22.41874],[106.22535,22.41313],[106.23881,22.40388],[106.24611,22.39698],[106.25024,22.39089],[106.25681,22.38372],[106.26178,22.37614],[106.26506,22.36779],[106.2676,22.35779],[106.26845,22.34979],[106.26768,22.34112],[106.26532,22.33242],[106.26117,22.32432],[106.25766,22.31997],[106.27297,22.30718],[106.28365,22.29461],[106.29096,22.28141],[106.29324,22.27258],[106.29499,22.25953],[106.29502,22.25159],[106.29357,22.24377],[106.2908,22.23628],[106.28848,22.22308],[106.2816,22.2036],[106.27713,22.19613],[106.27905,22.19192],[106.28086,22.18483],[106.28141,22.17644],[106.27995,22.16576],[106.27478,22.15386],[106.26953,22.14645],[106.26283,22.14014],[106.24807,22.12934],[106.24126,22.12251],[106.23368,22.11284],[106.23057,22.10163],[106.22557,22.09289],[106.21736,22.08425],[106.20644,22.07668],[106.20252,22.06619],[106.19854,22.05859],[106.19311,22.05182],[106.18558,22.04552],[106.17652,22.04047],[106.1665,22.03737],[106.15464,22.03638],[106.15832,22.0239],[106.15918,22.01038],[106.16166,22.0036],[106.16316,21.99312],[106.16169,21.98123],[106.16225,21.96722],[106.16149,21.95788],[106.17069,21.94865],[106.17617,21.93914],[106.17975,21.92836],[106.18056,21.9198],[106.1796,21.90846],[106.17807,21.90371],[106.17681,21.89374],[106.17442,21.88591],[106.16893,21.87611],[106.16401,21.87004],[106.16269,21.86113],[106.16538,21.85326],[106.16635,21.84203],[106.16542,21.83353],[106.16153,21.82308],[106.1709,21.8162],[106.17807,21.80759],[106.18557,21.79585],[106.19197,21.7914],[106.19845,21.78791],[106.20979,21.7852],[106.21922,21.78096],[106.2253,21.7765],[106.23247,21.77624],[106.24082,21.77453],[106.25256,21.77029],[106.26678,21.76147],[106.27427,21.75401],[106.2787,21.74739],[106.28403,21.73363],[106.28629,21.71844],[106.28517,21.70711],[106.2839,21.70174],[106.27836,21.68653],[106.27351,21.67696],[106.27216,21.66851],[106.26939,21.66096],[106.26524,21.65398],[106.2591,21.64588],[106.24791,21.63539],[106.24488,21.63063],[106.24604,21.62189],[106.24542,21.61267],[106.24194,21.60168],[106.23526,21.59057],[106.22433,21.57734],[106.21729,21.57053],[106.20889,21.56524],[106.1995,21.56169],[106.18951,21.56005],[106.17938,21.56038],[106.16955,21.56267],[106.15266,21.56886],[106.14439,21.57387],[106.13399,21.57176],[106.12537,21.5713],[106.10977,21.572],[106.10094,21.57422],[106.09888,21.573],[106.10164,21.56774],[106.10406,21.55938],[106.10473,21.55075],[106.10362,21.54216],[106.10039,21.53005],[106.09672,21.52089],[106.0932,21.51474],[106.09367,21.50756],[106.09194,21.49636],[106.09343,21.49258],[106.09488,21.48331],[106.09466,21.47638],[106.09794,21.46779],[106.09953,21.46076],[106.09978,21.44956],[106.09829,21.43971],[106.09233,21.4244],[106.0834,21.41235],[106.08309,21.40382],[106.08095,21.39511],[106.07701,21.38697],[106.06794,21.37284],[106.05758,21.36223],[106.04736,21.35589],[106.03807,21.35227],[106.0303,21.3507],[106.02235,21.35033],[106.0141,21.35115],[106.00674,21.35305],[105.99673,21.35725],[105.99113,21.36101],[105.98863,21.36148],[105.98668,21.35682],[105.98225,21.35003],[105.97388,21.34072],[105.96504,21.33456],[105.9568,21.33065],[105.94634,21.32812],[105.93895,21.31612],[105.93652,21.30878],[105.93206,21.30105],[105.92608,21.29428],[105.91882,21.28871],[105.91054,21.28455],[105.90044,21.28146],[105.88916,21.28043],[105.87568,21.28192],[105.85867,21.28548],[105.84981,21.28864],[105.8395,21.2937],[105.83079,21.30092],[105.81955,21.31371],[105.81295,21.32412],[105.80861,21.32125],[105.79947,21.31753],[105.78971,21.31563],[105.77334,21.31525],[105.76062,21.31839],[105.75177,21.32244],[105.74398,21.32808],[105.73758,21.33507],[105.73375,21.34115],[105.72688,21.34642],[105.72105,21.35294],[105.71663,21.36037],[105.71388,21.36768],[105.70812,21.36946],[105.69985,21.37358],[105.69258,21.37911],[105.6808,21.39145],[105.67729,21.3979],[105.66177,21.40419],[105.65477,21.40913],[105.64871,21.41533],[105.63916,21.41819],[105.6256,21.42445],[105.6173,21.42969],[105.60948,21.43595],[105.59687,21.44986],[105.59093,21.45938],[105.58662,21.46917],[105.5751,21.48155],[105.56592,21.49517],[105.54909,21.50832],[105.52541,21.53235],[105.51037,21.54086],[105.49481,21.55268],[105.48327,21.5638],[105.47199,21.57719],[105.46014,21.59597],[105.45588,21.60581],[105.45263,21.6162],[105.44654,21.62503],[105.4385,21.64458],[105.43166,21.66691],[105.43099,21.67574],[105.43218,21.68452],[105.43356,21.68839],[105.43246,21.6931],[105.43238,21.70247],[105.43437,21.71165],[105.43834,21.72025],[105.44386,21.72821],[105.45469,21.73775],[105.45799,21.74555],[105.45613,21.74763],[105.4497,21.75965],[105.44615,21.77176],[105.44535,21.78268],[105.44626,21.79125],[105.44755,21.79528],[105.44607,21.82818],[105.44699,21.83589],[105.45078,21.84694],[105.45505,21.85485],[105.46087,21.86183],[105.46805,21.86761],[105.47246,21.86995],[105.47153,21.87936],[105.47222,21.88961],[105.47742,21.9039],[105.48137,21.91081],[105.48655,21.91697],[105.49278,21.92221],[105.50216,21.92744],[105.50211,21.9362],[105.49156,21.94748],[105.47961,21.95499],[105.47379,21.9607],[105.46647,21.97024],[105.46015,21.98262],[105.45958,21.98508],[105.45404,21.99204],[105.44993,22.00019],[105.4464,22.00952],[105.44258,22.02712],[105.43105,22.04006],[105.42534,22.04806],[105.42158,22.057],[105.41823,22.07149],[105.41839,22.08011],[105.41992,22.08906],[105.41821,22.09267],[105.41617,22.10058],[105.41502,22.10785],[105.41465,22.1179],[105.41667,22.12778],[105.42435,22.14246],[105.41703,22.15366],[105.41413,22.16213],[105.39898,22.17795],[105.39253,22.18587],[105.3876,22.1936],[105.38441,22.20209],[105.38309,22.211],[105.38368,22.21998],[105.38495,22.22731],[105.38965,22.24147]]]}}]}