{"type":"FeatureCollection","features":[{"type":"Feature","properties":{"kind":"boundary","province_code":"01","name":"Thành phố Hà Nội","source":"VNSDI","valid_from":"16/6/2025","simplify_tolerance_deg":0.0005},"geometry":{"type":"Polygon","coordinates":[[[105.65705,20.74371],[105.65054,20.75886],[105.64808,20.77493],[105.64866,20.79274],[105.63453,20.79338],[105.63317,20.79712],[105.63437,20.80101],[105.6301,20.81652],[105.63152,20.8198],[105.63386,20.82213],[105.6376,20.82454],[105.641,20.82406],[105.64154,20.82707],[105.64011,20.82939],[105.63653,20.83089],[105.63572,20.83507],[105.63622,20.83789],[105.63385,20.83739],[105.62409,20.83177],[105.61887,20.83067],[105.61673,20.83122],[105.61117,20.83668],[105.59922,20.84107],[105.59808,20.84063],[105.59679,20.83394],[105.59551,20.83242],[105.59384,20.83147],[105.59026,20.83115],[105.58868,20.82941],[105.58598,20.81948],[105.58257,20.81177],[105.57702,20.8089],[105.55895,20.80914],[105.55818,20.80985],[105.55968,20.81847],[105.56231,20.82101],[105.56489,20.82219],[105.56932,20.82174],[105.57534,20.82266],[105.57804,20.82592],[105.58181,20.83615],[105.5852,20.84198],[105.58688,20.84676],[105.58423,20.85794],[105.55721,20.88164],[105.55378,20.88958],[105.55765,20.89461],[105.55632,20.90038],[105.55691,20.90489],[105.55981,20.90866],[105.57137,20.91205],[105.5783,20.91599],[105.58197,20.91922],[105.58275,20.9221],[105.58161,20.92607],[105.57759,20.92969],[105.55963,20.92543],[105.54065,20.92569],[105.53325,20.92351],[105.52873,20.92092],[105.52488,20.92031],[105.51971,20.92057],[105.51348,20.92208],[105.50752,20.92546],[105.50459,20.92978],[105.49762,20.93033],[105.49305,20.93249],[105.48924,20.93559],[105.4791,20.94706],[105.47504,20.94826],[105.46385,20.9483],[105.45723,20.9495],[105.44632,20.95621],[105.44353,20.95931],[105.43771,20.97267],[105.43061,20.98055],[105.42375,20.98343],[105.42147,20.98558],[105.41954,20.99113],[105.4191,20.99668],[105.39911,21.00041],[105.3953,21.0028],[105.39226,21.00758],[105.391,21.01425],[105.38517,21.02284],[105.38059,21.0219],[105.37651,21.01833],[105.37065,21.01501],[105.35536,21.00861],[105.35409,21.00885],[105.35053,21.01243],[105.34672,21.01458],[105.33399,21.01151],[105.3317,21.01176],[105.32815,21.01796],[105.32484,21.01868],[105.32229,21.01678],[105.31869,21.01233],[105.31433,21.01765],[105.30064,21.02858],[105.29566,21.03995],[105.29487,21.04389],[105.2943,21.04924],[105.29531,21.0562],[105.3004,21.06872],[105.30525,21.07454],[105.31316,21.08875],[105.31913,21.10322],[105.31963,21.10979],[105.31758,21.11861],[105.31186,21.12848],[105.30328,21.13806],[105.29264,21.15332],[105.28884,21.16139],[105.28884,21.16498],[105.29013,21.16916],[105.29364,21.17304],[105.29699,21.17498],[105.29906,21.17781],[105.30068,21.1899],[105.30196,21.19253],[105.30477,21.19467],[105.31051,21.19705],[105.31586,21.19788],[105.32923,21.20698],[105.34571,21.22547],[105.35186,21.23694],[105.35554,21.26125],[105.35588,21.27141],[105.36229,21.2829],[105.38212,21.29711],[105.38979,21.30354],[105.39167,21.30375],[105.3982,21.30281],[105.4135,21.29775],[105.42343,21.29294],[105.42979,21.28791],[105.43767,21.27952],[105.44326,21.2721],[105.44743,21.25184],[105.44603,21.24374],[105.45082,21.24162],[105.45538,21.23458],[105.45971,21.22967],[105.46468,21.2151],[105.46622,21.20913],[105.46974,21.17846],[105.48805,21.16356],[105.49644,21.15851],[105.52159,21.15447],[105.56921,21.16058],[105.57799,21.16501],[105.62372,21.17226],[105.62599,21.17032],[105.62866,21.16974],[105.62432,21.18105],[105.62663,21.18144],[105.63107,21.18044],[105.63133,21.18223],[105.63073,21.18373],[105.62485,21.1895],[105.62163,21.19869],[105.61485,21.2038],[105.61438,21.20586],[105.61604,21.2083],[105.62289,21.20748],[105.62855,21.21109],[105.63186,21.20856],[105.63923,21.20711],[105.63937,21.21155],[105.63651,21.21464],[105.63598,21.21743],[105.63842,21.21767],[105.64356,21.21565],[105.65526,21.21864],[105.659,21.22097],[105.65886,21.22365],[105.65464,21.22732],[105.65084,21.22602],[105.64568,21.22688],[105.64389,21.2315],[105.64447,21.23466],[105.64704,21.2367],[105.65235,21.23816],[105.6555,21.23533],[105.65918,21.23457],[105.66186,21.23511],[105.6664,21.23917],[105.66732,21.23884],[105.6691,21.23358],[105.67149,21.23332],[105.67354,21.23195],[105.67293,21.22995],[105.67565,21.22763],[105.67821,21.2284],[105.68096,21.23381],[105.68486,21.23524],[105.68691,21.23492],[105.68804,21.23425],[105.6881,21.23279],[105.6864,21.23202],[105.68553,21.23042],[105.68613,21.22738],[105.6893,21.22083],[105.69812,21.21686],[105.71379,21.22309],[105.72071,21.22501],[105.72451,21.22495],[105.73746,21.23628],[105.73565,21.24094],[105.73085,21.24205],[105.72784,21.24522],[105.7244,21.25402],[105.72379,21.26162],[105.72471,21.2669],[105.73618,21.28065],[105.73759,21.28772],[105.75925,21.3024],[105.76112,21.30543],[105.76026,21.30777],[105.76081,21.31047],[105.76236,21.31354],[105.76968,21.32166],[105.77534,21.33464],[105.7783,21.33882],[105.78512,21.34287],[105.78526,21.34807],[105.78288,21.35382],[105.78675,21.35504],[105.78461,21.35993],[105.78626,21.36647],[105.79089,21.37627],[105.79523,21.38078],[105.79902,21.38303],[105.81196,21.38322],[105.81761,21.38168],[105.82218,21.37864],[105.82756,21.3766],[105.83429,21.3753],[105.84508,21.37676],[105.85051,21.37645],[105.85228,21.36648],[105.85202,21.35816],[105.85402,21.34877],[105.86063,21.33768],[105.86707,21.33089],[105.87593,21.32774],[105.88062,21.32747],[105.88805,21.32564],[105.89678,21.32737],[105.89846,21.32646],[105.89918,21.32454],[105.89893,21.3215],[105.89721,21.31203],[105.89729,21.30974],[105.8989,21.3059],[105.90521,21.30233],[105.90755,21.30175],[105.91159,21.30243],[105.91652,21.30055],[105.91772,21.29653],[105.92565,21.29266],[105.92564,21.29094],[105.92316,21.28671],[105.92243,21.28364],[105.92213,21.27362],[105.92319,21.26978],[105.93852,21.24722],[105.93781,21.24367],[105.93595,21.24522],[105.93343,21.24515],[105.93118,21.24154],[105.92119,21.23412],[105.92062,21.23193],[105.90738,21.23127],[105.90374,21.22616],[105.90377,21.22365],[105.90454,21.22246],[105.91045,21.22431],[105.91411,21.21911],[105.91535,21.2157],[105.91557,21.20899],[105.90993,21.20717],[105.91059,21.20555],[105.91309,21.20381],[105.91306,21.20246],[105.90841,21.20076],[105.90709,21.19806],[105.90693,21.19291],[105.91282,21.19169],[105.91621,21.18703],[105.92236,21.18338],[105.92103,21.17933],[105.91904,21.17683],[105.91717,21.16774],[105.91862,21.16397],[105.92293,21.16376],[105.92333,21.16192],[105.92056,21.15675],[105.92036,21.15499],[105.92193,21.15037],[105.92609,21.14415],[105.92595,21.13825],[105.92447,21.13334],[105.92352,21.13315],[105.92163,21.1351],[105.91247,21.12775],[105.91574,21.11893],[105.92148,21.11852],[105.93018,21.112],[105.93375,21.10664],[105.93494,21.10361],[105.93507,21.09798],[105.94003,21.08581],[105.94103,21.08503],[105.94758,21.08696],[105.95372,21.09182],[105.95762,21.09142],[105.95977,21.09022],[105.9621,21.07733],[105.96952,21.0719],[105.9762,21.07053],[105.99332,21.06914],[105.9984,21.07313],[105.99962,21.07307],[106.00448,21.06611],[106.00719,21.05892],[106.01333,21.05134],[106.01901,21.04806],[106.01991,21.04545],[106.02018,21.04215],[106.01809,21.03694],[106.01311,21.0305],[106.00712,21.02517],[106.00349,21.01838],[106.0052,21.01362],[106.00955,21.01157],[106.00994,21.0105],[106.00913,21.00906],[105.99967,21.00598],[106.00028,21.00129],[105.99217,21.00108],[105.98925,20.99842],[105.98608,20.99691],[105.97849,20.99749],[105.97387,20.99672],[105.971,20.99513],[105.97241,20.99217],[105.97228,20.98977],[105.96912,20.98832],[105.96597,20.99172],[105.96215,20.98941],[105.96154,20.98766],[105.9637,20.98477],[105.96454,20.97373],[105.96428,20.9634],[105.96006,20.96371],[105.95687,20.96598],[105.95261,20.96768],[105.94443,20.96861],[105.9388,20.97016],[105.93246,20.97356],[105.92555,20.97475],[105.92395,20.97589],[105.91833,20.97595],[105.91535,20.97517],[105.91402,20.97373],[105.90497,20.95362],[105.90569,20.94794],[105.91244,20.93727],[105.91267,20.9342],[105.90892,20.92607],[105.91208,20.92232],[105.91237,20.91753],[105.91107,20.91381],[105.8989,20.90502],[105.89539,20.90104],[105.89521,20.89786],[105.89552,20.89498],[105.89968,20.89011],[105.90965,20.88627],[105.92202,20.87969],[105.92875,20.87405],[105.93606,20.86201],[105.93603,20.85711],[105.93128,20.8502],[105.9207,20.84464],[105.91495,20.84037],[105.91186,20.83405],[105.91128,20.82317],[105.9135,20.81183],[105.91794,20.79954],[105.92144,20.79286],[105.92512,20.78875],[105.93066,20.78496],[105.95272,20.78095],[105.96001,20.77867],[105.9654,20.7764],[105.96792,20.7731],[105.96788,20.74098],[105.96918,20.7339],[105.96413,20.72518],[105.97378,20.69964],[105.98079,20.69938],[105.98727,20.70204],[105.9897,20.70404],[106.00136,20.70359],[105.99702,20.69102],[105.98748,20.68117],[105.97545,20.66981],[105.96714,20.66479],[105.96273,20.66404],[105.9584,20.66154],[105.95697,20.65584],[105.95834,20.65061],[105.94667,20.65404],[105.94468,20.6557],[105.9437,20.65864],[105.94353,20.66326],[105.94667,20.66732],[105.94685,20.67632],[105.94541,20.67995],[105.94352,20.68175],[105.92778,20.67865],[105.92022,20.67591],[105.91211,20.67241],[105.90805,20.66864],[105.90345,20.66639],[105.89632,20.66767],[105.89652,20.65249],[105.89142,20.6482],[105.88035,20.64338],[105.8747,20.64332],[105.8671,20.64548],[105.85701,20.64511],[105.85403,20.64684],[105.84776,20.65532],[105.84516,20.65722],[105.82818,20.66433],[105.82286,20.66477],[105.82079,20.66326],[105.82073,20.66001],[105.82321,20.6564],[105.83283,20.6497],[105.83317,20.64674],[105.83036,20.64375],[105.82077,20.63839],[105.81443,20.63377],[105.81118,20.62924],[105.81273,20.61711],[105.80612,20.61134],[105.8058,20.60991],[105.80707,20.60721],[105.81052,20.6049],[105.80442,20.59958],[105.80107,20.59194],[105.79732,20.57307],[105.7938,20.56879],[105.79083,20.56703],[105.78543,20.56554],[105.76955,20.56377],[105.76608,20.57371],[105.76143,20.58042],[105.74685,20.59462],[105.74218,20.59732],[105.73162,20.60195],[105.72491,20.6014],[105.71879,20.59707],[105.70691,20.60014],[105.70398,20.61223],[105.69838,20.61622],[105.69656,20.61882],[105.69694,20.61996],[105.69392,20.62102],[105.68998,20.62033],[105.68612,20.61645],[105.67296,20.6166],[105.66746,20.61717],[105.66629,20.61796],[105.66536,20.62564],[105.66573,20.62915],[105.67143,20.63168],[105.67744,20.62944],[105.68023,20.63033],[105.68331,20.63255],[105.68613,20.63843],[105.68186,20.64092],[105.67941,20.64553],[105.68083,20.66243],[105.67943,20.66775],[105.67734,20.66893],[105.67629,20.66473],[105.67373,20.66522],[105.67286,20.66659],[105.67257,20.67043],[105.66917,20.67906],[105.67001,20.68022],[105.6773,20.68247],[105.67906,20.68418],[105.68165,20.69557],[105.67976,20.69961],[105.67125,20.709],[105.66143,20.72518],[105.66704,20.73502],[105.65705,20.74371]]]}},{"type":"Feature","properties":{"kind":"buffer","province_code":"01","buffer_m":5000,"source":"derived","simplify_tolerance_deg":0.0005},"geometry":{"type":"Polygon","coordinates":[[[105.25363,21.19863],[105.25694,21.20872],[105.26392,21.2202],[105.27441,21.22975],[105.28535,21.23604],[105.29573,21.23972],[105.30508,21.25017],[105.30755,21.26553],[105.309,21.28157],[105.31455,21.29529],[105.32085,21.30588],[105.32592,21.31251],[105.33218,21.31817],[105.35774,21.33727],[105.36571,21.34269],[105.37469,21.34648],[105.38618,21.34867],[105.39895,21.34844],[105.41417,21.34546],[105.42946,21.3404],[105.44545,21.33315],[105.45442,21.32753],[105.46078,21.32249],[105.47695,21.30564],[105.48741,21.29007],[105.49039,21.28117],[105.49454,21.26108],[105.50367,21.24804],[105.50799,21.23765],[105.51298,21.2198],[105.51558,21.20131],[105.52241,21.20021],[105.5541,21.20428],[105.5666,21.20879],[105.56721,21.21475],[105.5701,21.22354],[105.57405,21.23092],[105.5784,21.23652],[105.58566,21.24336],[105.59278,21.24788],[105.59956,21.25069],[105.60272,21.25714],[105.60755,21.26366],[105.61608,21.27131],[105.62381,21.27629],[105.63731,21.2812],[105.65099,21.28337],[105.65541,21.28306],[105.66611,21.28439],[105.67507,21.28365],[105.67961,21.28245],[105.68405,21.29107],[105.6914,21.29969],[105.69268,21.30394],[105.69655,21.31131],[105.70176,21.31789],[105.71753,21.33022],[105.72242,21.33874],[105.72751,21.34473],[105.73168,21.35392],[105.73546,21.35994],[105.73945,21.37692],[105.7423,21.38484],[105.75056,21.40092],[105.75954,21.4111],[105.76954,21.41901],[105.78114,21.42501],[105.78955,21.42736],[105.81121,21.42843],[105.82534,21.42665],[105.83999,21.42159],[105.85342,21.42159],[105.86244,21.42026],[105.87102,21.41735],[105.87887,21.41298],[105.8857,21.40729],[105.89126,21.40049],[105.89536,21.39282],[105.89784,21.38457],[105.89995,21.37229],[105.91253,21.37009],[105.92078,21.36656],[105.92948,21.36103],[105.93551,21.35531],[105.94036,21.34868],[105.94533,21.33653],[105.95817,21.32598],[105.96481,21.31893],[105.96975,21.31074],[105.97278,21.30176],[105.97376,21.29239],[105.97255,21.28139],[105.97783,21.27399],[105.98338,21.26358],[105.986,21.25465],[105.98688,21.24636],[105.98587,21.23668],[105.98313,21.22773],[105.9785,21.21951],[105.97205,21.2119],[105.96401,21.20585],[105.96831,21.19678],[105.97023,21.1879],[105.97023,21.17884],[105.96937,21.17488],[105.97054,21.17064],[105.9712,21.1597],[105.9735,21.15187],[105.97419,21.1431],[105.97371,21.134],[105.9843,21.12912],[105.99124,21.12442],[105.99749,21.11822],[106.01203,21.11675],[106.0247,21.11166],[106.0345,21.10446],[106.04165,21.09573],[106.04869,21.08345],[106.05678,21.07606],[106.06141,21.06943],[106.06563,21.05953],[106.06788,21.04894],[106.06781,21.03576],[106.06311,21.02098],[106.05778,21.0117],[106.0579,21.00698],[106.05614,20.99789],[106.05164,20.98788],[106.04591,20.97991],[106.03054,20.96614],[106.023,20.96144],[106.01174,20.95756],[106.01102,20.95268],[106.00779,20.94411],[106.00281,20.93632],[105.99627,20.92962],[105.98843,20.92429],[105.97962,20.92054],[105.97019,20.91852],[105.96033,20.91833],[105.95941,20.90894],[105.96876,20.89916],[105.97275,20.89356],[105.97952,20.88141],[105.98302,20.87182],[105.98417,20.86174],[105.98323,20.84834],[105.98063,20.84015],[105.97644,20.83257],[105.96972,20.82329],[105.97971,20.81993],[105.99246,20.81379],[105.99899,20.80878],[106.00701,20.79946],[106.01177,20.79171],[106.01481,20.78322],[106.01602,20.77433],[106.01613,20.7464],[106.02225,20.74433],[106.03061,20.7395],[106.03775,20.73317],[106.04337,20.72562],[106.04725,20.71715],[106.04923,20.70812],[106.04921,20.6989],[106.0472,20.68987],[106.04325,20.6782],[106.03779,20.66702],[106.03261,20.66059],[106.02157,20.64926],[106.00953,20.6379],[106.00206,20.63223],[106.00021,20.62833],[105.995,20.62133],[105.98849,20.61537],[105.9809,20.61067],[105.9725,20.60739],[105.9636,20.60566],[105.95451,20.60553],[105.9383,20.6089],[105.92378,20.61443],[105.91721,20.61001],[105.90633,20.60447],[105.89475,20.60024],[105.87913,20.59791],[105.85824,20.59964],[105.85634,20.59111],[105.85239,20.58262],[105.84701,20.57551],[105.84461,20.56476],[105.84122,20.55457],[105.83539,20.54541],[105.82614,20.53531],[105.81942,20.53051],[105.80442,20.52365],[105.79902,20.52216],[105.78398,20.51974],[105.76578,20.51869],[105.75652,20.52024],[105.74776,20.52346],[105.73983,20.52821],[105.73303,20.53433],[105.72764,20.54157],[105.72295,20.55222],[105.71583,20.55194],[105.70605,20.55347],[105.69416,20.55653],[105.68455,20.5601],[105.67597,20.56551],[105.66976,20.5716],[105.65399,20.57376],[105.64635,20.57654],[105.63816,20.58128],[105.63188,20.58637],[105.62661,20.59239],[105.62253,20.59918],[105.61918,20.60858],[105.61734,20.62294],[105.61786,20.63364],[105.61979,20.64255],[105.62357,20.65092],[105.62656,20.65501],[105.62273,20.66621],[105.62123,20.67522],[105.62155,20.6855],[105.62414,20.69475],[105.61617,20.70986],[105.61377,20.71904],[105.61359,20.72417],[105.60476,20.74488],[105.60167,20.76062],[105.59539,20.76743],[105.58999,20.76535],[105.57904,20.76372],[105.5676,20.76346],[105.54793,20.76513],[105.53968,20.76771],[105.53207,20.77164],[105.52456,20.77751],[105.51825,20.78463],[105.51362,20.79281],[105.51086,20.8017],[105.51014,20.81294],[105.51255,20.82756],[105.51523,20.83578],[105.51951,20.84337],[105.5241,20.84872],[105.5167,20.85726],[105.51264,20.86462],[105.50786,20.87676],[105.50146,20.8783],[105.48865,20.88335],[105.48044,20.88836],[105.47146,20.89208],[105.46149,20.89836],[105.4553,20.90385],[105.43847,20.90787],[105.42151,20.91746],[105.41511,20.92179],[105.40955,20.92704],[105.39953,20.94101],[105.39732,20.94574],[105.3897,20.95148],[105.38403,20.95768],[105.3804,20.95875],[105.36848,20.96528],[105.36311,20.96398],[105.35447,20.9634],[105.34585,20.96428],[105.33795,20.96647],[105.30898,20.96804],[105.29965,20.97081],[105.29111,20.97528],[105.2837,20.9813],[105.28048,20.98524],[105.26791,20.99545],[105.26136,21.00247],[105.25328,21.01759],[105.2484,21.03149],[105.24643,21.04481],[105.24663,21.05534],[105.24898,21.0684],[105.25154,21.07587],[105.25586,21.08582],[105.26871,21.10645],[105.26235,21.1143],[105.24795,21.13585],[105.243,21.14767],[105.24129,21.15449],[105.24073,21.16148],[105.24261,21.1775],[105.2439,21.18169],[105.24774,21.19056],[105.25363,21.19863]]]}}]}