{"type":"FeatureCollection","features":[{"type":"Feature","properties":{"kind":"boundary","province_code":"38","name":"Tỉnh Thanh Hóa","source":"VNSDI","valid_from":"16/6/2025","simplify_tolerance_deg":0.0005},"geometry":{"type":"MultiPolygon","coordinates":[[[[105.50838,19.46384],[105.50083,19.46181],[105.49431,19.45759],[105.49194,19.45311],[105.48834,19.45019],[105.47972,19.44923],[105.46796,19.45613],[105.46539,19.4561],[105.45463,19.44477],[105.44519,19.442],[105.43878,19.44931],[105.42888,19.45639],[105.41747,19.4565],[105.41054,19.45776],[105.40611,19.45274],[105.4015,19.4502],[105.39477,19.45154],[105.39,19.45629],[105.38908,19.45927],[105.38965,19.46182],[105.39223,19.46395],[105.39187,19.46603],[105.38377,19.47609],[105.37686,19.48822],[105.36688,19.49915],[105.36991,19.50369],[105.37118,19.51118],[105.36972,19.51806],[105.35527,19.53634],[105.35221,19.53834],[105.34362,19.53847],[105.33913,19.53707],[105.33429,19.53337],[105.33225,19.52958],[105.33006,19.52144],[105.3257,19.51838],[105.32487,19.50962],[105.32112,19.50656],[105.31567,19.50544],[105.31417,19.50425],[105.30871,19.49612],[105.30856,19.48948],[105.30686,19.48842],[105.30245,19.48842],[105.29787,19.48558],[105.29748,19.48464],[105.2986,19.48068],[105.29341,19.47486],[105.2905,19.48785],[105.28848,19.49145],[105.28443,19.49305],[105.27707,19.49313],[105.27685,19.49527],[105.27987,19.5037],[105.27935,19.50494],[105.27717,19.50626],[105.27267,19.50682],[105.27109,19.50841],[105.2739,19.51643],[105.26911,19.52705],[105.26907,19.52992],[105.27276,19.54538],[105.27201,19.55462],[105.27271,19.55846],[105.27662,19.56174],[105.27921,19.56242],[105.28092,19.56446],[105.28182,19.57046],[105.28138,19.57401],[105.27925,19.58117],[105.27574,19.58707],[105.27645,19.59031],[105.27995,19.59256],[105.28143,19.59473],[105.28029,19.60406],[105.27721,19.60634],[105.27393,19.60757],[105.27032,19.61232],[105.25707,19.64435],[105.24752,19.65629],[105.24509,19.65737],[105.24144,19.65586],[105.23877,19.64993],[105.23573,19.64625],[105.22431,19.64945],[105.21537,19.65652],[105.21049,19.66173],[105.19564,19.67181],[105.18092,19.67931],[105.17382,19.68042],[105.1672,19.68368],[105.16457,19.68676],[105.16388,19.69042],[105.16397,19.69849],[105.15989,19.70151],[105.15358,19.70876],[105.15565,19.71192],[105.16093,19.71662],[105.16232,19.72077],[105.16212,19.72245],[105.15926,19.72397],[105.15531,19.7234],[105.15117,19.72722],[105.14734,19.73251],[105.13579,19.74038],[105.13499,19.7691],[105.13287,19.77599],[105.12928,19.79668],[105.1288,19.8035],[105.1309,19.8133],[105.13051,19.82421],[105.13759,19.8288],[105.14603,19.83992],[105.14694,19.84664],[105.1494,19.85146],[105.15443,19.85392],[105.17513,19.85658],[105.18017,19.85808],[105.18621,19.86055],[105.18768,19.86392],[105.18658,19.87013],[105.18239,19.87965],[105.17275,19.91382],[105.16798,19.91868],[105.15925,19.92167],[105.15249,19.9222],[105.14697,19.92055],[105.14076,19.92214],[105.13458,19.92186],[105.11257,19.9338],[105.10382,19.93637],[105.09409,19.93739],[105.07212,19.9349],[105.06345,19.9325],[105.05228,19.93327],[105.04617,19.93582],[105.03874,19.94146],[105.01777,19.95293],[105.01276,19.95366],[105.00757,19.95314],[105.00413,19.95193],[105.00006,19.95623],[105.00073,19.9594],[104.99911,19.96226],[104.98724,19.96908],[104.9773,19.97637],[104.96918,19.97495],[104.96653,19.97591],[104.96478,19.97871],[104.96404,19.98872],[104.96116,19.99268],[104.95748,19.99296],[104.94506,19.98905],[104.92796,19.98947],[104.92477,19.99073],[104.9201,19.99708],[104.91399,19.99718],[104.91322,19.99902],[104.92129,20.01943],[104.93418,20.0355],[104.94114,20.04209],[104.95895,20.05177],[104.96591,20.05836],[104.97123,20.06184],[104.97451,20.06804],[104.97553,20.07695],[104.98024,20.08372],[104.987,20.0905],[104.98966,20.09476],[104.96672,20.10037],[104.96262,20.10328],[104.96118,20.11083],[104.9575,20.11412],[104.94192,20.1234],[104.92635,20.13598],[104.92307,20.14179],[104.92307,20.14566],[104.9245,20.14934],[104.92901,20.15244],[104.92962,20.15476],[104.92757,20.15844],[104.92327,20.15902],[104.91405,20.1534],[104.89745,20.14759],[104.87922,20.14467],[104.85545,20.14504],[104.84295,20.15064],[104.82963,20.15818],[104.81814,20.17075],[104.78839,20.19182],[104.77363,20.198],[104.73304,20.20085],[104.72074,20.20296],[104.68505,20.21645],[104.67542,20.21779],[104.67049,20.2201],[104.66822,20.22726],[104.66391,20.2319],[104.64566,20.23457],[104.63193,20.22874],[104.62495,20.23298],[104.61365,20.24419],[104.61116,20.2556],[104.60993,20.27242],[104.6182,20.2926],[104.62343,20.2994],[104.61639,20.30013],[104.6153,20.30392],[104.61894,20.32512],[104.61942,20.33858],[104.6161,20.35212],[104.61609,20.35716],[104.62489,20.3657],[104.64262,20.37406],[104.64897,20.38017],[104.65317,20.38095],[104.66352,20.3862],[104.67602,20.39416],[104.68565,20.40192],[104.68904,20.40193],[104.69571,20.39875],[104.7109,20.39877],[104.71449,20.40071],[104.71787,20.40469],[104.71827,20.40682],[104.70893,20.41174],[104.69535,20.42924],[104.68794,20.43532],[104.67972,20.44441],[104.66703,20.45077],[104.66332,20.45599],[104.66331,20.45928],[104.67028,20.46356],[104.67007,20.46878],[104.66452,20.4709],[104.65651,20.47166],[104.6444,20.47028],[104.63435,20.46523],[104.6241,20.45765],[104.62022,20.45164],[104.61489,20.44621],[104.61428,20.44389],[104.6184,20.43809],[104.6176,20.43131],[104.6131,20.42491],[104.60511,20.41928],[104.59629,20.41674],[104.58603,20.41498],[104.56448,20.41512],[104.54829,20.40869],[104.54028,20.41002],[104.53083,20.4129],[104.52837,20.41212],[104.52695,20.40611],[104.52698,20.39701],[104.52351,20.39217],[104.5106,20.38458],[104.49768,20.38396],[104.48662,20.37599],[104.47884,20.37152],[104.47064,20.37014],[104.46017,20.37185],[104.44989,20.37743],[104.44599,20.378],[104.42157,20.37792],[104.40842,20.38465],[104.40573,20.38948],[104.4057,20.39761],[104.40728,20.4131],[104.41487,20.42635],[104.38747,20.44169],[104.38233,20.44186],[104.37905,20.44282],[104.37801,20.44495],[104.38127,20.45115],[104.38085,20.45405],[104.37671,20.4614],[104.37567,20.46623],[104.37811,20.47089],[104.38712,20.47769],[104.38729,20.48699],[104.38831,20.48893],[104.41643,20.49077],[104.4236,20.49408],[104.44203,20.50866],[104.47096,20.51591],[104.47773,20.51981],[104.49634,20.5429],[104.50106,20.54446],[104.50619,20.54448],[104.51481,20.54895],[104.52097,20.54916],[104.52486,20.5515],[104.52691,20.55402],[104.52503,20.56428],[104.52604,20.57105],[104.5328,20.57707],[104.53544,20.58541],[104.54198,20.59859],[104.55839,20.60657],[104.56702,20.60775],[104.57647,20.60797],[104.58304,20.60953],[104.59024,20.60936],[104.59929,20.60667],[104.60257,20.60687],[104.60483,20.609],[104.60728,20.61443],[104.61384,20.62161],[104.62144,20.62414],[104.62738,20.62919],[104.63127,20.63675],[104.63627,20.65347],[104.64795,20.64164],[104.66186,20.62529],[104.66327,20.6243],[104.67469,20.62167],[104.68102,20.61722],[104.68313,20.61474],[104.68384,20.61193],[104.68352,20.59786],[104.68721,20.59621],[104.69037,20.59721],[104.69791,20.60335],[104.70177,20.60418],[104.71564,20.60454],[104.71951,20.60272],[104.7225,20.60025],[104.7269,20.58966],[104.7394,20.57463],[104.7415,20.57397],[104.75151,20.5768],[104.76019,20.58074],[104.76513,20.58153],[104.77625,20.57703],[104.7872,20.58293],[104.79935,20.58562],[104.80082,20.58851],[104.79893,20.61928],[104.81041,20.62971],[104.81518,20.63226],[104.82026,20.63843],[104.82693,20.64274],[104.84642,20.65086],[104.85203,20.66063],[104.85448,20.66196],[104.86046,20.66097],[104.8724,20.66213],[104.88066,20.66429],[104.88873,20.66992],[104.89992,20.66878],[104.93477,20.64662],[104.94514,20.64265],[104.94882,20.63967],[104.9541,20.63289],[104.95902,20.62859],[104.9606,20.62561],[104.95954,20.61982],[104.95779,20.61585],[104.95779,20.61353],[104.9599,20.60807],[104.96851,20.59534],[104.96763,20.59418],[104.96276,20.59475],[104.96279,20.58883],[104.96066,20.57941],[104.96016,20.57949],[104.96927,20.57677],[104.97309,20.57463],[104.98546,20.5721],[104.98755,20.57419],[105.0037,20.57315],[105.02114,20.56028],[105.02757,20.56159],[105.03356,20.55976],[105.04765,20.5586],[105.05239,20.56144],[105.05649,20.56933],[105.06038,20.57217],[105.06987,20.5752],[105.08001,20.57702],[105.08712,20.57459],[105.09122,20.57094],[105.09747,20.56972],[105.102,20.57134],[105.10524,20.57134],[105.1089,20.56809],[105.1102,20.56506],[105.11451,20.56303],[105.12141,20.5616],[105.12895,20.55775],[105.13326,20.5539],[105.13628,20.54782],[105.13951,20.54518],[105.15051,20.54396],[105.15547,20.54173],[105.15999,20.53666],[105.16193,20.5326],[105.16278,20.52531],[105.16429,20.52126],[105.16967,20.5168],[105.177,20.51659],[105.18304,20.51982],[105.19274,20.51738],[105.20353,20.51879],[105.20676,20.51797],[105.2115,20.51493],[105.2186,20.50803],[105.22661,20.50451],[105.23412,20.4962],[105.24476,20.48936],[105.24579,20.48692],[105.24033,20.48034],[105.24265,20.47498],[105.25355,20.47033],[105.26236,20.46397],[105.26469,20.45812],[105.26493,20.44714],[105.25842,20.43422],[105.27269,20.43298],[105.27761,20.43102],[105.28459,20.42249],[105.29238,20.41856],[105.30561,20.41659],[105.31753,20.41023],[105.34266,20.39457],[105.35173,20.39041],[105.36314,20.39038],[105.37558,20.38548],[105.39553,20.37568],[105.40434,20.37468],[105.41083,20.37564],[105.42149,20.3844],[105.42616,20.38658],[105.42953,20.38657],[105.46244,20.37625],[105.47852,20.37474],[105.48447,20.37204],[105.49068,20.3669],[105.50285,20.36053],[105.51063,20.35977],[105.51841,20.36024],[105.52335,20.36242],[105.52648,20.36875],[105.53038,20.37069],[105.53297,20.37068],[105.53763,20.36896],[105.54358,20.36333],[105.54356,20.35776],[105.54496,20.35011],[105.5484,20.34666],[105.55022,20.34341],[105.54877,20.3373],[105.54957,20.33195],[105.55139,20.33003],[105.55545,20.3283],[105.56133,20.32751],[105.56376,20.32559],[105.56477,20.32273],[105.56353,20.31833],[105.56414,20.3168],[105.57267,20.3162],[105.57672,20.31351],[105.58118,20.31216],[105.59541,20.31326],[105.60007,20.31133],[105.60614,20.30482],[105.60977,20.29926],[105.61218,20.29199],[105.61642,20.2851],[105.62007,20.28241],[105.629,20.28142],[105.64928,20.27428],[105.65676,20.2668],[105.66931,20.25701],[105.68221,20.23689],[105.68606,20.2342],[105.69113,20.23266],[105.69259,20.23089],[105.69331,20.22156],[105.69614,20.21926],[105.70364,20.21675],[105.71503,20.20984],[105.72209,20.20383],[105.73743,20.19295],[105.7435,20.1851],[105.76033,20.17882],[105.77376,20.176],[105.78131,20.17183],[105.794,20.16832],[105.8052,20.16068],[105.81397,20.15626],[105.82251,20.153],[105.82885,20.15182],[105.83201,20.14836],[105.83369,20.14375],[105.83662,20.14189],[105.84297,20.14186],[105.8498,20.13999],[105.85968,20.13313],[105.86561,20.12726],[105.87145,20.12355],[105.88824,20.11962],[105.89439,20.11976],[105.90555,20.1082],[105.90872,20.10657],[105.92213,20.10282],[105.9257,20.0988],[105.92697,20.09497],[105.92987,20.09036],[105.93794,20.08507],[105.9498,20.07392],[105.95587,20.06928],[105.9622,20.06649],[105.9705,20.06621],[105.9935,20.06876],[106.00494,20.0674],[106.01152,20.06575],[106.02027,20.05926],[106.03321,20.0601],[106.06238,20.06533],[106.06938,20.06495],[106.07303,20.06286],[106.07568,20.05778],[106.07417,20.05181],[106.06593,20.03653],[106.06517,20.02928],[106.06149,20.01842],[106.05379,20.00571],[106.05107,20.00321],[106.04674,20.00145],[106.03814,20.00109],[106.03346,19.99965],[106.02947,19.99596],[106.02717,19.9924],[106.02468,19.98429],[106.02435,19.97389],[106.02521,19.96477],[106.01497,19.96034],[106.01094,19.9596],[106.00415,19.95612],[106.00172,19.95185],[105.99584,19.94728],[105.98521,19.94445],[105.97039,19.93611],[105.95893,19.92695],[105.95423,19.92048],[105.94997,19.90733],[105.94991,19.89801],[105.94888,19.89127],[105.96585,19.89004],[105.96293,19.8878],[105.95643,19.88041],[105.94796,19.86811],[105.94058,19.85296],[105.93477,19.83581],[105.93167,19.82011],[105.93146,19.81053],[105.9332,19.80092],[105.93521,19.79776],[105.93751,19.79602],[105.93749,19.79462],[105.93045,19.78923],[105.93438,19.78101],[105.92075,19.76455],[105.9094,19.74889],[105.90215,19.73644],[105.90032,19.73212],[105.89847,19.72348],[105.89745,19.72195],[105.89551,19.72111],[105.88914,19.72225],[105.88374,19.72825],[105.87887,19.73064],[105.87813,19.7288],[105.86989,19.72305],[105.86247,19.71572],[105.85747,19.70887],[105.84625,19.68753],[105.83995,19.67199],[105.83379,19.65338],[105.8291,19.63797],[105.82422,19.61474],[105.81934,19.58425],[105.81228,19.57978],[105.81469,19.56968],[105.81176,19.56007],[105.80649,19.51956],[105.80565,19.48659],[105.80658,19.46195],[105.81018,19.43586],[105.81271,19.43294],[105.81286,19.42837],[105.8113,19.42702],[105.80913,19.42723],[105.80603,19.4302],[105.80468,19.43048],[105.80036,19.42885],[105.79757,19.42664],[105.79428,19.42155],[105.79265,19.41684],[105.79145,19.40837],[105.79271,19.4067],[105.79228,19.40458],[105.78864,19.40207],[105.78555,19.40264],[105.78407,19.39892],[105.78508,19.38576],[105.79202,19.35988],[105.80262,19.33782],[105.80977,19.33176],[105.81321,19.33042],[105.81461,19.33106],[105.81714,19.33608],[105.8203,19.33551],[105.8228,19.33705],[105.82345,19.33959],[105.82136,19.34013],[105.82273,19.3423],[105.82399,19.34222],[105.82544,19.34049],[105.82586,19.33143],[105.8233,19.32475],[105.82478,19.31939],[105.82782,19.31462],[105.82782,19.30517],[105.82679,19.30275],[105.82224,19.30308],[105.81851,19.31122],[105.81429,19.31546],[105.81202,19.32148],[105.81007,19.32106],[105.8116,19.31428],[105.80298,19.3139],[105.80334,19.31193],[105.81221,19.30902],[105.80943,19.29947],[105.80878,19.29414],[105.80601,19.29034],[105.80518,19.2878],[105.8011,19.301],[105.80006,19.30154],[105.79153,19.29894],[105.77905,19.29651],[105.77471,19.2947],[105.77266,19.29226],[105.76726,19.29278],[105.76351,19.29446],[105.75861,19.30266],[105.7553,19.30636],[105.75359,19.30615],[105.75059,19.30353],[105.74888,19.30313],[105.74786,19.30398],[105.74478,19.30903],[105.74274,19.32049],[105.74141,19.32126],[105.73969,19.32105],[105.72923,19.31435],[105.7244,19.31378],[105.72536,19.3107],[105.71304,19.3041],[105.70167,19.30386],[105.68916,19.30126],[105.68643,19.30181],[105.68489,19.30352],[105.67704,19.31857],[105.67481,19.31979],[105.67289,19.31977],[105.66432,19.31433],[105.66402,19.31965],[105.66504,19.32702],[105.66718,19.33427],[105.66788,19.34014],[105.66236,19.34272],[105.65721,19.34225],[105.65537,19.34411],[105.65431,19.34666],[105.65342,19.35247],[105.6431,19.35308],[105.63836,19.36699],[105.63483,19.36577],[105.63293,19.36623],[105.62672,19.3804],[105.6206,19.38223],[105.61908,19.38155],[105.61482,19.37631],[105.61176,19.36988],[105.60952,19.36851],[105.60675,19.36839],[105.60044,19.37079],[105.59622,19.36968],[105.59027,19.37048],[105.58186,19.38111],[105.58269,19.39005],[105.58006,19.39332],[105.57027,19.39998],[105.56811,19.40267],[105.56241,19.41364],[105.54541,19.43221],[105.53771,19.44743],[105.53491,19.45577],[105.52481,19.46361],[105.51941,19.46439],[105.50838,19.46384]]],[[[105.89846,19.34851],[105.90289,19.34605],[105.90529,19.34238],[105.90513,19.34144],[105.90429,19.34108],[105.89995,19.34315],[105.8979,19.34572],[105.89846,19.34851]]],[[[105.93607,19.35442],[105.93571,19.34652],[105.93445,19.34659],[105.92983,19.35001],[105.92968,19.35484],[105.9303,19.35609],[105.93154,19.35645],[105.93607,19.35442]]],[[[105.87793,19.35139],[105.87741,19.35431],[105.87794,19.35443],[105.87848,19.35281],[105.87793,19.35139]]],[[[105.87171,19.35731],[105.87338,19.35827],[105.87443,19.35775],[105.87387,19.3563],[105.87171,19.35731]]],[[[105.92922,19.35808],[105.93034,19.35895],[105.93002,19.35762],[105.92922,19.35808]]],[[[105.91123,19.36633],[105.91234,19.36702],[105.91189,19.36582],[105.91123,19.36633]]],[[[105.90943,19.36694],[105.90666,19.37072],[105.90724,19.37158],[105.90973,19.36828],[105.90943,19.36694]]],[[[105.93797,19.37474],[105.93376,19.37093],[105.93366,19.36385],[105.93108,19.36109],[105.9273,19.35872],[105.92361,19.36045],[105.91437,19.36815],[105.91305,19.37168],[105.91394,19.38189],[105.91474,19.3832],[105.91599,19.38312],[105.91804,19.37998],[105.92102,19.37988],[105.92808,19.38417],[105.93007,19.38395],[105.93586,19.37978],[105.93795,19.37707],[105.93797,19.37474]]],[[[105.94351,19.78557],[105.94043,19.78688],[105.94252,19.78695],[105.94373,19.78863],[105.94545,19.78755],[105.94351,19.78557]]],[[[106.00534,19.91262],[106.00635,19.91371],[106.00805,19.91394],[106.01153,19.91316],[106.01216,19.9122],[106.00581,19.91206],[106.00534,19.91262]]]]}},{"type":"Feature","properties":{"kind":"buffer","province_code":"38","buffer_m":5000,"source":"derived","simplify_tolerance_deg":0.0005},"geometry":{"type":"Polygon","coordinates":[[[104.33061,20.45039],[104.32883,20.45717],[104.32786,20.4671],[104.32923,20.47698],[104.33285,20.48635],[104.34183,20.50016],[104.34549,20.50905],[104.35061,20.51674],[104.35725,20.52331],[104.36514,20.52849],[104.37398,20.53207],[104.38339,20.53391],[104.40066,20.5349],[104.4089,20.54181],[104.42181,20.54963],[104.43031,20.5525],[104.44686,20.55651],[104.45919,20.57136],[104.46534,20.57732],[104.47254,20.58212],[104.48097,20.58572],[104.48631,20.59622],[104.49064,20.60105],[104.49969,20.61969],[104.50547,20.62778],[104.51294,20.63451],[104.52176,20.63956],[104.54287,20.64934],[104.56016,20.6525],[104.58118,20.65441],[104.58852,20.65981],[104.59336,20.67341],[104.59821,20.68084],[104.60448,20.68725],[104.61194,20.6924],[104.6203,20.6961],[104.62926,20.6982],[104.63848,20.69864],[104.64762,20.6974],[104.65633,20.69452],[104.6643,20.69011],[104.67122,20.68433],[104.69029,20.66418],[104.69509,20.66257],[104.70323,20.65795],[104.71371,20.64972],[104.72592,20.6487],[104.73688,20.64505],[104.74075,20.64323],[104.75398,20.63428],[104.75646,20.64005],[104.76115,20.64699],[104.77646,20.66155],[104.78198,20.66554],[104.78753,20.67139],[104.79996,20.68008],[104.81272,20.68612],[104.82033,20.69448],[104.8308,20.70124],[104.8383,20.7045],[104.84627,20.7065],[104.8545,20.70717],[104.86073,20.70666],[104.86628,20.70984],[104.87619,20.71356],[104.88673,20.7151],[104.91035,20.71291],[104.91801,20.71064],[104.92516,20.70719],[104.95738,20.68688],[104.96484,20.68385],[104.97986,20.67407],[104.99722,20.65578],[105.00174,20.64889],[105.00688,20.63696],[105.00837,20.6275],[105.00792,20.62097],[105.00969,20.61801],[105.02503,20.61362],[105.03301,20.60909],[105.0378,20.61203],[105.05456,20.61804],[105.0711,20.62145],[105.07956,20.62224],[105.08804,20.6216],[105.1046,20.61656],[105.1142,20.61575],[105.12282,20.61339],[105.13081,20.60954],[105.13937,20.60306],[105.15167,20.59754],[105.16179,20.59062],[105.1664,20.58644],[105.17602,20.58255],[105.18467,20.57753],[105.192,20.57089],[105.19794,20.5637],[105.20728,20.56387],[105.21583,20.56248],[105.22662,20.55911],[105.23362,20.55538],[105.24673,20.54553],[105.25451,20.54123],[105.26658,20.53028],[105.27971,20.52022],[105.28511,20.51362],[105.28914,20.50619],[105.29139,20.49989],[105.2979,20.49422],[105.30322,20.48745],[105.30945,20.47401],[105.31164,20.46665],[105.31214,20.46219],[105.31325,20.46118],[105.32114,20.45935],[105.32911,20.45597],[105.34383,20.44799],[105.3638,20.43555],[105.37257,20.43471],[105.38153,20.43212],[105.39973,20.42457],[105.41535,20.43063],[105.42628,20.4318],[105.43821,20.43104],[105.47303,20.42049],[105.49053,20.41851],[105.49918,20.41552],[105.50838,20.4108],[105.51898,20.4146],[105.53312,20.4159],[105.54189,20.4151],[105.55036,20.4128],[105.56379,20.40681],[105.57145,20.40092],[105.58337,20.3884],[105.58779,20.38055],[105.5905,20.37203],[105.59098,20.36723],[105.59435,20.36035],[105.59642,20.3584],[105.60527,20.35751],[105.61454,20.3547],[105.62825,20.34786],[105.63595,20.34122],[105.64202,20.3347],[105.65095,20.32199],[105.66639,20.3165],[105.67586,20.31186],[105.70557,20.28647],[105.71572,20.2713],[105.72224,20.26699],[105.72878,20.26053],[105.73526,20.25129],[105.76248,20.23197],[105.77292,20.22269],[105.79121,20.2181],[105.79969,20.21404],[105.81648,20.20823],[105.83,20.19942],[105.8362,20.19654],[105.84817,20.19319],[105.85732,20.18815],[105.86252,20.18358],[105.87087,20.18058],[105.87798,20.17652],[105.89353,20.16497],[105.90295,20.16424],[105.91225,20.1617],[105.92082,20.15743],[105.93321,20.14692],[105.94613,20.14193],[105.95468,20.13594],[105.96383,20.12622],[105.96712,20.12063],[105.97627,20.11248],[105.98969,20.11383],[105.99946,20.11362],[106.01717,20.11111],[106.03266,20.10627],[106.05902,20.11043],[106.07084,20.11035],[106.08512,20.10765],[106.09782,20.10152],[106.10506,20.09643],[106.11116,20.09014],[106.11855,20.0778],[106.12155,20.07052],[106.12319,20.06285],[106.1234,20.05503],[106.12068,20.04132],[106.1172,20.03209],[106.11251,20.02295],[106.10667,20.00362],[106.10292,19.99574],[106.09092,19.97719],[106.0848,19.97088],[106.07279,19.96291],[106.0709,19.95146],[106.06706,19.9429],[106.06144,19.93527],[106.05602,19.93042],[106.0587,19.92281],[106.05986,19.91529],[106.05962,19.90677],[106.05782,19.89878],[106.05452,19.89122],[106.04983,19.88436],[106.04392,19.8784],[106.03697,19.87354],[106.02857,19.86965],[106.01777,19.86714],[106.00652,19.86679],[106.00344,19.8621],[105.99359,19.85185],[105.98809,19.84275],[105.98345,19.83199],[105.97968,19.81855],[105.98539,19.8124],[105.98942,19.80531],[105.99205,19.79765],[105.99321,19.78967],[105.99288,19.78149],[105.99108,19.77376],[105.98759,19.7659],[105.98296,19.75905],[105.97584,19.75202],[105.96576,19.74561],[105.95671,19.73435],[105.94603,19.71814],[105.94471,19.71198],[105.94007,19.70118],[105.93333,19.69206],[105.92649,19.68602],[105.92031,19.68214],[105.91357,19.67921],[105.90375,19.67657],[105.89331,19.67606],[105.88517,19.65725],[105.8756,19.62729],[105.87125,19.6066],[105.86624,19.57547],[105.862,19.5642],[105.85739,19.54241],[105.85422,19.51666],[105.85351,19.48761],[105.85429,19.46518],[105.85584,19.45244],[105.86009,19.43933],[105.8607,19.42639],[105.85862,19.41527],[105.85508,19.40714],[105.84994,19.39982],[105.84551,19.39531],[105.85272,19.39905],[105.85986,19.40164],[105.872,19.40333],[105.87864,19.41285],[105.8851,19.41868],[105.8926,19.42328],[105.90088,19.42648],[105.91031,19.42823],[105.92642,19.42941],[105.93472,19.42905],[105.9471,19.42621],[105.9579,19.42085],[105.9682,19.41311],[105.97666,19.40362],[105.98102,19.39672],[105.98401,19.3892],[105.98571,19.38151],[105.986,19.37384],[105.98475,19.36492],[105.98338,19.36117],[105.984,19.35252],[105.98347,19.34233],[105.98145,19.33331],[105.97856,19.32644],[105.97452,19.32011],[105.96941,19.31445],[105.96124,19.30829],[105.95474,19.30501],[105.94761,19.30267],[105.93773,19.30118],[105.92768,19.30167],[105.91569,19.29716],[105.90512,19.29586],[105.8945,19.29681],[105.88437,19.29997],[105.87563,19.30446],[105.8752,19.29909],[105.87167,19.28686],[105.86772,19.27937],[105.86195,19.2721],[105.85475,19.26607],[105.84643,19.26152],[105.84318,19.26053],[105.83607,19.25329],[105.82865,19.24841],[105.82039,19.24493],[105.81159,19.24299],[105.80256,19.24265],[105.79362,19.24393],[105.78276,19.24806],[105.77283,19.24685],[105.75897,19.24824],[105.74299,19.25362],[105.72945,19.26204],[105.7206,19.25945],[105.70483,19.25848],[105.69827,19.25687],[105.68876,19.25604],[105.67927,19.25702],[105.66659,19.26066],[105.65759,19.26574],[105.65181,19.2709],[105.64764,19.27195],[105.63932,19.27578],[105.63194,19.28105],[105.62577,19.28757],[105.62105,19.29509],[105.61794,19.30333],[105.61635,19.31586],[105.60723,19.32333],[105.58221,19.32572],[105.57033,19.32938],[105.56028,19.33527],[105.55253,19.34273],[105.54281,19.35502],[105.53836,19.36235],[105.53606,19.36863],[105.53002,19.37533],[105.52281,19.38796],[105.5051,19.40789],[105.49148,19.40483],[105.47538,19.40432],[105.46712,19.40077],[105.45779,19.39821],[105.44409,19.3968],[105.43445,19.39794],[105.42525,19.40091],[105.41516,19.40703],[105.40913,19.40556],[105.40037,19.40499],[105.38492,19.40729],[105.37622,19.40987],[105.36819,19.41396],[105.36113,19.41941],[105.35216,19.42862],[105.34757,19.43544],[105.34473,19.44173],[105.34099,19.45625],[105.33663,19.45295],[105.32908,19.44451],[105.31884,19.43657],[105.31065,19.43268],[105.30184,19.43035],[105.29271,19.42964],[105.28362,19.4306],[105.27488,19.43317],[105.26682,19.43728],[105.25973,19.44276],[105.25388,19.44942],[105.25016,19.45583],[105.24161,19.4628],[105.23586,19.4702],[105.23182,19.47854],[105.22997,19.48557],[105.22795,19.48892],[105.22445,19.49845],[105.22328,19.50848],[105.22362,19.51382],[105.22272,19.5161],[105.22126,19.52933],[105.22458,19.54832],[105.2249,19.56236],[105.22929,19.57708],[105.22794,19.58815],[105.22832,19.59125],[105.2233,19.60251],[105.20978,19.60638],[105.2017,19.60961],[105.19438,19.61419],[105.17895,19.62721],[105.16936,19.63388],[105.16538,19.63596],[105.15869,19.63752],[105.1517,19.64033],[105.13694,19.64868],[105.13005,19.65522],[105.12292,19.66456],[105.11958,19.67145],[105.11765,19.67829],[105.11127,19.68721],[105.10729,19.69744],[105.10602,19.70523],[105.09708,19.71384],[105.09266,19.72086],[105.08966,19.72851],[105.0877,19.74157],[105.08727,19.76235],[105.08214,19.78909],[105.08109,19.8005],[105.08293,19.81709],[105.08337,19.83173],[105.0859,19.84046],[105.09021,19.84854],[105.09614,19.85564],[105.10117,19.85966],[105.10634,19.87112],[105.1137,19.88123],[105.09402,19.8919],[105.08075,19.89021],[105.06872,19.88756],[105.06,19.8874],[105.04074,19.88938],[105.03298,19.8919],[105.02687,19.89445],[105.00651,19.90686],[105.00099,19.90667],[104.99094,19.90839],[104.98122,19.91223],[104.97494,19.9161],[104.96893,19.92104],[104.96108,19.93039],[104.95412,19.9319],[104.94556,19.93527],[104.93661,19.94064],[104.93308,19.94399],[104.918,19.94525],[104.90868,19.94802],[104.90169,19.95113],[104.88186,19.9637],[104.87401,19.97238],[104.86842,19.98268],[104.86593,19.99237],[104.86563,20.00336],[104.86814,20.01409],[104.87696,20.03638],[104.88348,20.04711],[104.90036,20.06747],[104.90732,20.07405],[104.92003,20.08274],[104.91014,20.08963],[104.89566,20.10144],[104.87926,20.09945],[104.85369,20.09985],[104.8441,20.10111],[104.83498,20.10418],[104.82248,20.10978],[104.80434,20.1198],[104.79439,20.12762],[104.78477,20.13783],[104.76157,20.1536],[104.72451,20.15636],[104.70464,20.16038],[104.67291,20.17243],[104.66113,20.17464],[104.64922,20.17961],[104.64099,20.18452],[104.63385,20.18356],[104.62414,20.18412],[104.61475,20.18654],[104.60608,20.1907],[104.59189,20.20032],[104.58352,20.20812],[104.57287,20.22059],[104.56918,20.22758],[104.56682,20.23506],[104.56347,20.25239],[104.5623,20.27642],[104.56333,20.28281],[104.56638,20.2924],[104.56848,20.29593],[104.56758,20.30103],[104.56794,20.31015],[104.57127,20.3299],[104.57141,20.33376],[104.56917,20.3435],[104.56829,20.35202],[104.56903,20.36513],[104.56996,20.36834],[104.56197,20.36556],[104.55613,20.35911],[104.54754,20.35307],[104.52993,20.34322],[104.52166,20.34059],[104.51518,20.33971],[104.50368,20.33288],[104.49574,20.32922],[104.48721,20.327],[104.47076,20.32492],[104.4625,20.32558],[104.44297,20.32966],[104.43685,20.33257],[104.42103,20.3327],[104.41068,20.33389],[104.40085,20.33717],[104.38868,20.343],[104.3764,20.35107],[104.37066,20.3569],[104.3661,20.3636],[104.35933,20.37856],[104.35792,20.38932],[104.35815,20.40236],[104.34756,20.40879],[104.34075,20.41575],[104.33562,20.42391],[104.33172,20.43363],[104.33033,20.44158],[104.33061,20.45039]],[[105.83839,19.38977],[105.83711,19.38898],[105.8367,19.38813],[105.83747,19.38905],[105.83839,19.38977]]]}}]}