{"type":"FeatureCollection","features":[{"type":"Feature","geometry":{"type":"MultiPolygon","coordinates":[[[[105.779632,19.809177],[105.780517,19.809036],[105.780436,19.807603],[105.784454,19.807067],[105.784513,19.807123],[105.783473,19.811706],[105.780812,19.812407],[105.779701,19.810131],[105.779632,19.809177]]]]},"properties":{"group":"public","tag":"leisure=park","name":"Công viên Hội An","levels":null,"lat":19.809612620760603,"lng":105.78206606486137,"osm_type":"way","osm_id":586046883}},{"type":"Feature","geometry":{"type":"MultiPolygon","coordinates":[[[[105.781494,19.734739],[105.781796,19.732406],[105.782608,19.732499],[105.782676,19.732598],[105.782385,19.734841],[105.781494,19.734739]]]]},"properties":{"group":"public","tag":"leisure=park","name":"Công viên Hoà Vang","levels":null,"lat":19.733625574536855,"lng":105.7820899130005,"osm_type":"way","osm_id":628802265}},{"type":"Feature","geometry":{"type":"MultiPolygon","coordinates":[[[[105.782055,19.80849],[105.782243,19.808505],[105.78245,19.808559],[105.78266,19.80865],[105.782844,19.808799],[105.782974,19.808977],[105.783083,19.809193],[105.783128,19.809334],[105.783152,19.809522],[105.783146,19.809647],[105.783128,19.809777],[105.782601,19.809632],[105.782604,19.809502],[105.782549,19.809381],[105.782494,19.80928],[105.782403,19.809189],[105.782268,19.809087],[105.782112,19.809029],[105.782055,19.80849]]]]},"properties":{"group":"public","tag":"leisure=garden","name":null,"levels":null,"lat":19.80909801773016,"lng":105.7826367817013,"osm_type":"way","osm_id":640065481}},{"type":"Feature","geometry":{"type":"MultiPolygon","coordinates":[[[[105.768437,19.812903],[105.768488,19.812822],[105.768985,19.812757],[105.769051,19.812796],[105.769105,19.813159],[105.768472,19.81324],[105.768437,19.812903]]]]},"properties":{"group":"public","tag":"leisure=garden","name":null,"levels":null,"lat":19.81299775925137,"lng":105.76876438635159,"osm_type":"way","osm_id":640066815}},{"type":"Feature","geometry":{"type":"MultiPolygon","coordinates":[[[[105.76852,19.8135],[105.769137,19.81343],[105.769184,19.813799],[105.768568,19.813869],[105.76852,19.8135]]]]},"properties":{"group":"public","tag":"leisure=garden","name":null,"levels":null,"lat":19.813649345254767,"lng":105.76885237281076,"osm_type":"way","osm_id":640066816}},{"type":"Feature","geometry":{"type":"MultiPolygon","coordinates":[[[[105.769322,19.813395],[105.769707,19.813346],[105.769758,19.813703],[105.769373,19.813752],[105.769322,19.813395]]]]},"properties":{"group":"public","tag":"leisure=garden","name":null,"levels":null,"lat":19.813549199999997,"lng":105.76953984999999,"osm_type":"way","osm_id":640066817}},{"type":"Feature","geometry":{"type":"MultiPolygon","coordinates":[[[[105.771387,19.813187],[105.771757,19.81314],[105.771806,19.813487],[105.771435,19.813533],[105.771387,19.813187]]]]},"properties":{"group":"public","tag":"leisure=garden","name":null,"levels":null,"lat":19.813336799999995,"lng":105.77159639999999,"osm_type":"way","osm_id":640066818}},{"type":"Feature","geometry":{"type":"MultiPolygon","coordinates":[[[[105.771837,19.812475],[105.771877,19.812409],[105.772417,19.812333],[105.77251,19.812391],[105.772559,19.812709],[105.772526,19.812742],[105.771918,19.812813],[105.771888,19.812785],[105.771837,19.812475]]]]},"properties":{"group":"public","tag":"leisure=garden","name":null,"levels":null,"lat":19.81257479610336,"lng":105.77219670108043,"osm_type":"way","osm_id":640066819}},{"type":"Feature","geometry":{"type":"MultiPolygon","coordinates":[[[[105.778294,19.799487],[105.778342,19.799433],[105.778405,19.799413],[105.778516,19.799416],[105.77908,19.799744],[105.779023,19.799854],[105.778462,19.799925],[105.778364,19.799883],[105.778297,19.799568],[105.778294,19.799487]]]]},"properties":{"group":"public","tag":"leisure=park","name":null,"levels":null,"lat":19.799692160872684,"lng":105.77861922829075,"osm_type":"way","osm_id":640070014}},{"type":"Feature","geometry":{"type":"MultiPolygon","coordinates":[[[[105.800669,19.799278],[105.803415,19.798959],[105.802509,19.800988],[105.802319,19.800903],[105.802285,19.800705],[105.802225,19.800531],[105.802148,19.80039],[105.802027,19.800261],[105.80189,19.800147],[105.801735,19.800062],[105.801589,19.800018],[105.801391,19.799982],[105.801258,19.799978],[105.800755,19.800042],[105.800669,19.799278]],[[105.801648,19.799724],[105.801659,19.799782],[105.801697,19.799837],[105.801745,19.799873],[105.801801,19.799858],[105.801892,19.799827],[105.801949,19.79983],[105.802002,19.799858],[105.802079,19.799946],[105.802103,19.799992],[105.802128,19.80004],[105.802147,19.800076],[105.802158,19.800131],[105.802177,19.800178],[105.802238,19.800251],[105.802329,19.800289],[105.802447,19.800307],[105.802568,19.800289],[105.802635,19.800251],[105.802678,19.800176],[105.802794,19.799873],[105.802858,19.799777],[105.802909,19.799731],[105.802993,19.799688],[105.803057,19.799619],[105.803095,19.799536],[105.803104,19.799445],[105.803083,19.799357],[105.803035,19.799278],[105.802959,19.799215],[105.802867,19.799179],[105.802766,19.799171],[105.802669,19.799195],[105.802618,19.799225],[105.802584,19.799246],[105.802445,19.799312],[105.802364,19.799329],[105.802287,19.79933],[105.802179,19.799307],[105.802021,19.799259],[105.801951,19.799227],[105.801903,19.799212],[105.801856,19.799217],[105.801833,19.799232],[105.80183,19.799256],[105.80184,19.79928],[105.801885,19.799325],[105.801897,19.799349],[105.801897,19.799357],[105.801892,19.799403],[105.801874,19.799441],[105.801836,19.799479],[105.80175,19.799562],[105.801675,19.799666],[105.801648,19.799724]]]]},"properties":{"group":"public","tag":"leisure=garden","name":null,"levels":null,"lat":19.799732213906264,"lng":105.80191915358589,"osm_type":"relation","osm_id":8877760}},{"type":"Feature","geometry":{"type":"MultiPolygon","coordinates":[[[[105.891498,19.726727],[105.891544,19.726402],[105.892108,19.726397],[105.892332,19.726824],[105.891884,19.727106],[105.89174,19.727073],[105.891498,19.726727]]]]},"properties":{"group":"public","tag":"leisure=park","name":"Công Viên Hòn Trống Mái","levels":null,"lat":19.72671337328193,"lng":105.89188367049594,"osm_type":"way","osm_id":647769584}},{"type":"Feature","geometry":{"type":"MultiPolygon","coordinates":[[[[105.887782,19.737537],[105.888574,19.736949],[105.888721,19.73684],[105.8891,19.737185],[105.888969,19.737292],[105.888205,19.737973],[105.887782,19.737537]]]]},"properties":{"group":"edu_health","tag":"amenity=school","name":"Trường Trung học cơ sở Trường Sơn","levels":null,"lat":19.737395042947806,"lng":105.8884377135663,"osm_type":"way","osm_id":647777934}},{"type":"Feature","geometry":{"type":"MultiPolygon","coordinates":[[[[105.897205,19.731377],[105.897429,19.731351],[105.898224,19.731238],[105.89824,19.731869],[105.898335,19.732824],[105.897663,19.732972],[105.897205,19.731377]]]]},"properties":{"group":"edu_health","tag":"amenity=hospital","name":"Bệnh viện Điều dưỡng - Phục hồi chức năng Trung ương","levels":null,"lat":19.73205334598712,"lng":105.89783804595668,"osm_type":"way","osm_id":647777938}},{"type":"Feature","geometry":{"type":"MultiPolygon","coordinates":[[[[105.771626,19.811332],[105.772402,19.811211],[105.772556,19.812079],[105.771779,19.8122],[105.771626,19.811332]]]]},"properties":{"group":"public","tag":"leisure=park","name":"Công viên cây xanh","levels":null,"lat":19.8117056,"lng":105.77209069999999,"osm_type":"way","osm_id":675939898}},{"type":"Feature","geometry":{"type":"MultiPolygon","coordinates":[[[[105.777735,19.802074],[105.778542,19.801982],[105.778724,19.803394],[105.777862,19.803441],[105.777735,19.802074]]]]},"properties":{"group":"public","tag":"leisure=park","name":null,"levels":null,"lat":19.802729405184433,"lng":105.77821903298292,"osm_type":"way","osm_id":675943300}},{"type":"Feature","geometry":{"type":"MultiPolygon","coordinates":[[[[105.775706,19.806968],[105.776417,19.806899],[105.776465,19.806917],[105.776498,19.806961],[105.776577,19.807539],[105.776551,19.807582],[105.776499,19.807603],[105.775783,19.807683],[105.775706,19.806968]]]]},"properties":{"group":"public","tag":"leisure=park","name":"Le Loi Monument Park","levels":null,"lat":19.80728588163754,"lng":105.77613733182648,"osm_type":"way","osm_id":675946666}},{"type":"Feature","geometry":{"type":"MultiPolygon","coordinates":[[[[105.777909,19.814554],[105.77878,19.814503],[105.778814,19.814829],[105.777942,19.814907],[105.777909,19.814554]]]]},"properties":{"group":"public","tag":"leisure=park","name":null,"levels":null,"lat":19.814698992402242,"lng":105.77835569136565,"osm_type":"way","osm_id":675949126}},{"type":"Feature","geometry":{"type":"MultiPolygon","coordinates":[[[[105.891724,19.732665],[105.892128,19.732398],[105.892612,19.73294],[105.892168,19.733235],[105.891724,19.732665]]]]},"properties":{"group":"edu_health","tag":"amenity=school","name":"Trường Tiểu Học Trường Sơn","levels":null,"lat":19.73281409235367,"lng":105.89216185120793,"osm_type":"way","osm_id":688119887}},{"type":"Feature","geometry":{"type":"MultiPolygon","coordinates":[[[[105.894163,19.73171],[105.894607,19.731368],[105.89489,19.731852],[105.894554,19.732206],[105.894163,19.73171]]]]},"properties":{"group":"edu_health","tag":"amenity=school","name":"Trung Tâm Giáo Dục Thường Xuyên","levels":null,"lat":19.731781365425242,"lng":105.8945447134466,"osm_type":"way","osm_id":688120118}},{"type":"Feature","geometry":{"type":"MultiPolygon","coordinates":[[[[105.898625,19.736413],[105.899309,19.736205],[105.899678,19.737189],[105.898939,19.737407],[105.898625,19.736413]]]]},"properties":{"group":"public","tag":"leisure=park","name":"Công viên trung tâm Sầm Sơn","levels":null,"lat":19.736809443496515,"lng":105.8991403501801,"osm_type":"way","osm_id":688120166}},{"type":"Feature","geometry":{"type":"MultiPolygon","coordinates":[[[[105.897119,19.736903],[105.897169,19.736843],[105.898339,19.736568],[105.898405,19.736607],[105.898507,19.736971],[105.898452,19.737031],[105.897246,19.737318],[105.897171,19.737287],[105.897119,19.736903]]]]},"properties":{"group":"public","tag":"leisure=playground","name":null,"levels":null,"lat":19.73694192797132,"lng":105.89779951048354,"osm_type":"way","osm_id":688120217}},{"type":"Feature","geometry":{"type":"MultiPolygon","coordinates":[[[[105.895684,19.73463],[105.89614,19.734542],[105.896479,19.734443],[105.896844,19.734331],[105.896982,19.735023],[105.896872,19.735015],[105.895734,19.735171],[105.895684,19.73463]]]]},"properties":{"group":"edu_health","tag":"amenity=school","name":"Trường Trung học phổ thông Sầm Sơn","levels":null,"lat":19.73478848041937,"lng":105.89633712491448,"osm_type":"way","osm_id":688120415}},{"type":"Feature","geometry":{"type":"MultiPolygon","coordinates":[[[[105.521362,19.930627],[105.522003,19.929537],[105.52358,19.930333],[105.522872,19.931397],[105.521362,19.930627]]]]},"properties":{"group":"edu_health","tag":"amenity=school","name":"Trường Trung học phổ thông Lê Lợi","levels":null,"lat":19.93047014894735,"lng":105.52245711336013,"osm_type":"way","osm_id":833519636}},{"type":"Feature","geometry":{"type":"MultiPolygon","coordinates":[[[[105.680253,19.859152],[105.680433,19.859021],[105.680628,19.859044],[105.681731,19.859692],[105.681575,19.859987],[105.682002,19.860224],[105.681369,19.861185],[105.680931,19.860946],[105.68091,19.860852],[105.680476,19.86059],[105.68036,19.85948],[105.680258,19.859278],[105.680253,19.859152]]]]},"properties":{"group":"edu_health","tag":"amenity=hospital","name":"Bệnh viện Đa khoa Đại An","levels":null,"lat":19.86008046317804,"lng":105.68104925484936,"osm_type":"way","osm_id":845086839}},{"type":"Feature","geometry":{"type":"MultiPolygon","coordinates":[[[[105.670635,19.863786],[105.671327,19.863705],[105.671959,19.863663],[105.672018,19.86396],[105.672024,19.864301],[105.671994,19.864596],[105.6713,19.864687],[105.671002,19.864889],[105.67072,19.864904],[105.670635,19.863786]]]]},"properties":{"group":"edu_health","tag":"amenity=school","name":"Trường Trung học phổ thông Lê Văn Hưu","levels":null,"lat":19.864224905391595,"lng":105.6713142351184,"osm_type":"way","osm_id":845086904}},{"type":"Feature","geometry":{"type":"MultiPolygon","coordinates":[[[[105.76361,19.427116],[105.763641,19.427038],[105.765215,19.426278],[105.765277,19.426294],[105.766108,19.427865],[105.766104,19.427917],[105.766063,19.427961],[105.766018,19.428008],[105.764495,19.4287],[105.76444,19.428666],[105.76361,19.427116]]]]},"properties":{"group":"edu_health","tag":"amenity=hospital","name":"Bệnh viện Đa khoa Quốc tế Hợp Lực","levels":null,"lat":19.427493727451875,"lng":105.76486623187012,"osm_type":"way","osm_id":954924148}},{"type":"Feature","geometry":{"type":"MultiPolygon","coordinates":[[[[105.771517,19.436194],[105.771962,19.435935],[105.772325,19.436488],[105.77188,19.436747],[105.771517,19.436194]]]]},"properties":{"group":"mall","tag":"shop=mall","name":"Vincom+ Tĩnh Gia","levels":null,"lat":19.43634084414955,"lng":105.77192096726303,"osm_type":"way","osm_id":954924155}},{"type":"Feature","geometry":{"type":"MultiPolygon","coordinates":[[[[105.779323,19.443446],[105.779353,19.443406],[105.780306,19.442659],[105.780786,19.443236],[105.780862,19.443186],[105.781368,19.443881],[105.780579,19.444451],[105.780766,19.444663],[105.7807,19.444707],[105.780645,19.444647],[105.780435,19.44481],[105.780301,19.444652],[105.780077,19.444798],[105.779338,19.443532],[105.779324,19.443473],[105.779323,19.443446]]]]},"properties":{"group":"edu_health","tag":"amenity=school","name":"Trường Trung học phổ thông Tĩnh Gia 1","levels":null,"lat":19.443746911571466,"lng":105.78029914750728,"osm_type":"way","osm_id":954924167}},{"type":"Feature","geometry":{"type":"MultiPolygon","coordinates":[[[[105.865189,20.082445],[105.866019,20.082111],[105.866362,20.082848],[105.866518,20.083024],[105.867035,20.083422],[105.867292,20.083661],[105.86631,20.084043],[105.866215,20.083637],[105.866082,20.083347],[105.865965,20.083228],[105.865798,20.083156],[105.865526,20.083166],[105.865189,20.082445]]]]},"properties":{"group":"edu_health","tag":"amenity=school","name":"Trường Trung học phổ thông Bỉm Sơn","levels":null,"lat":20.08307016942783,"lng":105.86616254429546,"osm_type":"way","osm_id":966150116}},{"type":"Feature","geometry":{"type":"MultiPolygon","coordinates":[[[[105.766547,19.772247],[105.766784,19.771971],[105.767086,19.772257],[105.767838,19.771906],[105.768191,19.772658],[105.767112,19.773074],[105.766792,19.772504],[105.766547,19.772247]]]]},"properties":{"group":"edu_health","tag":"amenity=hospital","name":"Bệnh viện Nội tiết Thanh Hóa","levels":null,"lat":19.772473091434833,"lng":105.76739881762863,"osm_type":"way","osm_id":978896437}},{"type":"Feature","geometry":{"type":"MultiPolygon","coordinates":[[[[105.768271,19.772493],[105.768705,19.772322],[105.768779,19.772284],[105.769167,19.772047],[105.769516,19.772535],[105.768915,19.772892],[105.768848,19.772763],[105.768499,19.772925],[105.768271,19.772493]]]]},"properties":{"group":"edu_health","tag":"amenity=hospital","name":"Bệnh viện Da liễu Thanh Hóa","levels":null,"lat":19.772518683084535,"lng":105.76890261623213,"osm_type":"way","osm_id":978896438}},{"type":"Feature","geometry":{"type":"MultiPolygon","coordinates":[[[[105.767797,19.771427],[105.768158,19.771297],[105.76811,19.771209],[105.768213,19.771067],[105.769059,19.771512],[105.769387,19.771916],[105.769167,19.772047],[105.768779,19.772284],[105.768528,19.771746],[105.768022,19.771949],[105.767797,19.771427]]]]},"properties":{"group":"edu_health","tag":"amenity=hospital","name":"Bệnh viện Tâm thần Thanh Hóa","levels":null,"lat":19.771658923790152,"lng":105.76857548197651,"osm_type":"way","osm_id":978896439}},{"type":"Feature","geometry":{"type":"MultiPolygon","coordinates":[[[[105.770358,19.775365],[105.770404,19.775189],[105.771608,19.774504],[105.771773,19.774483],[105.772014,19.774467],[105.772882,19.774374],[105.773124,19.77646],[105.773062,19.77664],[105.771766,19.777443],[105.771693,19.777335],[105.771718,19.777226],[105.771636,19.777114],[105.771545,19.777109],[105.770358,19.775365]]]]},"properties":{"group":"edu_health","tag":"amenity=hospital","name":"Bệnh viện Đa khoa tỉnh Thanh Hóa","levels":null,"lat":19.775748473683535,"lng":105.77192479024507,"osm_type":"way","osm_id":978896440}},{"type":"Feature","geometry":{"type":"MultiPolygon","coordinates":[[[[105.768022,19.771949],[105.768528,19.771746],[105.768779,19.772284],[105.768705,19.772322],[105.768271,19.772493],[105.768022,19.771949]]]]},"properties":{"group":"edu_health","tag":"amenity=hospital","name":"Bệnh viện Mắt Thanh Hóa","levels":null,"lat":19.77211984250278,"lng":105.76840125358129,"osm_type":"way","osm_id":978896441}},{"type":"Feature","geometry":{"type":"MultiPolygon","coordinates":[[[[105.768752,19.773367],[105.769889,19.772691],[105.771047,19.774397],[105.770111,19.774972],[105.769422,19.774171],[105.768752,19.773367]]]]},"properties":{"group":"edu_health","tag":"amenity=hospital","name":"Bệnh viện Phụ sản Thanh Hóa","levels":null,"lat":19.773832942767573,"lng":105.76992808394908,"osm_type":"way","osm_id":978896442}},{"type":"Feature","geometry":{"type":"MultiPolygon","coordinates":[[[[105.772882,19.774374],[105.775084,19.774145],[105.775216,19.774237],[105.775171,19.774692],[105.775191,19.775123],[105.775265,19.775892],[105.77529,19.776261],[105.773124,19.77646],[105.772882,19.774374]]]]},"properties":{"group":"edu_health","tag":"amenity=hospital","name":"Bệnh viện Nhi Thanh Hóa","levels":null,"lat":19.775298492024948,"lng":105.77411096562152,"osm_type":"way","osm_id":978896443}},{"type":"Feature","geometry":{"type":"MultiPolygon","coordinates":[[[[105.773179,19.7768],[105.773539,19.776622],[105.773708,19.776583],[105.775232,19.776422],[105.775318,19.776497],[105.775454,19.777542],[105.775507,19.777959],[105.775442,19.778015],[105.77426,19.778167],[105.774124,19.778209],[105.773826,19.777748],[105.773179,19.7768]]]]},"properties":{"group":"edu_health","tag":"amenity=university","name":"Phân hiệu Trường Đại học Y Hà Nội tại Thanh Hóa","levels":null,"lat":19.777264766966926,"lng":105.77449294913575,"osm_type":"way","osm_id":978958851}},{"type":"Feature","geometry":{"type":"MultiPolygon","coordinates":[[[[105.771766,19.777443],[105.773062,19.77664],[105.773179,19.7768],[105.774124,19.778209],[105.772757,19.779047],[105.771766,19.777443]]]]},"properties":{"group":"edu_health","tag":"amenity=college","name":"Trường Cao đẳng Y tế Thanh Hóa","levels":null,"lat":19.777839677297877,"lng":105.77293331829647,"osm_type":"way","osm_id":978958854}},{"type":"Feature","geometry":{"type":"MultiPolygon","coordinates":[[[[105.775964,19.771618],[105.776324,19.769253],[105.776651,19.769101],[105.776651,19.768888],[105.776651,19.768784],[105.776938,19.767079],[105.776712,19.767001],[105.776925,19.765617],[105.777141,19.765485],[105.780512,19.765953],[105.780618,19.765981],[105.780822,19.766157],[105.780908,19.766141],[105.781299,19.765871],[105.781523,19.766136],[105.782089,19.76908],[105.782591,19.771612],[105.782498,19.771727],[105.780335,19.771722],[105.776102,19.771763],[105.775964,19.771618]]]]},"properties":{"group":"edu_health","tag":"amenity=university","name":"Trường Đại học Hồng Đức","levels":null,"lat":19.768954163921585,"lng":105.77923263962083,"osm_type":"way","osm_id":978958873}},{"type":"Feature","geometry":{"type":"MultiPolygon","coordinates":[[[[105.773309,19.766137],[105.773321,19.766076],[105.774045,19.765668],[105.774104,19.765685],[105.774471,19.765488],[105.774477,19.765433],[105.775437,19.764885],[105.775536,19.764833],[105.775693,19.764803],[105.775794,19.764792],[105.776118,19.764835],[105.776161,19.764873],[105.775517,19.768584],[105.775468,19.768636],[105.77504,19.768621],[105.775012,19.768575],[105.774804,19.768578],[105.774639,19.768578],[105.774602,19.768624],[105.774007,19.768621],[105.773953,19.768574],[105.773972,19.767262],[105.77393,19.76709],[105.773309,19.766137]]]]},"properties":{"group":"edu_health","tag":"amenity=hospital","name":"Bệnh viện Ung bướu tỉnh Thanh Hóa","levels":null,"lat":19.766742563993315,"lng":105.77487437272283,"osm_type":"way","osm_id":978958882}},{"type":"Feature","geometry":{"type":"MultiPolygon","coordinates":[[[[105.775694,19.773313],[105.77576,19.772954],[105.775896,19.772008],[105.77599,19.771924],[105.779968,19.771941],[105.779329,19.773915],[105.778995,19.77368],[105.778717,19.77357],[105.778247,19.77345],[105.777956,19.773441],[105.77584,19.773432],[105.775694,19.773313]]]]},"properties":{"group":"edu_health","tag":"amenity=university","name":"Trường Đại học Văn hóa, Thể thao và Du lịch Thanh Hóa","levels":null,"lat":19.772711915801413,"lng":105.77781587545304,"osm_type":"way","osm_id":978958906}},{"type":"Feature","geometry":{"type":"MultiPolygon","coordinates":[[[[105.774469,19.452803],[105.774489,19.452638],[105.774525,19.45197],[105.774786,19.451982],[105.774842,19.451784],[105.77551,19.45195],[105.775428,19.453434],[105.774761,19.453419],[105.774643,19.453281],[105.774549,19.453157],[105.774472,19.452937],[105.774469,19.452803]]]]},"properties":{"group":"edu_health","tag":"amenity=school","name":"Trường Tiểu học - Trung học cơ sở Lương Chí","levels":null,"lat":19.4526323686296,"lng":105.77500088530113,"osm_type":"way","osm_id":983582010}},{"type":"Feature","geometry":{"type":"MultiPolygon","coordinates":[[[[105.77463,19.450199],[105.774971,19.450194],[105.774969,19.450125],[105.775567,19.450121],[105.775574,19.450771],[105.774682,19.450791],[105.77463,19.450199]]]]},"properties":{"group":"edu_health","tag":"amenity=school","name":"Trường Trung học cơ sở Thị Trấn","levels":null,"lat":19.450461338288008,"lng":105.77512301931606,"osm_type":"way","osm_id":983582012}},{"type":"Feature","geometry":{"type":"MultiPolygon","coordinates":[[[[105.789206,19.463541],[105.789368,19.462322],[105.789409,19.462075],[105.789606,19.461831],[105.790811,19.462027],[105.790716,19.462745],[105.790402,19.463168],[105.790278,19.463803],[105.789431,19.463691],[105.789206,19.463541]]]]},"properties":{"group":"edu_health","tag":"amenity=hospital","name":"Bệnh viện Đa khoa Nghi Sơn","levels":null,"lat":19.462779943016468,"lng":105.78995822044882,"osm_type":"way","osm_id":983582014}},{"type":"Feature","geometry":{"type":"MultiPolygon","coordinates":[[[[105.841055,19.757394],[105.841104,19.757384],[105.841169,19.757375],[105.841199,19.75732],[105.842208,19.757181],[105.842334,19.757159],[105.842332,19.757337],[105.842976,19.757353],[105.842987,19.757786],[105.843113,19.75814],[105.843182,19.758154],[105.843296,19.758808],[105.843227,19.758827],[105.843455,19.760238],[105.842125,19.76051],[105.84117,19.760315],[105.841084,19.758352],[105.841206,19.758322],[105.841055,19.757394]]]]},"properties":{"group":"edu_health","tag":"amenity=hospital","name":"Bệnh viện 71 Trung ương","levels":null,"lat":19.75889483646341,"lng":105.84217614284239,"osm_type":"way","osm_id":993212481}},{"type":"Feature","geometry":{"type":"MultiPolygon","coordinates":[[[[105.894274,19.75179],[105.894478,19.751533],[105.89458,19.751601],[105.895053,19.751415],[105.895537,19.751427],[105.895596,19.751704],[105.895653,19.751704],[105.895681,19.751827],[105.895714,19.751967],[105.895803,19.752575],[105.894418,19.752726],[105.894373,19.75226],[105.894322,19.75226],[105.894274,19.75179]]]]},"properties":{"group":"edu_health","tag":"amenity=school","name":"Trường Trung học phổ thông Nguyễn Thị Lợi","levels":null,"lat":19.752080043314102,"lng":105.89502893493187,"osm_type":"way","osm_id":1008018197}},{"type":"Feature","geometry":{"type":"MultiPolygon","coordinates":[[[[105.837269,19.735246],[105.837513,19.735208],[105.837427,19.734764],[105.838586,19.734516],[105.838704,19.735081],[105.838932,19.736364],[105.838887,19.736414],[105.837931,19.736614],[105.837655,19.735632],[105.837516,19.735664],[105.837484,19.735536],[105.837352,19.735558],[105.837269,19.735246]]]]},"properties":{"group":"edu_health","tag":"amenity=school","name":"Trường Trung học phổ thông Chu Văn An","levels":null,"lat":19.735543154045292,"lng":105.83817892083509,"osm_type":"way","osm_id":1008018203}},{"type":"Feature","geometry":{"type":"MultiPolygon","coordinates":[[[[105.898957,19.742712],[105.899089,19.742682],[105.899031,19.742487],[105.900085,19.742212],[105.900126,19.74235],[105.900262,19.742811],[105.899616,19.74298],[105.899601,19.742928],[105.8993,19.743005],[105.899201,19.743009],[105.899052,19.743042],[105.899009,19.743052],[105.898959,19.74285],[105.898957,19.742712]]]]},"properties":{"group":"edu_health","tag":"amenity=hospital","name":"Bệnh viện Đa khoa Sầm Sơn","levels":null,"lat":19.74265481863459,"lng":105.89960770381299,"osm_type":"way","osm_id":1008018210}},{"type":"Feature","geometry":{"type":"MultiPolygon","coordinates":[[[[105.757373,19.752282],[105.758033,19.751906],[105.758499,19.751714],[105.759371,19.751272],[105.759674,19.751643],[105.759551,19.751716],[105.75957,19.751743],[105.760001,19.752342],[105.759656,19.752524],[105.758121,19.753461],[105.757373,19.752282]]]]},"properties":{"group":"edu_health","tag":"amenity=hospital","name":"Bệnh viện Phổi Thanh Hóa","levels":null,"lat":19.752340660026753,"lng":105.758682097546,"osm_type":"way","osm_id":1021328535}},{"type":"Feature","geometry":{"type":"MultiPolygon","coordinates":[[[[105.781701,19.81491],[105.782164,19.814384],[105.782641,19.814286],[105.782718,19.814523],[105.782737,19.814516],[105.782811,19.814729],[105.782609,19.814841],[105.782203,19.815302],[105.781701,19.81491]]]]},"properties":{"group":"edu_health","tag":"amenity=hospital","name":"Bệnh viện Y học cổ truyền tỉnh Thanh Hóa","levels":null,"lat":19.81475796432434,"lng":105.78227723301192,"osm_type":"way","osm_id":1021330341}},{"type":"Feature","geometry":{"type":"MultiPolygon","coordinates":[[[[105.781139,19.816252],[105.781144,19.815985],[105.781273,19.81599],[105.781289,19.815806],[105.781334,19.815806],[105.781812,19.8152],[105.782308,19.815573],[105.781758,19.816227],[105.782048,19.816469],[105.781831,19.816729],[105.781139,19.816252]]]]},"properties":{"group":"edu_health","tag":"amenity=hospital","name":"Bệnh viện Đa khoa Hạc Thành","levels":null,"lat":19.815954146353768,"lng":105.78169745067383,"osm_type":"way","osm_id":1021330342}},{"type":"Feature","geometry":{"type":"MultiPolygon","coordinates":[[[[105.779596,19.817225],[105.779607,19.815923],[105.780115,19.815921],[105.780123,19.816556],[105.781048,19.816556],[105.781055,19.816743],[105.780996,19.816801],[105.780996,19.816912],[105.781047,19.816958],[105.781055,19.817253],[105.779596,19.817225]]]]},"properties":{"group":"edu_health","tag":"amenity=school","name":"Trung tâm Giáo dục thường xuyên tỉnh Thanh Hóa","levels":null,"lat":19.81673432901288,"lng":105.78020846678257,"osm_type":"way","osm_id":1021330351}},{"type":"Feature","geometry":{"type":"MultiPolygon","coordinates":[[[[105.777407,19.816196],[105.777775,19.816178],[105.777761,19.8159],[105.777878,19.815884],[105.778956,19.815774],[105.778998,19.8159],[105.779011,19.816795],[105.778867,19.816794],[105.777906,19.816864],[105.777461,19.816897],[105.777407,19.816196]]]]},"properties":{"group":"edu_health","tag":"amenity=school","name":"Trường Trung học phổ thông Hàm Rồng","levels":null,"lat":19.816363630583357,"lng":105.77826284107668,"osm_type":"way","osm_id":1021330354}},{"type":"Feature","geometry":{"type":"MultiPolygon","coordinates":[[[[105.792856,19.815442],[105.793397,19.814176],[105.795865,19.815134],[105.795109,19.81631],[105.792856,19.815442]]]]},"properties":{"group":"edu_health","tag":"amenity=hospital","name":"Bệnh viện Đa khoa Thanh Hà","levels":null,"lat":19.81525589916111,"lng":105.79431066118033,"osm_type":"way","osm_id":1021330355}},{"type":"Feature","geometry":{"type":"MultiPolygon","coordinates":[[[[105.369294,20.09011],[105.369726,20.089398],[105.3703,20.089687],[105.370589,20.089196],[105.372032,20.089924],[105.372048,20.089949],[105.372048,20.089979],[105.372032,20.090007],[105.371748,20.090622],[105.371704,20.090687],[105.371655,20.090773],[105.371525,20.091],[105.371624,20.091063],[105.371554,20.091124],[105.371356,20.091294],[105.371297,20.091292],[105.369334,20.090244],[105.369294,20.09011]]]]},"properties":{"group":"edu_health","tag":"amenity=hospital","name":"Bệnh viện Đa khoa Ngọc Lặc","levels":null,"lat":20.090197815164743,"lng":105.37074428061348,"osm_type":"way","osm_id":1021565964}},{"type":"Feature","geometry":{"type":"MultiPolygon","coordinates":[[[[105.368943,20.091088],[105.369072,20.090886],[105.369355,20.090639],[105.371153,20.091471],[105.371169,20.091564],[105.370919,20.091982],[105.370866,20.09199],[105.370815,20.092069],[105.370772,20.092136],[105.370794,20.092199],[105.370705,20.09237],[105.370198,20.092559],[105.369782,20.092284],[105.369798,20.092257],[105.369176,20.091753],[105.369165,20.091672],[105.368964,20.091501],[105.369007,20.091181],[105.368943,20.091088]]]]},"properties":{"group":"edu_health","tag":"amenity=school","name":"Trường Trung học phổ thông Ngọc Lặc","levels":null,"lat":20.091593897211222,"lng":105.3700005255503,"osm_type":"way","osm_id":1021565965}},{"type":"Feature","geometry":{"type":"MultiPolygon","coordinates":[[[[105.889995,20.069873],[105.890051,20.068981],[105.890733,20.069042],[105.890765,20.069043],[105.890939,20.069049],[105.891038,20.069049],[105.891076,20.068991],[105.891347,20.069001],[105.891328,20.069203],[105.891267,20.069243],[105.891263,20.069283],[105.891167,20.070266],[105.889998,20.070228],[105.889995,20.069873]]]]},"properties":{"group":"edu_health","tag":"amenity=hospital","name":"Bệnh viện Đa khoa Bỉm Sơn","levels":null,"lat":20.06962254043108,"lng":105.89062846456022,"osm_type":"way","osm_id":1021565996}},{"type":"Feature","geometry":{"type":"MultiPolygon","coordinates":[[[[105.852265,20.068061],[105.852318,20.067972],[105.85392,20.0676],[105.854239,20.068827],[105.853225,20.069078],[105.85311,20.068645],[105.85304,20.068662],[105.852553,20.06879],[105.852475,20.068528],[105.852417,20.068544],[105.852377,20.068417],[105.852265,20.068061]]]]},"properties":{"group":"edu_health","tag":"amenity=hospital","name":"Bệnh viện Đa khoa ACA","levels":null,"lat":20.068327061268125,"lng":105.85331979592881,"osm_type":"way","osm_id":1021566009}},{"type":"Feature","geometry":{"type":"MultiPolygon","coordinates":[[[[105.967268,20.009221],[105.967877,20.009004],[105.967939,20.009052],[105.968062,20.009015],[105.968073,20.008944],[105.968459,20.008803],[105.968502,20.008823],[105.968668,20.008765],[105.968668,20.008727],[105.968781,20.008695],[105.969116,20.009594],[105.968322,20.009854],[105.968277,20.009761],[105.967614,20.009957],[105.967279,20.009307],[105.967268,20.009221]]]]},"properties":{"group":"edu_health","tag":"amenity=hospital","name":"Bệnh viện Đa khoa Nga Sơn","levels":null,"lat":20.009366286967676,"lng":105.96821760577184,"osm_type":"way","osm_id":1021566019}},{"type":"Feature","geometry":{"type":"MultiPolygon","coordinates":[[[[105.855551,19.851362],[105.855561,19.850903],[105.855557,19.850458],[105.856399,19.850419],[105.856464,19.850414],[105.856903,19.850426],[105.856908,19.850657],[105.857021,19.850667],[105.856986,19.851617],[105.85558,19.851597],[105.855551,19.851362]]]]},"properties":{"group":"edu_health","tag":"amenity=hospital","name":"Bệnh viện Đa khoa Hoằng Hóa","levels":null,"lat":19.851023346931154,"lng":105.85627786428826,"osm_type":"way","osm_id":1021611698}},{"type":"Feature","geometry":{"type":"MultiPolygon","coordinates":[[[[105.885268,19.916608],[105.885508,19.915999],[105.885638,19.916013],[105.885699,19.916027],[105.885943,19.916081],[105.885964,19.916028],[105.886322,19.916122],[105.886721,19.916211],[105.886696,19.916312],[105.886658,19.916452],[105.88713,19.91666],[105.886522,19.918252],[105.885877,19.917593],[105.885569,19.917279],[105.885737,19.916744],[105.885268,19.916608]]]]},"properties":{"group":"edu_health","tag":"amenity=hospital","name":"Bệnh viện Đa khoa Hậu Lộc","levels":null,"lat":19.91694232703753,"lng":105.88622850634725,"osm_type":"way","osm_id":1021611699}},{"type":"Feature","geometry":{"type":"MultiPolygon","coordinates":[[[[105.849293,20.004544],[105.850382,20.004274],[105.851267,20.005608],[105.851156,20.005683],[105.851224,20.005827],[105.850059,20.006327],[105.849625,20.005519],[105.849391,20.004973],[105.849293,20.004544]]]]},"properties":{"group":"edu_health","tag":"amenity=hospital","name":"Bệnh viện Đa khoa Hà Trung","levels":null,"lat":20.005266513661933,"lng":105.85024576859871,"osm_type":"way","osm_id":1021611700}},{"type":"Feature","geometry":{"type":"MultiPolygon","coordinates":[[[[105.784964,19.720225],[105.784988,19.719384],[105.785087,19.719368],[105.785136,19.719296],[105.785146,19.719199],[105.785144,19.719063],[105.786037,19.719147],[105.786446,19.721085],[105.785798,19.721069],[105.784989,19.720938],[105.78502,19.720608],[105.784964,19.720225]]]]},"properties":{"group":"edu_health","tag":"amenity=hospital","name":"Bệnh viện Đa khoa Quảng Xương","levels":null,"lat":19.720135852990133,"lng":105.7856329908627,"osm_type":"way","osm_id":1021620001}},{"type":"Feature","geometry":{"type":"MultiPolygon","coordinates":[[[[105.57806,19.635957],[105.578285,19.635985],[105.578305,19.635721],[105.579835,19.635906],[105.579758,19.636282],[105.57963,19.636291],[105.579537,19.636692],[105.578653,19.63653],[105.578487,19.636369],[105.578129,19.636285],[105.57806,19.635957]]]]},"properties":{"group":"edu_health","tag":"amenity=hospital","name":"Bệnh viện Đa khoa Như Thanh","levels":null,"lat":19.636170469054786,"lng":105.578978900824,"osm_type":"way","osm_id":1021645322}},{"type":"Feature","geometry":{"type":"MultiPolygon","coordinates":[[[[105.694249,20.137406],[105.695459,20.136313],[105.696248,20.137154],[105.694877,20.138348],[105.694742,20.138195],[105.694834,20.138125],[105.694517,20.137784],[105.694425,20.137854],[105.694287,20.137697],[105.694414,20.137583],[105.694249,20.137406]]]]},"properties":{"group":"edu_health","tag":"amenity=hospital","name":"Bệnh viện Đa khoa Thạch Thành","levels":null,"lat":20.137308488368973,"lng":105.69521519575646,"osm_type":"way","osm_id":1021645323}},{"type":"Feature","geometry":{"type":"MultiPolygon","coordinates":[[[[105.676176,19.867898],[105.676412,19.866604],[105.67703,19.86671],[105.677017,19.866785],[105.677526,19.866843],[105.677525,19.866976],[105.677472,19.866978],[105.677421,19.867534],[105.677323,19.868057],[105.676176,19.867898]]]]},"properties":{"group":"edu_health","tag":"amenity=hospital","name":"Bệnh viện Đa khoa Thiệu Hóa","levels":null,"lat":19.86735377585182,"lng":105.67684864146166,"osm_type":"way","osm_id":1021645324}},{"type":"Feature","geometry":{"type":"MultiPolygon","coordinates":[[[[105.654642,19.642027],[105.654853,19.641922],[105.655938,19.641388],[105.656445,19.642264],[105.655997,19.642483],[105.656071,19.642618],[105.655774,19.642749],[105.655716,19.642652],[105.655059,19.643007],[105.654679,19.642417],[105.654803,19.642332],[105.654642,19.642027]]]]},"properties":{"group":"edu_health","tag":"amenity=hospital","name":"Bệnh viện Đa khoa Nông Cống","levels":null,"lat":19.642201252260733,"lng":105.65551082646427,"osm_type":"way","osm_id":1021645325}},{"type":"Feature","geometry":{"type":"MultiPolygon","coordinates":[[[[105.426951,19.663355],[105.427245,19.663044],[105.427382,19.663173],[105.427464,19.663251],[105.427699,19.663018],[105.42779,19.663106],[105.428471,19.663759],[105.427952,19.664218],[105.426951,19.663355]]]]},"properties":{"group":"edu_health","tag":"amenity=hospital","name":"Bệnh viện Đa khoa Như Xuân","levels":null,"lat":19.663581590873243,"lng":105.42773280582851,"osm_type":"way","osm_id":1021645327}},{"type":"Feature","geometry":{"type":"MultiPolygon","coordinates":[[[[105.620344,20.053261],[105.620919,20.052335],[105.622158,20.053022],[105.621591,20.05392],[105.620344,20.053261]]]]},"properties":{"group":"edu_health","tag":"amenity=hospital","name":"Bệnh viện Đa khoa Vĩnh Lộc","levels":null,"lat":20.0531323027808,"lng":105.62125044176801,"osm_type":"way","osm_id":1021645328}},{"type":"Feature","geometry":{"type":"MultiPolygon","coordinates":[[[[105.591726,19.817464],[105.591821,19.817238],[105.59223,19.817376],[105.592366,19.816907],[105.592805,19.817086],[105.592784,19.81713],[105.593013,19.817243],[105.593193,19.8169],[105.593596,19.817082],[105.593896,19.817206],[105.593782,19.817433],[105.593876,19.817479],[105.593722,19.817728],[105.59317,19.818277],[105.59251,19.817766],[105.592063,19.817577],[105.591726,19.817464]]]]},"properties":{"group":"edu_health","tag":"amenity=hospital","name":"Bệnh viện Đa khoa Triệu Sơn","levels":null,"lat":19.817506382035347,"lng":105.59296662103303,"osm_type":"way","osm_id":1021645330}},{"type":"Feature","geometry":{"type":"MultiPolygon","coordinates":[[[[105.715196,19.8172],[105.715662,19.817148],[105.715802,19.817132],[105.715992,19.817112],[105.716529,19.817055],[105.716592,19.817049],[105.71658,19.816897],[105.716886,19.81691],[105.717087,19.816899],[105.717098,19.817276],[105.717174,19.817883],[105.71663,19.818108],[105.71535,19.818283],[105.715228,19.817461],[105.715196,19.8172]]]]},"properties":{"group":"edu_health","tag":"amenity=hospital","name":"Bệnh viện Đa khoa huyện Đông Sơn","levels":null,"lat":19.817599279371585,"lng":105.71619420395827,"osm_type":"way","osm_id":1021645331}},{"type":"Feature","geometry":{"type":"MultiPolygon","coordinates":[[[[105.524623,19.922197],[105.524804,19.921825],[105.525023,19.921912],[105.525131,19.921706],[105.525962,19.922052],[105.526565,19.922356],[105.526764,19.923079],[105.526562,19.923465],[105.525556,19.923439],[105.525318,19.923346],[105.525273,19.923491],[105.525117,19.92343],[105.524991,19.923178],[105.524771,19.923064],[105.524815,19.922882],[105.525058,19.92237],[105.524623,19.922197]]]]},"properties":{"group":"edu_health","tag":"amenity=hospital","name":"Bệnh viện Đa khoa Thọ Xuân","levels":null,"lat":19.922692465115183,"lng":105.52570184821536,"osm_type":"way","osm_id":1021645332}},{"type":"Feature","geometry":{"type":"MultiPolygon","coordinates":[[[[105.643315,19.977528],[105.643869,19.976528],[105.644128,19.976662],[105.644174,19.976595],[105.645243,19.977245],[105.645552,19.977437],[105.644882,19.978591],[105.643315,19.977528]]]]},"properties":{"group":"edu_health","tag":"amenity=hospital","name":"Bệnh viện Đa khoa Yên Định","levels":null,"lat":19.97751363506086,"lng":105.64443214011902,"osm_type":"way","osm_id":1021645335}},{"type":"Feature","geometry":{"type":"MultiPolygon","coordinates":[[[[105.403407,19.912359],[105.404864,19.912315],[105.404881,19.913414],[105.40343,19.913439],[105.403407,19.912359]]]]},"properties":{"group":"edu_health","tag":"amenity=school","name":"Trường Trung học phổ thông Lam Kinh","levels":null,"lat":19.912881240853924,"lng":105.40414750065932,"osm_type":"way","osm_id":1057691343}},{"type":"Feature","geometry":{"type":"MultiPolygon","coordinates":[[[[105.40552,19.914173],[105.406143,19.91382],[105.40635,19.91415],[105.406302,19.914174],[105.406655,19.914664],[105.406827,19.914903],[105.406269,19.915188],[105.40552,19.914173]]]]},"properties":{"group":"edu_health","tag":"amenity=school","name":"Trường Trung học cơ sở Thị trấn Lam Sơn","levels":null,"lat":19.914511097788594,"lng":105.40617351288586,"osm_type":"way","osm_id":1057691344}},{"type":"Feature","geometry":{"type":"MultiPolygon","coordinates":[[[[105.406143,19.91382],[105.406683,19.913541],[105.407045,19.914123],[105.407139,19.914081],[105.407086,19.914264],[105.407011,19.914421],[105.406875,19.914618],[105.406824,19.914562],[105.406655,19.914664],[105.406302,19.914174],[105.40635,19.91415],[105.406143,19.91382]]]]},"properties":{"group":"edu_health","tag":"amenity=school","name":"Trường Tiểu học Thị trấn Lam Sơn","levels":null,"lat":19.914099076433153,"lng":105.40665479309725,"osm_type":"way","osm_id":1057691345}},{"type":"Feature","geometry":{"type":"MultiPolygon","coordinates":[[[[105.409152,19.890338],[105.409228,19.89032],[105.409168,19.890115],[105.409678,19.889906],[105.410327,19.889859],[105.410422,19.890157],[105.410505,19.890162],[105.41059,19.890556],[105.409225,19.890922],[105.409152,19.890338]]]]},"properties":{"group":"edu_health","tag":"amenity=school","name":"Trường Trung học phổ thông Thọ Xuân 5","levels":null,"lat":19.890355763226815,"lng":105.40982069017895,"osm_type":"way","osm_id":1057691347}},{"type":"Feature","geometry":{"type":"MultiPolygon","coordinates":[[[[105.779011,19.728106],[105.780486,19.727894],[105.780502,19.728146],[105.781317,19.728005],[105.781333,19.728121],[105.781709,19.72804],[105.781674,19.728486],[105.78165,19.728803],[105.780255,19.728755],[105.780159,19.728752],[105.779386,19.728939],[105.779054,19.728843],[105.779011,19.728106]]]]},"properties":{"group":"edu_health","tag":"amenity=school","name":"Trường Trung học phổ thông Quảng Xương 1","levels":null,"lat":19.728419957872735,"lng":105.78030803791381,"osm_type":"way","osm_id":1057862531}},{"type":"Feature","geometry":{"type":"MultiPolygon","coordinates":[[[[105.780244,19.729414],[105.780255,19.728755],[105.78165,19.728803],[105.781553,19.729621],[105.781375,19.7296],[105.780287,19.72957],[105.780293,19.729424],[105.780244,19.729414]]]]},"properties":{"group":"edu_health","tag":"amenity=school","name":"Trường Trung học cơ sở Nguyễn Du","levels":null,"lat":19.729177381299777,"lng":105.78092956193527,"osm_type":"way","osm_id":1057862532}},{"type":"Feature","geometry":{"type":"MultiPolygon","coordinates":[[[[105.883298,19.913599],[105.883561,19.912905],[105.883955,19.913108],[105.883652,19.913614],[105.883583,19.913674],[105.883298,19.913599]]]]},"properties":{"group":"public","tag":"leisure=park","name":null,"levels":null,"lat":19.913303549425173,"lng":105.88361138250887,"osm_type":"way","osm_id":1069462016}},{"type":"Feature","geometry":{"type":"MultiPolygon","coordinates":[[[[105.858751,20.084514],[105.859009,20.084439],[105.85984,20.084303],[105.860852,20.084149],[105.860902,20.084318],[105.861141,20.084361],[105.861139,20.08624],[105.859105,20.086205],[105.85903,20.085633],[105.858894,20.085484],[105.858835,20.085376],[105.858829,20.085227],[105.858885,20.084897],[105.858751,20.084514]]]]},"properties":{"group":"edu_health","tag":"amenity=university","name":"Phân hiệu Trường Đại học Tài nguyên và Môi trường Hà Nội tại Thanh Hóa","levels":null,"lat":20.085238261980752,"lng":105.8600539104659,"osm_type":"way","osm_id":1078365720}},{"type":"Feature","geometry":{"type":"MultiPolygon","coordinates":[[[[105.878253,20.07407],[105.879352,20.07346],[105.879697,20.074141],[105.87859,20.07468],[105.878253,20.07407]]]]},"properties":{"group":"edu_health","tag":"amenity=school","name":"Trường Trung học phổ thông Lê Hồng Phong","levels":null,"lat":20.07408226551727,"lng":105.87898061565161,"osm_type":"way","osm_id":1078365723}},{"type":"Feature","geometry":{"type":"MultiPolygon","coordinates":[[[[105.226797,20.349057],[105.226917,20.348972],[105.226868,20.348902],[105.227721,20.348465],[105.227882,20.348712],[105.22811,20.349122],[105.227981,20.349198],[105.228078,20.349381],[105.227279,20.349834],[105.226797,20.349057]]]]},"properties":{"group":"edu_health","tag":"amenity=school","name":"Trường Trung học phổ thông Bá Thước","levels":null,"lat":20.34913997642225,"lng":105.2274767532958,"osm_type":"way","osm_id":1079176990}},{"type":"Feature","geometry":{"type":"MultiPolygon","coordinates":[[[[105.842462,19.763193],[105.842802,19.762424],[105.842915,19.762388],[105.842928,19.762244],[105.843921,19.762196],[105.84417,19.76367],[105.844395,19.764723],[105.842732,19.764943],[105.842688,19.764782],[105.842551,19.764073],[105.842572,19.76378],[105.842462,19.763193]]]]},"properties":{"group":"edu_health","tag":"amenity=university","name":"Trường Đại học Công nghiệp Thành phố Hồ Chí Minh - Cơ sở Thanh Hóa","levels":null,"lat":19.763618406815088,"lng":105.84337771443606,"osm_type":"way","osm_id":1085962659}},{"type":"Feature","geometry":{"type":"MultiPolygon","coordinates":[[[[105.783308,19.763679],[105.785869,19.761932],[105.785944,19.761932],[105.786438,19.762897],[105.784011,19.764564],[105.783308,19.763679]]]]},"properties":{"group":"edu_health","tag":"amenity=college","name":"Trường Cao đẳng nghề số 4 - Bộ Quốc phòng (cơ sở Thanh Hoá)","levels":null,"lat":19.763254229035088,"lng":105.78491453032186,"osm_type":"way","osm_id":1086689915}},{"type":"Feature","geometry":{"type":"MultiPolygon","coordinates":[[[[105.61907,20.052711],[105.620476,20.052537],[105.619535,20.053999],[105.619486,20.054008],[105.619438,20.054003],[105.619381,20.053986],[105.619341,20.053956],[105.619332,20.053914],[105.61907,20.052711]]]]},"properties":{"group":"public","tag":"leisure=park","name":"Công viên Phủ Quảng","levels":null,"lat":20.05313618347967,"lng":105.61965210322253,"osm_type":"way","osm_id":1091138644}},{"type":"Feature","geometry":{"type":"MultiPolygon","coordinates":[[[[105.618167,20.056552],[105.618676,20.055763],[105.618891,20.055872],[105.618942,20.055783],[105.619146,20.055889],[105.619293,20.055708],[105.619417,20.055756],[105.619494,20.055627],[105.619873,20.055874],[105.619849,20.055904],[105.619977,20.056015],[105.619578,20.05627],[105.619502,20.05635],[105.619103,20.057056],[105.618167,20.056552]]]]},"properties":{"group":"edu_health","tag":"amenity=school","name":"Trường Trung học phổ thông Vĩnh Lộc","levels":null,"lat":20.05629053456487,"lng":105.61903030553752,"osm_type":"way","osm_id":1091138649}},{"type":"Feature","geometry":{"type":"MultiPolygon","coordinates":[[[[105.781607,19.780477],[105.783329,19.779043],[105.783397,19.779112],[105.783917,19.779639],[105.784277,19.780003],[105.78464,19.78037],[105.785603,19.781345],[105.787575,19.783341],[105.785778,19.784734],[105.784143,19.783082],[105.784245,19.782981],[105.783826,19.782557],[105.783707,19.782642],[105.781607,19.780477]]]]},"properties":{"group":"public","tag":"leisure=park","name":"Công viên Bố Vệ","levels":null,"lat":19.781897698297886,"lng":105.78457895247004,"osm_type":"way","osm_id":1105978776}},{"type":"Feature","geometry":{"type":"MultiPolygon","coordinates":[[[[105.779833,19.782695],[105.780761,19.781913],[105.780874,19.781928],[105.781625,19.78269],[105.781609,19.782796],[105.78074,19.783554],[105.78067,19.783548],[105.779838,19.782756],[105.779833,19.782695]]]]},"properties":{"group":"public","tag":"leisure=park","name":"Công viên Quảng Xá","levels":null,"lat":19.782727944149027,"lng":105.78074424418871,"osm_type":"way","osm_id":1105978777}},{"type":"Feature","geometry":{"type":"MultiPolygon","coordinates":[[[[105.777486,19.778942],[105.77754,19.778813],[105.777685,19.778697],[105.77776,19.778697],[105.778543,19.779518],[105.778541,19.779586],[105.777741,19.780262],[105.777623,19.780227],[105.777486,19.778942]]]]},"properties":{"group":"public","tag":"leisure=park","name":null,"levels":null,"lat":19.77947111048667,"lng":105.7779059589985,"osm_type":"way","osm_id":1105978778}},{"type":"Feature","geometry":{"type":"MultiPolygon","coordinates":[[[[105.780807,19.80145],[105.78087,19.801342],[105.781194,19.801233],[105.781871,19.801036],[105.781954,19.801683],[105.781591,19.801808],[105.780947,19.80205],[105.780878,19.801968],[105.780807,19.80145]]]]},"properties":{"group":"public","tag":"amenity=community_centre","name":"Nhà Văn hóa Lao động tỉnh Thanh Hóa","levels":null,"lat":19.80153615600023,"lng":105.78137343366332,"osm_type":"way","osm_id":1118243872}},{"type":"Feature","geometry":{"type":"MultiPolygon","coordinates":[[[[105.790486,19.784114],[105.7906,19.78402],[105.790639,19.783987],[105.790841,19.783821],[105.790884,19.783786],[105.791002,19.783689],[105.791374,19.784088],[105.791393,19.784108],[105.791528,19.784254],[105.791569,19.784298],[105.791727,19.784467],[105.791942,19.784699],[105.791718,19.784883],[105.791652,19.784938],[105.791427,19.785124],[105.791218,19.784899],[105.791059,19.784728],[105.791021,19.784688],[105.790884,19.78454],[105.790863,19.784518],[105.790486,19.784114]]]]},"properties":{"group":"public","tag":"leisure=park","name":null,"levels":null,"lat":19.784406008606652,"lng":105.79121434872637,"osm_type":"way","osm_id":1132191760}},{"type":"Feature","geometry":{"type":"MultiPolygon","coordinates":[[[[105.308167,20.295414],[105.308794,20.294636],[105.308877,20.294488],[105.308902,20.294503],[105.308979,20.294392],[105.308995,20.294407],[105.309304,20.294151],[105.309449,20.294105],[105.309821,20.294493],[105.309846,20.294558],[105.30972,20.29492],[105.309258,20.295434],[105.309288,20.295469],[105.308851,20.296115],[105.308746,20.296115],[105.308513,20.295801],[105.308419,20.295698],[105.308488,20.2956],[105.308167,20.295414]]]]},"properties":{"group":"edu_health","tag":"amenity=school","name":"Trường Trung học phổ thông Hà Văn Mao","levels":null,"lat":20.295068659020405,"lng":105.30904116510757,"osm_type":"way","osm_id":1160116017}},{"type":"Feature","geometry":{"type":"MultiPolygon","coordinates":[[[[105.307808,20.29511],[105.307848,20.294823],[105.30791,20.294674],[105.308114,20.294334],[105.308361,20.294496],[105.308552,20.294239],[105.30859,20.294264],[105.308642,20.294297],[105.308506,20.294483],[105.308794,20.294636],[105.308167,20.295414],[105.307896,20.295256],[105.30784,20.295191],[105.307808,20.29511]]]]},"properties":{"group":"edu_health","tag":"amenity=school","name":"Trường Trung học cơ sở Điền Trung","levels":null,"lat":20.294832781012563,"lng":105.30823659495461,"osm_type":"way","osm_id":1160116027}},{"type":"Feature","geometry":{"type":"MultiPolygon","coordinates":[[[[105.3138,20.292217],[105.31387,20.292141],[105.313926,20.291917],[105.314283,20.291384],[105.314656,20.29155],[105.31456,20.291777],[105.314466,20.291997],[105.314458,20.292018],[105.314297,20.29235],[105.313943,20.292335],[105.3138,20.292217]]]]},"properties":{"group":"edu_health","tag":"amenity=school","name":"Trường Tiểu học Điền Trung","levels":null,"lat":20.291902597772946,"lng":105.31423514062622,"osm_type":"way","osm_id":1160116035}},{"type":"Feature","geometry":{"type":"MultiPolygon","coordinates":[[[[105.468163,20.207278],[105.468785,20.206649],[105.469268,20.206996],[105.469703,20.206649],[105.470513,20.207213],[105.470218,20.207515],[105.470631,20.207897],[105.46959,20.208607],[105.468378,20.20754],[105.468163,20.207278]]]]},"properties":{"group":"edu_health","tag":"amenity=school","name":"Trường Trung học phổ thông Cẩm Thuỷ 1","levels":null,"lat":20.20754008077525,"lng":105.46944767871922,"osm_type":"way","osm_id":1160116039}},{"type":"Feature","geometry":{"type":"MultiPolygon","coordinates":[[[[105.534897,20.122131],[105.535106,20.121801],[105.535371,20.121494],[105.535562,20.121413],[105.536751,20.121702],[105.537121,20.122385],[105.536727,20.122559],[105.535611,20.123189],[105.535155,20.122802],[105.535353,20.122345],[105.534897,20.122131]]]]},"properties":{"group":"edu_health","tag":"amenity=school","name":"Trường Trung học phổ thông Cẩm Thuỷ 2","levels":null,"lat":20.122224621881205,"lng":105.53595064794212,"osm_type":"way","osm_id":1160116049}},{"type":"Feature","geometry":{"type":"MultiPolygon","coordinates":[[[[105.38876,20.234363],[105.390906,20.23434],[105.390874,20.235523],[105.388766,20.235505],[105.38876,20.234363]]]]},"properties":{"group":"edu_health","tag":"amenity=school","name":"Trường Trung học phổ thông Cẩm Thuỷ 3","levels":null,"lat":20.23493113049762,"lng":105.38983268094874,"osm_type":"way","osm_id":1160116055}},{"type":"Feature","geometry":{"type":"MultiPolygon","coordinates":[[[[105.390874,20.235523],[105.390906,20.23434],[105.391493,20.234359],[105.391455,20.235542],[105.390874,20.235523]]]]},"properties":{"group":"edu_health","tag":"amenity=school","name":null,"levels":null,"lat":20.234939906374425,"lng":105.391182008235,"osm_type":"way","osm_id":1160116062}},{"type":"Feature","geometry":{"type":"MultiPolygon","coordinates":[[[[105.391234,20.233435],[105.391352,20.233133],[105.391947,20.232806],[105.392403,20.233314],[105.392189,20.23341],[105.391867,20.233702],[105.391234,20.233435]]]]},"properties":{"group":"edu_health","tag":"amenity=school","name":null,"levels":null,"lat":20.23327062423027,"lng":105.39180120939125,"osm_type":"way","osm_id":1160116065}},{"type":"Feature","geometry":{"type":"MultiPolygon","coordinates":[[[[105.867632,19.747051],[105.868265,19.746849],[105.869005,19.748803],[105.868302,19.749],[105.867632,19.747051]]]]},"properties":{"group":"edu_health","tag":"amenity=school","name":"Trường Trung học cơ sở Nguyễn Hồng Lễ","levels":null,"lat":19.747940438730204,"lng":105.86830698311542,"osm_type":"way","osm_id":1174483438}},{"type":"Feature","geometry":{"type":"MultiPolygon","coordinates":[[[[105.897524,19.737568],[105.897744,19.737507],[105.897758,19.737574],[105.897843,19.737551],[105.898723,19.737373],[105.89882,19.737719],[105.898705,19.737748],[105.897718,19.737997],[105.897637,19.738017],[105.897617,19.737934],[105.89758,19.737787],[105.897524,19.737568]]]]},"properties":{"group":"edu_health","tag":"amenity=school","name":"Trường Trung học cơ sở Bắc Sơn","levels":null,"lat":19.737680992138777,"lng":105.89815134845152,"osm_type":"way","osm_id":1174484259}},{"type":"Feature","geometry":{"type":"MultiPolygon","coordinates":[[[[105.902236,19.742736],[105.902857,19.74247],[105.903454,19.743649],[105.903023,19.743828],[105.902988,19.743748],[105.902598,19.743871],[105.902448,19.743477],[105.902505,19.743453],[105.902236,19.742736]]]]},"properties":{"group":"edu_health","tag":"amenity=school","name":"Trường Dự bị Đại học Dân tộc Sầm Sơn","levels":null,"lat":19.743212123553896,"lng":105.90281216353384,"osm_type":"way","osm_id":1175297638}},{"type":"Feature","geometry":{"type":"MultiPolygon","coordinates":[[[[105.77613,19.447268],[105.777066,19.447036],[105.777115,19.447038],[105.777136,19.447063],[105.77712,19.447906],[105.776971,19.447917],[105.776187,19.447954],[105.77613,19.447268]]]]},"properties":{"group":"edu_health","tag":"amenity=school","name":"Trường Tiểu học Thị Trấn","levels":null,"lat":19.44752969586849,"lng":105.77666257833343,"osm_type":"way","osm_id":1176863576}},{"type":"Feature","geometry":{"type":"MultiPolygon","coordinates":[[[[105.899384,19.731835],[105.89941,19.731747],[105.899412,19.731694],[105.899402,19.731551],[105.899426,19.731486],[105.899466,19.731442],[105.899536,19.731448],[105.899634,19.731828],[105.899384,19.731835]]]]},"properties":{"group":"public","tag":"leisure=garden","name":null,"levels":null,"lat":19.731663324011922,"lng":105.89949885491933,"osm_type":"way","osm_id":1178282918}},{"type":"Feature","geometry":{"type":"MultiPolygon","coordinates":[[[[105.89902,19.731738],[105.899031,19.731541],[105.899344,19.731545],[105.899346,19.731716],[105.899297,19.731745],[105.89902,19.731738]]]]},"properties":{"group":"public","tag":"leisure=garden","name":null,"levels":null,"lat":19.73164212407428,"lng":105.89918416685924,"osm_type":"way","osm_id":1178282919}},{"type":"Feature","geometry":{"type":"MultiPolygon","coordinates":[[[[105.790533,19.451535],[105.79136,19.45155],[105.79135,19.451709],[105.791338,19.452104],[105.791327,19.452385],[105.790571,19.452395],[105.790533,19.451535]]]]},"properties":{"group":"edu_health","tag":"amenity=school","name":"Trường Tiểu học Hải Hoà","levels":null,"lat":19.45195994152072,"lng":105.79094539752838,"osm_type":"way","osm_id":1181766399}},{"type":"Feature","geometry":{"type":"MultiPolygon","coordinates":[[[[105.786634,19.451636],[105.787256,19.451737],[105.787299,19.452364],[105.786794,19.452434],[105.786718,19.452103],[105.786634,19.451636]]]]},"properties":{"group":"edu_health","tag":"amenity=school","name":"Trường Trung học cơ sở Hải Hoà","levels":null,"lat":19.452032929916196,"lng":105.78698040229754,"osm_type":"way","osm_id":1181766400}},{"type":"Feature","geometry":{"type":"MultiPolygon","coordinates":[[[[105.77608,19.775011],[105.776783,19.775001],[105.776793,19.775268],[105.777137,19.775253],[105.777137,19.776],[105.776193,19.776121],[105.77608,19.775011]]]]},"properties":{"group":"public","tag":"leisure=park","name":null,"levels":null,"lat":19.775560439133763,"lng":105.77659550751082,"osm_type":"way","osm_id":1185213736}},{"type":"Feature","geometry":{"type":"MultiPolygon","coordinates":[[[[105.777638,19.774975],[105.777684,19.774917],[105.777923,19.774975],[105.778408,19.775192],[105.778612,19.775349],[105.778907,19.775682],[105.77858,19.77594],[105.777638,19.774975]]]]},"properties":{"group":"public","tag":"leisure=park","name":null,"levels":null,"lat":19.775414724529817,"lng":105.77832785675399,"osm_type":"way","osm_id":1185213737}},{"type":"Feature","geometry":{"type":"MultiPolygon","coordinates":[[[[105.794817,19.792217],[105.795139,19.790907],[105.795146,19.790879],[105.796052,19.791078],[105.795958,19.792153],[105.795561,19.792193],[105.795569,19.792332],[105.794817,19.792217]]]]},"properties":{"group":"edu_health","tag":"amenity=school","name":"Trường Trung học phổ thông Dân tộc nội trú tỉnh Thanh Hóa","levels":null,"lat":19.791628800085956,"lng":105.79546418817874,"osm_type":"way","osm_id":1185213761}},{"type":"Feature","geometry":{"type":"MultiPolygon","coordinates":[[[[105.792039,19.793385],[105.792323,19.791906],[105.793305,19.792098],[105.793074,19.793193],[105.792736,19.793516],[105.792039,19.793385]]],[[[105.793474,19.79251],[105.793557,19.792103],[105.793517,19.79199],[105.793871,19.790609],[105.795139,19.790907],[105.794817,19.792217],[105.795569,19.792332],[105.795703,19.792406],[105.795725,19.792783],[105.795677,19.792806],[105.795724,19.792883],[105.795656,19.792916],[105.795732,19.793052],[105.79455,19.793973],[105.7937,19.792977],[105.793713,19.792886],[105.793584,19.792747],[105.793474,19.79251]]]]},"properties":{"group":"edu_health","tag":"amenity=school","name":"Trường Trung học Phổ thông chuyên Lam Sơn","levels":null,"lat":19.792387949354573,"lng":105.79405559674993,"osm_type":"relation","osm_id":16023414}},{"type":"Feature","geometry":{"type":"MultiPolygon","coordinates":[[[[105.806238,19.328698],[105.806351,19.328475],[105.806608,19.328579],[105.806745,19.328635],[105.807563,19.329082],[105.807212,19.329703],[105.806356,19.329166],[105.806536,19.328867],[105.806238,19.328698]]]]},"properties":{"group":"edu_health","tag":"amenity=school","name":"Trường Tiểu học Hải Thượng","levels":null,"lat":19.32908465297751,"lng":105.8068994322031,"osm_type":"way","osm_id":1188388527}},{"type":"Feature","geometry":{"type":"MultiPolygon","coordinates":[[[[105.806608,19.328579],[105.806911,19.328022],[105.807928,19.328381],[105.807563,19.329082],[105.806745,19.328635],[105.806608,19.328579]]]]},"properties":{"group":"edu_health","tag":"amenity=school","name":"Trường Trung học cơ sở & Trung học phổ thông Nghi Sơn","levels":null,"lat":19.3285223073797,"lng":105.80727349389099,"osm_type":"way","osm_id":1188388531}},{"type":"Feature","geometry":{"type":"MultiPolygon","coordinates":[[[[105.82468,19.336638],[105.825088,19.336658],[105.825085,19.337091],[105.824699,19.337134],[105.82468,19.336638]]]]},"properties":{"group":"edu_health","tag":"amenity=school","name":"Trường TIểu học Nghi Sơn","levels":null,"lat":19.336878292918062,"lng":105.82488348285169,"osm_type":"way","osm_id":1188388537}},{"type":"Feature","geometry":{"type":"MultiPolygon","coordinates":[[[[105.824853,19.334962],[105.824938,19.334803],[105.825016,19.33455],[105.825391,19.334697],[105.825323,19.335132],[105.82505,19.335094],[105.824853,19.334962]]]]},"properties":{"group":"edu_health","tag":"amenity=school","name":"Trường Trung học cơ sở Nghi Sơn","levels":null,"lat":19.334859003516407,"lng":105.8251424205196,"osm_type":"way","osm_id":1188388540}},{"type":"Feature","geometry":{"type":"MultiPolygon","coordinates":[[[[105.795459,19.560099],[105.795488,19.560061],[105.796237,19.559911],[105.796486,19.559951],[105.796622,19.560553],[105.796778,19.560577],[105.796795,19.560671],[105.796797,19.560996],[105.796777,19.561172],[105.796725,19.561363],[105.79673,19.561727],[105.796406,19.561704],[105.796395,19.561851],[105.796277,19.561906],[105.796242,19.562172],[105.795891,19.562134],[105.795746,19.561606],[105.795601,19.561591],[105.795553,19.561482],[105.795496,19.561035],[105.795526,19.560595],[105.795459,19.560099]]]]},"properties":{"group":"edu_health","tag":"amenity=school","name":"Trường Trung học phổ thông Tĩnh Gia 2","levels":null,"lat":19.560953239910244,"lng":105.79611643719447,"osm_type":"way","osm_id":1188389916}},{"type":"Feature","geometry":{"type":"MultiPolygon","coordinates":[[[[105.777112,19.388409],[105.777515,19.388399],[105.777536,19.388581],[105.778051,19.388571],[105.77804,19.38813],[105.779199,19.38806],[105.779253,19.38808],[105.779323,19.388626],[105.779199,19.388652],[105.779231,19.388905],[105.779349,19.388965],[105.779381,19.389401],[105.777252,19.389476],[105.777171,19.389426],[105.777112,19.388409]]]]},"properties":{"group":"edu_health","tag":"amenity=school","name":"Trường Trung học phổ thông Tĩnh Gia 3","levels":null,"lat":19.388838485630867,"lng":105.77829936821142,"osm_type":"way","osm_id":1188389924}},{"type":"Feature","geometry":{"type":"MultiPolygon","coordinates":[[[[105.783161,19.535576],[105.783239,19.53389],[105.783526,19.533812],[105.783917,19.533792],[105.783912,19.533716],[105.784261,19.533519],[105.784336,19.533827],[105.784325,19.535609],[105.783161,19.535576]]]]},"properties":{"group":"edu_health","tag":"amenity=school","name":"Trường Trung học phổ thông Tĩnh Gia 4","levels":null,"lat":19.53467694413617,"lng":105.78378371008813,"osm_type":"way","osm_id":1188389930}},{"type":"Feature","geometry":{"type":"MultiPolygon","coordinates":[[[[105.606125,20.186027],[105.606467,20.185472],[105.607603,20.185898],[105.607573,20.185979],[105.607625,20.186019],[105.607413,20.186325],[105.607469,20.186375],[105.607315,20.186569],[105.606125,20.186027]]]]},"properties":{"group":"edu_health","tag":"amenity=school","name":"Trường Trung học cơ sở Thạch Sơn","levels":null,"lat":20.18600589836781,"lng":105.60690128084686,"osm_type":"way","osm_id":1190224455}},{"type":"Feature","geometry":{"type":"MultiPolygon","coordinates":[[[[105.605743,20.186734],[105.605832,20.186404],[105.606092,20.186029],[105.606579,20.186259],[105.607265,20.186583],[105.606841,20.187248],[105.605743,20.186734]]]]},"properties":{"group":"edu_health","tag":"amenity=school","name":"Trường tiểu học Thạch Sơn","levels":null,"lat":20.186637656710744,"lng":105.6064716963359,"osm_type":"way","osm_id":1190227494}},{"type":"Feature","geometry":{"type":"MultiPolygon","coordinates":[[[[105.181069,20.44209],[105.181276,20.441541],[105.181387,20.441509],[105.181357,20.441364],[105.181522,20.440687],[105.181895,20.440524],[105.182441,20.4399],[105.182939,20.441362],[105.182817,20.441498],[105.181763,20.441934],[105.181737,20.442281],[105.181069,20.44209]]]]},"properties":{"group":"edu_health","tag":"amenity=school","name":"Trường Trung học cơ sở và Trung học phổ thông Bá Thước","levels":null,"lat":20.441185943366534,"lng":105.18203281587803,"osm_type":"way","osm_id":1190389622}},{"type":"Feature","geometry":{"type":"MultiPolygon","coordinates":[[[[105.730875,19.819067],[105.731296,19.818928],[105.731256,19.818804],[105.731448,19.818762],[105.73205,19.81863],[105.732114,19.818958],[105.732213,19.819107],[105.732106,19.819147],[105.732219,19.819352],[105.731975,19.81941],[105.731996,19.81947],[105.7311,19.819748],[105.730875,19.819067]]]]},"properties":{"group":"edu_health","tag":"amenity=school","name":"Trường Phổ thông Nguyễn Mộng Tuân","levels":null,"lat":19.8191817392257,"lng":105.73155949787305,"osm_type":"way","osm_id":1190403737}},{"type":"Feature","geometry":{"type":"MultiPolygon","coordinates":[[[[105.730684,19.818501],[105.730767,19.818473],[105.730747,19.818261],[105.731014,19.818191],[105.731146,19.818307],[105.731328,19.81836],[105.731448,19.818762],[105.731256,19.818804],[105.731296,19.818928],[105.730875,19.819067],[105.730684,19.818501]]]]},"properties":{"group":"edu_health","tag":"amenity=school","name":"Trường Trung học cơ sở Nguyễn Chích","levels":null,"lat":19.81861576980137,"lng":105.73104357747118,"osm_type":"way","osm_id":1190403738}},{"type":"Feature","geometry":{"type":"MultiPolygon","coordinates":[[[[105.719026,19.814345],[105.719171,19.81383],[105.719289,19.813502],[105.719551,19.812806],[105.720506,19.813048],[105.720425,19.813513],[105.720239,19.813906],[105.720082,19.813927],[105.719975,19.814502],[105.719521,19.814427],[105.719493,19.814424],[105.719073,19.814353],[105.719026,19.814345]]]]},"properties":{"group":"edu_health","tag":"amenity=school","name":"Trường Trung học phổ thông Đông Sơn 1","levels":null,"lat":19.813657413931985,"lng":105.719765203055,"osm_type":"way","osm_id":1190403747}},{"type":"Feature","geometry":{"type":"MultiPolygon","coordinates":[[[[105.718878,19.814927],[105.719026,19.814345],[105.719073,19.814353],[105.719493,19.814424],[105.719521,19.814427],[105.719463,19.814972],[105.718878,19.814927]]]]},"properties":{"group":"edu_health","tag":"amenity=school","name":"Trung tâm Giáo dục nghề nghiệp-Giáo dục thường xuyên huyện Đông Sơn","levels":null,"lat":19.814674894373066,"lng":105.71921698935206,"osm_type":"way","osm_id":1190403752}},{"type":"Feature","geometry":{"type":"MultiPolygon","coordinates":[[[[105.7239,19.783095],[105.724313,19.782106],[105.725002,19.78229],[105.724597,19.783358],[105.7239,19.783095]]]]},"properties":{"group":"edu_health","tag":"amenity=school","name":"Trường Trung học phổ thông Đông Sơn 2","levels":null,"lat":19.782717487368835,"lng":105.7244551427209,"osm_type":"way","osm_id":1190403755}},{"type":"Feature","geometry":{"type":"MultiPolygon","coordinates":[[[[105.852365,19.852199],[105.853318,19.851972],[105.853757,19.854177],[105.852727,19.854076],[105.852365,19.852199]]]]},"properties":{"group":"edu_health","tag":"amenity=school","name":"Trường Trung học phổ thông Lương Đắc Bằng","levels":null,"lat":19.853107295627034,"lng":105.85305564862348,"osm_type":"way","osm_id":1190403757}},{"type":"Feature","geometry":{"type":"MultiPolygon","coordinates":[[[[105.81242,19.925013],[105.812871,19.924807],[105.813314,19.925482],[105.812858,19.92576],[105.812673,19.925431],[105.812474,19.925108],[105.81242,19.925013]]]]},"properties":{"group":"edu_health","tag":"amenity=school","name":"Trường Trung học phổ thông Hoằng Hóa (cơ sở 2)","levels":null,"lat":19.925270709083488,"lng":105.81286685013193,"osm_type":"way","osm_id":1190403781}},{"type":"Feature","geometry":{"type":"MultiPolygon","coordinates":[[[[105.806343,19.910193],[105.806469,19.909394],[105.806484,19.908945],[105.806515,19.908715],[105.807491,19.908773],[105.807848,19.910213],[105.806748,19.910372],[105.806343,19.910193]]]]},"properties":{"group":"edu_health","tag":"amenity=school","name":"Trường Trung học phổ thông Hoằng Hóa 2","levels":null,"lat":19.90957541362513,"lng":105.80705022504212,"osm_type":"way","osm_id":1190403782}},{"type":"Feature","geometry":{"type":"MultiPolygon","coordinates":[[[[105.900263,19.844624],[105.900429,19.84309],[105.901626,19.843297],[105.901454,19.844786],[105.900263,19.844624]]]]},"properties":{"group":"edu_health","tag":"amenity=school","name":"Trường Trung học phổ thông Hoằng Hóa","levels":null,"lat":19.843947995598352,"lng":105.90094029433178,"osm_type":"way","osm_id":1190403790}},{"type":"Feature","geometry":{"type":"MultiPolygon","coordinates":[[[[105.902173,19.842028],[105.90367,19.841731],[105.903801,19.842679],[105.903018,19.842891],[105.903071,19.843184],[105.902704,19.843253],[105.902251,19.843212],[105.902291,19.842977],[105.902173,19.842028]]]]},"properties":{"group":"edu_health","tag":"amenity=school","name":"Trường Trung học phổ thông Hoằng Hóa 3","levels":null,"lat":19.84246240119296,"lng":105.90294450020745,"osm_type":"way","osm_id":1190403794}},{"type":"Feature","geometry":{"type":"MultiPolygon","coordinates":[[[[105.759892,19.674763],[105.760777,19.674713],[105.76133,19.676612],[105.760461,19.676829],[105.759892,19.674763]]]]},"properties":{"group":"edu_health","tag":"amenity=school","name":"Trường Trung học phổ thông Quảng Xương 2","levels":null,"lat":19.675735929233408,"lng":105.76061056418503,"osm_type":"way","osm_id":1190527740}},{"type":"Feature","geometry":{"type":"MultiPolygon","coordinates":[[[[105.813706,19.644836],[105.814795,19.644604],[105.814988,19.645569],[105.814854,19.645594],[105.814891,19.645963],[105.814081,19.646054],[105.813706,19.644836]]]]},"properties":{"group":"edu_health","tag":"amenity=school","name":"Trường Trung học phổ thông Quảng Xương 4","levels":null,"lat":19.645325484198846,"lng":105.81439104172297,"osm_type":"way","osm_id":1190527747}},{"type":"Feature","geometry":{"type":"MultiPolygon","coordinates":[[[[105.795464,19.673524],[105.795726,19.672832],[105.79619,19.672971],[105.796735,19.673171],[105.796496,19.673847],[105.795464,19.673524]]]]},"properties":{"group":"edu_health","tag":"amenity=school","name":"TrườngTrung học phổ thông Đặng Thai Mai","levels":null,"lat":19.673339831287556,"lng":105.79610360727341,"osm_type":"way","osm_id":1190527751}},{"type":"Feature","geometry":{"type":"MultiPolygon","coordinates":[[[[105.785915,19.801201],[105.785918,19.801113],[105.786119,19.800984],[105.78624,19.800981],[105.786527,19.801216],[105.786388,19.80133],[105.786539,19.80157],[105.786589,19.801648],[105.786245,19.801865],[105.785915,19.801201]]]]},"properties":{"group":"edu_health","tag":"amenity=school","name":"Trường Trung học phổ thông Lý Thường Kiệt","levels":null,"lat":19.801382666536583,"lng":105.78624386920373,"osm_type":"way","osm_id":1190527760}},{"type":"Feature","geometry":{"type":"MultiPolygon","coordinates":[[[[105.807453,19.765748],[105.807638,19.765735],[105.80752,19.765097],[105.808671,19.764915],[105.808709,19.765475],[105.808701,19.765581],[105.808526,19.765599],[105.80858,19.766089],[105.808215,19.766137],[105.80818,19.765877],[105.807486,19.765902],[105.807453,19.765748]]]]},"properties":{"group":"edu_health","tag":"amenity=school","name":"Trường Trung học phổ thông Nguyễn Huệ","levels":null,"lat":19.76547827176715,"lng":105.80814081682051,"osm_type":"way","osm_id":1190527765}},{"type":"Feature","geometry":{"type":"MultiPolygon","coordinates":[[[[105.794369,19.795093],[105.795063,19.794696],[105.795166,19.794819],[105.795363,19.795157],[105.795393,19.795191],[105.795487,19.795385],[105.794696,19.795724],[105.79439,19.795284],[105.794457,19.795244],[105.794369,19.795093]]]]},"properties":{"group":"edu_health","tag":"amenity=school","name":"Trường Trung học phổ thông Tô Hiến Thành","levels":null,"lat":19.795225939228924,"lng":105.79490939682485,"osm_type":"way","osm_id":1190527766}},{"type":"Feature","geometry":{"type":"MultiPolygon","coordinates":[[[[105.977999,20.002941],[105.979286,20.002462],[105.979828,20.003854],[105.978589,20.004337],[105.977999,20.002941]]]]},"properties":{"group":"edu_health","tag":"amenity=school","name":"Trường Trung học phổ thông Trần Phú","levels":null,"lat":20.00339554942282,"lng":105.97892249816509,"osm_type":"way","osm_id":1192227857}},{"type":"Feature","geometry":{"type":"MultiPolygon","coordinates":[[[[105.562364,20.068914],[105.563046,20.068284],[105.563606,20.068859],[105.563021,20.069524],[105.562364,20.068914]]]]},"properties":{"group":"edu_health","tag":"amenity=school","name":"Trường Tiểu học Quý Lộc","levels":null,"lat":20.06889898988311,"lng":105.56300110434704,"osm_type":"way","osm_id":1195436221}},{"type":"Feature","geometry":{"type":"MultiPolygon","coordinates":[[[[105.56226,20.070609],[105.562726,20.070186],[105.562763,20.070221],[105.563215,20.070653],[105.563432,20.070884],[105.562914,20.071229],[105.56226,20.070609]]]]},"properties":{"group":"edu_health","tag":"amenity=school","name":"Trường Trung học cơ sở Quý Lộc","levels":null,"lat":20.070720380993606,"lng":105.5628378792197,"osm_type":"way","osm_id":1195436226}},{"type":"Feature","geometry":{"type":"MultiPolygon","coordinates":[[[[105.780839,19.760698],[105.782201,19.759514],[105.782384,19.759428],[105.784744,19.762366],[105.783092,19.763548],[105.780839,19.760698]]]]},"properties":{"group":"edu_health","tag":"amenity=university","name":"Trung tâm Giáo dục Quốc phòng và An ninh - Trường Đại học Hồng Đức","levels":null,"lat":19.76149884600871,"lng":105.78276570125873,"osm_type":"way","osm_id":1213969737}},{"type":"Feature","geometry":{"type":"MultiPolygon","coordinates":[[[[105.786778,19.788258],[105.787934,19.787319],[105.788278,19.78768],[105.788315,19.787738],[105.788304,19.787801],[105.787162,19.788697],[105.786778,19.788258]]]]},"properties":{"group":"public","tag":"leisure=park","name":null,"levels":null,"lat":19.7880069466962,"lng":105.78756028953326,"osm_type":"way","osm_id":1213969747}},{"type":"Feature","geometry":{"type":"MultiPolygon","coordinates":[[[[105.788538,19.787812],[105.790431,19.786237],[105.790549,19.786237],[105.791274,19.787009],[105.791263,19.787125],[105.789369,19.7887],[105.789289,19.78869],[105.788538,19.787812]]]]},"properties":{"group":"public","tag":"leisure=park","name":null,"levels":null,"lat":19.787451937718373,"lng":105.78992272510227,"osm_type":"way","osm_id":1213969748}},{"type":"Feature","geometry":{"type":"MultiPolygon","coordinates":[[[[105.768407,19.800431],[105.768415,19.800406],[105.768689,19.800214],[105.768726,19.800214],[105.768745,19.800237],[105.768753,19.800444],[105.768418,19.800454],[105.768407,19.800431]]]]},"properties":{"group":"public","tag":"leisure=park","name":null,"levels":null,"lat":19.800359909808193,"lng":105.76861719535098,"osm_type":"way","osm_id":1213995348}},{"type":"Feature","geometry":{"type":"MultiPolygon","coordinates":[[[[105.843322,19.980308],[105.843861,19.980379],[105.843716,19.981231],[105.843673,19.981271],[105.843628,19.981269],[105.843598,19.981234],[105.843322,19.980308]]]]},"properties":{"group":"public","tag":"leisure=park","name":null,"levels":null,"lat":19.98069939261825,"lng":105.84361691179228,"osm_type":"way","osm_id":1218677489}},{"type":"Feature","geometry":{"type":"MultiPolygon","coordinates":[[[[105.901916,19.741788],[105.902445,19.741624],[105.90264,19.742142],[105.902104,19.742278],[105.901916,19.741788]]]]},"properties":{"group":"edu_health","tag":"amenity=hospital","name":"Bệnh viện Phục hồi chức năng tỉnh Thanh Hóa","levels":null,"lat":19.741957291236528,"lng":105.90227852092104,"osm_type":"way","osm_id":1225928651}},{"type":"Feature","geometry":{"type":"MultiPolygon","coordinates":[[[[105.236686,20.15382],[105.236705,20.153762],[105.236761,20.15372],[105.237818,20.153309],[105.238159,20.154047],[105.238187,20.154115],[105.237955,20.154195],[105.237904,20.154213],[105.236718,20.154138],[105.236699,20.153966],[105.236686,20.15382]]]]},"properties":{"group":"edu_health","tag":"amenity=hospital","name":"Bệnh viện Đa khoa Lang Chánh","levels":null,"lat":20.15384632711273,"lng":105.23744988733311,"osm_type":"way","osm_id":1225928659}},{"type":"Feature","geometry":{"type":"MultiPolygon","coordinates":[[[[104.945419,20.260953],[104.945487,20.26003],[104.945934,20.259985],[104.946077,20.260047],[104.946243,20.260216],[104.946444,20.260551],[104.946575,20.2608],[104.946573,20.260865],[104.946503,20.261034],[104.945419,20.260953]]]]},"properties":{"group":"edu_health","tag":"amenity=hospital","name":"Bệnh viện Đa khoa Quan Sơn","levels":null,"lat":20.260554361560732,"lng":104.94594104513767,"osm_type":"way","osm_id":1225928660}},{"type":"Feature","geometry":{"type":"MultiPolygon","coordinates":[[[[104.598701,20.528603],[104.598932,20.528374],[104.599326,20.527811],[104.599675,20.527851],[104.599892,20.527854],[104.5999,20.528178],[104.599771,20.528542],[104.599594,20.528567],[104.599321,20.52855],[104.599232,20.528688],[104.59902,20.528555],[104.598918,20.528607],[104.598773,20.528678],[104.598701,20.528603]]]]},"properties":{"group":"edu_health","tag":"amenity=hospital","name":"Bệnh viện Đa khoa Mường Lát","levels":null,"lat":20.528251251582763,"lng":104.59941208454997,"osm_type":"way","osm_id":1226052973}},{"type":"Feature","geometry":{"type":"MultiPolygon","coordinates":[[[[105.109253,20.376636],[105.110205,20.375947],[105.110769,20.37701],[105.110095,20.377467],[105.10968,20.377088],[105.10958,20.377121],[105.109253,20.376636]]]]},"properties":{"group":"edu_health","tag":"amenity=hospital","name":"Bệnh viện Đa khoa Quan Hóa","levels":null,"lat":20.37674369410449,"lng":105.11004328394534,"osm_type":"way","osm_id":1226052975}},{"type":"Feature","geometry":{"type":"MultiPolygon","coordinates":[[[[105.2234,20.351371],[105.223612,20.351167],[105.223741,20.351044],[105.223534,20.35083],[105.224151,20.350222],[105.224333,20.350088],[105.224508,20.350327],[105.224867,20.350981],[105.225012,20.351215],[105.224379,20.351716],[105.224234,20.351572],[105.223826,20.351866],[105.2234,20.351371]]]]},"properties":{"group":"edu_health","tag":"amenity=hospital","name":"Bệnh viện Đa khoa Bá Thước","levels":null,"lat":20.351039936515093,"lng":105.22419223073987,"osm_type":"way","osm_id":1226052984}},{"type":"Feature","geometry":{"type":"MultiPolygon","coordinates":[[[[105.464513,20.204237],[105.464765,20.204106],[105.465811,20.203391],[105.46649,20.204053],[105.466645,20.204224],[105.466468,20.204509],[105.466401,20.204589],[105.465862,20.204969],[105.465902,20.205088],[105.465492,20.205372],[105.465127,20.204974],[105.464513,20.204237]]]]},"properties":{"group":"edu_health","tag":"amenity=hospital","name":"Bệnh viện Đa khoa Cẩm Thuỷ","levels":null,"lat":20.204350170579527,"lng":105.46561632835234,"osm_type":"way","osm_id":1226053004}},{"type":"Feature","geometry":{"type":"MultiPolygon","coordinates":[[[[105.347,19.899641],[105.347301,19.899351],[105.34743,19.899207],[105.347411,19.899141],[105.347585,19.899035],[105.347663,19.898808],[105.347961,19.898932],[105.34832,19.899121],[105.348057,19.89953],[105.34835,19.899736],[105.348194,19.899918],[105.348374,19.9001],[105.348224,19.900233],[105.348256,19.900281],[105.347982,19.900503],[105.34733,19.899832],[105.347277,19.899885],[105.347,19.899641]]]]},"properties":{"group":"edu_health","tag":"amenity=hospital","name":"Bệnh viện Đa khoa Thường Xuân","levels":null,"lat":19.89963226837282,"lng":105.34778484124698,"osm_type":"way","osm_id":1226053006}},{"type":"Feature","geometry":{"type":"MultiPolygon","coordinates":[[[[105.527546,19.547822],[105.527954,19.547291],[105.528271,19.547508],[105.528328,19.547547],[105.528225,19.547682],[105.528497,19.547867],[105.528568,19.547775],[105.528706,19.547869],[105.52833,19.548357],[105.527546,19.547822]]]]},"properties":{"group":"public","tag":"leisure=garden","name":null,"levels":null,"lat":19.547836066854533,"lng":105.52810765030588,"osm_type":"way","osm_id":1259303605}},{"type":"Feature","geometry":{"type":"MultiPolygon","coordinates":[[[[105.777397,19.778349],[105.777452,19.778344],[105.777577,19.778496],[105.777577,19.778558],[105.777469,19.778641],[105.777426,19.778618],[105.777397,19.778349]]]]},"properties":{"group":"public","tag":"leisure=park","name":null,"levels":null,"lat":19.77849574340875,"lng":105.77747796766685,"osm_type":"way","osm_id":1395140541}},{"type":"Feature","geometry":{"type":"MultiPolygon","coordinates":[[[[105.784207,19.788938],[105.784333,19.788842],[105.784369,19.788876],[105.784404,19.788848],[105.784366,19.788813],[105.784769,19.788497],[105.7848,19.788528],[105.784837,19.788499],[105.784805,19.788466],[105.784945,19.788365],[105.785105,19.788549],[105.784973,19.788658],[105.784939,19.788621],[105.784897,19.788652],[105.784924,19.788686],[105.784531,19.788995],[105.784501,19.788956],[105.784457,19.78899],[105.784488,19.789029],[105.784375,19.78912],[105.784207,19.788938]]]]},"properties":{"group":"apartment","tag":"building=apartments","name":"Chung cư TÂN THÀNH 1","levels":11.0,"lat":19.78874018586991,"lng":105.78465789253329,"osm_type":"way","osm_id":1461576416}},{"type":"Feature","geometry":{"type":"MultiPolygon","coordinates":[[[[105.783651,19.788701],[105.783841,19.788555],[105.78392,19.788643],[105.783902,19.788657],[105.783917,19.788674],[105.783935,19.78866],[105.784146,19.788896],[105.784126,19.788912],[105.784142,19.788932],[105.784165,19.788916],[105.784239,19.789002],[105.784048,19.789145],[105.783968,19.789056],[105.783985,19.789043],[105.783974,19.789028],[105.783955,19.789042],[105.78375,19.78881],[105.783765,19.788798],[105.783752,19.788784],[105.783736,19.788795],[105.783651,19.788701]]]]},"properties":{"group":"apartment","tag":"building=apartments","name":"Chung cư TÂN THÀNH 1","levels":11.0,"lat":19.7888505747928,"lng":105.78394494729059,"osm_type":"way","osm_id":1461576417}},{"type":"Feature","geometry":{"type":"MultiPolygon","coordinates":[[[[105.784629,19.787995],[105.784844,19.787831],[105.784894,19.787886],[105.784876,19.787902],[105.784893,19.787921],[105.784916,19.787903],[105.785137,19.788147],[105.785119,19.788161],[105.785132,19.788176],[105.78515,19.788162],[105.785216,19.788235],[105.785002,19.788389],[105.784946,19.788325],[105.784959,19.788316],[105.784945,19.788304],[105.784932,19.788312],[105.784706,19.788075],[105.784724,19.788061],[105.784702,19.788039],[105.784685,19.788053],[105.784629,19.787995]]]]},"properties":{"group":"apartment","tag":"building=apartments","name":"Chung cư TÂN THÀNH 1","levels":11.0,"lat":19.788110645671267,"lng":105.78492352312175,"osm_type":"way","osm_id":1461576418}},{"type":"Feature","geometry":{"type":"MultiPolygon","coordinates":[[[[105.762683,19.434664],[105.762703,19.434494],[105.762784,19.434504],[105.762783,19.434535],[105.762838,19.434542],[105.762829,19.434636],[105.762775,19.434629],[105.762769,19.434677],[105.762683,19.434664]]]]},"properties":{"group":"public","tag":"amenity=community_centre","name":"Đình làng Sơn Thắng","levels":null,"lat":19.434585766945244,"lng":105.76275385836708,"osm_type":"way","osm_id":1495319913}},{"type":"Feature","geometry":{"type":"MultiPolygon","coordinates":[[[[105.765241,19.426213],[105.765749,19.425949],[105.766334,19.426911],[105.766784,19.426724],[105.767148,19.427402],[105.766174,19.427881],[105.765241,19.426213]]]]},"properties":{"group":"apartment","tag":"residential=apartments","name":null,"levels":null,"lat":19.426979694836938,"lng":105.76616905407552,"osm_type":"way","osm_id":1495873519}},{"type":"Feature","geometry":{"type":"Point","coordinates":[105.775333,19.800864]},"properties":{"group":"edu_health","tag":"amenity=school","name":"Lam Son highschool","levels":null,"lat":19.8008636,"lng":105.7753326,"osm_type":"node","osm_id":1683863635}},{"type":"Feature","geometry":{"type":"Point","coordinates":[105.984195,19.979906]},"properties":{"group":"edu_health","tag":"amenity=hospital","name":"Trạm y tế xã Nga Thủy","levels":null,"lat":19.9799057,"lng":105.9841948,"osm_type":"node","osm_id":4148736350}},{"type":"Feature","geometry":{"type":"Point","coordinates":[105.756457,19.579875]},"properties":{"group":"edu_health","tag":"amenity=hospital","name":null,"levels":null,"lat":19.5798755,"lng":105.756457,"osm_type":"node","osm_id":4841805022}},{"type":"Feature","geometry":{"type":"Point","coordinates":[105.75421,19.577036]},"properties":{"group":"edu_health","tag":"amenity=hospital","name":null,"levels":null,"lat":19.5770364,"lng":105.7542099,"osm_type":"node","osm_id":4841841221}},{"type":"Feature","geometry":{"type":"Point","coordinates":[105.779247,19.827785]},"properties":{"group":"edu_health","tag":"amenity=hospital","name":"Bệnh viện đa khoa Hợp Lực","levels":null,"lat":19.8277851,"lng":105.779247,"osm_type":"node","osm_id":5609365723}},{"type":"Feature","geometry":{"type":"Point","coordinates":[105.777897,19.809559]},"properties":{"group":"mall","tag":"shop=mall","name":"Vincom Thanh Hóa","levels":null,"lat":19.8095591,"lng":105.7778969,"osm_type":"node","osm_id":5806378455}},{"type":"Feature","geometry":{"type":"Point","coordinates":[105.563985,19.952628]},"properties":{"group":"edu_health","tag":"amenity=school","name":"Trường Trung học cơ sở Xuân Tân","levels":null,"lat":19.9526279,"lng":105.563985,"osm_type":"node","osm_id":7183319085}},{"type":"Feature","geometry":{"type":"Point","coordinates":[105.374975,20.355268]},"properties":{"group":"edu_health","tag":"amenity=hospital","name":"Trạm Y Tế Lương Nội","levels":null,"lat":20.3552675,"lng":105.3749752,"osm_type":"node","osm_id":9732933711}},{"type":"Feature","geometry":{"type":"Point","coordinates":[105.60153,20.184252]},"properties":{"group":"public","tag":"amenity=community_centre","name":"Hội trường thôn Liên Sơn","levels":null,"lat":20.1842517,"lng":105.6015302,"osm_type":"node","osm_id":11051475334}},{"type":"Feature","geometry":{"type":"Point","coordinates":[105.610065,20.185976]},"properties":{"group":"public","tag":"amenity=community_centre","name":"Hội trường thôn Bình Sậy","levels":null,"lat":20.1859764,"lng":105.6100652,"osm_type":"node","osm_id":11051475335}},{"type":"Feature","geometry":{"type":"Point","coordinates":[105.601357,20.191558]},"properties":{"group":"public","tag":"amenity=community_centre","name":"Hội trường thôn Đồng Hương","levels":null,"lat":20.1915584,"lng":105.6013572,"osm_type":"node","osm_id":11051475336}},{"type":"Feature","geometry":{"type":"Point","coordinates":[105.5714,20.225482]},"properties":{"group":"edu_health","tag":"amenity=school","name":"Trường tiểu học Thạch Cẩm 2","levels":null,"lat":20.2254819,"lng":105.5713998,"osm_type":"node","osm_id":11051539245}},{"type":"Feature","geometry":{"type":"Point","coordinates":[105.644256,20.156734]},"properties":{"group":"edu_health","tag":"amenity=school","name":"Trường Trung học phổ thông Thạch Thành 2","levels":null,"lat":20.1567339,"lng":105.6442562,"osm_type":"node","osm_id":11051575816}},{"type":"Feature","geometry":{"type":"Point","coordinates":[105.522518,20.324207]},"properties":{"group":"public","tag":"amenity=community_centre","name":"UBND xã Thạch Lâm","levels":null,"lat":20.324207,"lng":105.5225181,"osm_type":"node","osm_id":11051609375}},{"type":"Feature","geometry":{"type":"Point","coordinates":[105.607567,20.1875]},"properties":{"group":"public","tag":"amenity=community_centre","name":"UBND xã Thạch Sơn","levels":null,"lat":20.1875001,"lng":105.6075669,"osm_type":"node","osm_id":11052226236}},{"type":"Feature","geometry":{"type":"Point","coordinates":[105.666076,20.12826]},"properties":{"group":"public","tag":"amenity=community_centre","name":"Trung Tâm Văn Hóa - Thể Dục Thể Thao Huyện Thạch Thành","levels":null,"lat":20.12826,"lng":105.6660755,"osm_type":"node","osm_id":11052249149}},{"type":"Feature","geometry":{"type":"Point","coordinates":[105.660798,20.127056]},"properties":{"group":"public","tag":"amenity=community_centre","name":"UBND huyện Thạch Thành","levels":null,"lat":20.1270559,"lng":105.6607982,"osm_type":"node","osm_id":11052249151}},{"type":"Feature","geometry":{"type":"Point","coordinates":[105.684159,20.138418]},"properties":{"group":"edu_health","tag":"amenity=school","name":"Trường Trung học cơ sở dân tộc nội trú Thạch Thành","levels":null,"lat":20.1384181,"lng":105.6841594,"osm_type":"node","osm_id":11052249153}},{"type":"Feature","geometry":{"type":"Point","coordinates":[105.557684,20.242923]},"properties":{"group":"edu_health","tag":"amenity=school","name":"Trường Trung học cơ sở Thạch Cẩm","levels":null,"lat":20.2429235,"lng":105.5576842,"osm_type":"node","osm_id":11052276897}},{"type":"Feature","geometry":{"type":"Point","coordinates":[105.556664,20.243479]},"properties":{"group":"edu_health","tag":"amenity=school","name":"Trường Tiểu học Thạch Cẩm 1","levels":null,"lat":20.2434787,"lng":105.5566645,"osm_type":"node","osm_id":11052276898}},{"type":"Feature","geometry":{"type":"Point","coordinates":[105.558638,20.242455]},"properties":{"group":"public","tag":"amenity=community_centre","name":"Công sở xã Thạch Cẩm","levels":null,"lat":20.2424554,"lng":105.5586375,"osm_type":"node","osm_id":11052276899}},{"type":"Feature","geometry":{"type":"Point","coordinates":[105.562155,20.240531]},"properties":{"group":"edu_health","tag":"amenity=school","name":"Trường mầm non Thạch Cẩm","levels":null,"lat":20.2405313,"lng":105.5621554,"osm_type":"node","osm_id":11052276900}},{"type":"Feature","geometry":{"type":"Point","coordinates":[105.996459,20.035059]},"properties":{"group":"public","tag":"leisure=park","name":"nhà ông Mai Văn Thuyết","levels":null,"lat":20.0350588,"lng":105.996459,"osm_type":"node","osm_id":11054434696}},{"type":"Feature","geometry":{"type":"Point","coordinates":[105.621251,20.165781]},"properties":{"group":"edu_health","tag":"amenity=school","name":"Trường Trung học cơ sở Thạch Bình","levels":null,"lat":20.1657806,"lng":105.6212515,"osm_type":"node","osm_id":11055483945}},{"type":"Feature","geometry":{"type":"Point","coordinates":[105.621742,20.165152]},"properties":{"group":"edu_health","tag":"amenity=school","name":"Trường tiểu học Thạch Bình","levels":null,"lat":20.1651519,"lng":105.6217425,"osm_type":"node","osm_id":11055483946}},{"type":"Feature","geometry":{"type":"Point","coordinates":[105.621171,20.164641]},"properties":{"group":"edu_health","tag":"amenity=school","name":"Trường mầm non Thạch Bình","levels":null,"lat":20.1646414,"lng":105.6211706,"osm_type":"node","osm_id":11055483947}},{"type":"Feature","geometry":{"type":"Point","coordinates":[105.620027,20.163753]},"properties":{"group":"public","tag":"amenity=community_centre","name":"UBND xã Thạch Bình","levels":null,"lat":20.1637529,"lng":105.6200274,"osm_type":"node","osm_id":11055483948}},{"type":"Feature","geometry":{"type":"Point","coordinates":[105.57887,20.208167]},"properties":{"group":"public","tag":"amenity=community_centre","name":"Hội trường thôn Xuân Thắng","levels":null,"lat":20.2081671,"lng":105.5788705,"osm_type":"node","osm_id":11058014274}},{"type":"Feature","geometry":{"type":"Point","coordinates":[105.517041,20.33274]},"properties":{"group":"edu_health","tag":"amenity=school","name":"Trường Trung học cơ sở Thạch Lâm","levels":null,"lat":20.3327398,"lng":105.5170407,"osm_type":"node","osm_id":11058014299}},{"type":"Feature","geometry":{"type":"Point","coordinates":[105.668888,20.124754]},"properties":{"group":"edu_health","tag":"amenity=school","name":"Trung Tâm Giáo Dục Thường Xuyên Huyện Thạch Thành","levels":null,"lat":20.124754,"lng":105.6688878,"osm_type":"node","osm_id":11059912117}},{"type":"Feature","geometry":{"type":"Point","coordinates":[105.6402,20.16229]},"properties":{"group":"public","tag":"amenity=community_centre","name":"UBND xã Thạch Tân","levels":null,"lat":20.1622901,"lng":105.6402002,"osm_type":"node","osm_id":11059916778}},{"type":"Feature","geometry":{"type":"Point","coordinates":[105.643244,20.181701]},"properties":{"group":"public","tag":"amenity=community_centre","name":"UBND xã Thành Trực","levels":null,"lat":20.1817014,"lng":105.6432443,"osm_type":"node","osm_id":11078202153}},{"type":"Feature","geometry":{"type":"Point","coordinates":[105.617334,20.185006]},"properties":{"group":"public","tag":"amenity=community_centre","name":"Hội trường thôn Bình Chính","levels":null,"lat":20.1850063,"lng":105.6173342,"osm_type":"node","osm_id":11097879517}},{"type":"Feature","geometry":{"type":"Point","coordinates":[105.60137,20.191572]},"properties":{"group":"public","tag":"amenity=community_centre","name":"Nhà Văn Hóa Thôn Đồng Hương","levels":null,"lat":20.1915722,"lng":105.6013695,"osm_type":"node","osm_id":11097879518}},{"type":"Feature","geometry":{"type":"Point","coordinates":[105.17183,20.454835]},"properties":{"group":"edu_health","tag":"amenity=school","name":null,"levels":null,"lat":20.4548347,"lng":105.1718302,"osm_type":"node","osm_id":12749249803}},{"type":"Feature","geometry":{"type":"Point","coordinates":[105.174674,20.457158]},"properties":{"group":"edu_health","tag":"amenity=school","name":null,"levels":null,"lat":20.4571583,"lng":105.1746742,"osm_type":"node","osm_id":12749249810}},{"type":"Feature","geometry":{"type":"Point","coordinates":[105.085999,20.50686]},"properties":{"group":"edu_health","tag":"amenity=school","name":null,"levels":null,"lat":20.5068599,"lng":105.0859985,"osm_type":"node","osm_id":12749318862}},{"type":"Feature","geometry":{"type":"Point","coordinates":[105.037737,20.541435]},"properties":{"group":"edu_health","tag":"amenity=school","name":null,"levels":null,"lat":20.5414352,"lng":105.0377369,"osm_type":"node","osm_id":12749375818}},{"type":"Feature","geometry":{"type":"Point","coordinates":[105.771812,19.441797]},"properties":{"group":"apartment","tag":"residential=apartments","name":"Nghi Sơn Central Park","levels":null,"lat":19.4417966,"lng":105.7718118,"osm_type":"node","osm_id":13690063150}}]}