{"type":"FeatureCollection","features":[{"type":"Feature","properties":{"kind":"boundary","province_code":"75","name":"Tỉnh Đồng Nai","source":"VNSDI","valid_from":"16/6/2025","simplify_tolerance_deg":0.0005},"geometry":{"type":"Polygon","coordinates":[[[106.82521,10.77744],[106.82583,10.77449],[106.8234,10.76236],[106.82549,10.76041],[106.82862,10.76075],[106.8379,10.77161],[106.8411,10.77381],[106.84539,10.77493],[106.85178,10.77439],[106.85525,10.77279],[106.86225,10.7663],[106.86529,10.76527],[106.86958,10.76639],[106.87177,10.76961],[106.87165,10.77377],[106.86656,10.78256],[106.8655,10.78794],[106.86778,10.79252],[106.87902,10.80158],[106.88159,10.80583],[106.88202,10.81097],[106.88071,10.81453],[106.87758,10.81934],[106.85698,10.84238],[106.84871,10.85831],[106.84702,10.86354],[106.84711,10.86655],[106.85012,10.87163],[106.8508,10.87543],[106.85037,10.87701],[106.84324,10.88609],[106.84075,10.897],[106.8383,10.90237],[106.83246,10.90503],[106.81916,10.90218],[106.81629,10.90274],[106.81517,10.90469],[106.81445,10.91101],[106.81138,10.91798],[106.807,10.92052],[106.80207,10.92078],[106.79222,10.92302],[106.79102,10.9257],[106.7919,10.92932],[106.79121,10.93134],[106.77656,10.93857],[106.77124,10.94276],[106.77019,10.94677],[106.76352,10.955],[106.7633,10.96096],[106.76215,10.96198],[106.762,10.96359],[106.76357,10.9646],[106.77029,10.96417],[106.77259,10.96257],[106.77315,10.95961],[106.77537,10.95924],[106.77959,10.96323],[106.78294,10.96463],[106.78542,10.9669],[106.79432,10.97007],[106.79622,10.97181],[106.79635,10.97384],[106.79566,10.9748],[106.78144,10.98717],[106.77588,10.99898],[106.77507,11.00401],[106.7776,11.00852],[106.79246,11.0225],[106.79758,11.02449],[106.8089,11.02641],[106.81225,11.03025],[106.81296,11.03466],[106.81107,11.04194],[106.80754,11.04716],[106.79966,11.054],[106.79925,11.05699],[106.80139,11.05928],[106.82154,11.06504],[106.82621,11.06522],[106.82792,11.06429],[106.82993,11.06198],[106.83924,11.04076],[106.84591,11.03603],[106.85828,11.03254],[106.86657,11.02357],[106.86894,11.02167],[106.87348,11.01989],[106.8925,11.02729],[106.89835,11.02681],[106.90369,11.02284],[106.90783,11.02211],[106.90985,11.02359],[106.91139,11.02685],[106.91277,11.04116],[106.91449,11.04293],[106.92283,11.0471],[106.92355,11.04886],[106.92288,11.05224],[106.92415,11.05723],[106.93143,11.06406],[106.9334,11.06481],[106.93577,11.06429],[106.9417,11.05678],[106.94469,11.05693],[106.94744,11.05883],[106.95008,11.06852],[106.95254,11.07112],[106.95122,11.07376],[106.94649,11.07673],[106.94561,11.07834],[106.94772,11.08927],[106.95293,11.09742],[106.95778,11.0989],[106.95936,11.10042],[106.95937,11.10283],[106.95771,11.10493],[106.95811,11.10692],[106.95957,11.10773],[106.96542,11.10808],[106.96589,11.10996],[106.96241,11.11688],[106.95674,11.12303],[106.95343,11.12908],[106.95307,11.13288],[106.95399,11.14053],[106.95552,11.14213],[106.96533,11.14269],[106.96654,11.14453],[106.96596,11.14765],[106.96506,11.14947],[106.95591,11.15267],[106.95551,11.15906],[106.9534,11.16371],[106.94934,11.16571],[106.94157,11.16742],[106.9413,11.16941],[106.9446,11.1729],[106.94578,11.1766],[106.94427,11.17748],[106.9412,11.1777],[106.93914,11.17951],[106.9339,11.18849],[106.92963,11.18988],[106.92629,11.18892],[106.92357,11.18701],[106.9215,11.18828],[106.92116,11.1914],[106.91985,11.19308],[106.91321,11.19333],[106.90834,11.19215],[106.90643,11.19271],[106.90572,11.19512],[106.90734,11.19819],[106.90721,11.20282],[106.9061,11.2046],[106.90263,11.20623],[106.90133,11.2088],[106.90211,11.21069],[106.90902,11.21188],[106.91525,11.21429],[106.91794,11.22037],[106.91763,11.22432],[106.9163,11.22757],[106.91536,11.22926],[106.91341,11.2302],[106.9108,11.23918],[106.91132,11.24207],[106.919,11.24283],[106.92419,11.24149],[106.92666,11.24181],[106.93017,11.24334],[106.93174,11.24526],[106.92522,11.25408],[106.92523,11.25565],[106.92685,11.2568],[106.92806,11.25928],[106.92732,11.27258],[106.92881,11.27752],[106.9319,11.28303],[106.94006,11.291],[106.94149,11.29343],[106.93828,11.30038],[106.9372,11.30562],[106.93795,11.30989],[106.94031,11.31324],[106.94826,11.32016],[106.95116,11.32179],[106.95226,11.32359],[106.95292,11.32897],[106.95107,11.33746],[106.94581,11.3449],[106.94422,11.34874],[106.93955,11.35171],[106.93517,11.35331],[106.928,11.35415],[106.92441,11.35391],[106.92107,11.35118],[106.91947,11.35106],[106.91699,11.35622],[106.91169,11.35501],[106.90762,11.35318],[106.9054,11.35091],[106.90394,11.34596],[106.90139,11.34191],[106.89966,11.34102],[106.89046,11.34132],[106.88457,11.34006],[106.87734,11.33111],[106.87263,11.3271],[106.87019,11.32237],[106.87003,11.32046],[106.87445,11.31143],[106.87539,11.30836],[106.87496,11.30736],[106.87214,11.30988],[106.85979,11.31472],[106.8568,11.31793],[106.85563,11.32275],[106.85614,11.32993],[106.85691,11.33175],[106.86294,11.33824],[106.86317,11.34052],[106.86188,11.34386],[106.85981,11.34505],[106.85797,11.34749],[106.85655,11.35252],[106.85723,11.37297],[106.85446,11.37675],[106.84062,11.37496],[106.83445,11.38043],[106.82716,11.37998],[106.82563,11.38446],[106.81605,11.37717],[106.81231,11.37575],[106.80042,11.38112],[106.79365,11.38295],[106.78844,11.38286],[106.789,11.40097],[106.77465,11.40217],[106.77002,11.40388],[106.77072,11.42651],[106.77942,11.42681],[106.78387,11.42873],[106.78811,11.43172],[106.80565,11.45121],[106.80821,11.46094],[106.80341,11.47305],[106.80369,11.48149],[106.80313,11.48374],[106.80052,11.48785],[106.79705,11.49112],[106.78988,11.49153],[106.77901,11.48531],[106.77345,11.48276],[106.77075,11.48251],[106.76642,11.47951],[106.76177,11.4777],[106.75566,11.4772],[106.75334,11.47598],[106.75017,11.4697],[106.75013,11.46666],[106.75229,11.45708],[106.75674,11.45349],[106.75543,11.44877],[106.75251,11.44598],[106.74191,11.44076],[106.74136,11.43496],[106.73875,11.43247],[106.73626,11.43177],[106.72926,11.43322],[106.72752,11.43269],[106.72607,11.4309],[106.7264,11.42464],[106.72449,11.42302],[106.72041,11.42297],[106.7187,11.41461],[106.70941,11.40615],[106.70897,11.4043],[106.71025,11.40177],[106.70987,11.39995],[106.70499,11.39738],[106.70432,11.3961],[106.69788,11.40314],[106.69446,11.40279],[106.69279,11.40175],[106.69167,11.39884],[106.68637,11.39555],[106.68359,11.39887],[106.67478,11.39732],[106.67919,11.38556],[106.67798,11.36925],[106.6743,11.35501],[106.67355,11.35407],[106.6667,11.35398],[106.65558,11.35708],[106.65329,11.35915],[106.65065,11.35975],[106.64313,11.36016],[106.63288,11.35909],[106.62629,11.35988],[106.61615,11.3632],[106.61304,11.37966],[106.61344,11.3875],[106.59925,11.38643],[106.59054,11.37976],[106.57761,11.37748],[106.56639,11.37144],[106.56143,11.37048],[106.55737,11.37113],[106.55372,11.373],[106.54656,11.38315],[106.54108,11.38712],[106.53899,11.38762],[106.54453,11.39385],[106.54839,11.40695],[106.54782,11.41445],[106.54158,11.42373],[106.54132,11.4265],[106.54222,11.42832],[106.54731,11.43477],[106.55205,11.43839],[106.55883,11.44038],[106.56223,11.44248],[106.57189,11.45251],[106.57318,11.45577],[106.5734,11.45755],[106.56031,11.47196],[106.55672,11.48399],[106.54775,11.47019],[106.54384,11.4679],[106.54208,11.46791],[106.54003,11.46812],[106.52333,11.48048],[106.49325,11.49726],[106.48378,11.49788],[106.47518,11.49629],[106.47177,11.4965],[106.45598,11.49906],[106.44625,11.49909],[106.43513,11.50166],[106.42907,11.49731],[106.42345,11.495],[106.42229,11.50335],[106.42477,11.51023],[106.42751,11.5123],[106.42847,11.51417],[106.42815,11.51991],[106.42998,11.52616],[106.42963,11.5334],[106.43027,11.53464],[106.43514,11.53805],[106.43902,11.54376],[106.44336,11.54728],[106.44569,11.5475],[106.44904,11.54444],[106.45419,11.54215],[106.46503,11.54261],[106.47343,11.54921],[106.47489,11.54948],[106.47846,11.54664],[106.47968,11.54649],[106.48128,11.55705],[106.48199,11.55867],[106.48686,11.56351],[106.48871,11.56812],[106.48961,11.57606],[106.48438,11.59463],[106.48494,11.60095],[106.48435,11.60437],[106.4806,11.60867],[106.47278,11.61358],[106.46629,11.62181],[106.46556,11.63139],[106.46384,11.63823],[106.45493,11.65082],[106.4541,11.65448],[106.45532,11.65755],[106.45134,11.6603],[106.4497,11.6632],[106.44989,11.665],[106.45197,11.66849],[106.45324,11.67732],[106.45356,11.68587],[106.45268,11.69146],[106.43406,11.71319],[106.42252,11.7398],[106.41432,11.76678],[106.41626,11.77299],[106.42,11.7804],[106.42705,11.79198],[106.43126,11.7983],[106.43547,11.80099],[106.43555,11.80269],[106.43325,11.80438],[106.43341,11.80625],[106.43537,11.80983],[106.44287,11.81966],[106.4461,11.82108],[106.4479,11.82319],[106.44688,11.82746],[106.44091,11.83473],[106.43896,11.83851],[106.43879,11.85245],[106.44022,11.85738],[106.44177,11.85846],[106.44546,11.85854],[106.44578,11.86428],[106.44647,11.86571],[106.44881,11.86694],[106.45424,11.8669],[106.45802,11.86419],[106.45987,11.86394],[106.46474,11.86652],[106.46663,11.86836],[106.46717,11.87043],[106.46575,11.87433],[106.45918,11.88589],[106.41359,11.97466],[106.42177,11.97302],[106.42649,11.97389],[106.43227,11.97682],[106.4421,11.98574],[106.45538,11.98758],[106.46295,11.98421],[106.47315,11.97381],[106.48389,11.97122],[106.49183,11.97133],[106.49722,11.97276],[106.50369,11.97511],[106.5072,11.97776],[106.51448,11.98088],[106.51824,11.98119],[106.52413,11.98041],[106.52995,11.97647],[106.53067,11.97389],[106.53042,11.96822],[106.54311,11.96838],[106.62691,11.97464],[106.62828,11.96595],[106.62997,11.96232],[106.63098,11.96088],[106.6342,11.95999],[106.63597,11.9606],[106.63655,11.96185],[106.63531,11.96666],[106.63654,11.97189],[106.63784,11.97392],[106.64037,11.97517],[106.64336,11.9744],[106.64291,11.9685],[106.64562,11.9664],[106.65563,11.96314],[106.65904,11.96407],[106.6599,11.9654],[106.65957,11.96774],[106.6534,11.97154],[106.65063,11.97741],[106.6515,11.98616],[106.65269,11.98826],[106.65495,11.98917],[106.65876,11.98714],[106.66732,11.97992],[106.67694,11.97445],[106.68217,11.96648],[106.68561,11.9647],[106.69384,11.96433],[106.7008,11.96738],[106.70604,11.96759],[106.71368,11.96988],[106.72232,11.97498],[106.72694,11.98141],[106.72982,11.98236],[106.74197,11.98276],[106.74467,11.98399],[106.74338,11.9925],[106.73902,11.99898],[106.74568,12.00511],[106.74751,12.00915],[106.74688,12.02131],[106.75277,12.02598],[106.75542,12.02939],[106.76166,12.04073],[106.76646,12.0438],[106.7683,12.04655],[106.77146,12.05607],[106.77335,12.0584],[106.77914,12.06104],[106.78222,12.06398],[106.78217,12.06484],[106.7794,12.06582],[106.77892,12.06691],[106.77965,12.07207],[106.7813,12.07426],[106.79054,12.08113],[106.79574,12.08374],[106.79913,12.08348],[106.80949,12.07926],[106.81286,12.07976],[106.81528,12.08267],[106.81864,12.08378],[106.82573,12.08237],[106.84274,12.07567],[106.85556,12.06898],[106.86062,12.06912],[106.86328,12.07003],[106.86773,12.07222],[106.86991,12.0745],[106.87512,12.07281],[106.87879,12.07398],[106.88428,12.07378],[106.89412,12.06957],[106.89729,12.06643],[106.89899,12.06604],[106.90272,12.06743],[106.90832,12.06792],[106.91084,12.06736],[106.91535,12.06382],[106.92062,12.06241],[106.93717,12.06819],[106.94454,12.06748],[106.94889,12.07336],[106.96038,12.07698],[106.97572,12.08586],[106.98383,12.0887],[106.99454,12.09123],[106.99663,12.09628],[107.00408,12.0996],[107.00782,12.10214],[107.01126,12.10601],[107.01333,12.1123],[107.01285,12.11283],[107.00696,12.11153],[107.00399,12.11303],[107.00366,12.1144],[107.00432,12.11524],[107.01026,12.11911],[107.03158,12.12884],[107.04747,12.13325],[107.05584,12.14313],[107.05639,12.15028],[107.05907,12.15416],[107.06993,12.16186],[107.07438,12.16307],[107.07865,12.16294],[107.08052,12.16764],[107.07981,12.16954],[107.07688,12.17112],[107.07045,12.17673],[107.07113,12.18],[107.07556,12.1882],[107.08326,12.18351],[107.09258,12.18119],[107.10368,12.20506],[107.10882,12.21346],[107.11441,12.21899],[107.12357,12.22611],[107.12582,12.2267],[107.1299,12.22489],[107.13272,12.22623],[107.13942,12.23149],[107.14013,12.23428],[107.13863,12.23622],[107.13638,12.23712],[107.13584,12.2402],[107.13977,12.25076],[107.15014,12.27249],[107.15356,12.2777],[107.15741,12.27986],[107.16364,12.27899],[107.1801,12.28266],[107.18413,12.28577],[107.18599,12.29133],[107.19196,12.29486],[107.20528,12.29899],[107.22206,12.19512],[107.22786,12.15316],[107.22749,12.13591],[107.22333,12.12496],[107.22417,12.11998],[107.22884,12.11641],[107.23978,12.11474],[107.24107,12.11037],[107.23439,12.08919],[107.23187,12.06559],[107.2322,12.03267],[107.23358,12.02741],[107.23624,12.03651],[107.24269,12.03911],[107.24492,12.0357],[107.24899,12.02572],[107.25363,12.02042],[107.25577,12.01935],[107.2633,12.01727],[107.26749,12.01733],[107.27524,12.01337],[107.27791,12.01281],[107.27973,12.0132],[107.28343,12.01742],[107.29344,12.0215],[107.2953,12.01901],[107.29566,12.00982],[107.30545,12.00652],[107.31162,12.00599],[107.31448,12.00888],[107.31718,12.00858],[107.32216,12.00621],[107.32655,11.99899],[107.33056,11.99731],[107.34475,11.97989],[107.35423,11.95316],[107.35508,11.94802],[107.3532,11.93912],[107.36216,11.93391],[107.36645,11.93325],[107.37011,11.92809],[107.38108,11.9222],[107.38411,11.91925],[107.38575,11.91581],[107.38627,11.91209],[107.39354,11.89768],[107.40264,11.88754],[107.40357,11.87931],[107.40742,11.86735],[107.4088,11.86614],[107.4208,11.86388],[107.42623,11.85888],[107.42674,11.84646],[107.42136,11.84319],[107.417,11.8383],[107.41427,11.83398],[107.41295,11.82679],[107.40752,11.82238],[107.40435,11.81599],[107.40488,11.81272],[107.40945,11.80713],[107.40863,11.80517],[107.40239,11.79983],[107.39741,11.79954],[107.3954,11.79825],[107.39354,11.79482],[107.39269,11.79221],[107.39651,11.78508],[107.39716,11.77999],[107.39664,11.77308],[107.39362,11.76894],[107.38836,11.77227],[107.38494,11.77295],[107.37837,11.77243],[107.3735,11.77093],[107.3692,11.76905],[107.36599,11.76613],[107.36339,11.76128],[107.35976,11.75753],[107.35285,11.75248],[107.33712,11.74827],[107.33129,11.74805],[107.32654,11.74924],[107.3114,11.74359],[107.3018,11.73831],[107.2938,11.73211],[107.28719,11.72547],[107.28603,11.72226],[107.28376,11.69946],[107.28466,11.68714],[107.28321,11.68456],[107.27806,11.68137],[107.26575,11.66002],[107.26609,11.65008],[107.26769,11.64368],[107.27063,11.63735],[107.27276,11.63586],[107.28303,11.63314],[107.28784,11.63072],[107.29892,11.62192],[107.30266,11.61704],[107.30466,11.60343],[107.30427,11.59745],[107.30305,11.59413],[107.29754,11.58578],[107.29755,11.58384],[107.29829,11.57888],[107.30138,11.56992],[107.31061,11.55472],[107.31251,11.55358],[107.32955,11.55392],[107.33305,11.55171],[107.33847,11.54433],[107.34517,11.54306],[107.35229,11.54904],[107.35569,11.55523],[107.3567,11.55832],[107.35657,11.57002],[107.35816,11.58087],[107.35925,11.58174],[107.36144,11.58138],[107.36436,11.5783],[107.36604,11.57479],[107.36612,11.57235],[107.36242,11.57061],[107.36211,11.56202],[107.36072,11.55524],[107.36225,11.55295],[107.36765,11.54945],[107.37574,11.54653],[107.37692,11.54538],[107.37792,11.54223],[107.37557,11.53101],[107.37203,11.5231],[107.36884,11.51857],[107.36914,11.51699],[107.3706,11.51592],[107.37344,11.51586],[107.38449,11.52099],[107.39001,11.52639],[107.40143,11.52922],[107.40828,11.52852],[107.41582,11.51404],[107.41786,11.51261],[107.42056,11.51211],[107.42265,11.51274],[107.42557,11.51615],[107.42971,11.51867],[107.43685,11.5179],[107.4413,11.51648],[107.44268,11.51519],[107.44438,11.50837],[107.45209,11.50073],[107.45446,11.49553],[107.45862,11.49067],[107.47021,11.47986],[107.46822,11.4722],[107.46373,11.46453],[107.46201,11.46305],[107.45045,11.45808],[107.44729,11.4492],[107.44599,11.44755],[107.43929,11.44545],[107.42985,11.43925],[107.4292,11.43724],[107.42996,11.42474],[107.4369,11.43033],[107.4397,11.43141],[107.45647,11.4299],[107.47262,11.43586],[107.47482,11.43484],[107.48456,11.42928],[107.48703,11.42617],[107.48766,11.42111],[107.48639,11.40723],[107.48677,11.40198],[107.48806,11.3993],[107.49043,11.3974],[107.49495,11.39638],[107.49855,11.38528],[107.50105,11.38386],[107.50623,11.38314],[107.51325,11.38459],[107.5175,11.37102],[107.52044,11.36921],[107.52523,11.36774],[107.53503,11.35509],[107.54168,11.35945],[107.54497,11.36743],[107.54515,11.36191],[107.54428,11.35713],[107.53606,11.3334],[107.53446,11.32474],[107.53049,11.32064],[107.51912,11.31387],[107.51851,11.31222],[107.51851,11.30872],[107.52277,11.30225],[107.52352,11.29427],[107.52314,11.29242],[107.51915,11.28576],[107.51914,11.28451],[107.52256,11.27485],[107.52545,11.25127],[107.52205,11.25153],[107.51779,11.24883],[107.51058,11.24167],[107.50231,11.23127],[107.49724,11.22678],[107.48934,11.22478],[107.48662,11.22314],[107.48353,11.21304],[107.4837,11.20554],[107.48046,11.20258],[107.47498,11.20254],[107.47331,11.20102],[107.47203,11.19162],[107.46913,11.18508],[107.46551,11.17997],[107.46072,11.17673],[107.4601,11.17316],[107.46097,11.16903],[107.46016,11.16633],[107.44296,11.14693],[107.43522,11.13702],[107.43533,11.13209],[107.43687,11.12786],[107.4384,11.126],[107.44428,11.12396],[107.44678,11.12185],[107.45013,11.11758],[107.45246,11.1129],[107.45247,11.10817],[107.45154,11.10493],[107.44576,11.09143],[107.44318,11.09004],[107.43153,11.08759],[107.42436,11.08039],[107.42272,11.07497],[107.42635,11.06771],[107.42553,11.06317],[107.4234,11.05886],[107.41674,11.05188],[107.41398,11.05072],[107.40111,11.05327],[107.39886,11.05276],[107.39423,11.04954],[107.39885,11.04887],[107.40959,11.04409],[107.41768,11.04149],[107.42173,11.03703],[107.44153,11.03076],[107.44769,11.02628],[107.45243,11.02031],[107.45502,11.01842],[107.46488,11.01441],[107.47357,11.00835],[107.48157,11.00752],[107.49723,11.0144],[107.50285,11.01445],[107.50555,11.01337],[107.51004,11.00674],[107.51369,11.00355],[107.5313,10.9915],[107.53473,10.98264],[107.53705,10.97985],[107.54127,10.97826],[107.54336,10.97641],[107.55998,10.9371],[107.55961,10.86797],[107.57178,10.8507],[107.57314,10.83938],[107.57587,10.83959],[107.57757,10.83351],[107.56717,10.80406],[107.5479,10.78958],[107.52699,10.77601],[107.52005,10.77321],[107.50854,10.77212],[107.48923,10.76887],[107.48542,10.76895],[107.48386,10.76987],[107.47799,10.77894],[107.47216,10.79377],[107.46613,10.79217],[107.45844,10.7916],[107.45303,10.80448],[107.44544,10.80285],[107.44088,10.80083],[107.42149,10.78008],[107.4178,10.77741],[107.40846,10.77307],[107.39499,10.76309],[107.38121,10.74767],[107.38012,10.74192],[107.37858,10.73978],[107.37496,10.73661],[107.36865,10.73321],[107.36047,10.72589],[107.35841,10.71554],[107.3518,10.70913],[107.35061,10.7053],[107.35244,10.68375],[107.35019,10.67848],[107.3435,10.67507],[107.33849,10.67783],[107.33185,10.67683],[107.32701,10.67443],[107.32242,10.67035],[107.31941,10.66924],[107.31734,10.66902],[107.31448,10.67052],[107.30236,10.68178],[107.29928,10.68635],[107.30468,10.68868],[107.30778,10.69339],[107.3061,10.69811],[107.30141,10.70206],[107.30415,10.7256],[107.30049,10.75501],[107.24407,10.7562],[107.24436,10.75945],[107.24374,10.76117],[107.24081,10.76372],[107.23436,10.76426],[107.22753,10.76271],[107.21784,10.75768],[107.20686,10.75863],[107.20674,10.77467],[107.20384,10.77453],[107.19916,10.7724],[107.18836,10.77154],[107.18175,10.76648],[107.16772,10.75334],[107.15978,10.74824],[107.15604,10.74621],[107.14785,10.74429],[107.13834,10.74444],[107.13878,10.71995],[107.13972,10.70976],[107.13695,10.70047],[107.1293,10.68703],[107.11581,10.67073],[107.09537,10.65299],[107.06706,10.65361],[107.06377,10.65741],[107.05311,10.65811],[107.04499,10.65748],[107.03831,10.6557],[107.01358,10.64363],[107.01534,10.6355],[107.01446,10.6348],[107.01183,10.63439],[107.00605,10.63731],[106.99891,10.63474],[106.99749,10.63291],[106.99631,10.62806],[106.99741,10.62344],[107.00178,10.61752],[107.00845,10.61281],[107.0059,10.60967],[106.99787,10.60587],[106.99058,10.60352],[106.98761,10.59773],[106.98691,10.58737],[106.98576,10.58307],[106.98348,10.57868],[106.97572,10.58176],[106.96659,10.59051],[106.96171,10.59272],[106.94945,10.59633],[106.94135,10.5967],[106.92725,10.60344],[106.9202,10.61003],[106.91858,10.60997],[106.91373,10.60735],[106.91127,10.60789],[106.90909,10.61099],[106.90532,10.62181],[106.90327,10.62468],[106.89567,10.63031],[106.88694,10.63866],[106.88452,10.64267],[106.88352,10.6467],[106.88199,10.64799],[106.87744,10.64843],[106.87237,10.64766],[106.86932,10.64286],[106.8644,10.64184],[106.86141,10.63716],[106.8599,10.63639],[106.85166,10.63969],[106.84341,10.6384],[106.84114,10.63617],[106.83741,10.62817],[106.83323,10.62688],[106.82656,10.62778],[106.82327,10.62992],[106.81687,10.6364],[106.81456,10.63992],[106.80971,10.65315],[106.80725,10.6566],[106.78392,10.67185],[106.77349,10.67753],[106.76399,10.6861],[106.75593,10.69582],[106.75318,10.70373],[106.75316,10.71367],[106.75513,10.72055],[106.75774,10.7262],[106.76645,10.73921],[106.77522,10.74785],[106.79943,10.75928],[106.80218,10.76182],[106.80557,10.76977],[106.81454,10.77866],[106.82013,10.78105],[106.82204,10.78083],[106.82521,10.77744]]]}},{"type":"Feature","properties":{"kind":"buffer","province_code":"75","buffer_m":5000,"source":"derived","simplify_tolerance_deg":0.0005},"geometry":{"type":"Polygon","coordinates":[[[106.3833,11.52949],[106.38423,11.53951],[106.38588,11.54686],[106.38939,11.55507],[106.39508,11.56361],[106.40891,11.57802],[106.41835,11.58523],[106.42932,11.59032],[106.4321,11.59089],[106.42396,11.60448],[106.4211,11.61391],[106.42031,11.62074],[106.41351,11.63146],[106.40759,11.64537],[106.40479,11.65421],[106.40388,11.66415],[106.40558,11.6759],[106.39523,11.68917],[106.38032,11.72217],[106.37256,11.7462],[106.36865,11.76311],[106.36877,11.77171],[106.37248,11.78634],[106.37895,11.80051],[106.38916,11.81741],[106.39421,11.82978],[106.39315,11.83736],[106.39297,11.85195],[106.39417,11.86277],[106.39732,11.87327],[106.40134,11.88131],[106.40666,11.88812],[106.37272,11.95421],[106.36954,11.96218],[106.36795,11.9706],[106.36799,11.97917],[106.36968,11.98758],[106.37294,11.99552],[106.37766,12.00272],[106.38367,12.0089],[106.39075,12.01386],[106.39865,12.0174],[106.4071,12.01942],[106.41176,12.01964],[106.41618,12.02303],[106.42604,12.02813],[106.43826,12.03132],[106.45502,12.0328],[106.46355,12.03208],[106.47166,12.03013],[106.48296,12.025],[106.49048,12.01994],[106.50381,12.02486],[106.51076,12.02595],[106.52844,12.02591],[106.53783,12.02356],[106.54783,12.01911],[106.55493,12.01454],[106.61958,12.01929],[106.62398,12.0235],[106.63441,12.02987],[106.64343,12.03293],[106.65102,12.03422],[106.65872,12.03423],[106.66631,12.03297],[106.67428,12.03036],[106.68356,12.02516],[106.69384,12.01709],[106.6967,12.01573],[106.70125,12.02417],[106.70252,12.03265],[106.70596,12.04166],[106.71126,12.04975],[106.71785,12.05623],[106.72262,12.0644],[106.72897,12.07242],[106.73268,12.08017],[106.73588,12.08458],[106.73781,12.0905],[106.74288,12.09905],[106.75284,12.1097],[106.76479,12.11854],[106.77501,12.12406],[106.78273,12.12709],[106.79088,12.1287],[106.79918,12.12883],[106.8081,12.12761],[106.81977,12.12898],[106.83476,12.12671],[106.84272,12.12437],[106.85854,12.11813],[106.86966,12.11972],[106.88724,12.1189],[106.89486,12.11777],[106.90746,12.11308],[106.92219,12.11107],[106.93351,12.11605],[106.93956,12.11774],[106.95046,12.12401],[106.96041,12.12848],[106.96205,12.13334],[106.96725,12.14186],[106.97306,12.14831],[106.97909,12.15299],[106.99094,12.16011],[107.01591,12.17117],[107.02125,12.17969],[107.02538,12.18413],[107.02625,12.18913],[107.0295,12.19888],[107.03266,12.20568],[107.03997,12.21674],[107.04802,12.22435],[107.05595,12.22907],[107.0669,12.23243],[107.07637,12.24538],[107.08459,12.25333],[107.09501,12.26166],[107.10867,12.29175],[107.11511,12.3023],[107.12213,12.31061],[107.13481,12.31919],[107.144,12.32309],[107.15536,12.32489],[107.16845,12.33367],[107.17822,12.33799],[107.19154,12.34212],[107.20008,12.34391],[107.20881,12.34407],[107.21741,12.34259],[107.22557,12.33953],[107.23299,12.335],[107.23941,12.32916],[107.24459,12.32223],[107.24834,12.31445],[107.25053,12.30611],[107.26746,12.20123],[107.27326,12.15927],[107.27352,12.14505],[107.28058,12.13533],[107.28506,12.12303],[107.28679,12.11344],[107.28639,12.10371],[107.27956,12.08066],[107.27814,12.06736],[107.2802,12.06484],[107.29117,12.06666],[107.30018,12.06622],[107.30892,12.06406],[107.31707,12.06024],[107.32631,12.05273],[107.32988,12.05203],[107.34206,12.04694],[107.34963,12.0424],[107.35617,12.03652],[107.35935,12.03228],[107.36619,12.02576],[107.38065,12.00798],[107.38503,12.00145],[107.39356,11.97961],[107.39783,11.96611],[107.40063,11.9631],[107.40747,11.95917],[107.41324,11.95441],[107.42154,11.94535],[107.42725,11.93497],[107.43186,11.92319],[107.44264,11.90961],[107.44621,11.90133],[107.45036,11.89859],[107.45802,11.89171],[107.46612,11.88114],[107.46986,11.87271],[107.47179,11.86372],[107.47279,11.84706],[107.47172,11.83774],[107.46918,11.8294],[107.46564,11.82255],[107.45501,11.80968],[107.45431,11.79793],[107.45184,11.78997],[107.4469,11.78029],[107.44282,11.77531],[107.44075,11.7608],[107.43791,11.75341],[107.43078,11.74248],[107.42489,11.73588],[107.41781,11.73054],[107.40983,11.72664],[107.40123,11.72435],[107.39035,11.72398],[107.37792,11.71463],[107.36747,11.70963],[107.34692,11.70409],[107.3305,11.70232],[107.32972,11.6962],[107.33038,11.68416],[107.32895,11.67552],[107.32581,11.66656],[107.32269,11.66119],[107.33247,11.65279],[107.33872,11.64556],[107.34529,11.63364],[107.34775,11.62549],[107.35704,11.6269],[107.36662,11.62637],[107.37846,11.62337],[107.38729,11.61872],[107.39488,11.6123],[107.40224,11.60374],[107.40746,11.59414],[107.41058,11.58542],[107.41241,11.5737],[107.42447,11.57082],[107.43198,11.56722],[107.43725,11.56339],[107.45545,11.55949],[107.46465,11.55539],[107.4741,11.54811],[107.4799,11.54158],[107.48492,11.53236],[107.49328,11.52071],[107.50656,11.5074],[107.51116,11.50016],[107.5143,11.4922],[107.51586,11.48379],[107.51563,11.47367],[107.5136,11.46415],[107.52005,11.45813],[107.52793,11.44658],[107.53228,11.43414],[107.53339,11.425],[107.54336,11.41867],[107.54947,11.41222],[107.56156,11.40958],[107.5695,11.40562],[107.57651,11.40022],[107.58234,11.39359],[107.58676,11.38597],[107.5896,11.37766],[107.59095,11.36344],[107.58939,11.34914],[107.58091,11.32345],[107.57776,11.30988],[107.5741,11.30206],[107.56901,11.29499],[107.56771,11.28228],[107.57054,11.26402],[107.57122,11.25347],[107.5708,11.24475],[107.56868,11.23627],[107.56496,11.22836],[107.55976,11.22129],[107.55328,11.21534],[107.54365,11.20994],[107.5369,11.20162],[107.52744,11.19276],[107.52557,11.18715],[107.52096,11.17922],[107.51261,11.17033],[107.50502,11.15681],[107.50145,11.1467],[107.49296,11.13411],[107.49644,11.12562],[107.49822,11.11607],[107.49817,11.10482],[107.49654,11.09574],[107.48733,11.07218],[107.48102,11.06255],[107.47818,11.05975],[107.48153,11.05653],[107.49404,11.0596],[107.50846,11.05933],[107.51997,11.05639],[107.52956,11.05189],[107.53576,11.04737],[107.54411,11.03805],[107.55431,11.03116],[107.56553,11.02157],[107.57255,11.01133],[107.58087,11.0024],[107.58583,10.9934],[107.60213,10.95483],[107.6049,10.94603],[107.6058,10.93686],[107.60551,10.88204],[107.6135,10.86942],[107.62005,10.8516],[107.62329,10.83656],[107.62299,10.82747],[107.62084,10.81862],[107.61044,10.78918],[107.60645,10.78078],[107.60081,10.77336],[107.59376,10.76723],[107.57301,10.75175],[107.54869,10.73618],[107.5319,10.72953],[107.49693,10.72429],[107.48822,10.72366],[107.47654,10.72459],[107.46894,10.72676],[107.46026,10.73111],[107.45191,10.73746],[107.44749,10.74281],[107.43206,10.73415],[107.42771,10.73087],[107.4225,10.72513],[107.41594,10.7136],[107.40903,10.706],[107.40138,10.70002],[107.39754,10.69245],[107.39826,10.68306],[107.39631,10.67053],[107.39304,10.66164],[107.38982,10.65547],[107.38505,10.64913],[107.37655,10.64144],[107.36383,10.63426],[107.35276,10.63078],[107.34291,10.63],[107.33416,10.62643],[107.32557,10.62443],[107.31312,10.624],[107.30098,10.62675],[107.28958,10.63251],[107.28434,10.63645],[107.26633,10.65383],[107.2594,10.6638],[107.25454,10.67658],[107.25347,10.68539],[107.25416,10.69424],[107.25581,10.70004],[107.25625,10.71068],[107.24295,10.711],[107.23434,10.71201],[107.22828,10.71392],[107.22376,10.71284],[107.21383,10.71264],[107.20285,10.71359],[107.19303,10.71564],[107.18535,10.71071],[107.18533,10.70535],[107.18092,10.68773],[107.1769,10.67832],[107.16925,10.66488],[107.1648,10.65843],[107.14607,10.63677],[107.12563,10.61903],[107.11875,10.6141],[107.11106,10.61051],[107.10284,10.60838],[107.09435,10.60778],[107.06605,10.6084],[107.05405,10.61045],[107.05342,10.60414],[107.05095,10.5959],[107.04695,10.58828],[107.03663,10.5761],[107.03012,10.57171],[107.02654,10.56244],[107.01972,10.55101],[107.01395,10.5449],[107.00714,10.53995],[106.99952,10.53632],[106.99136,10.53414],[106.98293,10.53347],[106.97451,10.53434],[106.96641,10.53672],[106.95865,10.53979],[106.94973,10.54451],[106.94179,10.55136],[106.9374,10.55149],[106.92668,10.55386],[106.9072,10.5628],[106.9018,10.56338],[106.88928,10.5682],[106.88243,10.57274],[106.8771,10.57776],[106.87095,10.58581],[106.86761,10.59206],[106.86354,10.59145],[106.85908,10.58831],[106.85078,10.58462],[106.83937,10.58204],[106.83296,10.58166],[106.81729,10.5835],[106.81063,10.58538],[106.80243,10.58928],[106.79457,10.59467],[106.783,10.60594],[106.77608,10.61536],[106.77092,10.62596],[106.74507,10.64205],[106.73096,10.65476],[106.72012,10.66761],[106.71425,10.67703],[106.70895,10.69188],[106.70702,10.70669],[106.70721,10.71523],[106.70906,10.72596],[106.71343,10.73928],[106.71652,10.74595],[106.72821,10.76413],[106.73407,10.7712],[106.74284,10.77985],[106.75253,10.78714],[106.76737,10.79453],[106.77806,10.80697],[106.78602,10.81405],[106.79899,10.82158],[106.81393,10.82572],[106.80506,10.84457],[106.80172,10.85672],[106.80148,10.85997],[106.7905,10.86536],[106.78205,10.87268],[106.7762,10.88066],[106.76807,10.88459],[106.76083,10.89008],[106.75318,10.89975],[106.74365,10.90636],[106.73927,10.91037],[106.73125,10.92069],[106.72913,10.9251],[106.72286,10.93414],[106.71922,10.94345],[106.71625,10.95931],[106.71676,10.9708],[106.71987,10.98152],[106.72345,10.98826],[106.73001,10.99601],[106.72927,11.00265],[106.72966,11.01006],[106.73191,11.01934],[106.73492,11.02665],[106.74107,11.03581],[106.75399,11.04894],[106.75352,11.05988],[106.75476,11.06783],[106.75742,11.07545],[106.76364,11.08589],[106.77325,11.09497],[106.78193,11.10022],[106.7907,11.10358],[106.8148,11.10977],[106.82708,11.11049],[106.8392,11.10859],[106.85009,11.10386],[106.86006,11.0966],[106.86838,11.08663],[106.87403,11.07483],[106.87961,11.07257],[106.88224,11.07522],[106.88733,11.08415],[106.89333,11.0907],[106.90307,11.09949],[106.90595,11.10794],[106.91011,11.11572],[106.90856,11.11991],[106.90762,11.1262],[106.90748,11.13744],[106.90018,11.14774],[106.89317,11.14923],[106.88406,11.15324],[106.87673,11.15827],[106.87052,11.16461],[106.86568,11.17202],[106.86267,11.17883],[106.86104,11.18682],[106.85675,11.19831],[106.85559,11.20602],[106.85593,11.21506],[106.85823,11.22504],[106.86275,11.23425],[106.86505,11.23706],[106.86509,11.24558],[106.86709,11.25475],[106.87076,11.26243],[106.86255,11.26383],[106.84076,11.27358],[106.83043,11.28],[106.82343,11.28646],[106.81816,11.29363],[106.81486,11.29972],[106.81254,11.30624],[106.81035,11.31581],[106.81011,11.33084],[106.80569,11.33098],[106.797,11.33279],[106.78563,11.33795],[106.77999,11.33842],[106.77111,11.341],[106.76294,11.34529],[106.75581,11.35111],[106.75001,11.35822],[106.74634,11.36527],[106.74224,11.36821],[106.74014,11.36599],[106.72656,11.35656],[106.72153,11.35439],[106.71846,11.34293],[106.71515,11.33452],[106.71022,11.32693],[106.70388,11.32018],[106.69735,11.31543],[106.69007,11.31189],[106.68227,11.30968],[106.66735,11.30876],[106.65424,11.31046],[106.64108,11.31439],[106.6273,11.3142],[106.61291,11.31664],[106.59971,11.32099],[106.59139,11.32515],[106.58494,11.33023],[106.57241,11.32643],[106.55797,11.32539],[106.54583,11.32737],[106.53292,11.33262],[106.52365,11.33887],[106.51877,11.34353],[106.51403,11.34977],[106.50662,11.35562],[106.50095,11.36241],[106.49672,11.37015],[106.49409,11.37855],[106.49316,11.3873],[106.49397,11.39606],[106.49647,11.4045],[106.49862,11.40857],[106.49592,11.41887],[106.49558,11.42933],[106.49713,11.43847],[106.49858,11.44227],[106.48173,11.45153],[106.46892,11.45137],[106.45168,11.454],[106.44339,11.45421],[106.43261,11.4507],[106.4238,11.44979],[106.41498,11.45056],[106.40647,11.453],[106.3986,11.45701],[106.39166,11.46244],[106.3859,11.46908],[106.38155,11.47669],[106.37752,11.49039],[106.37649,11.50468],[106.37918,11.51929],[106.3833,11.52949]],[[107.3551,10.63871],[107.35528,10.63886],[107.35536,10.63893],[107.3551,10.63871]]]}}]}