{"type":"FeatureCollection","features":[{"type":"Feature","properties":{"kind":"boundary","province_code":"40","name":"Tỉnh Nghệ An","source":"VNSDI","valid_from":"16/6/2025","simplify_tolerance_deg":0.0005},"geometry":{"type":"MultiPolygon","coordinates":[[[[104.91295,18.79082],[104.91096,18.79008],[104.91021,18.78747],[104.90884,18.78652],[104.9068,18.78704],[104.90431,18.7863],[104.89728,18.78729],[104.89237,18.78366],[104.88606,18.786],[104.88178,18.78467],[104.87282,18.78662],[104.86948,18.7808],[104.86307,18.78124],[104.857,18.77434],[104.85089,18.77726],[104.84935,18.78052],[104.84734,18.78257],[104.84123,18.78541],[104.83115,18.78551],[104.81666,18.78217],[104.81429,18.78309],[104.80277,18.78213],[104.795,18.78399],[104.79348,18.78763],[104.78884,18.7906],[104.78769,18.79327],[104.78785,18.79643],[104.78465,18.80202],[104.77807,18.8021],[104.76681,18.79743],[104.76276,18.79803],[104.75967,18.79686],[104.7585,18.79497],[104.74764,18.80118],[104.73904,18.80059],[104.73635,18.80911],[104.73689,18.81491],[104.73042,18.81641],[104.7271,18.81862],[104.72195,18.81717],[104.72101,18.81779],[104.71978,18.82107],[104.71938,18.82734],[104.71462,18.83025],[104.71499,18.84038],[104.71041,18.83871],[104.70974,18.83672],[104.7061,18.83616],[104.70469,18.837],[104.7033,18.83938],[104.69844,18.84031],[104.69057,18.83522],[104.68556,18.83558],[104.68083,18.83774],[104.67647,18.83749],[104.67402,18.8409],[104.67339,18.84345],[104.66892,18.84604],[104.67017,18.84864],[104.6696,18.85242],[104.66339,18.85716],[104.65945,18.85849],[104.6561,18.86466],[104.65295,18.86513],[104.65041,18.86689],[104.64556,18.86845],[104.63688,18.86943],[104.63375,18.87377],[104.62926,18.87698],[104.6271,18.87977],[104.62909,18.8855],[104.62814,18.88783],[104.62358,18.88939],[104.62078,18.89176],[104.61835,18.89194],[104.61661,18.89358],[104.60975,18.89316],[104.6042,18.89649],[104.5991,18.89723],[104.59567,18.89886],[104.59365,18.90152],[104.58885,18.90388],[104.58144,18.90247],[104.57966,18.90112],[104.57854,18.90319],[104.57778,18.91149],[104.57572,18.91399],[104.57257,18.91555],[104.57217,18.92002],[104.5661,18.92723],[104.56521,18.92936],[104.56544,18.93348],[104.56158,18.94007],[104.55732,18.94108],[104.55454,18.9459],[104.55033,18.94866],[104.5487,18.95156],[104.54584,18.95417],[104.54366,18.95931],[104.54543,18.96521],[104.54383,18.97309],[104.54166,18.97613],[104.53768,18.97823],[104.53594,18.98089],[104.53266,18.98271],[104.53041,18.98517],[104.52948,18.98562],[104.52681,18.98313],[104.52059,18.98024],[104.51722,18.98207],[104.5129,18.98154],[104.51104,18.98336],[104.50528,18.99275],[104.50526,18.99771],[104.50114,18.99914],[104.4985,19.0013],[104.49726,19.0038],[104.48839,19.00257],[104.48472,19.00539],[104.48182,19.0041],[104.48134,19.00157],[104.47992,18.99963],[104.47666,18.99843],[104.47497,18.99075],[104.47323,18.98777],[104.47144,18.98757],[104.46225,18.99108],[104.46021,18.98885],[104.45756,18.9893],[104.45409,18.98521],[104.44857,18.98564],[104.44556,18.99013],[104.44622,18.99292],[104.4433,18.99376],[104.43628,18.99773],[104.43105,19.00508],[104.42698,19.00457],[104.42311,19.00624],[104.42282,19.00744],[104.42615,19.01531],[104.41903,19.02265],[104.4136,19.02971],[104.40808,19.03351],[104.40616,19.03577],[104.40233,19.03726],[104.40077,19.0389],[104.40237,19.03952],[104.40264,19.04144],[104.40151,19.0433],[104.40112,19.04774],[104.40396,19.05148],[104.40404,19.05304],[104.40348,19.05459],[104.39866,19.05799],[104.39053,19.06005],[104.38442,19.06003],[104.38277,19.06247],[104.37885,19.06445],[104.37524,19.06862],[104.36855,19.07299],[104.36546,19.0736],[104.35217,19.0708],[104.34852,19.07368],[104.34311,19.07617],[104.33856,19.0756],[104.33034,19.08089],[104.31753,19.0871],[104.31444,19.08836],[104.31317,19.08777],[104.31028,19.08922],[104.30531,19.09508],[104.30597,19.09934],[104.30217,19.11112],[104.30021,19.11342],[104.29561,19.11219],[104.29031,19.11681],[104.28613,19.11754],[104.28125,19.11992],[104.27299,19.11971],[104.26441,19.11622],[104.25905,19.11557],[104.2503,19.11012],[104.24777,19.11242],[104.24155,19.1143],[104.23702,19.11344],[104.234,19.11192],[104.22548,19.11476],[104.21419,19.12028],[104.2134,19.12333],[104.21736,19.12623],[104.21938,19.13037],[104.21934,19.13204],[104.21775,19.13475],[104.21927,19.13617],[104.21919,19.14046],[104.21997,19.1423],[104.22649,19.14814],[104.22622,19.15314],[104.22448,19.15682],[104.21385,19.16014],[104.20865,19.15982],[104.20089,19.16125],[104.19831,19.16443],[104.19749,19.16949],[104.19537,19.17321],[104.19459,19.18054],[104.19041,19.18576],[104.18678,19.19263],[104.18161,19.19793],[104.17732,19.19689],[104.17279,19.197],[104.1647,19.19892],[104.15115,19.19957],[104.14418,19.20154],[104.13707,19.20497],[104.13282,19.20459],[104.13123,19.20365],[104.12532,19.209],[104.12197,19.21533],[104.11625,19.22181],[104.11407,19.22184],[104.11273,19.22346],[104.10468,19.21515],[104.10333,19.21203],[104.10125,19.21499],[104.10131,19.21768],[104.09898,19.21935],[104.09401,19.22927],[104.08857,19.2328],[104.08427,19.23362],[104.08257,19.23668],[104.0777,19.23852],[104.07624,19.24117],[104.07347,19.24342],[104.07224,19.24613],[104.07087,19.24711],[104.0651,19.24418],[104.05994,19.23962],[104.05408,19.24266],[104.0519,19.24215],[104.05192,19.24098],[104.04821,19.24297],[104.04382,19.24025],[104.03691,19.23973],[104.02861,19.23702],[104.01927,19.23648],[104.01521,19.23468],[104.00994,19.23368],[104.00207,19.22938],[103.99837,19.23086],[103.99472,19.23803],[103.99334,19.23887],[103.98098,19.24401],[103.97684,19.2436],[103.96197,19.25113],[103.94647,19.26697],[103.92414,19.28517],[103.92171,19.29165],[103.9169,19.29635],[103.91861,19.29946],[103.91595,19.30236],[103.89997,19.30884],[103.89289,19.3063],[103.89144,19.30199],[103.88794,19.30013],[103.88483,19.30084],[103.88393,19.30334],[103.88178,19.30467],[103.876,19.30573],[103.87471,19.31086],[103.87549,19.3176],[103.87688,19.31959],[103.88266,19.32198],[103.88422,19.32585],[103.88726,19.3261],[103.88916,19.32811],[103.8947,19.33068],[103.89942,19.33087],[103.90643,19.32967],[103.90951,19.33035],[103.91631,19.3345],[103.91981,19.3422],[103.92729,19.3429],[103.93105,19.34427],[103.94843,19.35622],[103.95267,19.35768],[103.95276,19.36422],[103.95635,19.3645],[103.9594,19.36923],[103.95939,19.37156],[103.96083,19.37493],[103.96007,19.38063],[103.95751,19.38174],[103.95751,19.38378],[103.96176,19.38519],[103.96597,19.3903],[103.97088,19.39104],[103.97271,19.3924],[103.97411,19.39397],[103.97499,19.39726],[103.9763,19.39845],[103.98862,19.39927],[103.99198,19.4047],[103.99319,19.40541],[103.99774,19.40517],[104.00807,19.40209],[104.013,19.40224],[104.01441,19.40277],[104.01607,19.4073],[104.01894,19.40688],[104.0199,19.40751],[104.0235,19.41598],[104.03148,19.41499],[104.03311,19.41561],[104.0365,19.41951],[104.04347,19.42137],[104.04985,19.42558],[104.05145,19.4256],[104.05335,19.41921],[104.05433,19.41818],[104.0633,19.41638],[104.06732,19.41726],[104.07063,19.41574],[104.07276,19.42309],[104.07315,19.43754],[104.07581,19.44866],[104.07502,19.45001],[104.06674,19.45144],[104.06543,19.45264],[104.07194,19.45628],[104.07559,19.45986],[104.07645,19.46204],[104.07978,19.46356],[104.0817,19.46644],[104.0862,19.46697],[104.08531,19.47191],[104.08678,19.47577],[104.0853,19.4778],[104.0854,19.47896],[104.08875,19.48341],[104.09158,19.4857],[104.09251,19.48932],[104.09422,19.48932],[104.09828,19.49259],[104.10726,19.48896],[104.11208,19.48952],[104.11569,19.49204],[104.11769,19.49645],[104.1176,19.4992],[104.12127,19.50048],[104.12324,19.50204],[104.1234,19.5033],[104.12254,19.50452],[104.11728,19.50895],[104.11403,19.51047],[104.11241,19.51539],[104.10778,19.51727],[104.10388,19.5235],[104.10685,19.52537],[104.10912,19.52953],[104.10979,19.53269],[104.10994,19.54104],[104.1053,19.54699],[104.10667,19.54963],[104.10505,19.55448],[104.10551,19.56361],[104.10632,19.5655],[104.10861,19.56697],[104.10819,19.56905],[104.09697,19.57705],[104.08747,19.58132],[104.08387,19.58554],[104.07039,19.60647],[104.06388,19.61398],[104.06118,19.61947],[104.06226,19.62609],[104.06518,19.63143],[104.06923,19.63589],[104.06701,19.64188],[104.06489,19.64376],[104.0601,19.64603],[104.05754,19.65195],[104.06617,19.65889],[104.07008,19.66524],[104.07225,19.67357],[104.07106,19.68016],[104.07433,19.68113],[104.07719,19.67968],[104.08289,19.67522],[104.08638,19.67082],[104.09273,19.66545],[104.0972,19.66539],[104.10501,19.66309],[104.10796,19.66056],[104.118,19.66033],[104.13077,19.66247],[104.13506,19.66133],[104.15057,19.66574],[104.15618,19.66959],[104.15795,19.67301],[104.15747,19.68525],[104.16045,19.69435],[104.16316,19.69649],[104.16533,19.69618],[104.17229,19.69058],[104.17597,19.68892],[104.17765,19.68952],[104.18162,19.69311],[104.18581,19.69451],[104.19871,19.69268],[104.20105,19.69313],[104.20597,19.6994],[104.21487,19.70393],[104.23805,19.70724],[104.25043,19.70478],[104.25388,19.70304],[104.26177,19.70278],[104.27041,19.69657],[104.28018,19.69492],[104.28837,19.69416],[104.30173,19.6976],[104.30802,19.69592],[104.31669,19.69018],[104.32059,19.68697],[104.32249,19.6842],[104.32241,19.68035],[104.31885,19.6722],[104.31872,19.6701],[104.32019,19.66733],[104.32375,19.66977],[104.33668,19.67576],[104.34096,19.68026],[104.34291,19.68627],[104.34754,19.69024],[104.35014,19.6915],[104.35474,19.6927],[104.36184,19.69161],[104.3703,19.69558],[104.38222,19.69568],[104.38942,19.69935],[104.3976,19.69725],[104.39974,19.69735],[104.40287,19.69904],[104.40397,19.7037],[104.40584,19.70528],[104.41584,19.70676],[104.41821,19.70585],[104.42263,19.7012],[104.42272,19.69823],[104.4211,19.69319],[104.42334,19.68958],[104.42197,19.68216],[104.42282,19.67941],[104.4268,19.67312],[104.42875,19.67188],[104.44174,19.6727],[104.44647,19.67147],[104.44798,19.66755],[104.44753,19.66445],[104.44463,19.65958],[104.4454,19.65775],[104.45062,19.65566],[104.4587,19.64998],[104.46092,19.64919],[104.4678,19.64902],[104.47799,19.65496],[104.48529,19.65504],[104.49099,19.65384],[104.49433,19.65041],[104.49621,19.64146],[104.49875,19.6367],[104.50502,19.63205],[104.50748,19.62228],[104.50894,19.62136],[104.51533,19.62099],[104.51923,19.61922],[104.52862,19.61249],[104.53328,19.61184],[104.5371,19.61231],[104.53931,19.61324],[104.54396,19.61804],[104.54611,19.61883],[104.5484,19.61845],[104.55724,19.61164],[104.55954,19.61046],[104.56127,19.61067],[104.56516,19.61292],[104.5701,19.61433],[104.57188,19.61611],[104.5743,19.62094],[104.57908,19.62643],[104.58921,19.6303],[104.60081,19.62973],[104.60914,19.6331],[104.61434,19.63237],[104.6189,19.62837],[104.62645,19.62815],[104.63032,19.62714],[104.63554,19.62228],[104.6393,19.62187],[104.64432,19.62283],[104.64678,19.62458],[104.64854,19.62721],[104.6522,19.63535],[104.65119,19.6411],[104.64753,19.64813],[104.6472,19.65201],[104.65336,19.65811],[104.65934,19.65886],[104.66148,19.66011],[104.6618,19.66229],[104.6602,19.6685],[104.66039,19.67273],[104.66511,19.67575],[104.66496,19.67943],[104.66593,19.68081],[104.671,19.68378],[104.67096,19.68575],[104.66283,19.70129],[104.67387,19.70715],[104.67789,19.71051],[104.6869,19.72261],[104.69489,19.72419],[104.6969,19.72643],[104.70092,19.73458],[104.72375,19.75431],[104.72618,19.75556],[104.73063,19.75629],[104.73265,19.75544],[104.73871,19.74941],[104.75511,19.75022],[104.75761,19.75095],[104.75878,19.75686],[104.76031,19.75922],[104.76857,19.76481],[104.76474,19.77242],[104.76411,19.77459],[104.7648,19.77544],[104.77043,19.77558],[104.77732,19.7775],[104.78509,19.78433],[104.79781,19.79026],[104.79976,19.78993],[104.80504,19.78659],[104.81151,19.78659],[104.81708,19.78463],[104.81944,19.78483],[104.82688,19.78668],[104.83473,19.79371],[104.8375,19.7987],[104.83902,19.80651],[104.83533,19.81544],[104.83643,19.82365],[104.83796,19.82818],[104.84088,19.83219],[104.8472,19.83744],[104.84887,19.84099],[104.84866,19.84342],[104.84657,19.8467],[104.83599,19.85102],[104.83404,19.85345],[104.83508,19.85772],[104.83737,19.85956],[104.8446,19.86285],[104.84933,19.86922],[104.84967,19.87198],[104.84855,19.87566],[104.84235,19.88714],[104.84485,19.89574],[104.84574,19.90434],[104.84873,19.90993],[104.84845,19.91209],[104.84448,19.91452],[104.84262,19.91757],[104.84301,19.92032],[104.84744,19.93046],[104.86226,19.94373],[104.87708,19.95055],[104.88958,19.95442],[104.89556,19.95884],[104.90323,19.96621],[104.90865,19.97458],[104.91156,19.98568],[104.91943,19.99401],[104.92055,19.99634],[104.92477,19.99073],[104.92796,19.98947],[104.94506,19.98905],[104.95939,19.99324],[104.96116,19.99268],[104.96404,19.98872],[104.96478,19.97871],[104.96653,19.97591],[104.96918,19.97495],[104.9773,19.97637],[104.98724,19.96908],[104.99911,19.96226],[105.00073,19.9594],[105.00006,19.95623],[105.00413,19.95193],[105.00757,19.95314],[105.01276,19.95366],[105.01777,19.95293],[105.03874,19.94146],[105.04617,19.93582],[105.05228,19.93327],[105.06345,19.9325],[105.07212,19.9349],[105.09409,19.93739],[105.10382,19.93637],[105.11257,19.9338],[105.13458,19.92186],[105.14076,19.92214],[105.14697,19.92055],[105.15249,19.9222],[105.15925,19.92167],[105.16798,19.91868],[105.17215,19.9148],[105.18239,19.87965],[105.18658,19.87013],[105.18768,19.86392],[105.18621,19.86055],[105.18017,19.85808],[105.17513,19.85658],[105.15443,19.85392],[105.1494,19.85146],[105.14694,19.84664],[105.14603,19.83992],[105.13759,19.8288],[105.13051,19.82421],[105.1309,19.8133],[105.1288,19.8035],[105.12928,19.79668],[105.13287,19.77599],[105.13499,19.7691],[105.13579,19.74038],[105.14734,19.73251],[105.15117,19.72722],[105.15531,19.7234],[105.15926,19.72397],[105.16212,19.72245],[105.16232,19.72077],[105.16093,19.71662],[105.15565,19.71192],[105.15358,19.70876],[105.15989,19.70151],[105.16397,19.69849],[105.16388,19.69042],[105.16457,19.68676],[105.1672,19.68368],[105.17382,19.68042],[105.18092,19.67931],[105.19564,19.67181],[105.21049,19.66173],[105.21537,19.65652],[105.22431,19.64945],[105.23573,19.64625],[105.23877,19.64993],[105.24144,19.65586],[105.24509,19.65737],[105.24835,19.6555],[105.25707,19.64435],[105.27032,19.61232],[105.27393,19.60757],[105.27721,19.60634],[105.28029,19.60406],[105.2814,19.59737],[105.28143,19.59473],[105.27995,19.59256],[105.27645,19.59031],[105.27574,19.58707],[105.27925,19.58117],[105.28138,19.57401],[105.28182,19.57046],[105.28092,19.56446],[105.27921,19.56242],[105.27662,19.56174],[105.27271,19.55846],[105.27201,19.55462],[105.27276,19.54538],[105.26907,19.52992],[105.26911,19.52705],[105.2739,19.51643],[105.27109,19.50841],[105.27267,19.50682],[105.27717,19.50626],[105.27935,19.50494],[105.27987,19.5037],[105.27685,19.49527],[105.27707,19.49313],[105.28631,19.49263],[105.28975,19.48993],[105.29341,19.47486],[105.2986,19.48068],[105.29748,19.48464],[105.29787,19.48558],[105.30245,19.48842],[105.30686,19.48842],[105.30856,19.48948],[105.30871,19.49612],[105.31417,19.50425],[105.31567,19.50544],[105.32112,19.50656],[105.32487,19.50962],[105.3257,19.51838],[105.33006,19.52144],[105.33225,19.52958],[105.33429,19.53337],[105.33913,19.53707],[105.34362,19.53847],[105.35221,19.53834],[105.35527,19.53634],[105.36972,19.51806],[105.37118,19.51118],[105.36991,19.50369],[105.36688,19.49915],[105.37686,19.48822],[105.38377,19.47609],[105.39187,19.46603],[105.39223,19.46395],[105.38965,19.46182],[105.38908,19.45927],[105.39,19.45629],[105.39477,19.45154],[105.4015,19.4502],[105.40611,19.45274],[105.41054,19.45776],[105.41747,19.4565],[105.42888,19.45639],[105.43878,19.44931],[105.44519,19.442],[105.45463,19.44477],[105.46539,19.4561],[105.46796,19.45613],[105.47972,19.44923],[105.4835,19.44942],[105.48834,19.45019],[105.49194,19.45311],[105.49431,19.45759],[105.50083,19.46181],[105.50838,19.46384],[105.51941,19.46439],[105.52481,19.46361],[105.53491,19.45577],[105.53771,19.44743],[105.54367,19.43479],[105.56241,19.41364],[105.56811,19.40267],[105.57027,19.39998],[105.58006,19.39332],[105.58269,19.39005],[105.58186,19.38111],[105.59027,19.37048],[105.59622,19.36968],[105.60044,19.37079],[105.60675,19.36839],[105.60952,19.36851],[105.61176,19.36988],[105.61482,19.37631],[105.61908,19.38155],[105.6206,19.38223],[105.62672,19.3804],[105.63293,19.36623],[105.63483,19.36577],[105.63836,19.36699],[105.6431,19.35308],[105.65342,19.35247],[105.65431,19.34666],[105.65537,19.34411],[105.65721,19.34225],[105.66236,19.34272],[105.66788,19.34014],[105.66718,19.33427],[105.66504,19.32702],[105.66402,19.31965],[105.66432,19.31433],[105.67289,19.31977],[105.67481,19.31979],[105.67704,19.31857],[105.68489,19.30352],[105.68643,19.30181],[105.68916,19.30126],[105.70167,19.30386],[105.71304,19.3041],[105.72536,19.3107],[105.7244,19.31378],[105.72923,19.31435],[105.73969,19.32105],[105.74141,19.32126],[105.74274,19.32049],[105.74478,19.30903],[105.74786,19.30398],[105.74888,19.30313],[105.75059,19.30353],[105.75359,19.30615],[105.7553,19.30636],[105.75861,19.30266],[105.76351,19.29446],[105.76726,19.29278],[105.77266,19.29226],[105.77471,19.2947],[105.77905,19.29651],[105.79153,19.29894],[105.80006,19.30154],[105.8011,19.301],[105.80518,19.2878],[105.8028,19.28602],[105.80159,19.28179],[105.80178,19.27789],[105.80409,19.27709],[105.80285,19.2755],[105.79831,19.27457],[105.79407,19.27205],[105.79075,19.27273],[105.79061,19.27593],[105.78978,19.27632],[105.7864,19.27618],[105.78275,19.27434],[105.77858,19.26878],[105.77644,19.26404],[105.77442,19.25724],[105.77076,19.23522],[105.76642,19.22893],[105.75894,19.2256],[105.75752,19.23161],[105.75667,19.23241],[105.75334,19.23045],[105.74924,19.22983],[105.73946,19.22197],[105.73632,19.21514],[105.7327,19.19938],[105.73052,19.18136],[105.73035,19.17448],[105.73155,19.16919],[105.73146,19.16503],[105.72944,19.14756],[105.72916,19.13198],[105.73093,19.11545],[105.73437,19.10868],[105.7379,19.10629],[105.73811,19.10505],[105.7368,19.10328],[105.73072,19.10179],[105.72198,19.10126],[105.71796,19.09758],[105.71713,19.0982],[105.71602,19.10319],[105.71306,19.10315],[105.71179,19.10239],[105.71158,19.0973],[105.71066,19.09584],[105.69764,19.08842],[105.69228,19.08233],[105.68802,19.08443],[105.68773,19.08802],[105.68562,19.09118],[105.67542,19.0983],[105.66558,19.09421],[105.65894,19.08971],[105.64859,19.07905],[105.63695,19.06038],[105.62669,19.0389],[105.62109,19.02223],[105.6196,19.01121],[105.61901,18.99342],[105.61698,18.98255],[105.62349,18.94052],[105.62888,18.9209],[105.63658,18.89834],[105.6392,18.89582],[105.64297,18.89511],[105.64954,18.89175],[105.65039,18.89104],[105.65025,18.8869],[105.65311,18.8854],[105.65618,18.88512],[105.65973,18.88925],[105.66121,18.88954],[105.66335,18.88797],[105.66571,18.88162],[105.66704,18.8802],[105.66993,18.87968],[105.67187,18.88019],[105.68051,18.8737],[105.68341,18.87677],[105.69087,18.87404],[105.69493,18.86371],[105.69712,18.8636],[105.70153,18.8614],[105.70339,18.85424],[105.70918,18.85112],[105.71192,18.84867],[105.71759,18.85128],[105.71874,18.85006],[105.71915,18.84743],[105.71563,18.84601],[105.71491,18.84378],[105.71587,18.83956],[105.71957,18.83439],[105.71632,18.83164],[105.71585,18.82857],[105.72147,18.81356],[105.72605,18.80504],[105.72985,18.79892],[105.73625,18.79128],[105.75105,18.77557],[105.75405,18.77344],[105.76802,18.7668],[105.76593,18.76409],[105.74977,18.75526],[105.74494,18.75097],[105.74266,18.74654],[105.74264,18.74209],[105.74397,18.73663],[105.75188,18.72139],[105.75648,18.70516],[105.76873,18.68359],[105.76976,18.67928],[105.76884,18.67527],[105.76582,18.67198],[105.75195,18.66745],[105.74385,18.66806],[105.72807,18.67303],[105.72166,18.67144],[105.71613,18.66739],[105.71341,18.66256],[105.71093,18.6501],[105.7079,18.64481],[105.70531,18.63664],[105.70425,18.63535],[105.69385,18.63252],[105.69082,18.62765],[105.68973,18.61919],[105.68949,18.59606],[105.68706,18.58947],[105.68315,18.58199],[105.68142,18.58013],[105.67727,18.57885],[105.67131,18.58361],[105.66597,18.58431],[105.64362,18.57587],[105.62574,18.56811],[105.62137,18.56948],[105.61803,18.57302],[105.61721,18.57521],[105.61733,18.57889],[105.61538,18.57728],[105.60055,18.57637],[105.5962,18.57486],[105.58975,18.56995],[105.58652,18.56234],[105.58314,18.55895],[105.5748,18.55885],[105.57227,18.55978],[105.56463,18.56037],[105.55614,18.55829],[105.55032,18.55417],[105.54732,18.5527],[105.54461,18.55257],[105.53915,18.55558],[105.53262,18.5626],[105.52398,18.57813],[105.51743,18.58784],[105.51346,18.59949],[105.50451,18.61024],[105.5029,18.6108],[105.49408,18.61063],[105.48283,18.61349],[105.47695,18.61406],[105.47562,18.60979],[105.47363,18.60766],[105.46803,18.60558],[105.44416,18.60013],[105.44227,18.59895],[105.43794,18.59133],[105.43465,18.58937],[105.42823,18.58795],[105.40995,18.58668],[105.39604,18.58153],[105.37625,18.58004],[105.36578,18.58097],[105.35971,18.5832],[105.33653,18.5949],[105.32577,18.60206],[105.30787,18.60652],[105.30598,18.60767],[105.29994,18.61584],[105.29385,18.61969],[105.28638,18.62219],[105.28114,18.62232],[105.27622,18.62177],[105.27022,18.61959],[105.25099,18.60993],[105.24118,18.6035],[105.23077,18.58832],[105.22696,18.58821],[105.22246,18.59345],[105.21683,18.59715],[105.20996,18.59898],[105.1887,18.60236],[105.19237,18.60523],[105.19139,18.61315],[105.19177,18.61477],[105.19532,18.61815],[105.19528,18.61974],[105.19369,18.61966],[105.19185,18.6222],[105.19115,18.62498],[105.19162,18.62978],[105.19364,18.63488],[105.19905,18.63834],[105.19912,18.63926],[105.19714,18.6418],[105.197,18.64533],[105.19532,18.64813],[105.19009,18.64632],[105.18893,18.64684],[105.18426,18.65589],[105.18284,18.65724],[105.175,18.65851],[105.17216,18.65698],[105.16868,18.65723],[105.16739,18.65842],[105.16654,18.66175],[105.16411,18.66336],[105.16421,18.66515],[105.16171,18.66677],[105.16142,18.6698],[105.15224,18.67863],[105.15082,18.67872],[105.14778,18.67667],[105.14209,18.67843],[105.14018,18.68007],[105.13422,18.68854],[105.13546,18.68917],[105.13822,18.68892],[105.13949,18.69009],[105.13807,18.69288],[105.13826,18.69595],[105.14556,18.70167],[105.1379,18.70606],[105.13346,18.71484],[105.12967,18.71353],[105.12433,18.71339],[105.12271,18.71136],[105.11587,18.71372],[105.11407,18.71327],[105.1085,18.70821],[105.10542,18.70312],[105.09658,18.70508],[105.09204,18.70499],[105.08591,18.70844],[105.08413,18.70857],[105.07317,18.70348],[105.06822,18.70762],[105.06642,18.70807],[105.05139,18.7063],[105.05009,18.7078],[105.05269,18.71048],[105.05376,18.71627],[105.05839,18.72087],[105.05921,18.7238],[105.05158,18.72906],[105.04866,18.72727],[105.04582,18.72682],[105.04322,18.72488],[105.03874,18.72436],[105.03564,18.72681],[105.03506,18.72843],[105.03594,18.73163],[105.03497,18.73253],[105.03133,18.72819],[105.01938,18.73086],[105.01641,18.73647],[105.0204,18.74208],[105.01967,18.74319],[105.02242,18.74813],[105.02008,18.74674],[105.01665,18.74273],[105.01278,18.74196],[105.01108,18.73925],[105.01041,18.74196],[105.00973,18.74186],[105.00857,18.7406],[105.00609,18.74074],[104.99799,18.73673],[104.99491,18.73912],[104.99307,18.74327],[104.98991,18.74451],[104.98593,18.74278],[104.98282,18.73879],[104.97474,18.74116],[104.97291,18.74066],[104.97134,18.74224],[104.96841,18.74278],[104.96649,18.74176],[104.96348,18.74255],[104.96192,18.74084],[104.95892,18.73955],[104.95006,18.74044],[104.94633,18.74005],[104.94458,18.73861],[104.9429,18.7384],[104.94131,18.74068],[104.94068,18.7494],[104.93859,18.75436],[104.93686,18.75509],[104.93554,18.75761],[104.93741,18.7597],[104.93837,18.76271],[104.93904,18.77062],[104.93821,18.77357],[104.9349,18.77475],[104.9339,18.77629],[104.92711,18.77948],[104.92399,18.78608],[104.92046,18.78599],[104.91952,18.78389],[104.91852,18.78592],[104.91295,18.79082]]],[[[105.98826,18.79143],[105.98955,18.79095],[105.98936,18.78957],[105.98779,18.79035],[105.98826,18.79143]]],[[[105.9584,18.79466],[105.95264,18.80461],[105.95248,18.80571],[105.96538,18.79646],[105.96615,18.79501],[105.96588,18.79044],[105.96405,18.79033],[105.9584,18.79466]]],[[[105.77335,18.79603],[105.77172,18.79632],[105.76987,18.80073],[105.77285,18.80304],[105.77407,18.80272],[105.7783,18.80598],[105.78204,18.80396],[105.78188,18.80125],[105.77335,18.79603]]],[[[105.72147,18.82094],[105.7228,18.82107],[105.72327,18.82052],[105.72194,18.81918],[105.72102,18.81978],[105.72147,18.82094]]]]}},{"type":"Feature","properties":{"kind":"buffer","province_code":"40","buffer_m":5000,"source":"derived","simplify_tolerance_deg":0.0005},"geometry":{"type":"MultiPolygon","coordinates":[[[[105.91851,18.77004],[105.91095,18.78283],[105.90759,18.79007],[105.90537,18.79843],[105.90486,18.80702],[105.90537,18.81225],[105.90767,18.82095],[105.91173,18.82905],[105.91692,18.83575],[105.92323,18.84137],[105.9305,18.84582],[105.93857,18.84895],[105.94882,18.85081],[105.95924,18.8505],[105.96544,18.84927],[105.97625,18.845],[105.98917,18.83657],[106.00039,18.8353],[106.00857,18.83263],[106.01566,18.82888],[106.02199,18.82404],[106.02866,18.8167],[106.03328,18.80875],[106.03606,18.80078],[106.03724,18.7925],[106.0369,18.78441],[106.0349,18.77586],[106.0312,18.76784],[106.02562,18.76029],[106.01845,18.75378],[106.01002,18.74883],[106.00069,18.74565],[105.99032,18.74435],[105.98077,18.74498],[105.97628,18.74617],[105.96813,18.74499],[105.95801,18.74532],[105.94819,18.74769],[105.93824,18.75234],[105.93176,18.75658],[105.92363,18.76364],[105.91851,18.77004]]],[[[103.82721,19.31326],[103.82853,19.32485],[103.83248,19.33692],[103.83792,19.34586],[103.84413,19.3524],[103.85701,19.36294],[103.86499,19.36721],[103.88027,19.37376],[103.88748,19.37537],[103.89405,19.38021],[103.90092,19.3837],[103.90988,19.38639],[103.91146,19.39514],[103.91486,19.40381],[103.92004,19.41164],[103.92668,19.41841],[103.95009,19.43619],[103.95752,19.44],[103.96631,19.44265],[103.9782,19.44832],[103.99286,19.45055],[104.00148,19.45606],[104.0102,19.45939],[104.01891,19.46141],[104.0212,19.46931],[104.02597,19.4779],[104.03175,19.48481],[104.03956,19.49086],[104.04589,19.50455],[104.05665,19.51892],[104.05654,19.528],[104.05893,19.53793],[104.058,19.54584],[104.05052,19.55284],[104.04341,19.56176],[104.03287,19.57842],[104.02441,19.58874],[104.01633,19.60437],[104.01366,19.61739],[104.01473,19.6309],[104.01092,19.64201],[104.00999,19.64973],[104.01098,19.66123],[104.01321,19.66836],[104.01677,19.67525],[104.02385,19.68383],[104.02474,19.69045],[104.02793,19.69924],[104.03296,19.70723],[104.03959,19.71406],[104.04856,19.72028],[104.05764,19.72403],[104.06733,19.72592],[104.07968,19.72607],[104.08943,19.72401],[104.0967,19.7212],[104.10362,19.71728],[104.11507,19.70834],[104.12198,19.72105],[104.12972,19.72938],[104.13846,19.73522],[104.14903,19.73967],[104.15783,19.74143],[104.17002,19.74142],[104.18012,19.73912],[104.18347,19.7395],[104.19799,19.74621],[104.21197,19.74955],[104.22614,19.75153],[104.23783,19.75245],[104.24902,19.75123],[104.27444,19.74637],[104.28721,19.741],[104.29692,19.74258],[104.30651,19.74262],[104.31988,19.73995],[104.33369,19.73393],[104.34439,19.73683],[104.35175,19.73735],[104.36983,19.74083],[104.38124,19.74383],[104.39183,19.7485],[104.40407,19.75123],[104.41371,19.75193],[104.42389,19.75133],[104.43607,19.74776],[104.44435,19.74362],[104.45163,19.73803],[104.45941,19.72988],[104.46502,19.72172],[104.46902,19.71123],[104.478,19.70533],[104.48264,19.70036],[104.49555,19.6993],[104.50504,19.69704],[104.51302,19.69391],[104.52206,19.68815],[104.53324,19.67643],[104.53719,19.67003],[104.53983,19.6635],[104.54583,19.66405],[104.55201,19.66355],[104.56402,19.66968],[104.57465,19.67334],[104.58292,19.67512],[104.59239,19.67543],[104.60024,19.67752],[104.60877,19.67832],[104.61484,19.6855],[104.61671,19.69017],[104.61533,19.69886],[104.61566,19.70714],[104.61757,19.71522],[104.621,19.72283],[104.62583,19.72972],[104.63288,19.73644],[104.64369,19.74299],[104.6515,19.75291],[104.66252,19.76126],[104.67763,19.77601],[104.69035,19.7868],[104.7011,19.79407],[104.71637,19.79981],[104.72579,19.80122],[104.73395,19.80986],[104.74208,19.81517],[104.75092,19.81886],[104.75603,19.81995],[104.76521,19.82541],[104.77807,19.83149],[104.79048,19.83483],[104.78671,19.84885],[104.78682,19.85891],[104.78964,19.8711],[104.79311,19.87901],[104.79531,19.88217],[104.7948,19.88595],[104.79554,19.89517],[104.79751,19.90348],[104.79564,19.91046],[104.79507,19.91872],[104.79618,19.92846],[104.79908,19.93767],[104.80351,19.94781],[104.80892,19.957],[104.81642,19.96474],[104.82894,19.976],[104.84004,19.98371],[104.85184,19.98947],[104.86449,19.99421],[104.86715,20.00188],[104.87072,20.00886],[104.87549,20.01516],[104.88506,20.02645],[104.89221,20.03266],[104.90052,20.03736],[104.90966,20.04036],[104.91926,20.04154],[104.92891,20.04086],[104.93821,20.03833],[104.94279,20.03605],[104.9522,20.03794],[104.96337,20.0383],[104.97609,20.03562],[104.9837,20.03251],[104.99063,20.02818],[104.99836,20.02098],[105.00321,20.0143],[105.01313,20.0071],[105.03027,19.99639],[105.04149,19.99213],[105.0645,19.97934],[105.08942,19.98239],[105.0993,19.98234],[105.11785,19.97958],[105.13482,19.97377],[105.14725,19.96714],[105.16316,19.96673],[105.17437,19.96454],[105.18851,19.95948],[105.19851,19.95344],[105.20848,19.944],[105.21395,19.93643],[105.21759,19.92892],[105.22743,19.8945],[105.23047,19.88756],[105.23349,19.87765],[105.23524,19.86303],[105.23424,19.85466],[105.23016,19.84323],[105.22585,19.83555],[105.22008,19.8288],[105.21305,19.82322],[105.20503,19.81902],[105.1944,19.81493],[105.18355,19.81221],[105.1775,19.80419],[105.17679,19.80087],[105.18256,19.76973],[105.18265,19.76326],[105.1881,19.76049],[105.19464,19.75555],[105.20041,19.74929],[105.2058,19.74037],[105.20914,19.72941],[105.20988,19.71999],[105.20946,19.71618],[105.21856,19.71143],[105.23382,19.70125],[105.2429,19.70254],[105.25154,19.70217],[105.25996,19.70032],[105.2723,19.69491],[105.28195,19.68751],[105.29853,19.66653],[105.31079,19.6386],[105.31602,19.63392],[105.32127,19.62703],[105.32508,19.61931],[105.32729,19.61106],[105.32896,19.59796],[105.32755,19.58432],[105.32835,19.5813],[105.33651,19.58318],[105.34441,19.58368],[105.36221,19.58254],[105.37105,19.57986],[105.37916,19.5756],[105.3892,19.56803],[105.40588,19.54815],[105.41376,19.53516],[105.41782,19.5201],[105.41859,19.50999],[105.42366,19.50166],[105.43876,19.50062],[105.44749,19.49798],[105.45587,19.50041],[105.46481,19.50132],[105.47652,19.50052],[105.48069,19.50278],[105.49542,19.50735],[105.50724,19.50905],[105.52298,19.50948],[105.53583,19.50764],[105.54496,19.50457],[105.55316,19.49997],[105.5638,19.49195],[105.57383,19.48177],[105.57858,19.4738],[105.58465,19.45844],[105.59894,19.44261],[105.60674,19.431],[105.61202,19.42652],[105.61877,19.42742],[105.63038,19.42653],[105.63996,19.42403],[105.65208,19.41866],[105.6592,19.41343],[105.67907,19.39032],[105.68873,19.38276],[105.69108,19.37971],[105.70044,19.37311],[105.70695,19.36594],[105.71173,19.35768],[105.72306,19.36341],[105.73363,19.3659],[105.74662,19.3662],[105.75761,19.36377],[105.76751,19.35927],[105.77547,19.35332],[105.78324,19.3439],[105.79517,19.34652],[105.805,19.34652],[105.81461,19.34459],[105.82353,19.34105],[105.83081,19.33642],[105.83706,19.33062],[105.84353,19.32146],[105.85186,19.29653],[105.85276,19.28812],[105.85033,19.26646],[105.84718,19.25793],[105.84231,19.25016],[105.83537,19.24249],[105.82862,19.23749],[105.81832,19.23291],[105.81562,19.22017],[105.81056,19.21046],[105.80077,19.19765],[105.79415,19.19219],[105.77858,19.18447],[105.778,19.17835],[105.77902,19.16406],[105.77697,19.14507],[105.77676,19.13228],[105.78099,19.12544],[105.78401,19.1174],[105.78567,19.10384],[105.78458,19.09537],[105.782,19.0876],[105.77549,19.07697],[105.7701,19.07099],[105.76371,19.06599],[105.75649,19.06211],[105.74019,19.05765],[105.72945,19.05379],[105.72106,19.04624],[105.71298,19.04162],[105.70182,19.03803],[105.69045,19.03715],[105.68403,19.03774],[105.67899,19.03913],[105.67117,19.02279],[105.66762,19.01224],[105.66655,18.99111],[105.66532,18.98217],[105.66927,18.95363],[105.67479,18.93278],[105.68286,18.92987],[105.69021,18.92568],[105.69696,18.91998],[105.70662,18.91704],[105.71775,18.91135],[105.72465,18.90593],[105.73507,18.89312],[105.74616,18.88743],[105.75307,18.8814],[105.76049,18.87172],[105.76508,18.86042],[105.76661,18.8497],[105.77526,18.8511],[105.78525,18.85071],[105.79307,18.84902],[105.80016,18.84626],[105.80639,18.84286],[105.81495,18.83661],[105.81965,18.83165],[105.82432,18.82479],[105.82767,18.81708],[105.82982,18.80465],[105.82934,18.79629],[105.82757,18.78841],[105.82451,18.78111],[105.82027,18.77454],[105.81529,18.76924],[105.81557,18.76535],[105.81431,18.75639],[105.81121,18.74784],[105.80638,18.74005],[105.79849,18.73122],[105.80149,18.7211],[105.81177,18.70285],[105.81614,18.68934],[105.81733,18.6795],[105.81624,18.66964],[105.81297,18.65838],[105.80938,18.65161],[105.80465,18.6455],[105.79317,18.63499],[105.78316,18.62988],[105.7731,18.62629],[105.76571,18.62416],[105.7505,18.62223],[105.74278,18.60879],[105.73713,18.60298],[105.73623,18.58762],[105.72968,18.56938],[105.72577,18.56189],[105.71872,18.55195],[105.71125,18.5449],[105.70322,18.53991],[105.69207,18.53562],[105.68075,18.53375],[105.67135,18.53398],[105.66501,18.53536],[105.64598,18.52683],[105.63717,18.52419],[105.62677,18.52291],[105.61386,18.52443],[105.60951,18.52131],[105.60027,18.51676],[105.59021,18.51423],[105.57165,18.51375],[105.55969,18.50903],[105.54694,18.50741],[105.53574,18.50814],[105.52504,18.51136],[105.51147,18.5188],[105.49849,18.53074],[105.49029,18.54197],[105.48418,18.55312],[105.47842,18.56145],[105.47224,18.56003],[105.45989,18.55104],[105.45291,18.54762],[105.44542,18.54533],[105.43295,18.54296],[105.42014,18.54209],[105.4078,18.53771],[105.40067,18.53653],[105.3849,18.53506],[105.37183,18.53502],[105.36136,18.53595],[105.34862,18.5388],[105.34256,18.54102],[105.31444,18.55486],[105.30535,18.56061],[105.28997,18.56463],[105.2823,18.56839],[105.27715,18.57204],[105.26875,18.5611],[105.26294,18.55501],[105.25607,18.55003],[105.24836,18.54631],[105.24007,18.54397],[105.23105,18.54281],[105.22163,18.54328],[105.21308,18.54496],[105.205,18.5481],[105.19766,18.55259],[105.19442,18.5555],[105.17932,18.55802],[105.16999,18.56078],[105.16145,18.56529],[105.15405,18.57137],[105.14812,18.57875],[105.1439,18.58713],[105.14158,18.59616],[105.14124,18.60544],[105.14421,18.61862],[105.1343,18.62593],[105.12656,18.63562],[105.11605,18.64058],[105.10823,18.64657],[105.10186,18.65328],[105.09822,18.65865],[105.08615,18.66017],[105.08032,18.65878],[105.0713,18.6583],[105.06234,18.65945],[105.05609,18.66146],[105.05118,18.66108],[105.04169,18.66203],[105.03259,18.66476],[105.02322,18.6696],[105.01593,18.67556],[105.01005,18.68279],[105.00777,18.68699],[104.99599,18.69168],[104.96853,18.69546],[104.9612,18.69439],[104.94011,18.69326],[104.9306,18.69472],[104.92159,18.69798],[104.91439,18.70212],[104.90834,18.70715],[104.90299,18.71347],[104.89642,18.72569],[104.89423,18.73501],[104.89244,18.7386],[104.88702,18.73893],[104.87879,18.73415],[104.86999,18.73084],[104.86067,18.72926],[104.85121,18.72946],[104.84197,18.73144],[104.82742,18.73814],[104.81931,18.73702],[104.80282,18.73691],[104.78747,18.73875],[104.77785,18.74181],[104.77078,18.74507],[104.76364,18.75006],[104.75455,18.74991],[104.74514,18.75158],[104.73517,18.75565],[104.72329,18.75792],[104.71486,18.76165],[104.70734,18.76687],[104.70162,18.7726],[104.6976,18.77845],[104.69027,18.78323],[104.68338,18.79034],[104.66187,18.79446],[104.65484,18.79722],[104.64788,18.80135],[104.64006,18.80819],[104.63168,18.8179],[104.62694,18.82548],[104.61953,18.82733],[104.60941,18.8325],[104.60265,18.83791],[104.58936,18.85225],[104.58022,18.85594],[104.56725,18.85746],[104.55884,18.86046],[104.55116,18.86491],[104.54451,18.87065],[104.53911,18.87747],[104.53275,18.89104],[104.52144,18.91155],[104.50894,18.92563],[104.50168,18.9377],[104.48806,18.94297],[104.486,18.94448],[104.48027,18.94295],[104.4687,18.94244],[104.46292,18.94077],[104.45129,18.9399],[104.44229,18.94075],[104.432,18.94325],[104.4226,18.94775],[104.41448,18.9541],[104.40842,18.96123],[104.39618,18.96897],[104.38936,18.97437],[104.38372,18.98088],[104.37945,18.98828],[104.37611,18.99974],[104.36553,19.00852],[104.36008,19.01546],[104.3559,19.02411],[104.35378,19.02565],[104.34971,19.02564],[104.33504,19.02861],[104.31757,19.03502],[104.30091,19.04421],[104.29102,19.04776],[104.28005,19.05431],[104.27323,19.06085],[104.26742,19.06795],[104.25896,19.06566],[104.25004,19.0649],[104.22197,19.06817],[104.20371,19.07455],[104.18662,19.08344],[104.18021,19.08864],[104.17487,19.09484],[104.17076,19.10184],[104.16722,19.11247],[104.16589,19.12109],[104.16643,19.13024],[104.15721,19.14166],[104.15331,19.14977],[104.15223,19.15412],[104.13968,19.15569],[104.12912,19.15864],[104.12353,19.15903],[104.11524,19.16107],[104.10747,19.16448],[104.10398,19.16687],[104.09413,19.16767],[104.0852,19.17022],[104.07697,19.17439],[104.06975,19.18001],[104.06382,19.18685],[104.059,19.19444],[104.04733,19.19537],[104.03492,19.1922],[104.02888,19.19173],[104.02423,19.18889],[104.01535,19.18561],[104.00596,19.18408],[103.99644,19.18436],[103.98717,19.18644],[103.97655,19.19067],[103.96924,19.19511],[103.96306,19.20059],[103.95673,19.20262],[103.94669,19.20728],[103.93454,19.21419],[103.9279,19.21957],[103.91277,19.23477],[103.88861,19.25522],[103.88008,19.25533],[103.86619,19.25909],[103.85295,19.26618],[103.8448,19.2716],[103.83801,19.27852],[103.83229,19.28784],[103.8278,19.30333],[103.82721,19.31326]]]]}}]}