{"type":"FeatureCollection","features":[{"type":"Feature","geometry":{"type":"MultiPolygon","coordinates":[[[[105.668902,18.666048],[105.669735,18.666037],[105.669747,18.66688],[105.668914,18.666891],[105.668902,18.666048]]]]},"properties":{"group":"public","tag":"leisure=park","name":"Vườn hoa Cửa Nam","levels":null,"lat":18.666463883670037,"lng":105.6693247670084,"osm_type":"way","osm_id":450192447}},{"type":"Feature","geometry":{"type":"MultiPolygon","coordinates":[[[[105.669746,18.678584],[105.670339,18.678553],[105.670418,18.679247],[105.670418,18.679575],[105.669853,18.679593],[105.669802,18.679234],[105.669746,18.678584]]]]},"properties":{"group":"edu_health","tag":"amenity=school","name":"Blue Sky Academy","levels":null,"lat":18.67907367369872,"lng":105.67009221083673,"osm_type":"way","osm_id":450192461}},{"type":"Feature","geometry":{"type":"MultiPolygon","coordinates":[[[[105.674542,18.676787],[105.674715,18.676606],[105.675987,18.676562],[105.676012,18.676651],[105.67469,18.677778],[105.674563,18.677736],[105.674542,18.676787]]]]},"properties":{"group":"public","tag":"leisure=park","name":"Vườn hoa Cửa Bắc","levels":null,"lat":18.677018383313474,"lng":105.6750813842482,"osm_type":"way","osm_id":450192462}},{"type":"Feature","geometry":{"type":"MultiPolygon","coordinates":[[[[105.692919,18.672141],[105.69316,18.671987],[105.693811,18.671981],[105.696119,18.671981],[105.697682,18.672052],[105.697683,18.673429],[105.697683,18.673711],[105.69631,18.673771],[105.695121,18.673872],[105.694391,18.673831],[105.693811,18.6741],[105.692919,18.672141]]]]},"properties":{"group":"public","tag":"leisure=park","name":"Công viên Nguyễn Tất Thành","levels":null,"lat":18.672884224716192,"lng":105.69541979673892,"osm_type":"way","osm_id":450295598}},{"type":"Feature","geometry":{"type":"MultiPolygon","coordinates":[[[[104.488361,19.262001],[104.488951,19.261439],[104.489426,19.260998],[104.489839,19.261363],[104.48995,19.261252],[104.490323,19.261557],[104.48957,19.262378],[104.489434,19.262249],[104.489013,19.262637],[104.488361,19.262001]]]]},"properties":{"group":"edu_health","tag":"amenity=hospital","name":"Trung tâm Y tế huyện Tương Dương","levels":null,"lat":19.26181164381002,"lng":104.48932644772755,"osm_type":"way","osm_id":579919060}},{"type":"Feature","geometry":{"type":"MultiPolygon","coordinates":[[[[105.683614,18.666744],[105.684292,18.665892],[105.688938,18.665694],[105.689166,18.665764],[105.689419,18.665898],[105.689634,18.666155],[105.690134,18.667154],[105.690089,18.667398],[105.690444,18.668141],[105.690565,18.668084],[105.690972,18.668904],[105.690395,18.669735],[105.690266,18.669921],[105.690187,18.670035],[105.69008,18.670189],[105.689941,18.670106],[105.689812,18.670303],[105.68994,18.670391],[105.689846,18.670527],[105.689762,18.670648],[105.689654,18.670804],[105.689246,18.671391],[105.684514,18.669891],[105.684249,18.669558],[105.683614,18.666744]]]]},"properties":{"group":"public","tag":"leisure=park","name":null,"levels":null,"lat":18.668247498205186,"lng":105.68727621471704,"osm_type":"way","osm_id":585994912}},{"type":"Feature","geometry":{"type":"MultiPolygon","coordinates":[[[[105.689869,18.671558],[105.690075,18.671234],[105.69014,18.671266],[105.690165,18.671237],[105.691244,18.671822],[105.690494,18.671809],[105.689869,18.671558]]]]},"properties":{"group":"public","tag":"leisure=park","name":null,"levels":null,"lat":18.671579650949962,"lng":105.69043859090272,"osm_type":"way","osm_id":585994913}},{"type":"Feature","geometry":{"type":"MultiPolygon","coordinates":[[[[105.690949,18.669951],[105.691328,18.669415],[105.691881,18.670541],[105.691015,18.670038],[105.691033,18.670003],[105.690949,18.669951]]]]},"properties":{"group":"public","tag":"leisure=park","name":null,"levels":null,"lat":18.66998045883843,"lng":105.69138210813831,"osm_type":"way","osm_id":585994914}},{"type":"Feature","geometry":{"type":"MultiPolygon","coordinates":[[[[105.664083,18.687644],[105.664089,18.687625],[105.664102,18.687609],[105.664119,18.687598],[105.66414,18.687593],[105.664159,18.687594],[105.664177,18.687602],[105.664192,18.687614],[105.664202,18.68763],[105.664206,18.687649],[105.664204,18.687667],[105.664196,18.687684],[105.664182,18.687698],[105.664165,18.687707],[105.664146,18.68771],[105.664125,18.687707],[105.664106,18.687697],[105.664092,18.687683],[105.664084,18.687664],[105.664083,18.687644]]]]},"properties":{"group":"public","tag":"leisure=garden","name":null,"levels":null,"lat":18.687651330152526,"lng":105.66414454172049,"osm_type":"way","osm_id":639501293}},{"type":"Feature","geometry":{"type":"MultiPolygon","coordinates":[[[[105.664121,18.687942],[105.664126,18.687923],[105.664138,18.687906],[105.664155,18.687893],[105.664176,18.687887],[105.664197,18.687887],[105.664217,18.687894],[105.664233,18.687906],[105.664245,18.687923],[105.66425,18.687942],[105.664248,18.687962],[105.66424,18.687981],[105.664226,18.687995],[105.664207,18.688005],[105.664186,18.688009],[105.664165,18.688005],[105.664146,18.687996],[105.664132,18.687981],[105.664123,18.687963],[105.664121,18.687942]]]]},"properties":{"group":"public","tag":"leisure=garden","name":null,"levels":null,"lat":18.68794743389475,"lng":105.66418548634043,"osm_type":"way","osm_id":639501294}},{"type":"Feature","geometry":{"type":"MultiPolygon","coordinates":[[[[105.664588,18.687453],[105.66504,18.687402],[105.66506,18.687567],[105.664609,18.687618],[105.664588,18.687453]]]]},"properties":{"group":"public","tag":"leisure=garden","name":null,"levels":null,"lat":18.687509950000003,"lng":105.66482435,"osm_type":"way","osm_id":639501295}},{"type":"Feature","geometry":{"type":"MultiPolygon","coordinates":[[[[105.664666,18.687873],[105.665021,18.687831],[105.665036,18.687943],[105.664978,18.688033],[105.664692,18.688067],[105.664666,18.687873]]]]},"properties":{"group":"public","tag":"leisure=garden","name":null,"levels":null,"lat":18.687946861618492,"lng":105.66484946091404,"osm_type":"way","osm_id":639501296}},{"type":"Feature","geometry":{"type":"MultiPolygon","coordinates":[[[[105.692018,18.671785],[105.692096,18.671704],[105.692164,18.671617],[105.692227,18.67151],[105.692274,18.671404],[105.692422,18.671714],[105.692422,18.671746],[105.692408,18.671767],[105.69239,18.671783],[105.692358,18.671789],[105.692018,18.671785]]]]},"properties":{"group":"public","tag":"leisure=garden","name":null,"levels":null,"lat":18.671662748697234,"lng":105.69225466533929,"osm_type":"way","osm_id":639531221}},{"type":"Feature","geometry":{"type":"MultiPolygon","coordinates":[[[[105.673293,18.667029],[105.673802,18.667016],[105.673815,18.667488],[105.673306,18.6675],[105.673293,18.667029]]]]},"properties":{"group":"apartment","tag":"building=apartments","name":null,"levels":null,"lat":18.66725844229876,"lng":105.67355387456047,"osm_type":"way","osm_id":647858871}},{"type":"Feature","geometry":{"type":"MultiPolygon","coordinates":[[[[105.308011,18.899524],[105.308033,18.899464],[105.308229,18.899022],[105.308274,18.898991],[105.308323,18.898996],[105.308384,18.899055],[105.308782,18.899769],[105.308782,18.899824],[105.308762,18.899862],[105.308711,18.899881],[105.30863,18.899872],[105.308069,18.899605],[105.308033,18.899576],[105.308011,18.899524]]]]},"properties":{"group":"public","tag":"leisure=park","name":null,"levels":null,"lat":18.89947632086166,"lng":105.3083816736338,"osm_type":"way","osm_id":649145529}},{"type":"Feature","geometry":{"type":"MultiPolygon","coordinates":[[[[105.307272,18.891976],[105.307566,18.890871],[105.308327,18.891062],[105.308033,18.89217],[105.307272,18.891976]]]]},"properties":{"group":"public","tag":"leisure=park","name":null,"levels":null,"lat":18.8915198597074,"lng":105.30779942597448,"osm_type":"way","osm_id":649145616}},{"type":"Feature","geometry":{"type":"MultiPolygon","coordinates":[[[[105.333255,18.782022],[105.333972,18.780634],[105.334117,18.780396],[105.334373,18.780088],[105.335485,18.779106],[105.335618,18.779104],[105.335778,18.779254],[105.335964,18.779618],[105.335971,18.77979],[105.335928,18.779958],[105.335849,18.780036],[105.335761,18.780091],[105.335383,18.78015],[105.335219,18.780215],[105.33504,18.780335],[105.334807,18.780524],[105.334482,18.780908],[105.334209,18.781358],[105.33414,18.781495],[105.334112,18.781604],[105.334093,18.78178],[105.334099,18.781887],[105.334037,18.781943],[105.333294,18.782123],[105.333255,18.782075],[105.333255,18.782022]]]]},"properties":{"group":"public","tag":"leisure=park","name":null,"levels":null,"lat":18.780493542437945,"lng":105.33463679982364,"osm_type":"way","osm_id":742695143}},{"type":"Feature","geometry":{"type":"MultiPolygon","coordinates":[[[[105.336148,18.780021],[105.336247,18.779927],[105.336817,18.780359],[105.336675,18.780505],[105.336148,18.780021]]]]},"properties":{"group":"public","tag":"leisure=park","name":null,"levels":null,"lat":18.780218474695566,"lng":105.3364900738714,"osm_type":"way","osm_id":742695145}},{"type":"Feature","geometry":{"type":"MultiPolygon","coordinates":[[[[105.736922,19.234886],[105.737707,19.234245],[105.737824,19.234143],[105.737819,19.233965],[105.737842,19.233826],[105.738409,19.234456],[105.738547,19.234653],[105.738386,19.234659],[105.738236,19.234637],[105.738145,19.234706],[105.737301,19.235339],[105.736922,19.234886]]]]},"properties":{"group":"public","tag":"leisure=park","name":null,"levels":null,"lat":19.23464848257551,"lng":105.73770249384792,"osm_type":"way","osm_id":793654263}},{"type":"Feature","geometry":{"type":"MultiPolygon","coordinates":[[[[105.596909,18.63328],[105.597106,18.63312],[105.597414,18.633572],[105.597778,18.633505],[105.59789,18.633691],[105.598236,18.633674],[105.598376,18.634351],[105.597395,18.634311],[105.596909,18.63328]]]]},"properties":{"group":"public","tag":"leisure=park","name":null,"levels":null,"lat":18.63387357373252,"lng":105.59766079894035,"osm_type":"way","osm_id":821347463}},{"type":"Feature","geometry":{"type":"MultiPolygon","coordinates":[[[[105.59598,18.635452],[105.596018,18.634713],[105.598102,18.634813],[105.598343,18.634824],[105.598619,18.634837],[105.598479,18.63547],[105.59598,18.635452]]]]},"properties":{"group":"public","tag":"leisure=park","name":null,"levels":null,"lat":18.635114820152847,"lng":105.59724215081174,"osm_type":"way","osm_id":821347464}},{"type":"Feature","geometry":{"type":"MultiPolygon","coordinates":[[[[105.595775,18.633718],[105.596503,18.633523],[105.596685,18.634364],[105.596363,18.634359],[105.595775,18.633718]]]]},"properties":{"group":"public","tag":"leisure=park","name":null,"levels":null,"lat":18.63393495814686,"lng":105.59630984552084,"osm_type":"way","osm_id":821347465}},{"type":"Feature","geometry":{"type":"MultiPolygon","coordinates":[[[[105.596032,18.635862],[105.596139,18.635546],[105.596445,18.635536],[105.596311,18.636019],[105.596032,18.635862]]]]},"properties":{"group":"public","tag":"leisure=park","name":null,"levels":null,"lat":18.635745887508676,"lng":105.59624101208807,"osm_type":"way","osm_id":821347471}},{"type":"Feature","geometry":{"type":"MultiPolygon","coordinates":[[[[105.594519,18.634239],[105.594584,18.634048],[105.595747,18.633969],[105.595808,18.634278],[105.594917,18.634395],[105.594519,18.634239]]]]},"properties":{"group":"public","tag":"leisure=park","name":null,"levels":null,"lat":18.634174167771942,"lng":105.595182958339,"osm_type":"way","osm_id":821347472}},{"type":"Feature","geometry":{"type":"MultiPolygon","coordinates":[[[[105.596909,18.636745],[105.59718,18.636139],[105.597483,18.636068],[105.597735,18.636161],[105.597815,18.636364],[105.598268,18.636409],[105.598137,18.63663],[105.597651,18.636506],[105.597469,18.636869],[105.596909,18.636745]]]]},"properties":{"group":"public","tag":"leisure=park","name":null,"levels":null,"lat":18.6364631082125,"lng":105.59747565276118,"osm_type":"way","osm_id":821347473}},{"type":"Feature","geometry":{"type":"MultiPolygon","coordinates":[[[[105.587791,18.642321],[105.58785,18.642107],[105.588245,18.642078],[105.588291,18.642404],[105.588188,18.642556],[105.587891,18.642683],[105.587791,18.642321]]]]},"properties":{"group":"public","tag":"leisure=park","name":null,"levels":null,"lat":18.642347503945917,"lng":105.58803731434153,"osm_type":"way","osm_id":821348006}},{"type":"Feature","geometry":{"type":"MultiPolygon","coordinates":[[[[105.636477,18.678096],[105.637076,18.67587],[105.637794,18.676044],[105.637806,18.676015],[105.637979,18.676064],[105.638003,18.676112],[105.637421,18.678302],[105.637385,18.678314],[105.636477,18.678096]]]]},"properties":{"group":"public","tag":"leisure=park","name":"Công viên VSIP Nghệ An","levels":null,"lat":18.677094417679314,"lng":105.6372448802806,"osm_type":"way","osm_id":885788725}},{"type":"Feature","geometry":{"type":"MultiPolygon","coordinates":[[[[105.625022,18.587446],[105.62519,18.587372],[105.625342,18.587587],[105.625173,18.587682],[105.625022,18.587446]]]]},"properties":{"group":"public","tag":"leisure=park","name":null,"levels":null,"lat":18.587523625891684,"lng":105.62518167859909,"osm_type":"way","osm_id":895864242}},{"type":"Feature","geometry":{"type":"MultiPolygon","coordinates":[[[[105.694059,18.660357],[105.69432,18.660076],[105.694439,18.660183],[105.694678,18.659918],[105.694709,18.659943],[105.695069,18.659539],[105.694823,18.659346],[105.695286,18.658832],[105.695403,18.658813],[105.695573,18.65862],[105.695595,18.658533],[105.696226,18.657799],[105.696418,18.657802],[105.697434,18.658284],[105.69805,18.658577],[105.69825,18.658703],[105.698333,18.658629],[105.699005,18.658948],[105.698928,18.659128],[105.698985,18.659229],[105.699378,18.659393],[105.699537,18.659459],[105.698746,18.66063],[105.698639,18.660788],[105.698541,18.660934],[105.698473,18.661034],[105.698204,18.661432],[105.696665,18.660541],[105.69656,18.660665],[105.696408,18.66054],[105.695536,18.661518],[105.69541,18.66142],[105.694726,18.660881],[105.694059,18.660357]]]]},"properties":{"group":"edu_health","tag":"amenity=university","name":"Trường Đại học Vinh","levels":null,"lat":18.65972424665839,"lng":105.69684245317379,"osm_type":"way","osm_id":971488700}},{"type":"Feature","geometry":{"type":"MultiPolygon","coordinates":[[[[105.694726,18.660881],[105.695051,18.660492],[105.695285,18.660655],[105.695317,18.660616],[105.695779,18.660985],[105.69541,18.66142],[105.694726,18.660881]]]]},"properties":{"group":"edu_health","tag":"amenity=school","name":"Trường Trung học Phổ thông Chuyên, Trường Đại học Vinh","levels":null,"lat":18.66094393725964,"lng":105.69525467754063,"osm_type":"way","osm_id":971585467}},{"type":"Feature","geometry":{"type":"MultiPolygon","coordinates":[[[[105.696757,18.659582],[105.696866,18.659457],[105.697257,18.659442],[105.697304,18.65944],[105.697401,18.659516],[105.697106,18.659855],[105.696757,18.659582]]]]},"properties":{"group":"edu_health","tag":"amenity=school","name":"Trường Thực hành Sư phạm - Đại học Vinh (Trung học cơ sở)","levels":null,"lat":18.659598802717287,"lng":105.69708060516045,"osm_type":"way","osm_id":971585485}},{"type":"Feature","geometry":{"type":"MultiPolygon","coordinates":[[[[105.697289,18.658614],[105.69731,18.658499],[105.697434,18.658284],[105.69805,18.658577],[105.69825,18.658703],[105.69788,18.659298],[105.697696,18.659306],[105.697378,18.65916],[105.697343,18.658967],[105.6973,18.658707],[105.697289,18.658614]]]]},"properties":{"group":"edu_health","tag":"amenity=school","name":"Trường Thực hành Sư phạm - Đại học Vinh (Mầm non và Tiểu học)","levels":null,"lat":18.65881527581291,"lng":105.69770009848476,"osm_type":"way","osm_id":971585489}},{"type":"Feature","geometry":{"type":"MultiPolygon","coordinates":[[[[105.674915,18.708645],[105.675256,18.708054],[105.67538,18.707839],[105.675412,18.707784],[105.675554,18.707546],[105.675586,18.70749],[105.675727,18.707246],[105.675902,18.706948],[105.67609,18.707051],[105.676369,18.706567],[105.676588,18.706672],[105.676901,18.70684],[105.675556,18.708986],[105.674915,18.708645]]]]},"properties":{"group":"edu_health","tag":"amenity=hospital","name":"Bệnh viện Tâm thần Nghệ An","levels":null,"lat":18.707776855251804,"lng":105.67588502346956,"osm_type":"way","osm_id":973902891}},{"type":"Feature","geometry":{"type":"MultiPolygon","coordinates":[[[[105.671037,18.708016],[105.671174,18.707749],[105.671484,18.707082],[105.671767,18.706752],[105.671737,18.706738],[105.671645,18.70669],[105.671964,18.706084],[105.672549,18.70499],[105.673618,18.70545],[105.673686,18.705473],[105.67443,18.705783],[105.674571,18.705837],[105.673676,18.707631],[105.672979,18.708937],[105.671037,18.708016]]]]},"properties":{"group":"edu_health","tag":"amenity=college","name":"Trường Cao đẳng Kỹ thuật Công nghiệp Việt Nam - Hàn Quốc","levels":null,"lat":18.706942801213096,"lng":105.67279097531426,"osm_type":"way","osm_id":973902893}},{"type":"Feature","geometry":{"type":"MultiPolygon","coordinates":[[[[105.675791,18.709088],[105.677327,18.706571],[105.677867,18.705685],[105.677941,18.705656],[105.679697,18.706655],[105.679702,18.706729],[105.679704,18.706758],[105.679349,18.707316],[105.679234,18.707496],[105.679029,18.707546],[105.679005,18.707585],[105.678976,18.707633],[105.67859,18.708266],[105.678522,18.708379],[105.678413,18.708558],[105.678091,18.709087],[105.678044,18.709165],[105.677977,18.709274],[105.678016,18.709421],[105.67763,18.710067],[105.677621,18.710148],[105.676677,18.709632],[105.675807,18.709166],[105.675791,18.709088]]]]},"properties":{"group":"edu_health","tag":"amenity=hospital","name":"Bệnh viện Hữu nghị Đa khoa tỉnh Nghệ An","levels":null,"lat":18.70786918274173,"lng":105.67772128709909,"osm_type":"way","osm_id":973902895}},{"type":"Feature","geometry":{"type":"MultiPolygon","coordinates":[[[[105.683005,18.664125],[105.683071,18.66404],[105.684088,18.664198],[105.684136,18.664257],[105.68415,18.665429],[105.683341,18.665436],[105.683234,18.66529],[105.683005,18.664125]]]]},"properties":{"group":"edu_health","tag":"amenity=hospital","name":"Bệnh viện Đa khoa thành phố Vinh","levels":null,"lat":18.664747237855842,"lng":105.68362281846224,"osm_type":"way","osm_id":974173105}},{"type":"Feature","geometry":{"type":"MultiPolygon","coordinates":[[[[105.684616,18.668455],[105.684836,18.668413],[105.68492,18.668808],[105.68539,18.668719],[105.68547,18.669094],[105.684779,18.669225],[105.684616,18.668455]]]]},"properties":{"group":"public","tag":"amenity=community_centre","name":"Nhà Văn hóa Lao động Nghệ An","levels":null,"lat":18.668886302570606,"lng":105.68500492591471,"osm_type":"way","osm_id":974191873}},{"type":"Feature","geometry":{"type":"MultiPolygon","coordinates":[[[[105.682532,18.674774],[105.682577,18.674773],[105.682615,18.674772],[105.683382,18.674756],[105.683437,18.674813],[105.683628,18.674815],[105.683635,18.675271],[105.683647,18.675958],[105.683648,18.676053],[105.683311,18.676059],[105.683287,18.676033],[105.683136,18.676034],[105.683103,18.676063],[105.68257,18.676072],[105.682568,18.675991],[105.682567,18.67596],[105.682532,18.674774]]]]},"properties":{"group":"edu_health","tag":"amenity=school","name":"Trường Trung học phổ thông Huỳnh Thúc Kháng","levels":null,"lat":18.67541457165207,"lng":105.68308998804257,"osm_type":"way","osm_id":974215314}},{"type":"Feature","geometry":{"type":"MultiPolygon","coordinates":[[[[105.714354,19.260867],[105.715643,19.260488],[105.715902,19.261266],[105.71604,19.26173],[105.71476,19.262153],[105.714354,19.260867]]]]},"properties":{"group":"edu_health","tag":"amenity=hospital","name":"Bệnh viện Phong - Da liễu Trung ương Quỳnh Lập (cơ sở 2)","levels":null,"lat":19.261310219854217,"lng":105.71519814998148,"osm_type":"way","osm_id":993197018}},{"type":"Feature","geometry":{"type":"MultiPolygon","coordinates":[[[[105.687326,18.676796],[105.687592,18.676235],[105.688233,18.676204],[105.688808,18.67619],[105.688845,18.676231],[105.688849,18.676957],[105.688854,18.677839],[105.688277,18.677835],[105.688269,18.677238],[105.687888,18.677235],[105.68789,18.677042],[105.687326,18.676796]]]]},"properties":{"group":"edu_health","tag":"amenity=school","name":"Trường Trung học phổ thông chuyên Phan Bội Châu","levels":null,"lat":18.676872515263472,"lng":105.68827958285881,"osm_type":"way","osm_id":1002194878}},{"type":"Feature","geometry":{"type":"MultiPolygon","coordinates":[[[[105.683565,18.677459],[105.68398,18.677459],[105.683988,18.676956],[105.68411,18.676959],[105.684503,18.677059],[105.684416,18.677504],[105.684572,18.677547],[105.684725,18.677621],[105.68458,18.677789],[105.684605,18.678601],[105.683596,18.678613],[105.683565,18.677459]]]]},"properties":{"group":"edu_health","tag":"amenity=university","name":"Trường Đại học Nghệ An (cơ sở 4)","levels":null,"lat":18.6779010074311,"lng":105.6841083544471,"osm_type":"way","osm_id":1043696949}},{"type":"Feature","geometry":{"type":"MultiPolygon","coordinates":[[[[105.699139,18.684235],[105.701138,18.683235],[105.70168,18.684242],[105.701421,18.684403],[105.701046,18.684577],[105.69973,18.685279],[105.699628,18.685105],[105.699139,18.684235]]]]},"properties":{"group":"edu_health","tag":"amenity=hospital","name":"Bệnh viện Ung bướu Nghệ An","levels":null,"lat":18.68425132299223,"lng":105.70041518947112,"osm_type":"way","osm_id":1043696966}},{"type":"Feature","geometry":{"type":"MultiPolygon","coordinates":[[[[105.701138,18.683235],[105.702145,18.682755],[105.702662,18.68376],[105.701949,18.684115],[105.70168,18.684242],[105.701138,18.683235]]]]},"properties":{"group":"edu_health","tag":"amenity=hospital","name":"Trung tâm Huyết học - Truyền máu tỉnh Nghệ An","levels":null,"lat":18.68349773146137,"lng":105.70190466620794,"osm_type":"way","osm_id":1043708936}},{"type":"Feature","geometry":{"type":"MultiPolygon","coordinates":[[[[105.701572,18.681654],[105.701577,18.681586],[105.70162,18.681535],[105.701752,18.681451],[105.702667,18.681],[105.702688,18.680973],[105.703146,18.681385],[105.703114,18.681469],[105.703066,18.68152],[105.703098,18.681563],[105.703079,18.681748],[105.702996,18.681853],[105.70294,18.68215],[105.702342,18.682472],[105.702358,18.682498],[105.702135,18.682625],[105.701609,18.681723],[105.701572,18.681654]]]]},"properties":{"group":"edu_health","tag":"amenity=hospital","name":"Bệnh viện Sản Nhi Nghệ An","levels":null,"lat":18.6817585267322,"lng":105.70239192064605,"osm_type":"way","osm_id":1043708940}},{"type":"Feature","geometry":{"type":"MultiPolygon","coordinates":[[[[105.694454,18.683822],[105.69493,18.683804],[105.694938,18.683986],[105.694462,18.684004],[105.694454,18.683822]]]]},"properties":{"group":"apartment","tag":"building=apartments","name":"Nhà B3","levels":null,"lat":18.683903874033714,"lng":105.6946957718171,"osm_type":"way","osm_id":1043708941}},{"type":"Feature","geometry":{"type":"MultiPolygon","coordinates":[[[[105.694191,18.684147],[105.694667,18.684129],[105.694675,18.684311],[105.694199,18.684329],[105.694191,18.684147]]]]},"properties":{"group":"apartment","tag":"building=apartments","name":"Nhà B4","levels":null,"lat":18.684229074033745,"lng":105.69443292182169,"osm_type":"way","osm_id":1043708942}},{"type":"Feature","geometry":{"type":"MultiPolygon","coordinates":[[[[105.693776,18.68384],[105.693967,18.683836],[105.69398,18.684287],[105.693788,18.684292],[105.693776,18.68384]]]]},"properties":{"group":"apartment","tag":"building=apartments","name":"Nhà B2","levels":null,"lat":18.684063899999998,"lng":105.6938777,"osm_type":"way","osm_id":1043708943}},{"type":"Feature","geometry":{"type":"MultiPolygon","coordinates":[[[[105.693759,18.684434],[105.694235,18.684416],[105.694243,18.684598],[105.693767,18.684616],[105.693759,18.684434]]]]},"properties":{"group":"apartment","tag":"building=apartments","name":"Nhà B1","levels":null,"lat":18.68451617403371,"lng":105.6940010718171,"osm_type":"way","osm_id":1043708944}},{"type":"Feature","geometry":{"type":"MultiPolygon","coordinates":[[[[105.697645,18.685145],[105.698002,18.684761],[105.698034,18.684777],[105.698474,18.684294],[105.698702,18.684741],[105.698908,18.684645],[105.698939,18.6847],[105.699248,18.68526],[105.699262,18.685282],[105.699375,18.68529],[105.699567,18.685635],[105.698547,18.686138],[105.698464,18.686123],[105.698109,18.685694],[105.697867,18.685414],[105.697645,18.685145]]]]},"properties":{"group":"edu_health","tag":"amenity=university","name":"Trường Đại học Y khoa Vinh","levels":null,"lat":18.68529569488789,"lng":105.69857989513277,"osm_type":"way","osm_id":1043708945}},{"type":"Feature","geometry":{"type":"MultiPolygon","coordinates":[[[[105.698004,18.681387],[105.698415,18.680932],[105.698457,18.680962],[105.699364,18.681595],[105.698889,18.682114],[105.69871,18.682073],[105.698525,18.681941],[105.698315,18.681761],[105.698377,18.681667],[105.698004,18.681387]]]]},"properties":{"group":"edu_health","tag":"amenity=school","name":"Trường Trung học cơ sở Hưng Dũng","levels":null,"lat":18.68154064296742,"lng":105.69867365102733,"osm_type":"way","osm_id":1043708946}},{"type":"Feature","geometry":{"type":"MultiPolygon","coordinates":[[[[105.698457,18.680962],[105.698852,18.680493],[105.699144,18.680732],[105.699192,18.680691],[105.699718,18.68108],[105.699364,18.681595],[105.698457,18.680962]]]]},"properties":{"group":"edu_health","tag":"amenity=school","name":"Trường Tiểu học Hưng Dũng 1","levels":null,"lat":18.68103703147471,"lng":105.69910181532778,"osm_type":"way","osm_id":1043708947}},{"type":"Feature","geometry":{"type":"MultiPolygon","coordinates":[[[[105.692911,18.685542],[105.693064,18.685204],[105.693111,18.684868],[105.693517,18.684853],[105.693967,18.685124],[105.693493,18.685888],[105.692911,18.685542]]]]},"properties":{"group":"edu_health","tag":"amenity=school","name":"Trường Tiểu học Hưng Dũng 2","levels":null,"lat":18.685313937442533,"lng":105.6934144404551,"osm_type":"way","osm_id":1043708948}},{"type":"Feature","geometry":{"type":"MultiPolygon","coordinates":[[[[105.706277,18.709228],[105.706278,18.709188],[105.706292,18.709137],[105.707083,18.708169],[105.707528,18.707669],[105.707676,18.707466],[105.70778,18.707305],[105.708486,18.706541],[105.708624,18.706514],[105.709359,18.708086],[105.707488,18.71028],[105.707086,18.709979],[105.707006,18.709892],[105.706828,18.709728],[105.706306,18.709323],[105.706289,18.709293],[105.706282,18.709267],[105.706277,18.709228]]]]},"properties":{"group":"edu_health","tag":"amenity=university","name":"Trường Đại học Nghệ An (cơ sở 2)","levels":null,"lat":18.708472396775075,"lng":105.7078876730489,"osm_type":"way","osm_id":1043718317}},{"type":"Feature","geometry":{"type":"MultiPolygon","coordinates":[[[[105.660328,18.737048],[105.661294,18.733321],[105.661321,18.733288],[105.661366,18.733268],[105.662705,18.733576],[105.66189,18.73579],[105.662102,18.735902],[105.661973,18.736151],[105.661559,18.737361],[105.660328,18.737048]]]]},"properties":{"group":"edu_health","tag":"amenity=college","name":"Trường Cao đẳng Giao thông vận tải Trung ương IV","levels":null,"lat":18.735289698578626,"lng":105.66146843357137,"osm_type":"way","osm_id":1067047490}},{"type":"Feature","geometry":{"type":"MultiPolygon","coordinates":[[[[105.70084,18.82757],[105.700864,18.827465],[105.700879,18.8274],[105.700989,18.827441],[105.701023,18.827453],[105.701026,18.827454],[105.701027,18.827456],[105.701028,18.827459],[105.701028,18.827462],[105.701028,18.827465],[105.701003,18.827601],[105.700939,18.827589],[105.70084,18.82757]]]]},"properties":{"group":"public","tag":"amenity=community_centre","name":"Nhà văn hóa Khối 5","levels":null,"lat":18.827506773640927,"lng":105.70093556102755,"osm_type":"way","osm_id":1069888266}},{"type":"Feature","geometry":{"type":"MultiPolygon","coordinates":[[[[105.698888,18.825075],[105.699404,18.824723],[105.700038,18.825173],[105.699956,18.825271],[105.699606,18.825691],[105.699408,18.82552],[105.699345,18.825465],[105.69922,18.825357],[105.698888,18.825075]]]]},"properties":{"group":"public","tag":"leisure=playground","name":null,"levels":null,"lat":18.82517833702451,"lng":105.69948305150295,"osm_type":"way","osm_id":1069914263}},{"type":"Feature","geometry":{"type":"MultiPolygon","coordinates":[[[[105.70584,18.822576],[105.705992,18.822192],[105.705997,18.822182],[105.706006,18.822176],[105.706018,18.822174],[105.706032,18.822174],[105.706044,18.822177],[105.706204,18.82224],[105.706214,18.822246],[105.706222,18.822253],[105.706228,18.82226],[105.706232,18.822267],[105.706235,18.822274],[105.706235,18.822281],[105.706234,18.822291],[105.706231,18.822298],[105.70617,18.822446],[105.706138,18.822523],[105.706134,18.822533],[105.706113,18.822582],[105.706059,18.822712],[105.705934,18.822634],[105.70584,18.822576]]]]},"properties":{"group":"edu_health","tag":"amenity=hospital","name":"Trạm y tế phường Nghi Tân","levels":null,"lat":18.8224278712121,"lng":105.70603955942903,"osm_type":"way","osm_id":1069914278}},{"type":"Feature","geometry":{"type":"MultiPolygon","coordinates":[[[[105.707238,18.818802],[105.707329,18.81866],[105.707637,18.818713],[105.707636,18.818777],[105.708035,18.818735],[105.708219,18.818715],[105.708267,18.81871],[105.708296,18.819147],[105.708297,18.819165],[105.708295,18.819185],[105.708291,18.819209],[105.708283,18.819231],[105.708275,18.819248],[105.708261,18.819266],[105.708103,18.819442],[105.707976,18.819584],[105.707885,18.819481],[105.707858,18.819451],[105.707562,18.819117],[105.707334,18.818859],[105.707238,18.818802]]]]},"properties":{"group":"edu_health","tag":"amenity=school","name":"Trường Trung học cơ sở Nghi Tân","levels":null,"lat":18.819035858627334,"lng":105.70786889928213,"osm_type":"way","osm_id":1069914282}},{"type":"Feature","geometry":{"type":"MultiPolygon","coordinates":[[[[105.70411,18.821361],[105.704188,18.821022],[105.704212,18.820916],[105.704188,18.820911],[105.704255,18.820683],[105.704398,18.820708],[105.704392,18.820746],[105.70471,18.820787],[105.704712,18.820767],[105.704901,18.820797],[105.704938,18.820804],[105.704883,18.821047],[105.704841,18.821059],[105.704833,18.821106],[105.704825,18.821153],[105.70486,18.821173],[105.704847,18.821295],[105.704842,18.821339],[105.70484,18.821374],[105.704839,18.821406],[105.70484,18.821435],[105.704861,18.821578],[105.704681,18.821575],[105.704379,18.821571],[105.704404,18.821421],[105.70411,18.821361]]]]},"properties":{"group":"edu_health","tag":"amenity=school","name":"Trường Tiểu học Nghi Tân","levels":null,"lat":18.821138081194032,"lng":105.70453159384302,"osm_type":"way","osm_id":1069914290}},{"type":"Feature","geometry":{"type":"MultiPolygon","coordinates":[[[[105.706011,18.822125],[105.706112,18.821859],[105.706145,18.821772],[105.706294,18.821823],[105.706222,18.82201],[105.706212,18.822007],[105.706197,18.822002],[105.706192,18.822015],[105.706135,18.822167],[105.706035,18.822133],[105.706011,18.822125]]]]},"properties":{"group":"public","tag":"amenity=community_centre","name":"Nhà văn hóa Khối 1","levels":null,"lat":18.821963980465302,"lng":105.70615019912726,"osm_type":"way","osm_id":1070108291}},{"type":"Feature","geometry":{"type":"MultiPolygon","coordinates":[[[[105.703223,18.827293],[105.703237,18.827261],[105.703247,18.827236],[105.703258,18.827212],[105.703271,18.82719],[105.703283,18.82717],[105.703289,18.827162],[105.703296,18.827151],[105.703308,18.827127],[105.703462,18.827167],[105.70346,18.827202],[105.703457,18.827236],[105.703454,18.827257],[105.703451,18.827275],[105.703438,18.827343],[105.703383,18.82733],[105.703288,18.827308],[105.703223,18.827293]]]]},"properties":{"group":"public","tag":"amenity=community_centre","name":"Nhà văn hóa Khối 3","levels":null,"lat":18.827237037142503,"lng":105.70335588512994,"osm_type":"way","osm_id":1070108294}},{"type":"Feature","geometry":{"type":"MultiPolygon","coordinates":[[[[105.699002,18.822943],[105.699062,18.82288],[105.699156,18.82296],[105.699095,18.823023],[105.699002,18.822943]]]]},"properties":{"group":"public","tag":"amenity=community_centre","name":"Nhà văn hóa Khối 7","levels":null,"lat":18.822951400000004,"lng":105.69907865,"osm_type":"way","osm_id":1070108309}},{"type":"Feature","geometry":{"type":"MultiPolygon","coordinates":[[[[105.701514,18.824964],[105.701543,18.824908],[105.701573,18.824852],[105.701668,18.824911],[105.701795,18.824988],[105.701739,18.82507],[105.70161,18.82501],[105.701514,18.824964]]]]},"properties":{"group":"public","tag":"amenity=community_centre","name":"Nhà văn hóa Khối 6","levels":null,"lat":18.824965719458152,"lng":105.70165061378594,"osm_type":"way","osm_id":1070108310}},{"type":"Feature","geometry":{"type":"MultiPolygon","coordinates":[[[[105.707076,18.824475],[105.707207,18.824471],[105.70721,18.824559],[105.707079,18.824562],[105.707076,18.824475]]]]},"properties":{"group":"public","tag":"amenity=community_centre","name":"Nhà văn hóa Khối 2","levels":null,"lat":18.824516874505726,"lng":105.7071431124305,"osm_type":"way","osm_id":1070108314}},{"type":"Feature","geometry":{"type":"MultiPolygon","coordinates":[[[[105.715551,18.78892],[105.716865,18.786787],[105.720728,18.787599],[105.719456,18.789458],[105.718088,18.788935],[105.717745,18.789773],[105.715551,18.78892]]]]},"properties":{"group":"edu_health","tag":"amenity=university","name":"Trường Đại học Công nghệ Vạn Xuân","levels":null,"lat":18.788233257269628,"lng":105.71802613204602,"osm_type":"way","osm_id":1083085908}},{"type":"Feature","geometry":{"type":"MultiPolygon","coordinates":[[[[105.726203,18.793372],[105.727241,18.792042],[105.727316,18.792034],[105.727997,18.792509],[105.72801,18.792562],[105.726959,18.793913],[105.726203,18.793372]]]]},"properties":{"group":"edu_health","tag":"amenity=school","name":"Trường Trung học phổ thông Cửa Lò","levels":null,"lat":18.79295688328628,"lng":105.72711591779984,"osm_type":"way","osm_id":1083085914}},{"type":"Feature","geometry":{"type":"MultiPolygon","coordinates":[[[[105.715823,18.790627],[105.716115,18.790002],[105.717089,18.790398],[105.717099,18.790495],[105.716796,18.791051],[105.715823,18.790627]]]]},"properties":{"group":"edu_health","tag":"amenity=school","name":"Trường Trung học cơ sở Nghi Hương","levels":null,"lat":18.790524243328825,"lng":105.71647071882744,"osm_type":"way","osm_id":1083085917}},{"type":"Feature","geometry":{"type":"MultiPolygon","coordinates":[[[[105.715552,18.791211],[105.715823,18.790627],[105.716796,18.791051],[105.716458,18.791658],[105.715552,18.791211]]]]},"properties":{"group":"edu_health","tag":"amenity=school","name":"Trường Tiểu học Nghi Hương","levels":null,"lat":18.79113682278337,"lng":105.71616414372559,"osm_type":"way","osm_id":1083085918}},{"type":"Feature","geometry":{"type":"MultiPolygon","coordinates":[[[[105.713491,18.800568],[105.715444,18.796907],[105.71672,18.797481],[105.714687,18.801066],[105.713491,18.800568]]]]},"properties":{"group":"edu_health","tag":"amenity=college","name":"Trường Cao đẳng Du lịch - Thương mại Nghệ An (cơ sở 2)","levels":null,"lat":18.798980855565603,"lng":105.71509791259334,"osm_type":"way","osm_id":1083085920}},{"type":"Feature","geometry":{"type":"MultiPolygon","coordinates":[[[[105.70965,18.707827],[105.710203,18.70752],[105.710294,18.707436],[105.710924,18.706852],[105.710981,18.706854],[105.711613,18.707401],[105.71061,18.708315],[105.710321,18.708465],[105.710018,18.708592],[105.70965,18.707827]]]]},"properties":{"group":"edu_health","tag":"amenity=college","name":"Trường Cao đẳng Du lịch - Thương mại Nghệ An","levels":null,"lat":18.707721826743946,"lng":105.71059813980972,"osm_type":"way","osm_id":1083085921}},{"type":"Feature","geometry":{"type":"MultiPolygon","coordinates":[[[[105.680407,18.69254],[105.680703,18.692124],[105.680569,18.692035],[105.680818,18.691694],[105.681072,18.691865],[105.681351,18.691509],[105.683089,18.692815],[105.682934,18.693003],[105.683068,18.693094],[105.682494,18.693867],[105.682413,18.693882],[105.680407,18.69254]]]]},"properties":{"group":"edu_health","tag":"amenity=university","name":"Trường Đại học Nghệ An","levels":null,"lat":18.69268160421373,"lng":105.68178409452892,"osm_type":"way","osm_id":1084427893}},{"type":"Feature","geometry":{"type":"MultiPolygon","coordinates":[[[[105.704863,18.674491],[105.704869,18.673991],[105.705212,18.673625],[105.705662,18.673337],[105.705967,18.673121],[105.706072,18.673037],[105.706453,18.672628],[105.706625,18.672407],[105.706791,18.67212],[105.706874,18.671919],[105.707342,18.671928],[105.707404,18.672046],[105.70773,18.672037],[105.707783,18.671919],[105.708542,18.671916],[105.708744,18.672457],[105.709258,18.67378],[105.709285,18.674196],[105.708145,18.674282],[105.707744,18.676168],[105.707193,18.675965],[105.706775,18.675909],[105.706451,18.675957],[105.705225,18.676151],[105.704863,18.674491]]]]},"properties":{"group":"edu_health","tag":"amenity=university","name":"Trường Đại học Sư phạm Kỹ thuật Vinh","levels":null,"lat":18.674060303848865,"lng":105.70698534040919,"osm_type":"way","osm_id":1084434406}},{"type":"Feature","geometry":{"type":"MultiPolygon","coordinates":[[[[105.674475,18.703091],[105.674952,18.701912],[105.676218,18.702298],[105.675644,18.703584],[105.674475,18.703091]]]]},"properties":{"group":"edu_health","tag":"amenity=college","name":"Trường Cao đẳng nghề số 4 - Bộ Quốc phòng","levels":null,"lat":18.702721326140434,"lng":105.67533416993692,"osm_type":"way","osm_id":1086689914}},{"type":"Feature","geometry":{"type":"MultiPolygon","coordinates":[[[[104.154883,19.39701],[104.155046,19.396279],[104.155111,19.396092],[104.155242,19.395879],[104.1554,19.395682],[104.155655,19.395348],[104.155872,19.395469],[104.156065,19.395515],[104.156253,19.395515],[104.156495,19.395565],[104.156629,19.395707],[104.156693,19.395894],[104.156436,19.396193],[104.156135,19.39641],[104.155776,19.396605],[104.155701,19.396679],[104.155491,19.396714],[104.155411,19.396856],[104.155304,19.397111],[104.154883,19.39701]]]]},"properties":{"group":"edu_health","tag":"amenity=school","name":"Trường Trung học phổ thông Kỳ Sơn","levels":null,"lat":19.396151947865896,"lng":104.15571665988921,"osm_type":"way","osm_id":1091537223}},{"type":"Feature","geometry":{"type":"MultiPolygon","coordinates":[[[[105.701582,18.662782],[105.701657,18.662782],[105.701692,18.662576],[105.702739,18.662736],[105.702639,18.663122],[105.701601,18.662905],[105.701582,18.662782]]]]},"properties":{"group":"edu_health","tag":"amenity=school","name":"Trường Trung học cơ sở Bến Thuỷ","levels":null,"lat":18.66283776205033,"lng":105.70217951252778,"osm_type":"way","osm_id":1106602360}},{"type":"Feature","geometry":{"type":"MultiPolygon","coordinates":[[[[105.701601,18.662905],[105.702639,18.663122],[105.702493,18.663665],[105.701681,18.663546],[105.701601,18.662905]]]]},"properties":{"group":"edu_health","tag":"amenity=school","name":"Trường Tiểu học Bến Thuỷ","levels":null,"lat":18.663295807061026,"lng":105.70209645987676,"osm_type":"way","osm_id":1106602361}},{"type":"Feature","geometry":{"type":"MultiPolygon","coordinates":[[[[105.700176,18.666044],[105.70041,18.66546],[105.70174,18.665445],[105.701697,18.666014],[105.701547,18.666443],[105.700965,18.666438],[105.700943,18.666083],[105.700176,18.666044]]]]},"properties":{"group":"edu_health","tag":"amenity=school","name":"Trường Trung học phổ thông Lê Viết Thuật","levels":null,"lat":18.665871566967894,"lng":105.70106852983615,"osm_type":"way","osm_id":1106602362}},{"type":"Feature","geometry":{"type":"MultiPolygon","coordinates":[[[[105.698733,18.668242],[105.698878,18.667531],[105.700756,18.668131],[105.70023,18.668883],[105.698733,18.668242]]]]},"properties":{"group":"edu_health","tag":"amenity=school","name":"Trường Trung cấp Kỹ thuật - Nghiệp vụ Vinh","levels":null,"lat":18.66819638574954,"lng":105.69968421908287,"osm_type":"way","osm_id":1106602363}},{"type":"Feature","geometry":{"type":"MultiPolygon","coordinates":[[[[105.665689,18.667061],[105.666389,18.667066],[105.666399,18.667441],[105.6664,18.667614],[105.665699,18.667643],[105.665689,18.667061]]]]},"properties":{"group":"edu_health","tag":"amenity=school","name":"Trường Tiểu học Cửa Nam 1","levels":null,"lat":18.66734597655698,"lng":105.66604112854962,"osm_type":"way","osm_id":1106602364}},{"type":"Feature","geometry":{"type":"MultiPolygon","coordinates":[[[[105.655293,18.667002],[105.655322,18.666346],[105.655352,18.666282],[105.655546,18.666121],[105.655682,18.666133],[105.655766,18.666246],[105.655805,18.666386],[105.655614,18.666419],[105.655601,18.66679],[105.655928,18.666818],[105.655901,18.667163],[105.655874,18.667161],[105.655569,18.667137],[105.655311,18.667148],[105.655293,18.667002]]]]},"properties":{"group":"edu_health","tag":"amenity=school","name":"Trường Tiểu học Cửa Nam","levels":null,"lat":18.666711784490094,"lng":105.65555855702645,"osm_type":"way","osm_id":1106602365}},{"type":"Feature","geometry":{"type":"MultiPolygon","coordinates":[[[[105.691146,18.679887],[105.69158,18.679869],[105.69158,18.67981],[105.69235,18.679798],[105.692329,18.680336],[105.692235,18.680334],[105.692254,18.680949],[105.691221,18.680995],[105.691146,18.679887]]]]},"properties":{"group":"edu_health","tag":"amenity=school","name":"Trường Trung học cơ sở Đặng Thai Mai","levels":null,"lat":18.68038230963518,"lng":105.69174149771739,"osm_type":"way","osm_id":1106602366}},{"type":"Feature","geometry":{"type":"MultiPolygon","coordinates":[[[[105.665665,18.664796],[105.666067,18.664796],[105.666089,18.664895],[105.666429,18.664892],[105.666429,18.665207],[105.665673,18.665212],[105.665665,18.664796]]]]},"properties":{"group":"edu_health","tag":"amenity=school","name":"Trường Trung học cơ sở Cửa Nam","levels":null,"lat":18.66502171383114,"lng":105.66602316019332,"osm_type":"way","osm_id":1106602368}},{"type":"Feature","geometry":{"type":"MultiPolygon","coordinates":[[[[105.663779,18.675839],[105.664605,18.675804],[105.664621,18.676119],[105.66379,18.676157],[105.663779,18.675839]]]]},"properties":{"group":"edu_health","tag":"amenity=school","name":"Trường Tiểu học Đội Cung","levels":null,"lat":18.67597962390507,"lng":105.66419842136978,"osm_type":"way","osm_id":1106602369}},{"type":"Feature","geometry":{"type":"MultiPolygon","coordinates":[[[[105.667231,18.675412],[105.667886,18.675394],[105.667896,18.675521],[105.668057,18.675519],[105.668049,18.676517],[105.667277,18.676556],[105.667231,18.675412]]]]},"properties":{"group":"edu_health","tag":"amenity=university","name":"Trường Đại học Công nghiệp Vinh","levels":null,"lat":18.675974544458875,"lng":105.66764498357,"osm_type":"way","osm_id":1106602370}},{"type":"Feature","geometry":{"type":"MultiPolygon","coordinates":[[[[105.66379,18.676157],[105.664621,18.676119],[105.664656,18.676543],[105.663881,18.676568],[105.663841,18.676561],[105.663811,18.676535],[105.663798,18.676507],[105.66379,18.676157]]]]},"properties":{"group":"edu_health","tag":"amenity=school","name":"Trường Trung học cơ sở Đội Cung","levels":null,"lat":18.676347378814924,"lng":105.66422032108274,"osm_type":"way","osm_id":1106602371}},{"type":"Feature","geometry":{"type":"MultiPolygon","coordinates":[[[[105.660214,18.677091],[105.660509,18.676619],[105.660587,18.676665],[105.660839,18.676245],[105.661295,18.67652],[105.660807,18.67731],[105.660214,18.677091]]]]},"properties":{"group":"edu_health","tag":"amenity=school","name":"Trường Tiểu học Đông Vĩnh","levels":null,"lat":18.676804383640924,"lng":105.66077175572772,"osm_type":"way","osm_id":1106602372}},{"type":"Feature","geometry":{"type":"MultiPolygon","coordinates":[[[[105.675393,18.68969],[105.675729,18.68972],[105.675731,18.690073],[105.676214,18.690091],[105.676217,18.690409],[105.676059,18.690386],[105.675418,18.690401],[105.675393,18.68969]]]]},"properties":{"group":"edu_health","tag":"amenity=school","name":"Trường Tiểu học Hà Huy Tập 1","levels":null,"lat":18.690123403888816,"lng":105.67572887107892,"osm_type":"way","osm_id":1106602373}},{"type":"Feature","geometry":{"type":"MultiPolygon","coordinates":[[[[105.681678,18.6888],[105.682099,18.688048],[105.682834,18.688485],[105.682595,18.688877],[105.683118,18.689199],[105.682979,18.689324],[105.682788,18.689532],[105.682364,18.689276],[105.682321,18.689217],[105.682305,18.689131],[105.681678,18.6888]]]]},"properties":{"group":"edu_health","tag":"amenity=school","name":"Trường Trung học cơ sở Hà Huy Tập","levels":null,"lat":18.68878373238798,"lng":105.68237500665646,"osm_type":"way","osm_id":1106602374}},{"type":"Feature","geometry":{"type":"MultiPolygon","coordinates":[[[[105.683137,18.690404],[105.683652,18.690152],[105.683711,18.690155],[105.684255,18.691356],[105.684239,18.6914],[105.684067,18.691499],[105.683464,18.691499],[105.683464,18.69128],[105.683236,18.69127],[105.683233,18.690935],[105.683193,18.690668],[105.683137,18.690404]]]]},"properties":{"group":"edu_health","tag":"amenity=school","name":"Trường Trung học phổ thông Nguyễn Trường Tộ","levels":null,"lat":18.690900355999446,"lng":105.68365101157114,"osm_type":"way","osm_id":1106602375}},{"type":"Feature","geometry":{"type":"MultiPolygon","coordinates":[[[[105.685827,18.69096],[105.68613,18.690521],[105.686433,18.690693],[105.68653,18.690554],[105.686792,18.690708],[105.686363,18.691323],[105.685948,18.691052],[105.685827,18.69096]]]]},"properties":{"group":"edu_health","tag":"amenity=school","name":"Trường Tiểu học Hà Huy Tập 2","levels":null,"lat":18.690889333041298,"lng":105.68630073422419,"osm_type":"way","osm_id":1106602376}},{"type":"Feature","geometry":{"type":"MultiPolygon","coordinates":[[[[105.439071,19.322758],[105.440558,19.322209],[105.440895,19.322907],[105.439762,19.323422],[105.439317,19.3233],[105.439071,19.322758]]]]},"properties":{"group":"edu_health","tag":"amenity=school","name":"Trường Trung học phổ thông Thái Hòa","levels":null,"lat":19.322845409375788,"lng":105.43999322948126,"osm_type":"way","osm_id":1106772702}},{"type":"Feature","geometry":{"type":"MultiPolygon","coordinates":[[[[105.430396,19.320515],[105.430455,19.320009],[105.430562,19.319908],[105.4306,19.319432],[105.431388,19.319558],[105.431377,19.320561],[105.430396,19.320515]]]]},"properties":{"group":"edu_health","tag":"amenity=school","name":"Trường Tiểu học Hoà Hiếu 1","levels":null,"lat":19.320039129358832,"lng":105.43093187697919,"osm_type":"way","osm_id":1107962130}},{"type":"Feature","geometry":{"type":"MultiPolygon","coordinates":[[[[105.704502,18.694392],[105.706056,18.693609],[105.706131,18.693597],[105.706228,18.693622],[105.706673,18.693904],[105.70674,18.694001],[105.707236,18.695571],[105.705217,18.696587],[105.704647,18.694481],[105.704524,18.694524],[105.704502,18.694392]]]]},"properties":{"group":"edu_health","tag":"amenity=hospital","name":"Bệnh viện Quân y 4","levels":null,"lat":18.695008829426367,"lng":105.70588274465848,"osm_type":"way","osm_id":1159096908}},{"type":"Feature","geometry":{"type":"MultiPolygon","coordinates":[[[[105.677269,18.711464],[105.677902,18.710557],[105.67798,18.710544],[105.678578,18.710834],[105.67801,18.711785],[105.677504,18.711605],[105.677269,18.711464]]]]},"properties":{"group":"edu_health","tag":"amenity=hospital","name":"Bệnh viện Đa khoa 115 Nghệ An","levels":null,"lat":18.711166738662392,"lng":105.67793367122502,"osm_type":"way","osm_id":1167859924}},{"type":"Feature","geometry":{"type":"MultiPolygon","coordinates":[[[[105.722499,18.8074],[105.723409,18.805768],[105.724254,18.806196],[105.723347,18.807806],[105.722499,18.8074]]]]},"properties":{"group":"edu_health","tag":"amenity=hospital","name":"Bệnh viện Phục hồi chức năng Nghệ An","levels":null,"lat":18.806791027259532,"lng":105.72337700022524,"osm_type":"way","osm_id":1167859925}},{"type":"Feature","geometry":{"type":"MultiPolygon","coordinates":[[[[105.687797,18.675364],[105.687854,18.675229],[105.688094,18.675334],[105.688494,18.675444],[105.688266,18.675892],[105.687833,18.675911],[105.687797,18.675364]]]]},"properties":{"group":"edu_health","tag":"amenity=hospital","name":"Bệnh viện Da liễu Nghệ An","levels":null,"lat":18.675595383663858,"lng":105.68808542363541,"osm_type":"way","osm_id":1167859926}},{"type":"Feature","geometry":{"type":"MultiPolygon","coordinates":[[[[105.678161,18.711789],[105.678682,18.710955],[105.678751,18.710937],[105.679478,18.711331],[105.679004,18.712137],[105.678636,18.712052],[105.678161,18.711789]]]]},"properties":{"group":"edu_health","tag":"amenity=hospital","name":"Bệnh viện Mắt Nghệ An","levels":null,"lat":18.71155690030109,"lng":105.67882283779217,"osm_type":"way","osm_id":1167859927}},{"type":"Feature","geometry":{"type":"MultiPolygon","coordinates":[[[[105.672924,18.692814],[105.674671,18.69275],[105.674679,18.693059],[105.673821,18.69308],[105.673601,18.693085],[105.673601,18.693147],[105.672937,18.693158],[105.672924,18.692814]]]]},"properties":{"group":"edu_health","tag":"amenity=school","name":"Trường Trung học phổ thông Nguyễn Trãi","levels":null,"lat":18.6929441799111,"lng":105.67377512834857,"osm_type":"way","osm_id":1167859928}},{"type":"Feature","geometry":{"type":"MultiPolygon","coordinates":[[[[105.673821,18.69308],[105.674679,18.693059],[105.674682,18.693384],[105.673999,18.693407],[105.673887,18.693343],[105.673834,18.693297],[105.673821,18.69308]]]]},"properties":{"group":"edu_health","tag":"amenity=hospital","name":"Bệnh viện Nội tiết Nghệ An","levels":null,"lat":18.693229181369954,"lng":105.67426517453482,"osm_type":"way","osm_id":1167859929}},{"type":"Feature","geometry":{"type":"MultiPolygon","coordinates":[[[[105.415325,19.31045],[105.417569,19.310394],[105.417578,19.310703],[105.417774,19.310699],[105.417818,19.311879],[105.415924,19.311864],[105.415933,19.312316],[105.415375,19.31234],[105.415325,19.31045]]]]},"properties":{"group":"edu_health","tag":"amenity=hospital","name":"Bệnh viện Đa khoa khu vực Tây Bắc Nghệ An","levels":null,"lat":19.311220784722774,"lng":105.4164958242934,"osm_type":"way","osm_id":1167859930}},{"type":"Feature","geometry":{"type":"MultiPolygon","coordinates":[[[[105.642086,18.749667],[105.642484,18.74856],[105.642604,18.748206],[105.642915,18.747467],[105.644309,18.747959],[105.643561,18.75004],[105.64339,18.749999],[105.64325,18.750076],[105.642426,18.749851],[105.642249,18.749709],[105.642086,18.749667]]]]},"properties":{"group":"edu_health","tag":"amenity=hospital","name":"Bệnh viện Phổi Nghệ An","levels":null,"lat":18.748814852473576,"lng":105.64319230619856,"osm_type":"way","osm_id":1167859931}},{"type":"Feature","geometry":{"type":"MultiPolygon","coordinates":[[[[105.695341,18.68767],[105.695872,18.687118],[105.696007,18.687024],[105.696607,18.687491],[105.69598,18.688327],[105.695487,18.68795],[105.695573,18.687829],[105.695341,18.68767]]]]},"properties":{"group":"edu_health","tag":"amenity=hospital","name":"Bệnh viện Y học cổ truyền Nghệ An","levels":null,"lat":18.68765156226213,"lng":105.69597055050228,"osm_type":"way","osm_id":1167859932}},{"type":"Feature","geometry":{"type":"MultiPolygon","coordinates":[[[[104.88443,19.042901],[104.886761,19.041756],[104.887607,19.043173],[104.885268,19.044351],[104.88443,19.042901]]]]},"properties":{"group":"edu_health","tag":"amenity=hospital","name":"Bệnh viện Đa khoa khu vực Tây Nam Nghệ An","levels":null,"lat":19.04304780981071,"lng":104.88601401672021,"osm_type":"way","osm_id":1167859933}},{"type":"Feature","geometry":{"type":"MultiPolygon","coordinates":[[[[105.719837,18.802367],[105.720371,18.8014],[105.721312,18.801846],[105.72076,18.802852],[105.72073,18.802875],[105.719851,18.802433],[105.719837,18.802367]]]]},"properties":{"group":"edu_health","tag":"amenity=school","name":"Trường Trung học phổ thông Cửa Lò 2","levels":null,"lat":18.802135723989643,"lng":105.72056182565461,"osm_type":"way","osm_id":1174486567}},{"type":"Feature","geometry":{"type":"MultiPolygon","coordinates":[[[[105.718145,18.80221],[105.71892,18.800785],[105.718949,18.800795],[105.719177,18.800521],[105.719837,18.800843],[105.719853,18.800899],[105.718933,18.802555],[105.71888,18.802567],[105.718145,18.80221]]]]},"properties":{"group":"public","tag":"amenity=community_centre","name":"Trung tâm Hoạt động thanh thiếu niên tỉnh Nghệ An","levels":null,"lat":18.801542657465582,"lng":105.71900629687705,"osm_type":"way","osm_id":1174486568}},{"type":"Feature","geometry":{"type":"MultiPolygon","coordinates":[[[[105.724038,18.796211],[105.724043,18.796155],[105.724719,18.795282],[105.725467,18.795792],[105.724754,18.796711],[105.724038,18.796211]]]]},"properties":{"group":"edu_health","tag":"amenity=hospital","name":"Bệnh viện Đa khoa thành phố Vinh (cơ sở 3)","levels":null,"lat":18.795994739960076,"lng":105.72473939018232,"osm_type":"way","osm_id":1174536771}},{"type":"Feature","geometry":{"type":"MultiPolygon","coordinates":[[[[105.18714,19.325504],[105.187144,19.325343],[105.187172,19.325345],[105.1872,19.32535],[105.187195,19.325508],[105.187175,19.325507],[105.18714,19.325504]]]]},"properties":{"group":"edu_health","tag":"amenity=hospital","name":"Nhà Thuốc Tiến Thuỷ","levels":null,"lat":19.32542589464493,"lng":105.1871695629345,"osm_type":"way","osm_id":1196831651}},{"type":"Feature","geometry":{"type":"MultiPolygon","coordinates":[[[[105.770694,19.259602],[105.770949,19.259149],[105.77186,19.259564],[105.771783,19.259721],[105.771611,19.259909],[105.771442,19.259947],[105.770694,19.259602]]],[[[105.772182,19.259997],[105.772676,19.260081],[105.772676,19.260392],[105.772182,19.260415],[105.772182,19.259997]]],[[[105.773415,19.263792],[105.773538,19.263751],[105.773644,19.263586],[105.773749,19.263583],[105.773811,19.263377],[105.773996,19.263357],[105.774073,19.263806],[105.774069,19.26395],[105.774029,19.264204],[105.773538,19.26428],[105.773415,19.263792]]],[[[105.773419,19.262534],[105.773545,19.262522],[105.773531,19.262395],[105.773655,19.262385],[105.773638,19.262245],[105.773543,19.26225],[105.773529,19.262129],[105.773848,19.262104],[105.773902,19.262572],[105.773427,19.262605],[105.773419,19.262534]]],[[[105.773612,19.261696],[105.773805,19.261671],[105.773837,19.262038],[105.773679,19.262053],[105.773612,19.261696]]],[[[105.773738,19.262636],[105.773896,19.262621],[105.773942,19.263013],[105.773835,19.262952],[105.773788,19.262905],[105.773762,19.262848],[105.773738,19.262636]]],[[[105.773759,19.260575],[105.774291,19.260514],[105.774366,19.261522],[105.774521,19.262276],[105.774644,19.263167],[105.774757,19.264185],[105.774505,19.264357],[105.774065,19.264327],[105.774124,19.264109],[105.774146,19.263871],[105.773984,19.262838],[105.773888,19.261876],[105.773759,19.260575]]]]},"properties":{"group":"edu_health","tag":"amenity=hospital","name":"Bệnh viện Phong - Da liễu Trung ương Quỳnh Lập","levels":null,"lat":19.26211064946328,"lng":105.77363531023066,"osm_type":"relation","osm_id":16377572}},{"type":"Feature","geometry":{"type":"MultiPolygon","coordinates":[[[[105.692528,18.752201],[105.695035,18.751909],[105.695678,18.756757],[105.69552,18.756961],[105.694799,18.757053],[105.693409,18.757218],[105.693336,18.756646],[105.693278,18.756267],[105.69331,18.756112],[105.693532,18.755877],[105.693658,18.755822],[105.69364,18.755612],[105.693722,18.755371],[105.693698,18.755205],[105.692957,18.755297],[105.692528,18.752201]]],[[[105.693242,18.757683],[105.693556,18.757559],[105.693939,18.757482],[105.694844,18.757366],[105.695161,18.759621],[105.693562,18.759847],[105.693242,18.757683]]]]},"properties":{"group":"edu_health","tag":"amenity=university","name":"Trường Đại học Vinh - cơ sở 2","levels":null,"lat":18.755451207353826,"lng":105.69417702083346,"osm_type":"relation","osm_id":16455279}},{"type":"Feature","geometry":{"type":"MultiPolygon","coordinates":[[[[105.727492,18.795344],[105.727569,18.795246],[105.72758,18.795254],[105.727597,18.795232],[105.727611,18.795242],[105.727625,18.79524],[105.727615,18.795161],[105.727632,18.795159],[105.727625,18.795106],[105.727752,18.795091],[105.72776,18.795148],[105.72778,18.795145],[105.727789,18.795213],[105.727806,18.795226],[105.727816,18.795213],[105.727832,18.795225],[105.72785,18.795203],[105.727955,18.795281],[105.727937,18.795302],[105.727965,18.795323],[105.727889,18.795415],[105.727872,18.795403],[105.727858,18.79542],[105.727746,18.795337],[105.727758,18.795323],[105.727735,18.795306],[105.7277,18.795308],[105.727682,18.795331],[105.727696,18.795341],[105.727624,18.795433],[105.727592,18.795411],[105.727575,18.795433],[105.727505,18.795383],[105.72752,18.795363],[105.727492,18.795344]]]]},"properties":{"group":"apartment","tag":"building=apartments","name":null,"levels":null,"lat":18.795279229784338,"lng":105.72772331686176,"osm_type":"way","osm_id":1222669632}},{"type":"Feature","geometry":{"type":"MultiPolygon","coordinates":[[[[105.727408,18.794856],[105.727429,18.794829],[105.727408,18.794815],[105.727461,18.794748],[105.727484,18.794764],[105.727508,18.794735],[105.727605,18.794804],[105.727594,18.794817],[105.727618,18.794834],[105.727652,18.794827],[105.727669,18.794805],[105.727654,18.794794],[105.727736,18.794684],[105.727755,18.794697],[105.727767,18.794682],[105.727868,18.794749],[105.727847,18.794776],[105.727871,18.794792],[105.727794,18.794895],[105.727769,18.794879],[105.727758,18.794894],[105.727744,18.794885],[105.727731,18.794902],[105.727743,18.794969],[105.727723,18.794972],[105.727733,18.795028],[105.727607,18.795048],[105.727597,18.794995],[105.727581,18.794998],[105.727567,18.794919],[105.727553,18.794921],[105.727542,18.794935],[105.727519,18.794918],[105.727511,18.794929],[105.727408,18.794856]]]]},"properties":{"group":"apartment","tag":"building=apartments","name":null,"levels":null,"lat":18.7948555772537,"lng":105.72764901435956,"osm_type":"way","osm_id":1222669633}},{"type":"Feature","geometry":{"type":"MultiPolygon","coordinates":[[[[105.69973,18.685279],[105.701046,18.684577],[105.701421,18.684403],[105.70168,18.684242],[105.701949,18.684115],[105.702356,18.684927],[105.700141,18.686014],[105.69973,18.685279]]]]},"properties":{"group":"edu_health","tag":"amenity=hospital","name":"Bệnh viện Chấn thương - Chỉnh hình Nghệ An","levels":null,"lat":18.685073791579935,"lng":105.7010563956586,"osm_type":"way","osm_id":1226053996}},{"type":"Feature","geometry":{"type":"MultiPolygon","coordinates":[[[[105.667291,18.786688],[105.667492,18.785838],[105.667677,18.784966],[105.66889,18.785307],[105.668471,18.786983],[105.667342,18.786815],[105.667291,18.786688]]]]},"properties":{"group":"edu_health","tag":"amenity=hospital","name":"Bệnh viện Đa khoa Nghi Lộc","levels":null,"lat":18.786006925233213,"lng":105.66807245697235,"osm_type":"way","osm_id":1226055035}},{"type":"Feature","geometry":{"type":"MultiPolygon","coordinates":[[[[105.587981,18.975385],[105.588292,18.974684],[105.588614,18.974017],[105.588697,18.973961],[105.588829,18.973687],[105.589266,18.973892],[105.58948,18.973433],[105.590258,18.973852],[105.59007,18.974349],[105.589805,18.97425],[105.589733,18.97442],[105.589843,18.974445],[105.589491,18.975096],[105.589327,18.975398],[105.589151,18.975923],[105.587981,18.975385]]]]},"properties":{"group":"edu_health","tag":"amenity=hospital","name":"Bệnh viện Đa khoa Diễn Châu","levels":null,"lat":18.974649751842218,"lng":105.58907821600855,"osm_type":"way","osm_id":1226055036}},{"type":"Feature","geometry":{"type":"MultiPolygon","coordinates":[[[[105.652355,19.175359],[105.653213,19.174936],[105.65332,19.175096],[105.653669,19.17487],[105.653594,19.174738],[105.654053,19.17445],[105.65486,19.175486],[105.653079,19.176542],[105.652355,19.175359]]]]},"properties":{"group":"edu_health","tag":"amenity=hospital","name":"Bệnh viện Đa khoa Quỳnh Lưu","levels":null,"lat":19.175496768043214,"lng":105.65359043710313,"osm_type":"way","osm_id":1226055037}},{"type":"Feature","geometry":{"type":"MultiPolygon","coordinates":[[[[105.3385,18.777792],[105.338755,18.777354],[105.338931,18.777076],[105.339206,18.776877],[105.339291,18.776957],[105.339887,18.776665],[105.339942,18.776849],[105.340188,18.777734],[105.340179,18.777809],[105.339505,18.778198],[105.339279,18.778331],[105.339115,18.77807],[105.338925,18.777959],[105.3385,18.777792]]]]},"properties":{"group":"edu_health","tag":"amenity=hospital","name":"Bệnh viện Đa khoa Thanh Chương","levels":null,"lat":18.777510758624135,"lng":105.33942515631128,"osm_type":"way","osm_id":1226055038}},{"type":"Feature","geometry":{"type":"MultiPolygon","coordinates":[[[[105.313313,18.887443],[105.314684,18.88724],[105.314858,18.887907],[105.314737,18.888151],[105.314523,18.888405],[105.314453,18.888521],[105.314407,18.889021],[105.314351,18.889115],[105.314268,18.889118],[105.31382,18.888597],[105.313605,18.88828],[105.313372,18.887691],[105.313313,18.887443]]]]},"properties":{"group":"edu_health","tag":"amenity=hospital","name":"Bệnh viện Đa khoa Đô Lương","levels":null,"lat":18.88799776656828,"lng":105.31413334738254,"osm_type":"way","osm_id":1226055039}},{"type":"Feature","geometry":{"type":"MultiPolygon","coordinates":[[[[105.441964,19.016137],[105.442045,19.01597],[105.442066,19.015785],[105.442198,19.015595],[105.442334,19.015559],[105.442519,19.015463],[105.442691,19.015453],[105.442871,19.015263],[105.443163,19.015339],[105.443533,19.015524],[105.443504,19.015567],[105.444172,19.016069],[105.443984,19.01629],[105.443885,19.016211],[105.443724,19.016386],[105.443785,19.01645],[105.443694,19.016513],[105.443415,19.016731],[105.44311,19.016926],[105.442482,19.016398],[105.442227,19.016342],[105.441964,19.016137]]]]},"properties":{"group":"edu_health","tag":"amenity=hospital","name":"Bệnh viện Đa khoa Yên Thành","levels":null,"lat":19.016048275107252,"lng":105.44302338945921,"osm_type":"way","osm_id":1226055040}},{"type":"Feature","geometry":{"type":"MultiPolygon","coordinates":[[[[105.624261,18.672105],[105.624293,18.671696],[105.62513,18.67162],[105.625186,18.672133],[105.625803,18.672097],[105.625774,18.672258],[105.62572,18.672683],[105.624374,18.672775],[105.624347,18.67275],[105.624261,18.672105]]]]},"properties":{"group":"edu_health","tag":"amenity=hospital","name":"Trung tâm Y tế huyện Hưng Nguyên","levels":null,"lat":18.6722529637248,"lng":105.6249252177455,"osm_type":"way","osm_id":1226056386}},{"type":"Feature","geometry":{"type":"MultiPolygon","coordinates":[[[[105.503825,18.696215],[105.503876,18.695936],[105.503973,18.69539],[105.504171,18.695425],[105.504182,18.695545],[105.504718,18.69559],[105.504724,18.695476],[105.505148,18.695481],[105.505156,18.69604],[105.505357,18.696053],[105.505325,18.696474],[105.503868,18.696258],[105.503825,18.696215]]]]},"properties":{"group":"edu_health","tag":"amenity=hospital","name":"Trung tâm Y tế huyện Nam Đàn","levels":null,"lat":18.69595731782334,"lng":105.50458716399571,"osm_type":"way","osm_id":1226056387}},{"type":"Feature","geometry":{"type":"MultiPolygon","coordinates":[[[[105.703978,19.245757],[105.70434,19.245443],[105.704396,19.245491],[105.704543,19.245354],[105.704763,19.245575],[105.704903,19.2458],[105.704342,19.246357],[105.704157,19.246172],[105.704058,19.24602],[105.703978,19.245757]]]]},"properties":{"group":"edu_health","tag":"amenity=hospital","name":"Trung tâm Y tế Hoàng Mai","levels":null,"lat":19.24583455583249,"lng":105.70442034554725,"osm_type":"way","osm_id":1226056388}},{"type":"Feature","geometry":{"type":"MultiPolygon","coordinates":[[[[105.485898,19.338925],[105.487003,19.338318],[105.488382,19.340211],[105.487293,19.340904],[105.485898,19.338925]]]]},"properties":{"group":"edu_health","tag":"amenity=hospital","name":"Trung tâm Y tế huyện Nghĩa Đàn","levels":null,"lat":19.339596133483642,"lng":105.48714395674729,"osm_type":"way","osm_id":1226056389}},{"type":"Feature","geometry":{"type":"MultiPolygon","coordinates":[[[[105.187431,19.326776],[105.187589,19.32593],[105.1876,19.325721],[105.188946,19.325842],[105.188756,19.327014],[105.188257,19.326916],[105.187431,19.326776]]]]},"properties":{"group":"edu_health","tag":"amenity=hospital","name":"Trung tâm Y tế huyện Quỳ Hợp","levels":null,"lat":19.326339199253763,"lng":105.18820034108705,"osm_type":"way","osm_id":1226056390}},{"type":"Feature","geometry":{"type":"MultiPolygon","coordinates":[[[[105.27435,19.055532],[105.275245,19.054647],[105.276188,19.05556],[105.276199,19.055784],[105.275994,19.055789],[105.275776,19.055618],[105.275501,19.055894],[105.275918,19.056261],[105.275475,19.056725],[105.275083,19.056425],[105.275194,19.056288],[105.274528,19.055603],[105.27435,19.055532]]]]},"properties":{"group":"edu_health","tag":"amenity=hospital","name":"Trung tâm Y tế huyện Tân Kỳ","levels":null,"lat":19.05563073129691,"lng":105.27530848731126,"osm_type":"way","osm_id":1226061860}},{"type":"Feature","geometry":{"type":"MultiPolygon","coordinates":[[[[104.919664,19.60177],[104.919861,19.60161],[104.919958,19.601386],[104.920231,19.601202],[104.920575,19.601196],[104.921119,19.601285],[104.921206,19.601913],[104.920833,19.601994],[104.920354,19.602112],[104.920046,19.602237],[104.919664,19.60177]]]]},"properties":{"group":"edu_health","tag":"amenity=hospital","name":"Trung tâm Y tế huyện Quế Phong","levels":null,"lat":19.60167270592327,"lng":104.92046799892286,"osm_type":"way","osm_id":1226064953}},{"type":"Feature","geometry":{"type":"MultiPolygon","coordinates":[[[[105.100078,19.550559],[105.100151,19.54936],[105.101084,19.549442],[105.100874,19.550709],[105.100078,19.550559]]]]},"properties":{"group":"edu_health","tag":"amenity=hospital","name":"Trung tâm Y tế huyện Quỳ Châu","levels":null,"lat":19.550002819770988,"lng":105.10055339091217,"osm_type":"way","osm_id":1226064954}},{"type":"Feature","geometry":{"type":"MultiPolygon","coordinates":[[[[104.17685,19.391578],[104.177309,19.39127],[104.177405,19.391428],[104.177713,19.391268],[104.178031,19.391086],[104.178279,19.390885],[104.178504,19.391061],[104.1782,19.391504],[104.178024,19.391637],[104.177532,19.39192],[104.17713,19.392121],[104.176961,19.391698],[104.17685,19.391578]]]]},"properties":{"group":"edu_health","tag":"amenity=hospital","name":"Trung tâm Y tế huyện Kỳ Sơn","levels":null,"lat":19.391515345717202,"lng":104.17765108885798,"osm_type":"way","osm_id":1226064955}},{"type":"Feature","geometry":{"type":"MultiPolygon","coordinates":[[[[105.674868,18.67973],[105.674874,18.679569],[105.675181,18.679533],[105.675485,18.679556],[105.675524,18.679629],[105.675489,18.679704],[105.675189,18.679746],[105.674868,18.67973]]]]},"properties":{"group":"apartment","tag":"building=apartments","name":"Chung cư Trung Đức","levels":null,"lat":18.67963979127661,"lng":105.6751835595403,"osm_type":"way","osm_id":1276704182}},{"type":"Feature","geometry":{"type":"MultiPolygon","coordinates":[[[[105.674112,18.649901],[105.67414,18.649854],[105.674353,18.649971],[105.674499,18.650033],[105.674684,18.650108],[105.674848,18.650154],[105.675028,18.650192],[105.675198,18.650206],[105.675379,18.650216],[105.675589,18.650199],[105.675834,18.650174],[105.676001,18.65016],[105.67602,18.650266],[105.675831,18.65028],[105.675649,18.650303],[105.675474,18.650333],[105.675275,18.650385],[105.67512,18.650461],[105.674941,18.650577],[105.674828,18.650751],[105.674767,18.650981],[105.674694,18.651366],[105.674522,18.65134],[105.674557,18.651122],[105.674582,18.650966],[105.674612,18.650786],[105.67464,18.650603],[105.674637,18.650375],[105.674524,18.650168],[105.674333,18.650022],[105.674112,18.649901]]]]},"properties":{"group":"public","tag":"leisure=park","name":null,"levels":null,"lat":18.650481897309355,"lng":105.6749151496915,"osm_type":"way","osm_id":1297587432}},{"type":"Feature","geometry":{"type":"MultiPolygon","coordinates":[[[[105.453095,19.019398],[105.45326,19.018896],[105.45362,19.01904],[105.453445,19.019558],[105.453095,19.019398]]]]},"properties":{"group":"public","tag":"amenity=community_centre","name":"Nhà văn hóa Xóm Văn Sơn","levels":null,"lat":19.01922295411858,"lng":105.45335625811025,"osm_type":"way","osm_id":1389986432}},{"type":"Feature","geometry":{"type":"MultiPolygon","coordinates":[[[[105.669645,18.714167],[105.670115,18.713242],[105.670354,18.713335],[105.670418,18.713189],[105.670645,18.713278],[105.670769,18.713771],[105.670489,18.714467],[105.669645,18.714167]]]]},"properties":{"group":"edu_health","tag":"amenity=college","name":null,"levels":null,"lat":18.713838034747905,"lng":105.67027360123289,"osm_type":"way","osm_id":1394904676}},{"type":"Feature","geometry":{"type":"MultiPolygon","coordinates":[[[[105.681823,18.70187],[105.681974,18.701633],[105.682344,18.701844],[105.68241,18.701832],[105.682575,18.701555],[105.682833,18.701692],[105.682621,18.702048],[105.682281,18.702132],[105.681823,18.70187]]]]},"properties":{"group":"apartment","tag":"building=apartments","name":null,"levels":null,"lat":18.70186391141082,"lng":105.68234780747959,"osm_type":"way","osm_id":1394991990}},{"type":"Feature","geometry":{"type":"MultiPolygon","coordinates":[[[[105.68366,18.699605],[105.683709,18.699597],[105.683724,18.699574],[105.683713,18.699531],[105.68387,18.699493],[105.683879,18.699526],[105.683903,18.699542],[105.683965,18.699525],[105.684014,18.699684],[105.683997,18.699689],[105.683983,18.6997],[105.683984,18.699753],[105.683797,18.699804],[105.683772,18.699765],[105.683744,18.699751],[105.68369,18.699761],[105.68366,18.699605]]]]},"properties":{"group":"apartment","tag":"building=apartments","name":null,"levels":null,"lat":18.699650154747385,"lng":105.68383724717509,"osm_type":"way","osm_id":1394991991}},{"type":"Feature","geometry":{"type":"MultiPolygon","coordinates":[[[[105.686243,18.697612],[105.686352,18.697433],[105.686607,18.697573],[105.686498,18.697752],[105.686243,18.697612]]]]},"properties":{"group":"apartment","tag":"building=apartments","name":null,"levels":null,"lat":18.697592799999995,"lng":105.6864249,"osm_type":"way","osm_id":1394991992}},{"type":"Feature","geometry":{"type":"MultiPolygon","coordinates":[[[[105.676372,18.710176],[105.676392,18.710144],[105.676545,18.709869],[105.676677,18.709632],[105.677621,18.710148],[105.677178,18.710914],[105.676377,18.710507],[105.67652,18.710254],[105.676372,18.710176]]]]},"properties":{"group":"edu_health","tag":"amenity=hospital","name":"Bệnh Viện Răng Hàm Mặt Nghệ An","levels":null,"lat":18.71027610475785,"lng":105.67695318834316,"osm_type":"way","osm_id":1395268984}},{"type":"Feature","geometry":{"type":"MultiPolygon","coordinates":[[[[105.685075,18.699374],[105.685199,18.699182],[105.68545,18.699327],[105.685327,18.699519],[105.685075,18.699374]]]]},"properties":{"group":"apartment","tag":"building=apartments","name":null,"levels":null,"lat":18.699350600000002,"lng":105.68526274999998,"osm_type":"way","osm_id":1395441848}},{"type":"Feature","geometry":{"type":"MultiPolygon","coordinates":[[[[105.68588,18.698156],[105.685999,18.697972],[105.686259,18.698121],[105.68614,18.698306],[105.68588,18.698156]]]]},"properties":{"group":"apartment","tag":"building=apartments","name":null,"levels":null,"lat":18.698138668813687,"lng":105.68606961051219,"osm_type":"way","osm_id":1395441849}},{"type":"Feature","geometry":{"type":"MultiPolygon","coordinates":[[[[105.687446,18.695677],[105.68757,18.695483],[105.687841,18.695639],[105.687717,18.695832],[105.687446,18.695677]]]]},"properties":{"group":"apartment","tag":"building=apartments","name":null,"levels":null,"lat":18.695657768823757,"lng":105.68764341053965,"osm_type":"way","osm_id":1395441850}},{"type":"Feature","geometry":{"type":"MultiPolygon","coordinates":[[[[105.688079,18.698696],[105.688102,18.698654],[105.688233,18.698421],[105.688376,18.698146],[105.688568,18.697806],[105.68875,18.697898],[105.688769,18.697864],[105.688835,18.697745],[105.688968,18.697512],[105.689096,18.697578],[105.690045,18.698096],[105.690186,18.698172],[105.690014,18.698458],[105.690031,18.698466],[105.68981,18.698839],[105.689913,18.698894],[105.689556,18.699496],[105.688079,18.698696]]]]},"properties":{"group":"edu_health","tag":"amenity=hospital","name":"Bệnh Viện Hoàn Mỹ Vinh","levels":null,"lat":18.698485413570157,"lng":105.6891625448911,"osm_type":"way","osm_id":1395441855}},{"type":"Feature","geometry":{"type":"MultiPolygon","coordinates":[[[[105.673338,18.667417],[105.673767,18.667402],[105.673774,18.667589],[105.673346,18.667604],[105.673338,18.667417]]]]},"properties":{"group":"apartment","tag":"building=apartments","name":null,"levels":null,"lat":18.667503025829134,"lng":105.6735563808665,"osm_type":"way","osm_id":1395717684}},{"type":"Feature","geometry":{"type":"MultiPolygon","coordinates":[[[[105.673316,18.666972],[105.673736,18.666952],[105.673748,18.667181],[105.673328,18.667202],[105.673316,18.666972]]]]},"properties":{"group":"apartment","tag":"building=apartments","name":null,"levels":null,"lat":18.6670766,"lng":105.6735318,"osm_type":"way","osm_id":1395717685}},{"type":"Feature","geometry":{"type":"MultiPolygon","coordinates":[[[[105.674217,18.688192],[105.674508,18.688186],[105.674514,18.68844],[105.674222,18.688445],[105.674217,18.688192]]]]},"properties":{"group":"apartment","tag":"building=apartments","name":null,"levels":null,"lat":18.688315624663275,"lng":105.67436505957723,"osm_type":"way","osm_id":1396729425}},{"type":"Feature","geometry":{"type":"MultiPolygon","coordinates":[[[[105.67426,18.689025],[105.674262,18.688754],[105.67435,18.688755],[105.674533,18.688756],[105.674531,18.689027],[105.67426,18.689025]]]]},"properties":{"group":"apartment","tag":"building=apartments","name":null,"levels":null,"lat":18.68889032220699,"lng":105.6743965174276,"osm_type":"way","osm_id":1396729426}},{"type":"Feature","geometry":{"type":"MultiPolygon","coordinates":[[[[105.755867,18.688374],[105.759308,18.687416],[105.759552,18.688036],[105.759837,18.688537],[105.757765,18.690396],[105.757684,18.690413],[105.757634,18.6904],[105.756387,18.689774],[105.756312,18.689719],[105.756271,18.689651],[105.755867,18.688374]]]]},"properties":{"group":"public","tag":"leisure=park","name":null,"levels":null,"lat":18.688849318979166,"lng":105.75782924074113,"osm_type":"way","osm_id":1412237904}},{"type":"Feature","geometry":{"type":"MultiPolygon","coordinates":[[[[105.681797,18.661304],[105.681937,18.661276],[105.682215,18.662513],[105.682075,18.662541],[105.681797,18.661304]]]]},"properties":{"group":"apartment","tag":"building=apartments","name":null,"levels":null,"lat":18.661908738487504,"lng":105.68200610628402,"osm_type":"way","osm_id":1451892601}},{"type":"Feature","geometry":{"type":"MultiPolygon","coordinates":[[[[105.640476,18.711616],[105.640859,18.71005],[105.643932,18.711365],[105.64357,18.71201],[105.643437,18.712246],[105.64347,18.712266],[105.643518,18.712293],[105.642876,18.713422],[105.642745,18.713455],[105.640917,18.712685],[105.641256,18.711907],[105.640476,18.711616]]]]},"properties":{"group":"edu_health","tag":"amenity=university","name":"Trường Đại học Nghệ An (cơ sở 3)","levels":null,"lat":18.71176630356601,"lng":105.64210874044782,"osm_type":"way","osm_id":1452259238}},{"type":"Feature","geometry":{"type":"MultiPolygon","coordinates":[[[[105.664884,18.69296],[105.665302,18.692888],[105.665357,18.69284],[105.665987,18.692791],[105.666073,18.693598],[105.665213,18.693645],[105.664936,18.693604],[105.664884,18.69296]]]]},"properties":{"group":"edu_health","tag":"amenity=hospital","name":"Bệnh viện Đa khoa thành phố Vinh (cơ sở 2)","levels":null,"lat":18.693239918849596,"lng":105.66548938327368,"osm_type":"way","osm_id":1540229907}},{"type":"Feature","geometry":{"type":"MultiPolygon","coordinates":[[[[105.68908,18.681407],[105.689086,18.680484],[105.690754,18.680535],[105.690866,18.681837],[105.689745,18.681834],[105.689748,18.68141],[105.68908,18.681407]]]]},"properties":{"group":"edu_health","tag":"amenity=school","name":"Trường Phổ thông Hermann Gmeiner Vinh","levels":null,"lat":18.68111726463898,"lng":105.6900156993943,"osm_type":"way","osm_id":1540715279}},{"type":"Feature","geometry":{"type":"MultiPolygon","coordinates":[[[[105.693734,18.683798],[105.695094,18.683724],[105.695228,18.683783],[105.694469,18.684713],[105.694273,18.68467],[105.69375,18.684687],[105.693734,18.683798]]]]},"properties":{"group":"apartment","tag":"residential=apartments","name":"Cụm chung cư Tân Hợp","levels":null,"lat":18.684168945475207,"lng":105.69433824232523,"osm_type":"way","osm_id":1540941219}},{"type":"Feature","geometry":{"type":"MultiPolygon","coordinates":[[[[105.690298,18.69108],[105.691416,18.689355],[105.691508,18.689365],[105.692953,18.690282],[105.691577,18.691886],[105.690298,18.69108]]]]},"properties":{"group":"edu_health","tag":"amenity=college","name":"Trường Cao đẳng Kinh tế - Kỹ thuật số 1 Nghệ An","levels":null,"lat":18.690618669534853,"lng":105.6915842888504,"osm_type":"way","osm_id":1540941237}},{"type":"Feature","geometry":{"type":"Point","coordinates":[105.666657,18.676318]},"properties":{"group":"mall","tag":"shop=department_store","name":"abc","levels":null,"lat":18.6763176,"lng":105.666657,"osm_type":"node","osm_id":4212534789}},{"type":"Feature","geometry":{"type":"Point","coordinates":[105.564892,18.687676]},"properties":{"group":"mall","tag":"shop=department_store","name":"ch sự lê","levels":null,"lat":18.6876755,"lng":105.5648915,"osm_type":"node","osm_id":4212534790}},{"type":"Feature","geometry":{"type":"Point","coordinates":[105.601036,18.977913]},"properties":{"group":"mall","tag":"shop=department_store","name":null,"levels":null,"lat":18.9779135,"lng":105.6010362,"osm_type":"node","osm_id":4685020090}},{"type":"Feature","geometry":{"type":"Point","coordinates":[105.601005,18.977946]},"properties":{"group":"mall","tag":"shop=department_store","name":"MT Mart","levels":null,"lat":18.9779456,"lng":105.601005,"osm_type":"node","osm_id":4687831193}},{"type":"Feature","geometry":{"type":"Point","coordinates":[105.707136,19.247909]},"properties":{"group":"edu_health","tag":"amenity=hospital","name":"Bệnh Viện Đa Khoa Quang Khởi","levels":null,"lat":19.247909,"lng":105.707136,"osm_type":"node","osm_id":4742435371}},{"type":"Feature","geometry":{"type":"Point","coordinates":[105.700897,18.659201]},"properties":{"group":"edu_health","tag":"amenity=school","name":"Trường Mần non Hoàng Thị Loan Bến Thủy, Thành phố Vinh","levels":null,"lat":18.6592005,"lng":105.7008971,"osm_type":"node","osm_id":4856944722}},{"type":"Feature","geometry":{"type":"Point","coordinates":[105.676481,18.670334]},"properties":{"group":"mall","tag":"shop=department_store","name":"Cửa hàng Spa thương hiệu Nhật Bản","levels":null,"lat":18.6703345,"lng":105.6764815,"osm_type":"node","osm_id":4894757922}},{"type":"Feature","geometry":{"type":"Point","coordinates":[105.671204,18.691537]},"properties":{"group":"public","tag":"amenity=community_centre","name":"Uỷ Ban Nhân Dân phường Quán Bàu","levels":null,"lat":18.6915375,"lng":105.671204,"osm_type":"node","osm_id":5134110622}},{"type":"Feature","geometry":{"type":"Point","coordinates":[105.67504,18.664733]},"properties":{"group":"mall","tag":"shop=department_store","name":"Thuý Toản","levels":null,"lat":18.6647331,"lng":105.6750398,"osm_type":"node","osm_id":5421630621}},{"type":"Feature","geometry":{"type":"Point","coordinates":[105.686239,18.679784]},"properties":{"group":"edu_health","tag":"amenity=school","name":null,"levels":null,"lat":18.6797843,"lng":105.686239,"osm_type":"node","osm_id":5558317123}},{"type":"Feature","geometry":{"type":"Point","coordinates":[104.992113,18.904312]},"properties":{"group":"public","tag":"amenity=community_centre","name":"Nhà văn hóa thôn Làng Yên","levels":null,"lat":18.904312,"lng":104.9921132,"osm_type":"node","osm_id":5863085287}},{"type":"Feature","geometry":{"type":"Point","coordinates":[104.973267,18.918778]},"properties":{"group":"public","tag":"amenity=community_centre","name":"Hội trường thôn Tân Hoà - Thái Hoà","levels":null,"lat":18.9187778,"lng":104.9732668,"osm_type":"node","osm_id":5866658885}},{"type":"Feature","geometry":{"type":"Point","coordinates":[104.953922,18.932456]},"properties":{"group":"public","tag":"amenity=community_centre","name":"Hội trường thôn Nam Sơn","levels":null,"lat":18.9324561,"lng":104.953922,"osm_type":"node","osm_id":5866785885}},{"type":"Feature","geometry":{"type":"Point","coordinates":[104.840415,19.006448]},"properties":{"group":"public","tag":"amenity=community_centre","name":"Nhà văn hóa Bản Trung Chính","levels":null,"lat":19.0064476,"lng":104.8404146,"osm_type":"node","osm_id":5900752986}},{"type":"Feature","geometry":{"type":"Point","coordinates":[104.876767,18.885429]},"properties":{"group":"public","tag":"amenity=community_centre","name":"Nhà văn hóa thôn Cò Phạt","levels":null,"lat":18.8854288,"lng":104.8767665,"osm_type":"node","osm_id":5904472688}},{"type":"Feature","geometry":{"type":"Point","coordinates":[104.840025,18.871829]},"properties":{"group":"public","tag":"amenity=community_centre","name":"Nhà văn hóa thôn Bản Búng","levels":null,"lat":18.8718289,"lng":104.8400249,"osm_type":"node","osm_id":5904480385}},{"type":"Feature","geometry":{"type":"Point","coordinates":[104.753809,19.003339]},"properties":{"group":"public","tag":"amenity=community_centre","name":"Bản Khe Nóng","levels":null,"lat":19.003339,"lng":104.7538085,"osm_type":"node","osm_id":6263149785}},{"type":"Feature","geometry":{"type":"Point","coordinates":[105.642256,19.222336]},"properties":{"group":"mall","tag":"shop=department_store","name":"thìn hải","levels":null,"lat":19.2223358,"lng":105.6422562,"osm_type":"node","osm_id":11076599905}},{"type":"Feature","geometry":{"type":"Point","coordinates":[105.689151,18.693941]},"properties":{"group":"mall","tag":"shop=department_store","name":"Lotte Department Store","levels":null,"lat":18.6939414,"lng":105.6891511,"osm_type":"node","osm_id":12728076693}},{"type":"Feature","geometry":{"type":"Point","coordinates":[105.674337,18.674509]},"properties":{"group":"public","tag":"leisure=park","name":"Türkiye parkı","levels":null,"lat":18.6745085,"lng":105.6743372,"osm_type":"node","osm_id":12909422696}},{"type":"Feature","geometry":{"type":"Point","coordinates":[105.433628,19.319206]},"properties":{"group":"public","tag":"leisure=park","name":"TNR Thái Hoà","levels":null,"lat":19.3192065,"lng":105.4336282,"osm_type":"node","osm_id":13850065029}},{"type":"Feature","geometry":{"type":"Point","coordinates":[105.422566,19.326944]},"properties":{"group":"edu_health","tag":"amenity=school","name":"THCS Quang Tiến","levels":null,"lat":19.3269442,"lng":105.4225658,"osm_type":"node","osm_id":13851704485}}]}