{"type":"FeatureCollection","features":[{"type":"Feature","properties":{"kind":"boundary","province_code":"68","name":"Tỉnh Lâm Đồng","source":"VNSDI","valid_from":"16/6/2025","simplify_tolerance_deg":0.0005},"geometry":{"type":"MultiPolygon","coordinates":[[[[107.70515,10.63268],[107.69785,10.63104],[107.68252,10.6259],[107.67567,10.62208],[107.66759,10.61417],[107.66162,10.60958],[107.65658,10.607],[107.63432,10.5985],[107.61471,10.59229],[107.58767,10.5796],[107.57056,10.56932],[107.56835,10.58337],[107.57151,10.59628],[107.56698,10.61248],[107.56766,10.61737],[107.56131,10.63371],[107.53904,10.67738],[107.53932,10.67988],[107.54601,10.69478],[107.54413,10.70453],[107.53404,10.72187],[107.52789,10.72571],[107.51324,10.74096],[107.5061,10.74619],[107.50545,10.77159],[107.52334,10.77408],[107.5479,10.78958],[107.56717,10.80406],[107.57757,10.83351],[107.57587,10.83959],[107.57314,10.83938],[107.57178,10.8507],[107.55961,10.86797],[107.55998,10.9371],[107.54336,10.97641],[107.54127,10.97826],[107.53705,10.97985],[107.53473,10.98264],[107.5313,10.9915],[107.51369,11.00355],[107.51004,11.00674],[107.50555,11.01337],[107.50285,11.01445],[107.49723,11.0144],[107.48157,11.00752],[107.47357,11.00835],[107.46488,11.01441],[107.45502,11.01842],[107.45243,11.02031],[107.44769,11.02628],[107.44153,11.03076],[107.42173,11.03703],[107.41768,11.04149],[107.40959,11.04409],[107.39885,11.04887],[107.39423,11.04954],[107.39886,11.05276],[107.40111,11.05327],[107.41398,11.05072],[107.41674,11.05188],[107.4234,11.05886],[107.42553,11.06317],[107.42635,11.06771],[107.42272,11.07497],[107.42436,11.08039],[107.43153,11.08759],[107.44318,11.09004],[107.44576,11.09143],[107.45154,11.10493],[107.45247,11.10817],[107.45246,11.1129],[107.45013,11.11758],[107.44678,11.12185],[107.44428,11.12396],[107.4384,11.126],[107.43687,11.12786],[107.43533,11.13209],[107.43522,11.13702],[107.44296,11.14693],[107.46016,11.16633],[107.46097,11.16903],[107.4601,11.17316],[107.46072,11.17673],[107.46551,11.17997],[107.46913,11.18508],[107.47203,11.19162],[107.47331,11.20102],[107.47498,11.20254],[107.48046,11.20258],[107.4837,11.20554],[107.48353,11.21304],[107.48662,11.22314],[107.48934,11.22478],[107.49724,11.22678],[107.50231,11.23127],[107.51058,11.24167],[107.51779,11.24883],[107.52205,11.25153],[107.52545,11.25127],[107.52256,11.27485],[107.51914,11.28451],[107.51915,11.28576],[107.52314,11.29242],[107.52352,11.29427],[107.52277,11.30225],[107.51851,11.30872],[107.51851,11.31222],[107.51912,11.31387],[107.53049,11.32064],[107.53446,11.32474],[107.53606,11.3334],[107.54428,11.35713],[107.54515,11.36191],[107.54497,11.36743],[107.54168,11.35945],[107.53503,11.35509],[107.52523,11.36774],[107.52044,11.36921],[107.5175,11.37102],[107.51325,11.38459],[107.50623,11.38314],[107.50105,11.38386],[107.49855,11.38528],[107.49495,11.39638],[107.49043,11.3974],[107.48806,11.3993],[107.48677,11.40198],[107.48639,11.40723],[107.48766,11.42111],[107.48703,11.42617],[107.48456,11.42928],[107.47482,11.43484],[107.47262,11.43586],[107.45647,11.4299],[107.4397,11.43141],[107.4369,11.43033],[107.42996,11.42474],[107.4292,11.43724],[107.42985,11.43925],[107.43929,11.44545],[107.44599,11.44755],[107.44729,11.4492],[107.45045,11.45808],[107.46201,11.46305],[107.46373,11.46453],[107.46822,11.4722],[107.47021,11.47986],[107.45862,11.49067],[107.45446,11.49553],[107.45209,11.50073],[107.44438,11.50837],[107.44268,11.51519],[107.4413,11.51648],[107.43685,11.5179],[107.42971,11.51867],[107.42557,11.51615],[107.42265,11.51274],[107.42056,11.51211],[107.41786,11.51261],[107.41582,11.51404],[107.40828,11.52852],[107.40143,11.52922],[107.39001,11.52639],[107.38449,11.52099],[107.37344,11.51586],[107.3706,11.51592],[107.36914,11.51699],[107.36884,11.51857],[107.37203,11.5231],[107.37557,11.53101],[107.37792,11.54223],[107.37692,11.54538],[107.37574,11.54653],[107.36765,11.54945],[107.36225,11.55295],[107.36072,11.55524],[107.36211,11.56202],[107.36242,11.57061],[107.36612,11.57235],[107.36604,11.57479],[107.36436,11.5783],[107.36144,11.58138],[107.35925,11.58174],[107.35816,11.58087],[107.35657,11.57002],[107.3567,11.55832],[107.35569,11.55523],[107.35229,11.54904],[107.34517,11.54306],[107.33847,11.54433],[107.33305,11.55171],[107.32955,11.55392],[107.31251,11.55358],[107.31061,11.55472],[107.30138,11.56992],[107.29829,11.57888],[107.29755,11.58384],[107.29754,11.58578],[107.30305,11.59413],[107.30427,11.59745],[107.30466,11.60343],[107.30266,11.61704],[107.29892,11.62192],[107.28784,11.63072],[107.28303,11.63314],[107.27276,11.63586],[107.27063,11.63735],[107.26769,11.64368],[107.26609,11.65008],[107.26575,11.66002],[107.27806,11.68137],[107.28321,11.68456],[107.28466,11.68714],[107.28376,11.69946],[107.28603,11.72226],[107.28719,11.72547],[107.2938,11.73211],[107.3018,11.73831],[107.3114,11.74359],[107.32654,11.74924],[107.33129,11.74805],[107.33712,11.74827],[107.35285,11.75248],[107.35976,11.75753],[107.36339,11.76128],[107.36599,11.76613],[107.3692,11.76905],[107.3735,11.77093],[107.37837,11.77243],[107.38494,11.77295],[107.38836,11.77227],[107.39362,11.76894],[107.39664,11.77308],[107.39716,11.77999],[107.39651,11.78508],[107.39269,11.79221],[107.39354,11.79482],[107.3954,11.79825],[107.39741,11.79954],[107.40239,11.79983],[107.40863,11.80517],[107.40945,11.80713],[107.40488,11.81272],[107.40435,11.81599],[107.40752,11.82238],[107.41295,11.82679],[107.41427,11.83398],[107.417,11.8383],[107.42136,11.84319],[107.42674,11.84646],[107.42623,11.85888],[107.4208,11.86388],[107.4088,11.86614],[107.40742,11.86735],[107.40357,11.87931],[107.40264,11.88754],[107.39354,11.89768],[107.38627,11.91209],[107.38575,11.91581],[107.38411,11.91925],[107.38108,11.9222],[107.37011,11.92809],[107.36645,11.93325],[107.36216,11.93391],[107.3532,11.93912],[107.35508,11.94802],[107.35423,11.95316],[107.34475,11.97989],[107.33056,11.99731],[107.32655,11.99899],[107.32216,12.00621],[107.31718,12.00858],[107.31448,12.00888],[107.31162,12.00599],[107.30545,12.00652],[107.29566,12.00982],[107.2953,12.01901],[107.29344,12.0215],[107.28343,12.01742],[107.27973,12.0132],[107.27791,12.01281],[107.27524,12.01337],[107.26749,12.01733],[107.2633,12.01727],[107.25577,12.01935],[107.25363,12.02042],[107.24899,12.02572],[107.24492,12.0357],[107.24269,12.03911],[107.23624,12.03651],[107.23358,12.02741],[107.2322,12.03267],[107.23187,12.06559],[107.23439,12.08919],[107.24107,12.11037],[107.23978,12.11474],[107.22884,12.11641],[107.22417,12.11998],[107.22333,12.12496],[107.22749,12.13591],[107.22786,12.15316],[107.22206,12.19512],[107.20528,12.29899],[107.20744,12.29966],[107.21696,12.2996],[107.22515,12.29704],[107.23233,12.2979],[107.23948,12.30067],[107.25347,12.31386],[107.26424,12.32165],[107.27022,12.32459],[107.27469,12.32465],[107.28272,12.32247],[107.28555,12.32308],[107.28939,12.32711],[107.30278,12.33096],[107.30918,12.33181],[107.31152,12.3307],[107.31396,12.32328],[107.3167,12.32198],[107.32116,12.32242],[107.33681,12.32893],[107.34354,12.3338],[107.34559,12.33428],[107.3527,12.3243],[107.36322,12.31799],[107.38299,12.29602],[107.38371,12.28749],[107.3897,12.26871],[107.39833,12.2613],[107.39862,12.25566],[107.41499,12.24778],[107.42604,12.2451],[107.43656,12.24535],[107.43349,12.25219],[107.43639,12.25392],[107.43739,12.25839],[107.44148,12.26283],[107.44167,12.26584],[107.43909,12.26901],[107.43819,12.27169],[107.43919,12.27484],[107.44308,12.27905],[107.44421,12.29179],[107.44892,12.29204],[107.45768,12.29425],[107.46123,12.29723],[107.46321,12.29783],[107.46601,12.30105],[107.46747,12.30484],[107.46653,12.31068],[107.47592,12.31234],[107.48242,12.31794],[107.50197,12.32699],[107.51737,12.33693],[107.54089,12.34889],[107.54427,12.35204],[107.54915,12.36839],[107.554,12.37906],[107.55326,12.3813],[107.54616,12.39197],[107.54397,12.39735],[107.54358,12.41234],[107.54521,12.41518],[107.54907,12.41888],[107.55226,12.42416],[107.56502,12.44941],[107.5666,12.45494],[107.56645,12.47278],[107.56904,12.47575],[107.57583,12.47838],[107.57977,12.49034],[107.58028,12.49643],[107.57253,12.50145],[107.57101,12.50341],[107.56926,12.51136],[107.5636,12.51561],[107.56214,12.51828],[107.56293,12.52251],[107.56784,12.53032],[107.57603,12.53292],[107.57764,12.5358],[107.57592,12.53964],[107.57612,12.54206],[107.57901,12.54683],[107.58969,12.55772],[107.58955,12.55928],[107.58145,12.57335],[107.58017,12.57694],[107.58123,12.59003],[107.58458,12.59677],[107.58447,12.60464],[107.58314,12.61234],[107.5809,12.61867],[107.57291,12.62841],[107.57116,12.63587],[107.57033,12.65925],[107.57163,12.66436],[107.58097,12.67715],[107.58122,12.68059],[107.57809,12.68697],[107.57351,12.69372],[107.56279,12.70437],[107.55963,12.71231],[107.55944,12.71518],[107.56066,12.71826],[107.5661,12.72664],[107.56714,12.73044],[107.56187,12.7413],[107.56037,12.74773],[107.56046,12.767],[107.56273,12.77614],[107.56188,12.79344],[107.60954,12.79861],[107.63829,12.79907],[107.6673,12.79612],[107.706,12.7893],[107.73407,12.78338],[107.77885,12.77945],[107.80398,12.77893],[107.81945,12.7929],[107.82441,12.80169],[107.82954,12.80194],[107.8339,12.80343],[107.84497,12.81141],[107.84739,12.8124],[107.84886,12.81228],[107.85573,12.80785],[107.86315,12.79842],[107.86324,12.79446],[107.85445,12.78264],[107.85376,12.77919],[107.8567,12.77084],[107.85629,12.76378],[107.85686,12.76059],[107.86078,12.7562],[107.86853,12.75138],[107.87297,12.75114],[107.87672,12.75207],[107.89051,12.74988],[107.90314,12.7441],[107.91002,12.73835],[107.90932,12.73194],[107.90703,12.72799],[107.90018,12.72483],[107.89814,12.72278],[107.8966,12.71953],[107.89618,12.71538],[107.896,12.7116],[107.91217,12.6935],[107.9115,12.68995],[107.91035,12.68727],[107.90812,12.68502],[107.90547,12.67719],[107.9059,12.67083],[107.91297,12.66552],[107.91411,12.66341],[107.91452,12.65837],[107.91204,12.65571],[107.9075,12.65445],[107.90541,12.65293],[107.90465,12.64956],[107.90754,12.64619],[107.91916,12.64661],[107.92102,12.64245],[107.9226,12.62957],[107.92513,12.62148],[107.9281,12.61757],[107.9291,12.61483],[107.92907,12.604],[107.93002,12.60118],[107.93413,12.59596],[107.93497,12.59281],[107.93387,12.58714],[107.9318,12.5836],[107.92629,12.58031],[107.91924,12.57968],[107.90985,12.57599],[107.89494,12.56439],[107.89469,12.55983],[107.89595,12.55363],[107.88885,12.54809],[107.88814,12.54187],[107.88924,12.53978],[107.89589,12.53709],[107.90563,12.52745],[107.91003,12.52578],[107.91285,12.52562],[107.91535,12.52823],[107.92439,12.53054],[107.9363,12.52901],[107.9441,12.52673],[107.94978,12.52409],[107.95762,12.5194],[107.97845,12.50246],[107.98283,12.49653],[107.98623,12.49469],[107.99041,12.48638],[107.99228,12.48489],[107.99705,12.4857],[107.99956,12.48179],[108.001,12.47711],[108.00011,12.47423],[107.99659,12.47171],[107.99281,12.46537],[107.99107,12.45631],[107.98517,12.44666],[107.96603,12.43675],[107.96323,12.437],[107.95645,12.44027],[107.95242,12.44129],[107.94919,12.4405],[107.93895,12.43418],[107.92589,12.43085],[107.92315,12.42809],[107.9224,12.42612],[107.92275,12.42324],[107.92639,12.41496],[107.92627,12.41178],[107.92384,12.40918],[107.91571,12.40633],[107.9129,12.40244],[107.91282,12.39895],[107.92109,12.38083],[107.9303,12.37667],[107.9335,12.3734],[107.93375,12.36478],[107.93078,12.35566],[107.93366,12.34398],[107.93506,12.34123],[107.94313,12.33573],[107.94521,12.33339],[107.94366,12.32869],[107.94461,12.3264],[107.94996,12.32151],[107.95524,12.31778],[107.97102,12.31114],[107.97432,12.30573],[107.97516,12.29938],[107.97659,12.29684],[107.98146,12.29756],[107.98718,12.30104],[107.99803,12.30446],[107.99948,12.30426],[108.00336,12.29688],[108.00484,12.29605],[108.00929,12.2979],[108.01433,12.30205],[108.01602,12.30237],[108.01811,12.29926],[108.01907,12.292],[108.02012,12.29055],[108.02781,12.2883],[108.03876,12.28893],[108.04068,12.28819],[108.04234,12.27892],[108.04477,12.2728],[108.0548,12.26259],[108.06618,12.25286],[108.07775,12.24429],[108.0808,12.24107],[108.08287,12.23813],[108.09192,12.21901],[108.09687,12.21123],[108.10509,12.20577],[108.11064,12.19928],[108.11308,12.19451],[108.1131,12.18545],[108.11967,12.17554],[108.12405,12.17604],[108.12958,12.17912],[108.15716,12.19006],[108.16268,12.19083],[108.17605,12.18524],[108.18051,12.18169],[108.18496,12.17458],[108.18771,12.1728],[108.1997,12.17042],[108.20491,12.17049],[108.20903,12.17253],[108.20891,12.17654],[108.21001,12.17886],[108.21698,12.18322],[108.22035,12.18362],[108.22751,12.18258],[108.23067,12.17732],[108.23495,12.17553],[108.2376,12.17338],[108.23927,12.1627],[108.24014,12.1611],[108.2415,12.16097],[108.24433,12.16306],[108.24566,12.16555],[108.2498,12.16989],[108.25407,12.17217],[108.25373,12.17377],[108.24913,12.17676],[108.24868,12.17872],[108.2527,12.18817],[108.25997,12.19405],[108.25977,12.20003],[108.26498,12.2031],[108.26944,12.20343],[108.27193,12.20459],[108.27368,12.21007],[108.27695,12.21376],[108.27969,12.21371],[108.29334,12.20873],[108.29447,12.2076],[108.29495,12.2023],[108.29614,12.20189],[108.29798,12.20326],[108.30161,12.20873],[108.30625,12.2117],[108.31109,12.21621],[108.32221,12.21974],[108.32116,12.22273],[108.32146,12.22404],[108.33079,12.23043],[108.33293,12.23024],[108.33844,12.22731],[108.34017,12.22788],[108.34063,12.22921],[108.33946,12.23392],[108.3339,12.23754],[108.33441,12.24574],[108.33625,12.24817],[108.33884,12.248],[108.34159,12.24538],[108.3442,12.24575],[108.35086,12.2521],[108.35683,12.25485],[108.36209,12.25299],[108.36817,12.25375],[108.37929,12.24737],[108.38578,12.24251],[108.39152,12.24187],[108.40489,12.24381],[108.41104,12.24391],[108.41394,12.24507],[108.41914,12.24936],[108.42682,12.25149],[108.42784,12.25799],[108.42973,12.25912],[108.43188,12.2582],[108.4348,12.25266],[108.43721,12.24988],[108.43925,12.25038],[108.43989,12.2522],[108.43665,12.25761],[108.44051,12.26437],[108.44149,12.27492],[108.44292,12.27763],[108.44404,12.27796],[108.44672,12.27407],[108.44894,12.2733],[108.45951,12.2756],[108.46602,12.2824],[108.46456,12.2906],[108.46529,12.29685],[108.47131,12.29564],[108.47538,12.29672],[108.47958,12.30023],[108.48169,12.30817],[108.48375,12.3097],[108.48932,12.3076],[108.49255,12.30455],[108.49958,12.29225],[108.4986,12.28716],[108.49923,12.28435],[108.50278,12.28091],[108.50843,12.27772],[108.51113,12.27727],[108.53557,12.28156],[108.53906,12.28427],[108.53963,12.28574],[108.53763,12.28996],[108.5376,12.29301],[108.54018,12.29669],[108.54229,12.29759],[108.54464,12.29747],[108.54669,12.2937],[108.55008,12.29183],[108.56732,12.29205],[108.57778,12.2887],[108.58778,12.28862],[108.58913,12.28712],[108.5892,12.28249],[108.59177,12.27948],[108.59537,12.27759],[108.60348,12.27981],[108.61083,12.28352],[108.61562,12.28398],[108.62214,12.29048],[108.62743,12.28883],[108.63691,12.29351],[108.65006,12.29424],[108.66221,12.2976],[108.66726,12.29992],[108.67101,12.30336],[108.67996,12.31624],[108.68514,12.31672],[108.69911,12.31005],[108.70469,12.30418],[108.70603,12.30089],[108.70582,12.29825],[108.70317,12.29208],[108.7021,12.28487],[108.70325,12.27494],[108.70466,12.26978],[108.70464,12.25563],[108.7016,12.24633],[108.70116,12.24183],[108.70276,12.23654],[108.70512,12.23378],[108.70815,12.23122],[108.71431,12.22802],[108.72059,12.21972],[108.72049,12.21714],[108.71783,12.2089],[108.71171,12.19535],[108.71067,12.19132],[108.71652,12.18348],[108.71996,12.17342],[108.7284,12.16282],[108.72838,12.16072],[108.72646,12.15784],[108.72429,12.15677],[108.70855,12.15465],[108.69572,12.148],[108.6937,12.14594],[108.69604,12.13791],[108.69323,12.13151],[108.69161,12.13001],[108.67421,12.12295],[108.67316,12.12049],[108.67347,12.11941],[108.68021,12.11684],[108.6818,12.11551],[108.68487,12.11147],[108.69316,12.10475],[108.70197,12.09335],[108.70317,12.08728],[108.70925,12.06954],[108.71151,12.06014],[108.71115,12.05684],[108.70956,12.05083],[108.70702,12.04581],[108.70374,12.04219],[108.69602,12.0413],[108.69428,12.04017],[108.69018,12.02945],[108.68634,12.02624],[108.67974,12.01068],[108.68379,12.00146],[108.68299,11.99135],[108.68157,11.98534],[108.66301,11.96326],[108.66033,11.956],[108.65994,11.9531],[108.66398,11.94817],[108.66508,11.9428],[108.66492,11.93742],[108.66163,11.92809],[108.66406,11.91446],[108.66283,11.91052],[108.65484,11.89691],[108.6536,11.89359],[108.65506,11.88698],[108.65092,11.86296],[108.65384,11.84988],[108.65302,11.84643],[108.65124,11.842],[108.64763,11.8366],[108.64443,11.8334],[108.63239,11.83013],[108.62959,11.82845],[108.62743,11.81878],[108.62454,11.81241],[108.6187,11.80616],[108.61871,11.80423],[108.61999,11.80258],[108.63768,11.79431],[108.64042,11.79324],[108.65264,11.79265],[108.66839,11.78837],[108.67236,11.78413],[108.67226,11.77944],[108.66326,11.76461],[108.66633,11.75071],[108.66875,11.74646],[108.67551,11.74334],[108.67987,11.73995],[108.69004,11.7345],[108.69118,11.7323],[108.69123,11.72623],[108.69598,11.71193],[108.7014,11.70163],[108.70015,11.69928],[108.69412,11.69868],[108.69315,11.69785],[108.69065,11.6941],[108.68474,11.67944],[108.67892,11.67112],[108.67112,11.66458],[108.66761,11.66469],[108.6638,11.667],[108.65973,11.66779],[108.65007,11.66454],[108.63403,11.65753],[108.62586,11.65342],[108.6235,11.65064],[108.59648,11.649],[108.59312,11.64759],[108.58755,11.64327],[108.58294,11.6413],[108.57496,11.63986],[108.57201,11.64025],[108.5682,11.64215],[108.56525,11.6424],[108.56204,11.64099],[108.56054,11.63615],[108.55285,11.63292],[108.55334,11.62589],[108.55245,11.61471],[108.55268,11.60454],[108.55116,11.60161],[108.56136,11.5897],[108.56596,11.5817],[108.5723,11.57762],[108.58304,11.55518],[108.59239,11.55529],[108.64169,11.551],[108.64348,11.55025],[108.64655,11.54336],[108.64936,11.53183],[108.65701,11.5138],[108.6693,11.49033],[108.67971,11.47348],[108.70925,11.46428],[108.71615,11.46444],[108.72824,11.4686],[108.73734,11.47027],[108.74206,11.47031],[108.75676,11.46719],[108.75979,11.46592],[108.76048,11.46152],[108.75793,11.44678],[108.75874,11.44166],[108.75784,11.41416],[108.76195,11.40811],[108.7652,11.40477],[108.79383,11.38611],[108.79809,11.38415],[108.83554,11.37829],[108.84203,11.37801],[108.84399,11.37695],[108.84516,11.36766],[108.84766,11.36454],[108.85728,11.35606],[108.86544,11.35203],[108.86901,11.35408],[108.8706,11.35277],[108.8719,11.34936],[108.87191,11.34427],[108.86644,11.33305],[108.86617,11.32951],[108.85309,11.33093],[108.84909,11.32928],[108.83892,11.32098],[108.83553,11.31918],[108.82892,11.31738],[108.81417,11.31744],[108.80279,11.3152],[108.79267,11.31458],[108.78789,11.31323],[108.7849,11.31077],[108.78227,11.30715],[108.77686,11.28771],[108.77058,11.28838],[108.76043,11.28554],[108.75701,11.28277],[108.75433,11.27878],[108.75235,11.27292],[108.75105,11.26619],[108.75095,11.25702],[108.74526,11.24315],[108.74524,11.23268],[108.74456,11.23006],[108.73462,11.21413],[108.73283,11.20889],[108.73085,11.1913],[108.72946,11.18527],[108.72746,11.18286],[108.71903,11.17768],[108.71115,11.17472],[108.70882,11.17274],[108.70621,11.17226],[108.70338,11.17402],[108.70111,11.17863],[108.69672,11.18149],[108.68416,11.18691],[108.66024,11.19223],[108.65357,11.19225],[108.63522,11.18901],[108.62505,11.18381],[108.61791,11.17724],[108.61639,11.1771],[108.61004,11.18161],[108.60065,11.18343],[108.59035,11.18286],[108.58443,11.18108],[108.5773,11.17676],[108.56478,11.16472],[108.54284,11.15934],[108.5352,11.15486],[108.53193,11.15626],[108.53024,11.15615],[108.52104,11.15076],[108.5158,11.14635],[108.50634,11.13319],[108.49277,11.10546],[108.4815,11.07296],[108.47724,11.05528],[108.47331,11.04954],[108.46414,11.04272],[108.4587,11.04022],[108.44939,11.04465],[108.44568,11.04747],[108.44147,11.04778],[108.43485,11.04672],[108.42795,11.04271],[108.41485,11.02765],[108.4133,11.02783],[108.40911,11.03184],[108.40639,11.03232],[108.39649,11.03227],[108.38065,11.03374],[108.37242,11.03082],[108.36756,11.02712],[108.3626,11.02074],[108.35311,11.00251],[108.34445,10.97992],[108.34037,10.96506],[108.33814,10.95279],[108.33578,10.95123],[108.33204,10.95093],[108.32537,10.95488],[108.31896,10.95523],[108.31477,10.95416],[108.30801,10.95017],[108.30443,10.94716],[108.30303,10.94469],[108.29696,10.92898],[108.29424,10.92474],[108.28959,10.92333],[108.28506,10.92455],[108.28153,10.92849],[108.27845,10.93458],[108.2702,10.94193],[108.25355,10.94923],[108.23166,10.95291],[108.22262,10.95186],[108.19869,10.94213],[108.18222,10.93442],[108.16862,10.93197],[108.15488,10.93071],[108.13762,10.93303],[108.13256,10.9324],[108.11924,10.92724],[108.1089,10.92019],[108.09664,10.92001],[108.08874,10.91619],[108.07508,10.90424],[108.05104,10.85979],[108.03181,10.81719],[108.0228,10.77296],[108.01787,10.75245],[108.01691,10.74273],[108.01246,10.73107],[107.99688,10.70834],[107.99353,10.70014],[107.9917,10.69975],[107.98508,10.70437],[107.97656,10.70626],[107.96271,10.70394],[107.93799,10.71496],[107.92525,10.71859],[107.90577,10.72185],[107.89517,10.72178],[107.8819,10.71999],[107.86008,10.71212],[107.84669,10.70564],[107.84326,10.7052],[107.83354,10.70594],[107.82279,10.70202],[107.81474,10.6961],[107.80716,10.68865],[107.79753,10.67783],[107.7849,10.6611],[107.77981,10.65589],[107.77226,10.65208],[107.75572,10.64148],[107.72999,10.63267],[107.72465,10.63186],[107.70515,10.63268]]],[[[107.80069,10.65237],[107.80233,10.65336],[107.80378,10.6532],[107.8049,10.65073],[107.80355,10.64955],[107.80162,10.64944],[107.80031,10.65086],[107.80069,10.65237]]],[[[107.98929,10.69613],[107.99119,10.69726],[107.99427,10.69727],[107.99531,10.6955],[107.9951,10.69402],[107.99369,10.69309],[107.9905,10.6931],[107.98912,10.69414],[107.98929,10.69613]]],[[[108.2996,10.90994],[108.30052,10.91124],[108.3018,10.90985],[108.30036,10.90935],[108.2996,10.90994]]],[[[108.09702,10.91029],[108.09816,10.91214],[108.09888,10.91201],[108.09778,10.91035],[108.09702,10.91029]]],[[[108.96845,10.48036],[108.96984,10.48145],[108.97071,10.48108],[108.97016,10.48002],[108.96845,10.48036]]],[[[108.96757,10.48314],[108.96834,10.48415],[108.96937,10.48204],[108.96826,10.48189],[108.96757,10.48314]]],[[[108.96154,10.48759],[108.96381,10.49258],[108.96395,10.49558],[108.96504,10.49622],[108.9676,10.49474],[108.96853,10.49125],[108.96458,10.48578],[108.96252,10.48544],[108.96154,10.48759]]],[[[108.96242,10.49749],[108.96302,10.50168],[108.96418,10.50015],[108.96242,10.49749]]],[[[108.95406,10.54603],[108.95856,10.52217],[108.96597,10.51264],[108.96656,10.50974],[108.96584,10.50796],[108.96141,10.50454],[108.95854,10.5036],[108.95274,10.50332],[108.94832,10.50414],[108.94239,10.5069],[108.93641,10.51026],[108.93364,10.51364],[108.93092,10.51805],[108.92837,10.52518],[108.92684,10.53879],[108.92428,10.54184],[108.92345,10.54518],[108.92461,10.54773],[108.92801,10.55114],[108.93147,10.55246],[108.94866,10.55175],[108.9512,10.55016],[108.95406,10.54603]]],[[[108.95636,10.55312],[108.95815,10.55618],[108.95908,10.5553],[108.95779,10.5535],[108.95636,10.55312]]],[[[108.95521,10.5563],[108.95617,10.55667],[108.95659,10.55587],[108.95484,10.55479],[108.95521,10.5563]]],[[[108.95248,10.55702],[108.95451,10.55761],[108.95475,10.55715],[108.95205,10.55565],[108.95248,10.55702]]],[[[108.87496,10.61711],[108.87502,10.61877],[108.8756,10.61905],[108.87624,10.61746],[108.87496,10.61711]]],[[[108.3697,11.0257],[108.37086,11.02586],[108.37076,11.02477],[108.37001,11.02482],[108.3697,11.0257]]],[[[108.83002,11.2255],[108.82757,11.22421],[108.82345,11.22403],[108.82102,11.22487],[108.82038,11.22628],[108.82259,11.23004],[108.82611,11.23039],[108.83208,11.23293],[108.83308,11.23131],[108.83286,11.22908],[108.83002,11.2255]]]]}},{"type":"Feature","properties":{"kind":"buffer","province_code":"68","buffer_m":5000,"source":"derived","simplify_tolerance_deg":0.0005},"geometry":{"type":"MultiPolygon","coordinates":[[[[108.83657,10.59236],[108.83237,10.60032],[108.82923,10.61289],[108.82918,10.62197],[108.83102,10.63153],[108.83498,10.64082],[108.84088,10.64896],[108.84703,10.65467],[108.85414,10.65916],[108.86221,10.66237],[108.87099,10.66409],[108.87994,10.66409],[108.88884,10.66235],[108.89867,10.65814],[108.90526,10.65355],[108.91026,10.64877],[108.91615,10.64059],[108.92,10.63158],[108.92181,10.62317],[108.92169,10.61139],[108.91988,10.60355],[108.91613,10.59517],[108.92549,10.5973],[108.93266,10.59767],[108.94036,10.60073],[108.94736,10.60227],[108.95644,10.60278],[108.96483,10.60167],[108.97423,10.59858],[108.982,10.59489],[108.98993,10.58902],[108.99688,10.5809],[109.00165,10.57212],[109.00435,10.56254],[109.00483,10.55217],[109.00234,10.54041],[109.00841,10.5298],[109.01094,10.52155],[109.01238,10.51187],[109.01223,10.50677],[109.01646,10.48436],[109.01554,10.47101],[109.0114,10.45967],[109.00536,10.45081],[108.99756,10.44372],[108.99101,10.43975],[108.9832,10.43667],[108.97143,10.43469],[108.9672,10.43469],[108.95451,10.43697],[108.94556,10.44095],[108.93741,10.44691],[108.92987,10.45368],[108.92205,10.46387],[108.92048,10.46721],[108.90636,10.4761],[108.90163,10.48071],[108.89455,10.48999],[108.88767,10.503],[108.88512,10.51013],[108.88231,10.52418],[108.87915,10.53258],[108.87759,10.54406],[108.87822,10.5527],[108.88022,10.56029],[108.88308,10.56693],[108.8871,10.5733],[108.87422,10.57163],[108.86661,10.57244],[108.85938,10.57442],[108.85257,10.57754],[108.8443,10.58343],[108.83657,10.59236]]],[[[107.1818,12.14455],[107.18193,12.15057],[107.17668,12.18851],[107.15999,12.29188],[107.15946,12.30104],[107.16083,12.31013],[107.16403,12.31875],[107.16893,12.32656],[107.17533,12.33323],[107.18296,12.33849],[107.19367,12.34279],[107.20061,12.34437],[107.20772,12.34487],[107.21969,12.34458],[107.23711,12.35811],[107.24972,12.36504],[107.25938,12.36853],[107.27472,12.36982],[107.28993,12.37437],[107.30305,12.37662],[107.31194,12.37695],[107.3237,12.3745],[107.33298,12.37781],[107.34375,12.37946],[107.35254,12.37897],[107.36107,12.37684],[107.36904,12.37314],[107.37614,12.36801],[107.38507,12.35776],[107.39132,12.35373],[107.39639,12.34921],[107.41611,12.32744],[107.42323,12.332],[107.4272,12.33353],[107.42919,12.33693],[107.43496,12.34348],[107.44189,12.34882],[107.44973,12.35276],[107.45519,12.3543],[107.46313,12.35897],[107.47915,12.3663],[107.49225,12.37476],[107.50168,12.37983],[107.49814,12.39444],[107.49771,12.41191],[107.49834,12.4198],[107.50035,12.42747],[107.50369,12.43467],[107.51191,12.4459],[107.52065,12.46398],[107.52019,12.47204],[107.52098,12.47909],[107.52497,12.49168],[107.52178,12.49678],[107.51792,12.50626],[107.51631,12.51634],[107.51704,12.52653],[107.51784,12.53076],[107.52381,12.54648],[107.53087,12.55707],[107.53488,12.56133],[107.53625,12.56442],[107.53494,12.56946],[107.53433,12.58212],[107.53573,12.59572],[107.53687,12.60016],[107.53051,12.61116],[107.52647,12.62568],[107.52537,12.63323],[107.52447,12.65905],[107.52584,12.6702],[107.52734,12.67589],[107.52198,12.68376],[107.51702,12.69497],[107.51367,12.71226],[107.51412,12.7221],[107.51694,12.73218],[107.51455,12.74573],[107.51413,12.75494],[107.51466,12.76927],[107.51672,12.78099],[107.51627,12.79811],[107.51803,12.8067],[107.52145,12.81478],[107.52638,12.82207],[107.53264,12.82828],[107.54,12.83318],[107.54818,12.8366],[107.55687,12.83839],[107.60453,12.84355],[107.63754,12.84429],[107.67537,12.84064],[107.71408,12.83381],[107.74092,12.82817],[107.78494,12.82455],[107.78922,12.83069],[107.79536,12.83668],[107.80252,12.84143],[107.81046,12.84477],[107.81514,12.84578],[107.82972,12.85413],[107.84022,12.85706],[107.8526,12.85735],[107.8601,12.85612],[107.86729,12.85369],[107.87397,12.85012],[107.88684,12.84108],[107.8994,12.82612],[107.9045,12.81797],[107.90775,12.80894],[107.909,12.79944],[107.90881,12.7912],[107.92244,12.78512],[107.93278,12.77861],[107.93967,12.77286],[107.9462,12.76614],[107.95121,12.75825],[107.95447,12.74952],[107.95598,12.73725],[107.9547,12.72451],[107.95178,12.71602],[107.95448,12.71096],[107.95689,12.70352],[107.95797,12.69578],[107.95761,12.68539],[107.95639,12.68057],[107.96,12.66685],[107.96299,12.66067],[107.96641,12.64893],[107.96749,12.64053],[107.97222,12.63024],[107.97437,12.62211],[107.97473,12.61684],[107.97848,12.60748],[107.98061,12.59728],[107.98057,12.58709],[107.97822,12.57526],[107.97279,12.56317],[107.98142,12.55806],[107.99427,12.54841],[108.00797,12.53707],[108.02077,12.52419],[108.03004,12.51712],[108.0383,12.50598],[108.04488,12.49025],[108.04664,12.48154],[108.04664,12.47266],[108.04398,12.46106],[108.04011,12.45212],[108.03564,12.44592],[108.03207,12.43582],[108.0232,12.42137],[108.01683,12.41394],[108.00334,12.40463],[107.98448,12.39536],[107.97477,12.3925],[107.97689,12.38805],[107.97908,12.37843],[107.97961,12.36329],[107.98579,12.35413],[107.99486,12.34953],[108.00444,12.34923],[108.01312,12.34729],[108.0182,12.34754],[108.02878,12.34581],[108.03928,12.34135],[108.04643,12.33641],[108.05008,12.33268],[108.05829,12.33016],[108.06769,12.32473],[108.076,12.31704],[108.08022,12.31111],[108.0837,12.30388],[108.08548,12.29627],[108.10524,12.28048],[108.11431,12.27194],[108.12053,12.26394],[108.13108,12.24292],[108.13713,12.23812],[108.14247,12.23251],[108.15316,12.23528],[108.16037,12.23599],[108.16939,12.23556],[108.18389,12.23132],[108.19866,12.22441],[108.20217,12.22602],[108.2116,12.22813],[108.2244,12.22862],[108.231,12.23539],[108.24016,12.24132],[108.24938,12.24991],[108.25628,12.25413],[108.26592,12.25776],[108.27611,12.25925],[108.28415,12.2589],[108.29022,12.25774],[108.29374,12.26694],[108.30185,12.27839],[108.31031,12.28549],[108.32268,12.2914],[108.33116,12.29315],[108.34309,12.2982],[108.35197,12.29982],[108.36038,12.29994],[108.36744,12.29873],[108.37256,12.29876],[108.3816,12.29698],[108.39609,12.29025],[108.39984,12.29399],[108.4051,12.30322],[108.41119,12.31028],[108.41861,12.31597],[108.42598,12.3197],[108.42753,12.32252],[108.43412,12.33002],[108.44158,12.33563],[108.44775,12.33854],[108.4574,12.34704],[108.46954,12.3527],[108.47957,12.35473],[108.48888,12.35464],[108.50048,12.35188],[108.50737,12.34917],[108.51564,12.34463],[108.52317,12.33873],[108.53078,12.34136],[108.54357,12.34279],[108.54819,12.34255],[108.55633,12.34119],[108.56602,12.33731],[108.5774,12.33616],[108.58481,12.33404],[108.59332,12.3335],[108.60257,12.33128],[108.61452,12.33507],[108.61992,12.33545],[108.63022,12.33827],[108.63971,12.33904],[108.64567,12.34627],[108.65195,12.35205],[108.65921,12.35656],[108.6672,12.35967],[108.68081,12.36174],[108.68991,12.36169],[108.69882,12.35988],[108.72402,12.34802],[108.73321,12.34062],[108.7391,12.33429],[108.74574,12.32435],[108.75046,12.31217],[108.75177,12.30422],[108.75155,12.29473],[108.75038,12.28752],[108.74869,12.28249],[108.75065,12.27005],[108.75053,12.256],[108.75831,12.24582],[108.76202,12.23915],[108.76496,12.23116],[108.76635,12.22292],[108.76618,12.21289],[108.76429,12.20374],[108.76144,12.19493],[108.76668,12.18772],[108.77089,12.17985],[108.77345,12.17132],[108.77425,12.16036],[108.77295,12.15004],[108.7693,12.14028],[108.76317,12.13066],[108.75511,12.12252],[108.74692,12.11736],[108.74202,12.11525],[108.74721,12.10244],[108.75614,12.0706],[108.75729,12.06299],[108.75675,12.052],[108.7534,12.03752],[108.74792,12.02514],[108.74095,12.01525],[108.73586,12.00991],[108.72931,12.0047],[108.72963,11.99855],[108.72863,11.98685],[108.72623,11.97505],[108.7233,11.96658],[108.71873,11.95884],[108.71026,11.9492],[108.71076,11.93606],[108.70875,11.92471],[108.7099,11.91591],[108.70952,11.90845],[108.70666,11.89722],[108.70046,11.88444],[108.70036,11.8799],[108.69777,11.8647],[108.69968,11.84863],[108.6977,11.83621],[108.69403,11.82574],[108.7005,11.82067],[108.7073,11.81343],[108.71305,11.80499],[108.71675,11.7955],[108.71862,11.78433],[108.71715,11.77077],[108.72112,11.76775],[108.72656,11.76185],[108.732,11.75291],[108.73504,11.7455],[108.73704,11.73428],[108.73923,11.7272],[108.74395,11.7185],[108.74662,11.70913],[108.7472,11.69942],[108.74566,11.68981],[108.74207,11.68075],[108.7365,11.6717],[108.72759,11.66327],[108.72249,11.65376],[108.71667,11.64544],[108.70584,11.63395],[108.69721,11.62739],[108.69063,11.62365],[108.68197,11.62061],[108.67382,11.61913],[108.66148,11.61983],[108.6532,11.6164],[108.64353,11.60996],[108.63445,11.60673],[108.61069,11.60467],[108.60945,11.60394],[108.61292,11.59871],[108.65268,11.5949],[108.66153,11.59182],[108.66909,11.58776],[108.67574,11.58239],[108.68126,11.57588],[108.68546,11.56847],[108.6912,11.55371],[108.69302,11.54607],[108.69843,11.53334],[108.70995,11.51137],[108.71202,11.51077],[108.72893,11.51472],[108.7417,11.51553],[108.75313,11.51419],[108.76586,11.51151],[108.77474,11.50879],[108.7859,11.50309],[108.79296,11.49714],[108.79866,11.48991],[108.80277,11.4817],[108.80511,11.47284],[108.80634,11.46118],[108.80423,11.44547],[108.80428,11.4338],[108.81419,11.42717],[108.85438,11.42156],[108.86417,11.41761],[108.87406,11.41109],[108.88065,11.40411],[108.88554,11.39606],[108.89114,11.39369],[108.89852,11.3887],[108.90913,11.37732],[108.91268,11.37115],[108.91597,11.36188],[108.91777,11.34969],[108.91777,11.34413],[108.91614,11.33156],[108.90707,11.30905],[108.90257,11.30201],[108.89685,11.2959],[108.89008,11.29093],[108.88251,11.28726],[108.87438,11.28503],[108.86558,11.2843],[108.85735,11.2794],[108.84705,11.2754],[108.85191,11.2737],[108.85961,11.2692],[108.86627,11.26332],[108.87164,11.25627],[108.87537,11.24912],[108.87776,11.24154],[108.87894,11.2323],[108.8775,11.21872],[108.87373,11.20854],[108.86849,11.20029],[108.8642,11.19532],[108.85876,11.19025],[108.85219,11.18575],[108.84053,11.18084],[108.82816,11.17893],[108.81643,11.17934],[108.8055,11.18206],[108.79679,11.18647],[108.78972,11.19182],[108.78451,11.19751],[108.78129,11.20247],[108.77708,11.19582],[108.77558,11.18132],[108.77199,11.16834],[108.76545,11.15687],[108.75781,11.14894],[108.74834,11.14218],[108.73062,11.13295],[108.72143,11.12926],[108.71225,11.1273],[108.70476,11.12706],[108.69405,11.12863],[108.68613,11.13129],[108.67883,11.13533],[108.66916,11.14397],[108.65668,11.14681],[108.65148,11.14587],[108.64102,11.13816],[108.63133,11.134],[108.62083,11.13209],[108.61105,11.13219],[108.59959,11.13521],[108.59243,11.12864],[108.58578,11.12452],[108.57247,11.11971],[108.56,11.11677],[108.55603,11.11457],[108.54646,11.11112],[108.53398,11.08546],[108.52565,11.06057],[108.51946,11.03763],[108.51526,11.02999],[108.50673,11.01858],[108.49154,11.00646],[108.48219,11.00086],[108.47356,10.99719],[108.46325,10.99522],[108.45531,10.99512],[108.44804,10.99629],[108.4368,10.98794],[108.42973,10.98488],[108.42172,10.98294],[108.41429,10.98235],[108.40433,10.98334],[108.39606,10.98604],[108.38814,10.96598],[108.3851,10.95494],[108.38371,10.94489],[108.38069,10.93569],[108.376,10.92727],[108.36622,10.91685],[108.35609,10.91066],[108.34758,10.90778],[108.34638,10.89912],[108.34409,10.89223],[108.3404,10.88526],[108.33545,10.87894],[108.32984,10.87383],[108.32332,10.86966],[108.31478,10.86616],[108.30453,10.86431],[108.29428,10.86453],[108.28434,10.86697],[108.2752,10.87154],[108.26895,10.87635],[108.2654,10.87981],[108.26062,10.88644],[108.25103,10.8938],[108.24287,10.90443],[108.23942,10.90594],[108.23324,10.90713],[108.20191,10.89358],[108.19046,10.88993],[108.17417,10.88708],[108.15811,10.8856],[108.15026,10.88568],[108.14093,10.8869],[108.1343,10.88263],[108.12748,10.87573],[108.12293,10.87247],[108.1171,10.86934],[108.10649,10.8662],[108.09227,10.83994],[108.0757,10.80322],[108.06321,10.745],[108.06051,10.72871],[108.05572,10.71546],[108.05124,10.70692],[108.04099,10.69189],[108.03943,10.68243],[108.03581,10.67321],[108.02968,10.66431],[108.02349,10.6583],[108.01627,10.65354],[108.00743,10.64995],[107.99628,10.64795],[107.9885,10.64793],[107.9779,10.64962],[107.96799,10.6537],[107.96033,10.65883],[107.94849,10.66095],[107.92017,10.67321],[107.90242,10.67663],[107.89327,10.67615],[107.87813,10.67054],[107.8664,10.66481],[107.85527,10.66122],[107.84986,10.6604],[107.85082,10.65285],[107.85027,10.64416],[107.848,10.63528],[107.84396,10.62704],[107.83705,10.61827],[107.82877,10.61177],[107.82041,10.6075],[107.81153,10.60501],[107.79876,10.6043],[107.78618,10.60707],[107.78071,10.60357],[107.77056,10.5987],[107.74526,10.59003],[107.73164,10.58717],[107.72456,10.58664],[107.70957,10.58717],[107.70264,10.58487],[107.68983,10.57392],[107.6777,10.56686],[107.65077,10.55629],[107.63349,10.55103],[107.6087,10.5394],[107.59444,10.53071],[107.58634,10.52686],[107.57763,10.52464],[107.56865,10.52414],[107.55974,10.52538],[107.55125,10.5283],[107.54351,10.53281],[107.5368,10.53871],[107.53139,10.5458],[107.52749,10.55379],[107.52524,10.56238],[107.52303,10.57643],[107.52253,10.58524],[107.52412,10.5954],[107.52125,10.61111],[107.49636,10.66074],[107.49362,10.67112],[107.49311,10.67936],[107.49397,10.6869],[107.49594,10.69345],[107.48193,10.70771],[107.47679,10.71142],[107.47001,10.7183],[107.46485,10.72643],[107.46155,10.73545],[107.46026,10.74496],[107.4596,10.77043],[107.4603,10.77958],[107.46287,10.7884],[107.46719,10.79653],[107.47308,10.80363],[107.4803,10.80941],[107.48856,10.81363],[107.49752,10.81613],[107.50747,10.8175],[107.52808,10.83159],[107.52755,10.83421],[107.51742,10.85024],[107.51465,10.85904],[107.51375,10.86821],[107.51407,10.92798],[107.50588,10.9472],[107.50164,10.95112],[107.49368,10.96252],[107.49192,10.96368],[107.47893,10.96238],[107.47354,10.96269],[107.46201,10.96458],[107.45616,10.9665],[107.42775,10.98206],[107.41814,10.99047],[107.40557,10.99471],[107.39754,10.99861],[107.39319,11.00189],[107.372,11.00999],[107.36439,11.0152],[107.358,11.02181],[107.35309,11.02954],[107.34986,11.0381],[107.34843,11.04712],[107.34887,11.05623],[107.35116,11.06508],[107.3552,11.07329],[107.36083,11.08054],[107.36783,11.08652],[107.38057,11.09419],[107.3852,11.10394],[107.3932,11.11396],[107.3898,11.1267],[107.38913,11.13885],[107.39052,11.14723],[107.39381,11.15646],[107.40245,11.16937],[107.41561,11.18446],[107.41973,11.19701],[107.42434,11.20426],[107.42824,11.20839],[107.42915,11.21322],[107.43206,11.22079],[107.4363,11.22773],[107.44162,11.23393],[107.44574,11.24367],[107.45066,11.25121],[107.4562,11.25698],[107.46267,11.2617],[107.47186,11.26632],[107.47546,11.27067],[107.4739,11.27704],[107.47327,11.28489],[107.47466,11.29654],[107.47334,11.30071],[107.47236,11.30871],[107.47283,11.31676],[107.47598,11.32923],[107.47945,11.33658],[107.48298,11.34149],[107.48133,11.34325],[107.47572,11.34606],[107.46879,11.35087],[107.46287,11.35686],[107.45728,11.3659],[107.44854,11.37635],[107.44533,11.38235],[107.43357,11.37966],[107.42433,11.37987],[107.41532,11.38189],[107.4069,11.38566],[107.39941,11.39102],[107.39317,11.39774],[107.38843,11.40557],[107.38537,11.41417],[107.38336,11.43585],[107.38378,11.44349],[107.38614,11.45296],[107.3903,11.46214],[107.39819,11.47195],[107.39287,11.47488],[107.38236,11.4715],[107.36956,11.47071],[107.3602,11.47188],[107.35128,11.4749],[107.34318,11.47967],[107.33537,11.48639],[107.33019,11.49311],[107.3264,11.5006],[107.31459,11.50572],[107.31074,11.50864],[107.30628,11.50878],[107.29711,11.51099],[107.2886,11.51499],[107.27965,11.52137],[107.27374,11.52783],[107.26818,11.53575],[107.26084,11.54878],[107.25487,11.56434],[107.25293,11.57225],[107.25169,11.58368],[107.25281,11.59525],[107.2441,11.60046],[107.23671,11.60691],[107.23089,11.61478],[107.22532,11.62637],[107.22156,11.63925],[107.22029,11.64756],[107.21985,11.66076],[107.22104,11.67011],[107.22456,11.68014],[107.23844,11.70385],[107.24138,11.73259],[107.24489,11.74307],[107.24793,11.74885],[107.25826,11.7613],[107.26544,11.76764],[107.27947,11.77781],[107.29419,11.7855],[107.30671,11.7905],[107.31528,11.79307],[107.32332,11.79434],[107.33013,11.79422],[107.33805,11.80224],[107.34398,11.80682],[107.35062,11.81039],[107.35495,11.81956],[107.36011,11.82698],[107.36216,11.83391],[107.36777,11.84484],[107.36371,11.85366],[107.35939,11.8675],[107.35247,11.87755],[107.34665,11.88909],[107.33982,11.89435],[107.32519,11.90332],[107.31835,11.90973],[107.31298,11.91738],[107.30932,11.92596],[107.30752,11.9351],[107.30801,11.946],[107.30385,11.95795],[107.30098,11.96147],[107.28575,11.965],[107.27891,11.9677],[107.26569,11.96915],[107.25499,11.973],[107.24081,11.97659],[107.22887,11.98246],[107.21955,11.98435],[107.2111,11.98799],[107.20356,11.99322],[107.19723,11.99983],[107.19237,12.00756],[107.18779,12.02135],[107.18633,12.03224],[107.18601,12.06516],[107.18855,12.09174],[107.18478,12.09682],[107.18111,12.10442],[107.17893,12.11257],[107.17747,12.12539],[107.17824,12.13321],[107.1818,12.14455]],[[108.10452,12.21654],[108.10524,12.21722],[108.10438,12.21676],[108.10452,12.21654]]]]}}]}