{"type":"FeatureCollection","features":[{"type":"Feature","properties":{"kind":"boundary","province_code":"91","name":"Tỉnh An Giang","source":"VNSDI","valid_from":"16/6/2025","simplify_tolerance_deg":0.0005},"geometry":{"type":"MultiPolygon","coordinates":[[[[103.46682,9.25529],[103.46909,9.25779],[103.47032,9.25618],[103.46754,9.25323],[103.46669,9.25334],[103.46682,9.25529]]],[[[103.50411,9.3204],[103.50783,9.31806],[103.51085,9.31046],[103.50963,9.30873],[103.50405,9.30792],[103.50074,9.30227],[103.50097,9.30123],[103.50493,9.29955],[103.5049,9.29762],[103.50305,9.29713],[103.49786,9.29906],[103.49412,9.2983],[103.48802,9.29147],[103.48602,9.28771],[103.48343,9.28584],[103.47622,9.28598],[103.4727,9.28883],[103.47215,9.29361],[103.47278,9.29612],[103.47588,9.29762],[103.47705,9.29906],[103.47674,9.30164],[103.47543,9.3028],[103.47053,9.30414],[103.46748,9.30127],[103.46448,9.30022],[103.45952,9.30143],[103.45782,9.30376],[103.45872,9.30681],[103.46332,9.31241],[103.46637,9.31456],[103.4808,9.32068],[103.49027,9.32042],[103.49605,9.31876],[103.50179,9.32042],[103.50411,9.3204]]],[[[103.52815,9.32764],[103.53202,9.32645],[103.5334,9.32373],[103.53366,9.32247],[103.53207,9.32058],[103.53292,9.3181],[103.53455,9.31653],[103.53371,9.31541],[103.52561,9.32006],[103.52391,9.32336],[103.52815,9.32764]]],[[[103.53996,9.32635],[103.53868,9.32831],[103.5353,9.33011],[103.542,9.33585],[103.54189,9.3325],[103.54074,9.32969],[103.54297,9.32449],[103.53996,9.32635]]],[[[103.64654,9.38035],[103.64736,9.38008],[103.6473,9.37954],[103.6465,9.37969],[103.64654,9.38035]]],[[[103.63912,9.38622],[103.64134,9.38476],[103.641,9.38353],[103.6392,9.38461],[103.63912,9.38622]]],[[[104.04395,9.8185],[104.04259,9.8181],[104.04195,9.81998],[104.04385,9.82123],[104.04417,9.82345],[104.04624,9.82133],[104.04395,9.8185]]],[[[104.0938,9.84354],[104.09388,9.84568],[104.09257,9.8478],[104.09291,9.84945],[104.09455,9.85128],[104.09752,9.85183],[104.09843,9.8506],[104.09761,9.84645],[104.09477,9.84292],[104.0938,9.84354]]],[[[103.9928,9.90222],[103.99219,9.90338],[103.99333,9.90432],[103.99429,9.90231],[103.9928,9.90222]]],[[[104.02071,9.90572],[104.02115,9.90805],[104.02299,9.90954],[104.0235,9.90802],[104.02217,9.90561],[104.02071,9.90572]]],[[[103.98825,9.90716],[103.98841,9.90834],[103.98994,9.90781],[103.98941,9.90667],[103.98825,9.90716]]],[[[103.99497,9.91302],[103.99495,9.91211],[103.99062,9.90888],[103.98818,9.90996],[103.987,9.90964],[103.98574,9.91158],[103.9862,9.9128],[103.98978,9.91432],[103.99222,9.91302],[103.99497,9.91302]]],[[[104.01639,9.91002],[104.01517,9.90951],[104.01429,9.91082],[104.0103,9.91169],[104.0114,9.91253],[104.01541,9.91226],[104.0179,9.91451],[104.0183,9.91358],[104.01664,9.91165],[104.01639,9.91002]]],[[[104.02299,9.91592],[104.02165,9.91703],[104.02145,9.92048],[104.02491,9.91876],[104.02594,9.91705],[104.02516,9.91567],[104.02299,9.91592]]],[[[104.00339,9.91582],[104.00244,9.9152],[103.99965,9.91837],[103.99597,9.91943],[103.99581,9.92066],[104.00043,9.92281],[104.00199,9.92253],[104.00339,9.91582]]],[[[103.98042,9.91809],[103.97864,9.91878],[103.98095,9.91936],[103.98093,9.9217],[103.98166,9.92223],[103.98207,9.91886],[103.98042,9.91809]]],[[[104.02049,9.93385],[104.02314,9.93141],[104.02268,9.92992],[104.01898,9.9277],[104.01633,9.92932],[104.01579,9.93124],[104.01756,9.93329],[104.02049,9.93385]]],[[[104.0207,9.94055],[104.01701,9.94523],[104.01274,9.94702],[104.01281,9.96155],[104.01031,9.96482],[104.01014,9.96734],[104.01047,9.96831],[104.0124,9.96912],[104.01811,9.96691],[104.02203,9.96094],[104.02305,9.9575],[104.02143,9.95336],[104.02127,9.9505],[104.02222,9.94899],[104.02515,9.94729],[104.02541,9.9439],[104.02259,9.94024],[104.0207,9.94055]]],[[[104.01426,9.98104],[104.01335,9.984],[104.0139,9.98456],[104.01705,9.98472],[104.02009,9.98292],[104.02335,9.97942],[104.02668,9.9702],[104.02651,9.96887],[104.02519,9.96881],[104.01923,9.97371],[104.01426,9.98104]]],[[[104.04206,9.99281],[104.0417,9.99104],[104.03918,9.99231],[104.03743,9.9944],[104.03641,9.99751],[104.03727,9.99729],[104.04007,9.99304],[104.04206,9.99281]]],[[[104.00744,9.99404],[104.00735,9.99811],[104.0108,9.99849],[104.01299,9.99683],[104.01442,9.99298],[104.01276,9.99118],[104.01085,9.9908],[104.00744,9.99404]]],[[[104.03588,9.99829],[104.03406,10.00055],[104.03036,10.00312],[104.02899,10.00589],[104.03455,10.00205],[104.03588,9.99829]]],[[[104.23722,10.21076],[104.23873,10.21179],[104.23961,10.21168],[104.2369,10.20838],[104.23722,10.21076]]],[[[104.03954,10.416],[104.04386,10.41325],[104.05819,10.39905],[104.07097,10.38254],[104.07477,10.37639],[104.08091,10.35699],[104.08053,10.35355],[104.07677,10.35248],[104.07416,10.34885],[104.07262,10.33836],[104.08,10.30786],[104.07973,10.30092],[104.07557,10.28724],[104.07489,10.27822],[104.07554,10.27191],[104.08096,10.25458],[104.08145,10.25033],[104.08084,10.24505],[104.07093,10.21616],[104.06671,10.21164],[104.05971,10.20645],[104.05361,10.19427],[104.05067,10.18506],[104.04281,10.15281],[104.03585,10.14775],[104.03163,10.14033],[104.0303,10.13306],[104.03561,10.12392],[104.03638,10.11898],[104.03318,10.11346],[104.02646,10.10677],[104.02534,10.10276],[104.02477,10.0922],[104.02355,10.08991],[104.01796,10.08387],[104.01935,10.07888],[104.02416,10.0738],[104.02569,10.07421],[104.02671,10.0779],[104.02818,10.07877],[104.03566,10.07203],[104.04169,10.07044],[104.04326,10.06905],[104.04268,10.06507],[104.03781,10.05981],[104.03533,10.05367],[104.03566,10.04788],[104.03896,10.04131],[104.03738,10.03974],[104.03395,10.04029],[104.03223,10.03915],[104.03061,10.03564],[104.03031,10.03127],[104.04052,10.01841],[104.04874,10.01289],[104.05043,10.01099],[104.05203,10.00822],[104.0517,10.00639],[104.05086,10.00593],[104.0458,10.00799],[104.0376,10.01574],[104.03432,10.01464],[104.0316,10.01111],[104.0305,10.01076],[104.02345,10.01827],[104.02128,10.01848],[104.01644,10.0172],[104.01463,10.01485],[104.01323,10.01051],[104.00927,10.01059],[104.00875,10.02161],[104.00072,10.04397],[103.99769,10.04663],[103.99246,10.04753],[103.9908,10.0491],[103.98977,10.06487],[103.9847,10.09754],[103.96719,10.18095],[103.96081,10.207],[103.94757,10.24455],[103.93887,10.25677],[103.92968,10.26402],[103.92254,10.27953],[103.91572,10.28778],[103.90978,10.29132],[103.90678,10.29211],[103.90025,10.29027],[103.89216,10.29036],[103.89026,10.29164],[103.88639,10.29744],[103.88167,10.3025],[103.87747,10.30535],[103.87151,10.30757],[103.86449,10.30748],[103.86223,10.30503],[103.86201,10.3022],[103.86061,10.30245],[103.85586,10.30879],[103.8561,10.31378],[103.852,10.32334],[103.84608,10.34704],[103.84266,10.35586],[103.83921,10.35964],[103.83318,10.36169],[103.83253,10.36374],[103.83303,10.36584],[103.83648,10.36937],[103.83738,10.37474],[103.83688,10.37738],[103.83868,10.37794],[103.85123,10.37666],[103.86141,10.37376],[103.88797,10.36951],[103.91936,10.35976],[103.9223,10.35973],[103.92773,10.36178],[103.93689,10.37141],[103.94111,10.37884],[103.9428,10.38318],[103.94705,10.40133],[103.9532,10.40502],[103.96194,10.40671],[103.96706,10.40965],[103.97117,10.42183],[103.97214,10.43318],[103.97378,10.44031],[103.97876,10.44612],[103.9842,10.44913],[103.9919,10.45041],[103.99681,10.45033],[104.00588,10.44679],[104.01272,10.4378],[104.02112,10.42387],[104.02718,10.41649],[104.03303,10.41362],[104.03548,10.41373],[104.03954,10.416]]],[[[104.1959,10.27692],[104.19894,10.27809],[104.19992,10.27595],[104.19797,10.2743],[104.19679,10.27478],[104.1959,10.27692]]],[[[104.31348,10.27865],[104.31662,10.28083],[104.31716,10.28048],[104.31561,10.27906],[104.31348,10.27865]]],[[[104.32968,10.28538],[104.32751,10.28401],[104.32427,10.28375],[104.32438,10.2867],[104.32535,10.28747],[104.32878,10.28701],[104.33245,10.28856],[104.33411,10.28721],[104.33388,10.28622],[104.32968,10.28538]]],[[[104.31694,10.29134],[104.31232,10.28989],[104.31214,10.29092],[104.31569,10.29301],[104.31706,10.29273],[104.31694,10.29134]]],[[[104.31642,10.29974],[104.31735,10.30434],[104.31942,10.30631],[104.3205,10.30612],[104.3211,10.30372],[104.31904,10.30261],[104.31785,10.30038],[104.31642,10.29974]]],[[[104.32041,10.31144],[104.32234,10.31306],[104.32229,10.31447],[104.32308,10.31414],[104.3225,10.31126],[104.32074,10.31086],[104.32041,10.31144]]],[[[103.8387,10.32235],[103.84063,10.32399],[103.84202,10.32254],[103.83998,10.32049],[103.83881,10.32109],[103.8387,10.32235]]],[[[104.31995,10.35541],[104.31905,10.35806],[104.32055,10.36107],[104.32063,10.35571],[104.32133,10.35461],[104.32054,10.35308],[104.31942,10.3535],[104.31995,10.35541]]],[[[103.80917,10.35736],[103.80781,10.35908],[103.80968,10.35966],[103.80996,10.3588],[103.80917,10.35736]]],[[[104.31025,10.36358],[104.30808,10.36207],[104.30602,10.363],[104.30947,10.36406],[104.31025,10.36358]]],[[[103.81327,10.37122],[103.811,10.37212],[103.8115,10.3736],[103.81401,10.37232],[103.81327,10.37122]]],[[[103.83481,10.38911],[103.83619,10.38864],[103.83617,10.38704],[103.83461,10.38734],[103.83481,10.38911]]],[[[104.05793,10.4032],[104.0589,10.40531],[104.0608,10.40455],[104.06046,10.40283],[104.05793,10.4032]]],[[[104.32894,10.44076],[104.33171,10.44037],[104.33373,10.43857],[104.33328,10.43393],[104.33159,10.43182],[104.32881,10.43226],[104.32734,10.43155],[104.32677,10.42961],[104.32328,10.42941],[104.32163,10.43001],[104.31946,10.43237],[104.31539,10.43253],[104.32069,10.43703],[104.32173,10.44399],[104.32364,10.44264],[104.32777,10.44207],[104.32894,10.44076]]],[[[104.21753,10.46581],[104.21525,10.46671],[104.21519,10.46794],[104.21762,10.46687],[104.21753,10.46581]]],[[[104.19283,10.47101],[104.19291,10.47315],[104.1943,10.47288],[104.1938,10.471],[104.19283,10.47101]]],[[[104.39416,9.63592],[104.39513,9.63733],[104.40598,9.64081],[104.40365,9.63718],[104.40307,9.63301],[104.4015,9.63107],[104.39562,9.63425],[104.39416,9.63592]]],[[[104.36405,9.64415],[104.36439,9.6462],[104.36653,9.645],[104.36631,9.64006],[104.36508,9.64119],[104.36405,9.64415]]],[[[104.35937,9.64548],[104.35955,9.64884],[104.36041,9.64977],[104.36197,9.64978],[104.3626,9.6473],[104.36058,9.6449],[104.35937,9.64548]]],[[[104.39823,9.64878],[104.39897,9.65022],[104.40007,9.65024],[104.39934,9.64846],[104.39823,9.64878]]],[[[104.38935,9.64551],[104.38956,9.65448],[104.39038,9.65603],[104.39195,9.65638],[104.39208,9.6541],[104.39316,9.65285],[104.39075,9.64952],[104.39037,9.64633],[104.38935,9.64551]]],[[[104.3657,9.65438],[104.36584,9.65186],[104.36289,9.65155],[104.36194,9.65231],[104.36163,9.65484],[104.36226,9.65519],[104.36445,9.65394],[104.3657,9.65438]]],[[[104.3907,9.66421],[104.39161,9.66485],[104.39119,9.66186],[104.39058,9.6621],[104.3907,9.66421]]],[[[104.40011,9.67194],[104.39943,9.67514],[104.40105,9.6762],[104.40315,9.67398],[104.40228,9.66637],[104.40029,9.66286],[104.39671,9.66011],[104.39588,9.66267],[104.39842,9.6663],[104.40011,9.67194]]],[[[104.38613,9.67935],[104.38722,9.67868],[104.38576,9.67697],[104.38538,9.67808],[104.38613,9.67935]]],[[[104.40191,9.67979],[104.40324,9.68223],[104.40433,9.68221],[104.4038,9.68079],[104.40191,9.67979]]],[[[104.40459,9.68583],[104.40564,9.685],[104.40455,9.68358],[104.40396,9.68433],[104.40459,9.68583]]],[[[104.35869,9.69323],[104.35777,9.69027],[104.35797,9.68396],[104.36034,9.67367],[104.36105,9.66499],[104.36227,9.66154],[104.36072,9.65917],[104.35496,9.6602],[104.35322,9.66153],[104.35193,9.6646],[104.34864,9.66741],[104.34738,9.66933],[104.34594,9.67974],[104.34632,9.68543],[104.35529,9.69389],[104.35546,9.69634],[104.35355,9.70549],[104.35435,9.71189],[104.35741,9.71046],[104.35981,9.70643],[104.36271,9.69578],[104.36183,9.69393],[104.35869,9.69323]]],[[[104.38734,9.68652],[104.38839,9.68856],[104.394,9.69217],[104.39625,9.69136],[104.39434,9.68917],[104.39334,9.68452],[104.39147,9.68244],[104.38766,9.68041],[104.38734,9.68652]]],[[[104.38331,9.70891],[104.38642,9.70856],[104.38799,9.70596],[104.38795,9.70246],[104.38736,9.70032],[104.38453,9.69718],[104.38305,9.70258],[104.38331,9.70891]]],[[[104.34336,9.71479],[104.34579,9.70216],[104.34458,9.7014],[104.34373,9.70247],[104.34411,9.70657],[104.34348,9.71058],[104.34233,9.7118],[104.34313,9.71217],[104.34336,9.71479]]],[[[104.36726,9.71107],[104.36625,9.70963],[104.36439,9.70993],[104.36543,9.71202],[104.36726,9.71107]]],[[[104.35327,9.72167],[104.35202,9.72474],[104.35223,9.72831],[104.35351,9.72898],[104.35479,9.72782],[104.35526,9.72401],[104.35431,9.7191],[104.35299,9.71987],[104.35327,9.72167]]],[[[104.34153,9.73053],[104.34229,9.73235],[104.34309,9.73221],[104.34318,9.73067],[104.34218,9.72981],[104.34153,9.73053]]],[[[104.3653,9.7419],[104.36625,9.74079],[104.36557,9.73887],[104.36311,9.73822],[104.36162,9.73628],[104.36094,9.73637],[104.36218,9.74294],[104.3653,9.7419]]],[[[104.49837,9.97396],[104.49975,9.97334],[104.49919,9.97145],[104.49791,9.97197],[104.49837,9.97396]]],[[[104.46844,10.0714],[104.47097,10.07318],[104.47069,10.07185],[104.46844,10.0714]]],[[[104.50774,10.08543],[104.50432,10.08315],[104.503,10.08405],[104.50382,10.08561],[104.5082,10.08758],[104.50774,10.08543]]],[[[104.51189,10.09005],[104.5119,10.08881],[104.5094,10.08841],[104.50998,10.08932],[104.51189,10.09005]]],[[[104.51629,10.10463],[104.51696,10.10358],[104.51564,10.10166],[104.51439,10.09588],[104.51305,10.09445],[104.51189,10.09745],[104.51385,10.10033],[104.512,10.10427],[104.51365,10.10584],[104.51491,10.10458],[104.51629,10.10463]]],[[[104.50519,10.10623],[104.50113,10.10611],[104.49844,10.10241],[104.49625,10.10146],[104.49922,10.11173],[104.50114,10.11213],[104.50496,10.10738],[104.50519,10.10623]]],[[[104.49784,10.12348],[104.49885,10.12133],[104.49779,10.12121],[104.49742,10.12464],[104.49544,10.12491],[104.49388,10.12642],[104.49534,10.12917],[104.49641,10.12914],[104.49687,10.12751],[104.49824,10.12677],[104.49784,10.12348]]],[[[104.4938,10.13508],[104.49491,10.13746],[104.49681,10.13562],[104.49618,10.13416],[104.4938,10.13508]]],[[[104.49711,10.13706],[104.49688,10.13866],[104.49879,10.14106],[104.49808,10.13717],[104.49711,10.13706]]],[[[104.49265,10.13974],[104.49346,10.14211],[104.4953,10.14306],[104.49605,10.14201],[104.49296,10.13782],[104.49265,10.13974]]],[[[104.5194,10.13916],[104.51953,10.14286],[104.52018,10.14372],[104.52092,10.14093],[104.52344,10.13809],[104.52027,10.13758],[104.5194,10.13916]]],[[[104.39653,10.14684],[104.39811,10.14717],[104.39797,10.1452],[104.39627,10.14592],[104.39653,10.14684]]],[[[104.50425,10.15158],[104.50475,10.15266],[104.5065,10.15147],[104.50529,10.15057],[104.50425,10.15158]]],[[[104.33763,10.29075],[104.34058,10.29743],[104.3428,10.29724],[104.34332,10.29607],[104.34273,10.29317],[104.34091,10.29086],[104.33844,10.28986],[104.33763,10.29075]]],[[[104.35178,10.29691],[104.34642,10.29615],[104.34583,10.29688],[104.34812,10.29813],[104.34916,10.30122],[104.35217,10.29929],[104.35227,10.29771],[104.35178,10.29691]]],[[[104.3282,10.3128],[104.32379,10.31814],[104.32381,10.32173],[104.32489,10.32185],[104.3292,10.31883],[104.33159,10.31993],[104.33253,10.32336],[104.33439,10.32327],[104.33772,10.32152],[104.33724,10.31898],[104.33436,10.31555],[104.33003,10.31273],[104.3282,10.3128]]],[[[104.33518,10.40197],[104.3335,10.40214],[104.33289,10.40155],[104.33326,10.40035],[104.33223,10.39637],[104.33,10.39611],[104.33057,10.39413],[104.33002,10.3933],[104.32682,10.39411],[104.3264,10.39744],[104.32795,10.39825],[104.33067,10.39781],[104.33151,10.39921],[104.33088,10.40116],[104.33467,10.40349],[104.33518,10.40197]]],[[[104.49022,10.36694],[104.48343,10.37672],[104.47725,10.37568],[104.46769,10.37314],[104.44608,10.36455],[104.44293,10.36464],[104.44208,10.36712],[104.44626,10.38677],[104.44746,10.39016],[104.45181,10.39547],[104.45249,10.39986],[104.45004,10.40807],[104.44767,10.41227],[104.43878,10.42314],[104.46395,10.42903],[104.47834,10.43145],[104.48893,10.42091],[104.49315,10.41004],[104.49697,10.40473],[104.498,10.40457],[104.50007,10.40682],[104.5082,10.42021],[104.51125,10.4274],[104.51835,10.44031],[104.52812,10.44684],[104.5429,10.4481],[104.55186,10.45656],[104.55543,10.46313],[104.55828,10.47328],[104.5599,10.49277],[104.57074,10.49898],[104.5824,10.50347],[104.58482,10.50609],[104.58715,10.51],[104.58794,10.52787],[104.59726,10.53405],[104.60566,10.53433],[104.61648,10.52841],[104.63024,10.52927],[104.63465,10.52985],[104.63868,10.53149],[104.64254,10.53062],[104.64615,10.53094],[104.64553,10.53971],[104.65685,10.53969],[104.69071,10.53797],[104.71696,10.53143],[104.75281,10.51914],[104.85766,10.52056],[104.8683,10.52167],[104.90048,10.55204],[104.91927,10.58178],[104.92901,10.60266],[104.93514,10.61382],[104.94876,10.63025],[104.95754,10.63908],[104.96431,10.6441],[104.97818,10.65059],[104.98302,10.65463],[105.09802,10.72148],[105.09246,10.75614],[105.07612,10.77841],[105.06473,10.78067],[105.06367,10.78389],[105.06191,10.79879],[105.05825,10.80603],[105.05853,10.81817],[105.05647,10.82458],[105.04887,10.84036],[105.04412,10.84608],[105.03546,10.86713],[105.02883,10.89085],[105.02932,10.89251],[105.03877,10.89675],[105.04539,10.90133],[105.04152,10.91103],[105.04809,10.91562],[105.05298,10.91676],[105.05279,10.92198],[105.05061,10.92515],[105.05168,10.92813],[105.05309,10.92963],[105.06217,10.93586],[105.06916,10.93911],[105.07688,10.93694],[105.07823,10.93741],[105.07813,10.94065],[105.0797,10.94584],[105.07909,10.95085],[105.07964,10.95306],[105.08113,10.95472],[105.08392,10.95669],[105.09141,10.95475],[105.09984,10.95532],[105.1134,10.9624],[105.11553,10.9623],[105.11699,10.96125],[105.11835,10.94932],[105.11805,10.94517],[105.1164,10.94172],[105.10797,10.93244],[105.10225,10.92354],[105.10049,10.92206],[105.10468,10.9187],[105.10777,10.91816],[105.13303,10.92218],[105.15581,10.92387],[105.18027,10.91178],[105.18821,10.91154],[105.19111,10.89132],[105.19219,10.89001],[105.18973,10.87238],[105.18906,10.85958],[105.19197,10.85005],[105.19492,10.84638],[105.20445,10.83969],[105.21283,10.83636],[105.21564,10.83085],[105.22057,10.8266],[105.2288,10.81149],[105.23451,10.80711],[105.23776,10.80552],[105.25714,10.80195],[105.26116,10.79996],[105.26197,10.79583],[105.26142,10.79202],[105.25809,10.78253],[105.25983,10.77412],[105.26247,10.77027],[105.2692,10.76606],[105.27372,10.76427],[105.29648,10.76318],[105.30055,10.76192],[105.3035,10.75933],[105.30434,10.7569],[105.30412,10.75346],[105.30119,10.74799],[105.28304,10.73752],[105.27751,10.73252],[105.27586,10.72744],[105.27775,10.72382],[105.28189,10.72101],[105.2901,10.71774],[105.29632,10.71632],[105.30155,10.71608],[105.30749,10.71702],[105.32601,10.72231],[105.33224,10.72313],[105.33867,10.72286],[105.34452,10.7209],[105.35108,10.71387],[105.3513,10.71111],[105.34819,10.70275],[105.34417,10.68649],[105.34122,10.68162],[105.33805,10.67212],[105.33997,10.64606],[105.34975,10.6166],[105.36806,10.57747],[105.3715,10.57296],[105.37713,10.57121],[105.38671,10.57119],[105.39433,10.56826],[105.39844,10.5652],[105.40983,10.55326],[105.41647,10.55009],[105.41895,10.54969],[105.43929,10.55241],[105.44552,10.55426],[105.4507,10.54984],[105.47011,10.53964],[105.48157,10.547],[105.49226,10.54957],[105.50125,10.54953],[105.51011,10.54806],[105.52102,10.5446],[105.53073,10.53498],[105.53348,10.53314],[105.53784,10.53227],[105.54162,10.53038],[105.5471,10.52535],[105.5562,10.5124],[105.57159,10.47553],[105.57567,10.44796],[105.57555,10.44521],[105.57295,10.43823],[105.57422,10.42895],[105.56766,10.42891],[105.55449,10.43434],[105.55162,10.43195],[105.54379,10.41611],[105.53717,10.41575],[105.53204,10.4116],[105.52969,10.40919],[105.52965,10.4031],[105.52399,10.40408],[105.52196,10.40308],[105.52066,10.39841],[105.52425,10.38796],[105.52525,10.37719],[105.5191,10.37087],[105.51882,10.3638],[105.49239,10.3473],[105.4904,10.3445],[105.49113,10.34065],[105.48964,10.33248],[105.49689,10.32501],[105.48744,10.32379],[105.48449,10.31945],[105.47735,10.31186],[105.42653,10.30309],[105.44124,10.26964],[105.39944,10.25366],[105.33632,10.23438],[105.31599,10.26752],[105.31172,10.27334],[105.30652,10.26905],[105.30165,10.27669],[105.30094,10.27667],[105.29192,10.26669],[105.28865,10.25967],[105.26714,10.23891],[105.26093,10.24585],[105.25651,10.2417],[105.24726,10.23067],[105.22576,10.20095],[105.27801,10.15898],[105.30068,10.13592],[105.31158,10.14702],[105.35259,10.10053],[105.35674,10.08237],[105.36451,10.07328],[105.39969,10.04246],[105.44745,9.99727],[105.54004,9.91204],[105.52065,9.86967],[105.51874,9.86201],[105.52052,9.85911],[105.47688,9.83238],[105.44514,9.81956],[105.43078,9.81567],[105.43492,9.79412],[105.43428,9.79137],[105.43045,9.78838],[105.42518,9.78055],[105.42371,9.77963],[105.42158,9.77945],[105.41791,9.78152],[105.41532,9.78085],[105.41458,9.77884],[105.41686,9.77485],[105.41589,9.77299],[105.40758,9.77355],[105.4055,9.77074],[105.40555,9.76632],[105.40696,9.761],[105.40957,9.76035],[105.41297,9.76109],[105.4147,9.75893],[105.41523,9.75443],[105.41167,9.74987],[105.40249,9.74895],[105.39472,9.74535],[105.39261,9.73835],[105.39097,9.73624],[105.38846,9.7347],[105.3771,9.7321],[105.37274,9.72956],[105.37044,9.72781],[105.36157,9.71656],[105.35811,9.71342],[105.34163,9.70471],[105.33743,9.70319],[105.33147,9.70271],[105.32942,9.70204],[105.3283,9.70044],[105.32874,9.69806],[105.33369,9.6933],[105.33769,9.68661],[105.33735,9.68101],[105.33809,9.67739],[105.3392,9.67612],[105.35661,9.66867],[105.3598,9.66885],[105.37061,9.67243],[105.37272,9.67233],[105.37394,9.67137],[105.37373,9.6693],[105.36932,9.66435],[105.36863,9.66249],[105.36886,9.66092],[105.37061,9.65896],[105.39726,9.65659],[105.4053,9.65195],[105.40644,9.65066],[105.40654,9.64361],[105.399,9.63017],[105.39938,9.622],[105.3919,9.6244],[105.38931,9.62798],[105.38395,9.62008],[105.37577,9.61263],[105.37524,9.59992],[105.3738,9.59627],[105.37242,9.59716],[105.37134,9.59679],[105.37034,9.59492],[105.36647,9.59267],[105.36256,9.5925],[105.35702,9.59322],[105.35304,9.59497],[105.34917,9.59807],[105.34648,9.60242],[105.34382,9.61006],[105.34224,9.61241],[105.34012,9.61236],[105.33511,9.6073],[105.33077,9.60471],[105.32408,9.6046],[105.31467,9.60655],[105.31042,9.60842],[105.30796,9.61063],[105.30442,9.61769],[105.30365,9.62157],[105.3041,9.62773],[105.30262,9.62926],[105.29748,9.63051],[105.29582,9.63328],[105.29533,9.63662],[105.29065,9.63334],[105.28811,9.62896],[105.2871,9.62619],[105.28649,9.61672],[105.28775,9.60583],[105.2897,9.59669],[105.29138,9.59245],[105.29404,9.58739],[105.30122,9.57983],[105.3103,9.57301],[105.31072,9.57014],[105.30822,9.56503],[105.30715,9.56084],[105.30715,9.55887],[105.30911,9.55578],[105.31178,9.5561],[105.31826,9.55937],[105.32181,9.55952],[105.32397,9.5587],[105.3244,9.55634],[105.32248,9.54897],[105.32246,9.54571],[105.32573,9.53405],[105.32898,9.52974],[105.32931,9.52646],[105.32278,9.51533],[105.31982,9.51246],[105.30899,9.50668],[105.30219,9.50699],[105.29945,9.50634],[105.29736,9.50219],[105.29048,9.45622],[105.29206,9.45155],[105.29529,9.43264],[105.30259,9.42424],[105.30884,9.41454],[105.31933,9.38324],[105.31451,9.38336],[105.31175,9.38439],[105.30736,9.38797],[105.30103,9.39043],[105.30002,9.39062],[105.29475,9.38817],[105.28086,9.39686],[105.27721,9.3979],[105.27326,9.39546],[105.25939,9.40011],[105.1506,9.46953],[105.05946,9.5232],[105.04979,9.52999],[105.0041,9.55798],[105.00251,9.55616],[104.99949,9.5469],[104.99142,9.53955],[104.98347,9.54117],[104.97785,9.54324],[104.96924,9.54894],[104.96275,9.55545],[104.94585,9.5324],[104.91632,9.56127],[104.88125,9.49409],[104.8752,9.50058],[104.85611,9.51614],[104.85006,9.523],[104.8466,9.5282],[104.84372,9.53008],[104.83548,9.53261],[104.83753,9.56354],[104.84044,9.58876],[104.85236,9.68381],[104.8583,9.72178],[104.86716,9.75226],[104.87466,9.77155],[104.87899,9.79484],[104.88715,9.82925],[104.89363,9.84274],[104.89725,9.84794],[104.90239,9.85115],[104.91106,9.85096],[104.91974,9.84761],[104.92965,9.84735],[104.93602,9.84781],[104.94723,9.85035],[104.95469,9.85365],[104.96531,9.86109],[104.98345,9.88336],[104.9925,9.89223],[105.00755,9.91013],[105.01878,9.92167],[105.04094,9.93875],[105.05239,9.94603],[105.06393,9.95036],[105.07299,9.9506],[105.07612,9.94986],[105.07933,9.94792],[105.10071,9.95717],[105.08084,10.00022],[105.07467,10.01075],[105.05019,10.03807],[105.00071,10.08826],[104.99232,10.09844],[104.98914,10.09913],[104.96616,10.09885],[104.9555,10.09761],[104.91171,10.08768],[104.89916,10.08633],[104.89356,10.08646],[104.88456,10.08975],[104.87681,10.09555],[104.86802,10.10622],[104.83252,10.16118],[104.82195,10.17588],[104.80958,10.19035],[104.79635,10.2025],[104.78292,10.2111],[104.77054,10.21703],[104.74336,10.22578],[104.73106,10.22602],[104.72375,10.22335],[104.69959,10.20958],[104.68565,10.19819],[104.65709,10.16342],[104.65208,10.15631],[104.6467,10.14685],[104.64562,10.13926],[104.64464,10.13761],[104.64207,10.13652],[104.64009,10.13665],[104.63524,10.14156],[104.63153,10.14398],[104.62102,10.14667],[104.61431,10.14648],[104.60529,10.14299],[104.6008,10.14384],[104.59935,10.14621],[104.59957,10.14743],[104.60594,10.15312],[104.6099,10.15955],[104.61001,10.16124],[104.60828,10.16547],[104.60364,10.17129],[104.59239,10.18217],[104.58977,10.18593],[104.5899,10.18757],[104.59553,10.18928],[104.59651,10.191],[104.59659,10.19361],[104.59555,10.19593],[104.5902,10.20032],[104.58551,10.20674],[104.58564,10.20924],[104.59167,10.21382],[104.59213,10.21744],[104.59006,10.22901],[104.58631,10.24215],[104.57913,10.25864],[104.57481,10.26582],[104.56553,10.27828],[104.55841,10.28497],[104.55197,10.28918],[104.54524,10.29035],[104.54224,10.288],[104.5345,10.27835],[104.53262,10.27754],[104.53036,10.27914],[104.52873,10.29319],[104.52953,10.31576],[104.52685,10.32368],[104.514,10.3429],[104.49835,10.36057],[104.49022,10.36694]],[[105.0172,10.31605],[105.09001,10.2737],[105.09552,10.2707],[105.09001,10.2737],[105.05872,10.292],[105.02271,10.31293],[105.0172,10.31605],[105.01908,10.31873],[105.0172,10.31605]],[[105.05492,10.43684],[105.05006,10.41051],[105.04922,10.40622],[105.04908,10.40552],[105.04568,10.38784],[105.0448,10.387],[105.03038,10.39059],[105.02471,10.39197],[105.00745,10.39037],[105.00388,10.38934],[105.00307,10.38895],[105.00239,10.38845],[105.0009,10.38678],[104.99686,10.37831],[104.99476,10.37681],[104.99244,10.37747],[104.99522,10.36707],[104.99705,10.36245],[104.99813,10.35172],[104.99917,10.34548],[105.00136,10.33847],[104.99727,10.32378],[105.00136,10.33847],[104.99917,10.34548],[104.99705,10.36245],[104.99244,10.37747],[104.99476,10.37681],[104.99686,10.37831],[105.0009,10.38678],[105.00239,10.38845],[105.00745,10.39037],[105.02471,10.39197],[105.0448,10.387],[105.04568,10.38784],[105.05499,10.43553],[105.05492,10.43684],[105.07578,10.4388],[105.11361,10.43502],[105.07578,10.4388],[105.05673,10.4374],[105.05492,10.43684]],[[105.12248,10.30326],[105.11865,10.30608],[105.12248,10.30326],[105.12248,10.30326]]],[[[104.34243,10.42395],[104.34254,10.42595],[104.34456,10.42733],[104.34482,10.42311],[104.34332,10.42215],[104.34243,10.42395]]],[[[104.33216,10.45156],[104.33265,10.4535],[104.33453,10.45279],[104.3332,10.45045],[104.33216,10.45156]]],[[[104.33806,10.45662],[104.34022,10.45765],[104.34111,10.45741],[104.33961,10.45576],[104.33806,10.45662]]],[[[104.65809,9.81763],[104.65926,9.8133],[104.65637,9.80369],[104.6535,9.79871],[104.64933,9.79559],[104.63771,9.79279],[104.63514,9.79373],[104.63596,9.79541],[104.63499,9.79685],[104.63162,9.79847],[104.62728,9.79895],[104.61919,9.79607],[104.61596,9.79612],[104.61466,9.79736],[104.61573,9.80465],[104.61919,9.8116],[104.63235,9.82115],[104.63634,9.82237],[104.64271,9.82044],[104.6464,9.8178],[104.65016,9.81725],[104.65809,9.81763]]],[[[104.85361,9.97403],[104.84933,9.97175],[104.84564,9.96798],[104.84106,9.95238],[104.8362,9.94853],[104.83119,9.95198],[104.82812,9.95688],[104.82745,9.95967],[104.8273,9.96454],[104.82961,9.96882],[104.8327,9.97094],[104.85168,9.97772],[104.85588,9.97756],[104.85804,9.97475],[104.85692,9.97373],[104.85361,9.97403]]],[[[104.54867,10.0098],[104.55,10.01045],[104.55113,10.00936],[104.54975,10.0089],[104.54867,10.0098]]],[[[104.54488,10.02726],[104.54432,10.03023],[104.54631,10.03392],[104.55037,10.03805],[104.55447,10.03992],[104.56101,10.02794],[104.56178,10.02267],[104.5602,10.01726],[104.55763,10.01527],[104.55109,10.01429],[104.54488,10.02726]]],[[[104.69073,10.07906],[104.69218,10.07959],[104.69264,10.07908],[104.69033,10.07773],[104.69073,10.07906]]],[[[104.53687,10.11591],[104.53688,10.11691],[104.53837,10.11696],[104.53827,10.11548],[104.53687,10.11591]]],[[[104.52713,10.12375],[104.52524,10.12589],[104.52594,10.12733],[104.52713,10.12375]]],[[[104.54031,10.12624],[104.54252,10.13329],[104.54578,10.13725],[104.54652,10.1372],[104.54523,10.1257],[104.54314,10.12245],[104.54205,10.1229],[104.54031,10.12624]]],[[[104.55279,10.1334],[104.55436,10.13482],[104.55545,10.13403],[104.55356,10.13305],[104.55279,10.1334]]],[[[104.53138,10.14127],[104.53194,10.14248],[104.53294,10.13934],[104.53262,10.13942],[104.53138,10.14127]]],[[[104.54802,10.13981],[104.5495,10.14297],[104.54914,10.14545],[104.55072,10.14621],[104.55262,10.14579],[104.55314,10.14454],[104.55093,10.13982],[104.54802,10.13981]]],[[[104.53309,10.14414],[104.53059,10.14469],[104.53063,10.14642],[104.53149,10.14632],[104.53309,10.14414]]],[[[104.55401,10.14809],[104.54933,10.15178],[104.55008,10.15363],[104.55261,10.15206],[104.55542,10.14855],[104.55401,10.14809]]],[[[104.59268,10.15379],[104.59092,10.15375],[104.58922,10.15197],[104.5857,10.15276],[104.58729,10.15451],[104.59119,10.1548],[104.59268,10.15379]]],[[[104.52608,10.15891],[104.52117,10.14785],[104.52047,10.14765],[104.51813,10.15085],[104.52048,10.15324],[104.52197,10.15668],[104.52412,10.15731],[104.52474,10.16023],[104.52608,10.15891]]],[[[104.58093,10.15298],[104.57465,10.15301],[104.57219,10.15409],[104.57148,10.15564],[104.57758,10.15689],[104.58175,10.1557],[104.58207,10.15418],[104.58093,10.15298]]],[[[104.53025,10.15953],[104.529,10.16361],[104.52954,10.16459],[104.53125,10.16153],[104.53025,10.15953]]],[[[104.57906,10.17176],[104.57765,10.17152],[104.57803,10.17288],[104.57744,10.1735],[104.57878,10.1743],[104.57906,10.17176]]],[[[104.59384,10.17963],[104.59268,10.17595],[104.59172,10.17586],[104.59073,10.17688],[104.59105,10.17906],[104.59327,10.18022],[104.59384,10.17963]]],[[[104.53091,10.17325],[104.53043,10.17814],[104.52958,10.17978],[104.5238,10.18493],[104.52454,10.18664],[104.5269,10.18849],[104.53135,10.18649],[104.53358,10.18151],[104.53288,10.17727],[104.5345,10.17149],[104.53196,10.16928],[104.5301,10.17032],[104.53091,10.17325]]],[[[104.52335,10.242],[104.52196,10.24533],[104.52284,10.24643],[104.52381,10.24539],[104.52335,10.242]]],[[[104.52739,10.27441],[104.52833,10.27462],[104.52902,10.27356],[104.5286,10.27187],[104.52728,10.27276],[104.52739,10.27441]]]]}},{"type":"Feature","properties":{"kind":"buffer","province_code":"91","buffer_m":5000,"source":"derived","simplify_tolerance_deg":0.0005},"geometry":{"type":"MultiPolygon","coordinates":[[[[104.39661,10.37102],[104.40186,10.39664],[104.39707,10.40479],[104.39424,10.41329],[104.39316,10.42217],[104.39386,10.43108],[104.39631,10.43969],[104.40043,10.44765],[104.40605,10.45465],[104.41295,10.46041],[104.42086,10.46472],[104.42947,10.4674],[104.45636,10.47362],[104.4709,10.47607],[104.4797,10.47665],[104.48931,10.47527],[104.50244,10.48437],[104.51406,10.4898],[104.5155,10.50324],[104.51809,10.51089],[104.522,10.51796],[104.5279,10.52504],[104.53467,10.53073],[104.54306,10.53529],[104.54426,10.54097],[104.54719,10.54822],[104.55133,10.55487],[104.55716,10.56154],[104.56317,10.56633],[104.57611,10.57412],[104.58311,10.57704],[104.5905,10.57877],[104.59962,10.57966],[104.61009,10.57933],[104.62014,10.57705],[104.63106,10.58269],[104.63917,10.58465],[104.65946,10.58483],[104.69277,10.58314],[104.70226,10.58172],[104.7322,10.57405],[104.76043,10.56442],[104.84912,10.56569],[104.86441,10.58016],[104.87818,10.60175],[104.88891,10.62424],[104.89796,10.64003],[104.91298,10.65831],[104.92504,10.67082],[104.93696,10.6803],[104.95422,10.68938],[104.96099,10.69423],[105.04208,10.74157],[105.03625,10.74533],[105.0299,10.75145],[105.02486,10.75866],[105.02132,10.7667],[105.01834,10.77865],[105.01766,10.78537],[105.01415,10.7944],[105.01269,10.80347],[105.01249,10.81105],[105.0104,10.81553],[105.00476,10.8232],[104.99378,10.84872],[104.98506,10.87798],[104.98334,10.88735],[104.98343,10.89543],[104.98498,10.90336],[104.98926,10.91418],[104.99498,10.9223],[104.99852,10.92551],[105.00057,10.93098],[105.00548,10.93877],[105.00829,10.94168],[105.00952,10.94556],[105.01386,10.95343],[105.01963,10.96038],[105.02523,10.96545],[105.03988,10.97505],[105.04658,10.98426],[105.05529,10.99199],[105.06417,10.99746],[105.07181,11.00029],[105.07984,11.00173],[105.09,11.00137],[105.09775,11.00487],[105.10648,11.00709],[105.11762,11.00747],[105.12643,11.00621],[105.13482,11.00328],[105.14249,10.99879],[105.15051,10.99192],[105.15584,10.98497],[105.15972,10.97712],[105.16201,10.96865],[105.17328,10.96571],[105.19268,10.95633],[105.19878,10.95553],[105.20754,10.95251],[105.2155,10.94779],[105.22233,10.94158],[105.22775,10.93412],[105.23154,10.92574],[105.23354,10.91676],[105.23481,10.90599],[105.23772,10.89308],[105.23617,10.87504],[105.24512,10.86832],[105.25616,10.8549],[105.26104,10.84749],[105.27332,10.8443],[105.28164,10.84074],[105.29269,10.83266],[105.29915,10.82502],[105.30338,10.81712],[105.30619,10.80738],[105.31367,10.80542],[105.32051,10.80258],[105.33241,10.79458],[105.33813,10.78884],[105.34452,10.77914],[105.34879,10.76696],[105.36064,10.76342],[105.3681,10.75962],[105.37779,10.75213],[105.3864,10.7425],[105.39199,10.73392],[105.39571,10.72432],[105.39716,10.71328],[105.39578,10.701],[105.39169,10.68892],[105.38807,10.67415],[105.38446,10.66589],[105.38542,10.6529],[105.39207,10.63357],[105.40151,10.61403],[105.41026,10.61083],[105.41805,10.60693],[105.4243,10.60276],[105.4309,10.59699],[105.43693,10.59867],[105.4462,10.59947],[105.45545,10.59839],[105.46428,10.59548],[105.47177,10.59118],[105.48152,10.59352],[105.49245,10.59479],[105.5088,10.59413],[105.524,10.59113],[105.53492,10.58768],[105.54345,10.58398],[105.55105,10.57865],[105.55734,10.57301],[105.56783,10.56743],[105.5791,10.55774],[105.58696,10.54821],[105.59726,10.53213],[105.61497,10.48956],[105.61805,10.47607],[105.62109,10.45233],[105.62114,10.44321],[105.61941,10.43325],[105.61985,10.42857],[105.61884,10.41946],[105.61599,10.41074],[105.61143,10.40277],[105.60534,10.39588],[105.59798,10.39034],[105.58964,10.38639],[105.58067,10.38418],[105.5753,10.38372],[105.57067,10.37981],[105.57053,10.37164],[105.5683,10.36221],[105.5563,10.33801],[105.55073,10.33148],[105.54235,10.325],[105.54105,10.3136],[105.53778,10.30494],[105.5328,10.29712],[105.52633,10.29046],[105.51862,10.28525],[105.51255,10.28275],[105.50752,10.27793],[105.50103,10.27321],[105.49381,10.26968],[105.48666,10.26764],[105.48602,10.26092],[105.48335,10.25221],[105.47897,10.2442],[105.47306,10.23723],[105.46586,10.23157],[105.45767,10.22745],[105.41288,10.21045],[105.34977,10.19117],[105.34133,10.18944],[105.33272,10.1893],[105.32423,10.19078],[105.31617,10.19381],[105.30884,10.19828],[105.30248,10.20405],[105.29993,10.20743],[105.295,10.20338],[105.30908,10.19199],[105.32085,10.1913],[105.32957,10.18858],[105.33757,10.18419],[105.34453,10.1783],[105.38711,10.1301],[105.39332,10.12092],[105.39709,10.11052],[105.39865,10.1037],[105.43113,10.07524],[105.4787,10.03024],[105.5715,9.94479],[105.57769,9.93758],[105.58223,9.92926],[105.58493,9.92017],[105.58565,9.91073],[105.58438,9.90135],[105.58116,9.89244],[105.56601,9.85915],[105.5649,9.84855],[105.56198,9.84021],[105.55749,9.8326],[105.55159,9.82599],[105.54451,9.82064],[105.50087,9.79392],[105.47946,9.78459],[105.47541,9.77179],[105.47011,9.76337],[105.46076,9.75245],[105.46003,9.74579],[105.45679,9.73575],[105.4513,9.72672],[105.4432,9.71718],[105.43798,9.71292],[105.4314,9.70906],[105.42559,9.70684],[105.41549,9.69809],[105.41899,9.69662],[105.43376,9.6873],[105.43963,9.68174],[105.44551,9.67402],[105.44904,9.66686],[105.45125,9.6592],[105.45207,9.65127],[105.45159,9.63641],[105.44966,9.6288],[105.44469,9.61854],[105.44245,9.60707],[105.43881,9.59923],[105.43372,9.59222],[105.42738,9.5863],[105.42003,9.58168],[105.4165,9.5803],[105.41224,9.5719],[105.40668,9.56491],[105.39984,9.55913],[105.38702,9.55229],[105.37799,9.54892],[105.37065,9.54782],[105.37284,9.54222],[105.37472,9.53093],[105.37468,9.5216],[105.3727,9.51247],[105.36888,9.50394],[105.35901,9.48783],[105.35105,9.4795],[105.33862,9.47084],[105.33686,9.45971],[105.33805,9.4527],[105.34776,9.43816],[105.35201,9.42919],[105.36253,9.39782],[105.36455,9.38936],[105.36489,9.38068],[105.36356,9.37209],[105.36059,9.36392],[105.3561,9.35645],[105.35025,9.34998],[105.34326,9.34474],[105.33538,9.34091],[105.32692,9.33865],[105.31334,9.33816],[105.30579,9.33898],[105.29332,9.34318],[105.2872,9.34357],[105.27833,9.34598],[105.26961,9.35042],[105.25954,9.35233],[105.24153,9.35849],[105.21721,9.37302],[105.19034,9.39094],[105.12638,9.43121],[105.04817,9.47707],[105.0125,9.49966],[105.00772,9.49732],[104.99942,9.49504],[104.99084,9.49434],[104.97386,9.49697],[104.97023,9.49418],[104.96242,9.49027],[104.95401,9.48791],[104.9453,9.48718],[104.93661,9.48812],[104.93055,9.48997],[104.92156,9.4729],[104.91672,9.46565],[104.91057,9.45945],[104.90334,9.45453],[104.8953,9.45107],[104.88673,9.4492],[104.87796,9.44899],[104.86932,9.45045],[104.86111,9.45351],[104.85365,9.45808],[104.84401,9.46752],[104.82651,9.48166],[104.81719,9.49145],[104.81323,9.49313],[104.80544,9.49857],[104.79896,9.50549],[104.79408,9.51359],[104.79099,9.52253],[104.78996,9.53712],[104.79218,9.56864],[104.8071,9.68956],[104.81412,9.73314],[104.82354,9.76552],[104.83041,9.78304],[104.83427,9.80382],[104.84274,9.83964],[104.84718,9.85152],[104.85261,9.86256],[104.85968,9.87362],[104.87014,9.88456],[104.88028,9.89089],[104.88937,9.89448],[104.89641,9.89601],[104.90473,9.89667],[104.91633,9.89588],[104.92929,9.89266],[104.93346,9.89375],[104.94899,9.913],[104.959,9.92295],[104.97327,9.93999],[104.98592,9.95306],[105.01308,9.97457],[105.02777,9.9841],[105.03443,9.98742],[105.01702,10.00696],[104.97104,10.05366],[104.96306,10.05296],[104.91794,10.04288],[104.89918,10.04111],[104.88884,10.04148],[104.87634,10.04432],[104.86525,10.04878],[104.85745,10.05317],[104.84633,10.0619],[104.83198,10.07848],[104.82262,10.09175],[104.79423,10.13651],[104.78606,10.14789],[104.77567,10.16004],[104.76981,10.16561],[104.75998,10.17193],[104.754,10.17479],[104.7383,10.17975],[104.72543,10.17228],[104.71889,10.16711],[104.69275,10.13518],[104.69049,10.13187],[104.68882,10.12469],[104.69601,10.12465],[104.7029,10.12354],[104.71267,10.12007],[104.72116,10.11468],[104.72665,10.10951],[104.73114,10.10359],[104.7346,10.09703],[104.73689,10.09027],[104.73809,10.0832],[104.738,10.07415],[104.73611,10.06531],[104.73226,10.05653],[104.72839,10.05074],[104.7234,10.04536],[104.71573,10.03959],[104.70515,10.03478],[104.69416,10.03264],[104.68491,10.03283],[104.67628,10.03471],[104.66831,10.03813],[104.66099,10.04309],[104.65419,10.05006],[104.64904,10.05831],[104.64578,10.06745],[104.64459,10.07524],[104.64477,10.08289],[104.64674,10.09166],[104.63825,10.09122],[104.62801,10.09303],[104.61961,10.09624],[104.61516,10.09896],[104.60335,10.09778],[104.59392,10.09877],[104.58681,10.10102],[104.5795,10.09532],[104.57572,10.08964],[104.56934,10.08238],[104.57378,10.08089],[104.58231,10.07575],[104.59038,10.06785],[104.59583,10.05974],[104.60151,10.04889],[104.60553,10.03787],[104.60733,10.02546],[104.60671,10.01465],[104.60234,9.99985],[104.59772,9.99152],[104.59093,9.98366],[104.5798,9.97408],[104.56863,9.96741],[104.55636,9.9641],[104.5445,9.96423],[104.54286,9.95727],[104.53769,9.94687],[104.53106,9.93896],[104.52306,9.9329],[104.51416,9.92873],[104.50468,9.92655],[104.49415,9.92644],[104.48681,9.92777],[104.47979,9.93026],[104.47233,9.93441],[104.46567,9.93997],[104.46,9.9468],[104.45578,9.95459],[104.45308,9.96351],[104.4523,9.97571],[104.45402,9.98578],[104.45782,9.99494],[104.46232,10.00178],[104.46825,10.00793],[104.47487,10.01272],[104.48225,10.01626],[104.49014,10.01844],[104.49997,10.01907],[104.49886,10.02547],[104.49947,10.03681],[104.49307,10.03244],[104.48164,10.02785],[104.47337,10.02636],[104.46436,10.02633],[104.45618,10.02785],[104.44683,10.03157],[104.43871,10.0371],[104.43197,10.04423],[104.42732,10.05173],[104.42426,10.05985],[104.42283,10.06839],[104.42306,10.07705],[104.42493,10.08558],[104.42831,10.09339],[104.43309,10.10043],[104.4423,10.10911],[104.45015,10.11386],[104.44834,10.12299],[104.4469,10.14044],[104.44787,10.14862],[104.45022,10.15683],[104.45317,10.16344],[104.45716,10.16951],[104.46325,10.176],[104.4671,10.17861],[104.47502,10.18717],[104.47848,10.18959],[104.47947,10.19628],[104.48231,10.20436],[104.48784,10.21346],[104.4852,10.21661],[104.48095,10.22428],[104.47732,10.23577],[104.4764,10.24275],[104.47738,10.25502],[104.47957,10.26216],[104.48215,10.26731],[104.48161,10.2763],[104.48352,10.28659],[104.48344,10.30705],[104.47756,10.3156],[104.46918,10.32472],[104.45831,10.32097],[104.44816,10.3191],[104.43616,10.31963],[104.42357,10.32361],[104.41512,10.32878],[104.40882,10.3346],[104.40463,10.33996],[104.40098,10.3464],[104.39699,10.35926],[104.39661,10.37102]]],[[[104.81347,10.01195],[104.84145,10.02179],[104.84891,10.02286],[104.86302,10.02234],[104.87002,10.02055],[104.8766,10.01785],[104.88267,10.01416],[104.89252,10.00483],[104.90028,9.99187],[104.90283,9.98343],[104.90368,9.97516],[104.90295,9.9667],[104.90037,9.95776],[104.89581,9.94923],[104.88767,9.94008],[104.88419,9.93747],[104.87936,9.92771],[104.87015,9.91753],[104.8584,9.90898],[104.8494,9.90522],[104.84002,9.90347],[104.83031,9.90368],[104.82087,9.90593],[104.81165,9.9104],[104.80176,9.91742],[104.79489,9.92457],[104.78758,9.93612],[104.78369,9.94608],[104.78203,9.95535],[104.78181,9.96802],[104.78419,9.97939],[104.79006,9.99185],[104.7957,9.9991],[104.80244,10.0052],[104.81347,10.01195]]],[[[104.61972,9.75085],[104.61237,9.75105],[104.60483,9.75227],[104.59731,9.75486],[104.5897,9.75907],[104.58386,9.76375],[104.57914,9.76886],[104.57385,9.77713],[104.57068,9.78531],[104.56922,9.79267],[104.56925,9.80346],[104.57319,9.821],[104.57871,9.83278],[104.58465,9.84116],[104.59698,9.85205],[104.61004,9.8606],[104.62381,9.8661],[104.64036,9.86741],[104.64937,9.86571],[104.65902,9.86267],[104.66737,9.86191],[104.67943,9.85761],[104.68595,9.85352],[104.69168,9.84841],[104.69625,9.84279],[104.69988,9.8365],[104.70421,9.82263],[104.70489,9.81229],[104.70344,9.80183],[104.6983,9.78583],[104.69382,9.77719],[104.69076,9.77261],[104.68186,9.76329],[104.67351,9.75724],[104.66336,9.75256],[104.64343,9.74793],[104.63409,9.74771],[104.62763,9.74857],[104.61972,9.75085]]],[[[104.2965,9.73786],[104.3007,9.75121],[104.30465,9.758],[104.30993,9.76423],[104.31622,9.76946],[104.32336,9.77349],[104.33155,9.77627],[104.33609,9.78005],[104.34326,9.78412],[104.35489,9.78766],[104.36516,9.78822],[104.3753,9.78647],[104.39013,9.77984],[104.39774,9.77374],[104.40222,9.76872],[104.40786,9.75943],[104.41151,9.74617],[104.41994,9.73924],[104.42556,9.7318],[104.42992,9.72345],[104.43992,9.71501],[104.4446,9.70869],[104.4481,9.70166],[104.45033,9.69413],[104.45124,9.68325],[104.44739,9.65958],[104.45021,9.65193],[104.45157,9.64283],[104.45103,9.63364],[104.44864,9.62475],[104.44476,9.61462],[104.44063,9.60733],[104.43519,9.60043],[104.42963,9.59546],[104.42303,9.5912],[104.41531,9.58797],[104.40158,9.58569],[104.39181,9.5866],[104.38202,9.58977],[104.37253,9.59535],[104.36163,9.59499],[104.35122,9.59719],[104.34179,9.6016],[104.32845,9.6119],[104.32219,9.61898],[104.31755,9.6272],[104.31453,9.63763],[104.30902,9.64485],[104.30459,9.65364],[104.30218,9.66317],[104.30034,9.67798],[104.30058,9.68798],[104.29852,9.69624],[104.2967,9.71172],[104.29746,9.71933],[104.29625,9.72485],[104.2965,9.73786]]],[[[104.36844,10.18247],[104.37461,10.1865],[104.3821,10.18974],[104.39072,10.19184],[104.39803,10.19238],[104.40795,10.19132],[104.4174,10.18815],[104.42592,10.18302],[104.43331,10.17595],[104.43783,10.16952],[104.44118,10.16241],[104.44323,10.15484],[104.44393,10.14608],[104.44205,10.13315],[104.4369,10.1216],[104.43169,10.11473],[104.42553,10.10916],[104.41809,10.10461],[104.40999,10.10149],[104.40143,10.09996],[104.39274,10.10005],[104.38422,10.10178],[104.37619,10.10508],[104.37271,10.10705],[104.36222,10.11583],[104.35681,10.12323],[104.3529,10.13188],[104.35079,10.14141],[104.3508,10.15116],[104.35272,10.16031],[104.35633,10.16858],[104.36153,10.17598],[104.36844,10.18247]]],[[[104.2686,10.27025],[104.26657,10.28674],[104.26663,10.29532],[104.26833,10.30374],[104.2778,10.32742],[104.26831,10.33751],[104.26414,10.34504],[104.26134,10.35381],[104.26039,10.3629],[104.2613,10.37199],[104.26404,10.38072],[104.2677,10.38761],[104.27247,10.39373],[104.28093,10.40085],[104.28104,10.40274],[104.27675,10.40848],[104.27292,10.41598],[104.27056,10.42406],[104.26975,10.43259],[104.27061,10.44142],[104.27319,10.44991],[104.28465,10.47044],[104.29043,10.4769],[104.29818,10.48256],[104.30091,10.48599],[104.30633,10.49044],[104.31871,10.49757],[104.32609,10.50065],[104.3395,10.50287],[104.34638,10.50253],[104.35313,10.50117],[104.36117,10.49814],[104.36822,10.49387],[104.37439,10.48841],[104.37945,10.48194],[104.38357,10.47399],[104.38602,10.46543],[104.38678,10.45751],[104.38546,10.44711],[104.38848,10.44],[104.3903,10.43145],[104.3906,10.41898],[104.38897,10.41096],[104.38589,10.40335],[104.38011,10.39501],[104.37852,10.38773],[104.37463,10.37914],[104.36601,10.36575],[104.36679,10.35637],[104.37563,10.34668],[104.37867,10.34148],[104.38144,10.33388],[104.38862,10.32649],[104.3939,10.31769],[104.39701,10.30812],[104.3979,10.2981],[104.39598,10.28472],[104.39073,10.27321],[104.38275,10.2637],[104.37382,10.25732],[104.36921,10.25546],[104.35713,10.24731],[104.35085,10.24424],[104.33949,10.24057],[104.32888,10.23572],[104.31734,10.23342],[104.3064,10.23389],[104.29873,10.2358],[104.29169,10.23889],[104.28513,10.24322],[104.27937,10.24861],[104.27464,10.2549],[104.27109,10.26191],[104.2686,10.27025]]],[[[104.19556,10.22939],[104.1899,10.22979],[104.17934,10.233],[104.17159,10.23708],[104.16477,10.24256],[104.15839,10.25031],[104.1534,10.25974],[104.15078,10.27006],[104.15038,10.28015],[104.15194,10.28905],[104.15525,10.29747],[104.16097,10.30605],[104.16793,10.31301],[104.17623,10.31832],[104.1855,10.32173],[104.19882,10.32331],[104.20696,10.32261],[104.21484,10.32048],[104.22221,10.31699],[104.22884,10.31225],[104.23451,10.30642],[104.23961,10.29909],[104.24279,10.29209],[104.24472,10.28466],[104.24554,10.27456],[104.24436,10.26568],[104.24126,10.25688],[104.24862,10.25614],[104.25759,10.25331],[104.26579,10.24871],[104.2726,10.24292],[104.27796,10.23618],[104.28194,10.22856],[104.2844,10.22033],[104.28524,10.21149],[104.28447,10.20311],[104.28215,10.19502],[104.27836,10.1875],[104.27247,10.17974],[104.26666,10.17396],[104.26169,10.17034],[104.25263,10.1659],[104.24281,10.16355],[104.23308,10.16332],[104.22366,10.16511],[104.21466,10.1689],[104.20621,10.17486],[104.19934,10.18255],[104.1944,10.19159],[104.19153,10.20206],[104.19106,10.21009],[104.19283,10.22222],[104.19556,10.22939]]],[[[104.14679,10.47184],[104.14741,10.47959],[104.15055,10.49036],[104.15622,10.50011],[104.16392,10.50808],[104.1739,10.51426],[104.17894,10.51622],[104.18648,10.51798],[104.19856,10.51824],[104.20598,10.51685],[104.21476,10.51323],[104.23051,10.51088],[104.2414,10.50567],[104.24809,10.50058],[104.25192,10.4967],[104.25925,10.48542],[104.26222,10.47673],[104.26327,10.46264],[104.26124,10.45235],[104.25697,10.44295],[104.25173,10.43585],[104.24688,10.43119],[104.23814,10.42546],[104.22873,10.42196],[104.22185,10.42075],[104.213,10.4207],[104.20313,10.42263],[104.19536,10.42585],[104.1879,10.42593],[104.17878,10.42793],[104.16692,10.43378],[104.15946,10.44015],[104.15186,10.4509],[104.14789,10.46197],[104.14679,10.47184]]],[[[103.76542,10.37552],[103.76692,10.38506],[103.77067,10.39438],[103.77667,10.40299],[103.78243,10.40853],[103.78908,10.41298],[103.79917,10.417],[103.8077,10.42549],[103.81512,10.42991],[103.82325,10.43286],[103.83179,10.43423],[103.83805,10.43427],[103.84827,10.43254],[103.85795,10.4285],[103.86808,10.42099],[103.87017,10.41831],[103.89351,10.41459],[103.9026,10.41233],[103.90833,10.42527],[103.91372,10.43222],[103.92092,10.43883],[103.92754,10.4429],[103.93055,10.45479],[103.93626,10.46605],[103.94337,10.47499],[103.95116,10.48219],[103.96097,10.4883],[103.97348,10.49308],[103.9802,10.49446],[103.9926,10.49562],[104.00422,10.49495],[104.01724,10.49132],[104.02616,10.4874],[104.03851,10.47849],[104.04347,10.4732],[104.05301,10.45911],[104.06182,10.45557],[104.07278,10.44821],[104.07889,10.44622],[104.08599,10.44234],[104.09281,10.43683],[104.09839,10.4302],[104.10208,10.42384],[104.10571,10.41212],[104.11385,10.39974],[104.11749,10.39228],[104.12428,10.37176],[104.12599,10.36399],[104.12655,10.3545],[104.12466,10.3415],[104.12069,10.33212],[104.12438,10.31838],[104.12569,10.30459],[104.12416,10.29024],[104.12103,10.27929],[104.12629,10.25979],[104.12678,10.24511],[104.12498,10.23358],[104.1147,10.20256],[104.11114,10.19478],[104.10724,10.18875],[104.09583,10.17684],[104.08747,10.14264],[104.08476,10.13498],[104.08135,10.12874],[104.08221,10.11864],[104.08137,10.11136],[104.07915,10.10323],[104.07723,10.09913],[104.08425,10.08893],[104.08817,10.07739],[104.08913,10.06657],[104.08775,10.05643],[104.08415,10.04679],[104.08453,10.04106],[104.08936,10.03467],[104.09438,10.02518],[104.09696,10.01612],[104.09757,10.01106],[104.09707,10.00072],[104.09372,9.98874],[104.08976,9.98143],[104.08407,9.97453],[104.08135,9.9685],[104.0756,9.96071],[104.07,9.9554],[104.07121,9.94534],[104.07065,9.93746],[104.06906,9.93073],[104.07155,9.9192],[104.07071,9.90771],[104.06602,9.89162],[104.06067,9.88161],[104.06446,9.88541],[104.07558,9.89243],[104.0825,9.89505],[104.09711,9.89714],[104.1045,9.89657],[104.1117,9.89481],[104.1218,9.89011],[104.12848,9.88513],[104.13479,9.87834],[104.13926,9.87115],[104.14237,9.86301],[104.14396,9.85354],[104.14328,9.84226],[104.14025,9.83035],[104.13566,9.82149],[104.12888,9.81289],[104.11895,9.80458],[104.10964,9.80009],[104.10153,9.79806],[104.09155,9.79757],[104.08566,9.79856],[104.08117,9.79189],[104.0734,9.78385],[104.06217,9.77678],[104.04939,9.77314],[104.03938,9.77285],[104.02981,9.77465],[104.02187,9.77781],[104.01507,9.78203],[104.00926,9.78721],[104.00303,9.79538],[103.99986,9.80177],[103.99729,9.81059],[103.99639,9.81734],[103.99654,9.82449],[103.99854,9.83404],[104.00256,9.84294],[104.00615,9.84893],[104.01291,9.85665],[104.01777,9.86015],[104.01282,9.86093],[104.00785,9.8589],[103.99931,9.85704],[103.99056,9.85682],[103.97953,9.85893],[103.97431,9.86088],[103.96397,9.86712],[103.96026,9.8704],[103.94015,9.89428],[103.9351,9.90511],[103.93353,9.9118],[103.933,9.91864],[103.93387,9.92758],[103.9366,9.93637],[103.94002,9.94294],[103.94497,9.94965],[103.95026,9.95533],[103.95611,9.95986],[103.96462,9.96404],[103.96566,9.976],[103.96312,9.98315],[103.96162,9.99609],[103.96331,10.01265],[103.95601,10.01967],[103.94975,10.02934],[103.94627,10.0392],[103.94436,10.06021],[103.9414,10.08043],[103.9283,10.14485],[103.9171,10.19395],[103.90747,10.22229],[103.90647,10.22441],[103.89752,10.23195],[103.89092,10.24016],[103.88796,10.24515],[103.87927,10.24698],[103.86742,10.25236],[103.86161,10.25673],[103.85182,10.2577],[103.84265,10.26065],[103.83395,10.26571],[103.82719,10.27166],[103.8206,10.27972],[103.81648,10.2815],[103.80588,10.28979],[103.79907,10.29886],[103.79478,10.30884],[103.79382,10.31464],[103.78422,10.31913],[103.77677,10.32494],[103.76968,10.3336],[103.76605,10.3402],[103.76352,10.34756],[103.76217,10.35652],[103.76271,10.36596],[103.76542,10.37552]],[[104.05534,9.8748],[104.05181,9.87122],[104.04795,9.86848],[104.05136,9.86795],[104.05534,9.8748]]],[[[103.62298,9.34094],[103.61213,9.34796],[103.60631,9.35325],[103.60124,9.35951],[103.5976,9.36601],[103.59393,9.37787],[103.5933,9.38803],[103.5949,9.39781],[103.59854,9.40707],[103.60413,9.41531],[103.6114,9.42214],[103.61833,9.42648],[103.62577,9.42946],[103.63361,9.43111],[103.64223,9.43134],[103.65141,9.4299],[103.66011,9.42664],[103.66796,9.42171],[103.67963,9.41206],[103.68484,9.40587],[103.68873,9.39918],[103.69145,9.39175],[103.69304,9.37974],[103.6924,9.3722],[103.6905,9.36486],[103.68739,9.35795],[103.68308,9.35147],[103.67787,9.34597],[103.67182,9.34141],[103.66438,9.33758],[103.6565,9.3352],[103.64831,9.33426],[103.64014,9.33475],[103.63211,9.33671],[103.62298,9.34094]]],[[[103.42443,9.27263],[103.42152,9.27578],[103.41652,9.28446],[103.41315,9.2945],[103.41218,9.30479],[103.41335,9.31516],[103.41779,9.32681],[103.42526,9.33789],[103.43679,9.3492],[103.4471,9.35555],[103.46683,9.36373],[103.47891,9.36586],[103.50366,9.36563],[103.51111,9.36942],[103.52257,9.37688],[103.53184,9.37999],[103.54181,9.38107],[103.55073,9.38023],[103.55931,9.37769],[103.56722,9.37353],[103.57426,9.36782],[103.5796,9.36151],[103.58369,9.35435],[103.5864,9.34658],[103.58867,9.32738],[103.58813,9.31742],[103.5854,9.30783],[103.58146,9.30019],[103.57639,9.29369],[103.56281,9.28035],[103.55435,9.27508],[103.54681,9.2721],[103.54176,9.27107],[103.53546,9.26399],[103.52999,9.25974],[103.52337,9.25607],[103.51582,9.25343],[103.51444,9.24463],[103.5115,9.2367],[103.507,9.22923],[103.50132,9.22235],[103.4944,9.21669],[103.48473,9.21134],[103.47639,9.20887],[103.46774,9.20802],[103.45815,9.20884],[103.44958,9.21138],[103.44167,9.21553],[103.4336,9.22221],[103.42739,9.23037],[103.42318,9.2397],[103.42125,9.24833],[103.4208,9.25675],[103.42188,9.26483],[103.42443,9.27263]]]]}}]}