{"type":"FeatureCollection","features":[{"type":"Feature","properties":{"kind":"boundary","province_code":"24","name":"Tỉnh Bắc Ninh","source":"VNSDI","valid_from":"16/6/2025","simplify_tolerance_deg":0.0005},"geometry":{"type":"Polygon","coordinates":[[[106.04509,21.00504],[106.03113,20.99425],[106.02332,20.99548],[106.01817,20.99788],[106.01702,21.00177],[106.01242,21.00188],[106.0113,20.99853],[106.00701,20.99831],[106.00596,20.99854],[106.00434,21.00094],[106.00028,21.00129],[105.99967,21.00598],[106.00735,21.00826],[106.00913,21.00906],[106.00994,21.0105],[106.00955,21.01157],[106.0052,21.01362],[106.00349,21.01838],[106.00712,21.02517],[106.01311,21.0305],[106.01809,21.03694],[106.02018,21.04215],[106.01901,21.04806],[106.01333,21.05134],[106.00719,21.05892],[106.00448,21.06611],[105.99962,21.07307],[105.9984,21.07313],[105.99332,21.06914],[105.9762,21.07053],[105.96952,21.0719],[105.9621,21.07733],[105.95977,21.09022],[105.95762,21.09142],[105.95372,21.09182],[105.94758,21.08696],[105.94103,21.08503],[105.94003,21.08581],[105.93507,21.09798],[105.93494,21.10361],[105.93375,21.10664],[105.93018,21.112],[105.92148,21.11852],[105.91574,21.11893],[105.91247,21.12775],[105.92163,21.1351],[105.92352,21.13315],[105.92447,21.13334],[105.92595,21.13825],[105.92609,21.14415],[105.92193,21.15037],[105.92036,21.15499],[105.92056,21.15675],[105.92333,21.16192],[105.92293,21.16376],[105.91862,21.16397],[105.91717,21.16774],[105.91904,21.17683],[105.92103,21.17933],[105.92236,21.18338],[105.91621,21.18703],[105.91282,21.19169],[105.90693,21.19291],[105.90709,21.19806],[105.90841,21.20076],[105.91306,21.20246],[105.91309,21.20381],[105.91059,21.20555],[105.90993,21.20717],[105.91557,21.20899],[105.91535,21.2157],[105.91411,21.21911],[105.91045,21.22431],[105.90454,21.22246],[105.90377,21.22365],[105.90374,21.22616],[105.90738,21.23127],[105.92062,21.23193],[105.92119,21.23412],[105.93118,21.24154],[105.93343,21.24515],[105.93595,21.24522],[105.93781,21.24367],[105.93877,21.24603],[105.93787,21.24881],[105.92319,21.26978],[105.92213,21.27362],[105.92243,21.28364],[105.92316,21.28671],[105.92564,21.29094],[105.92565,21.29266],[105.91772,21.29653],[105.91652,21.30055],[105.91159,21.30243],[105.90755,21.30175],[105.90521,21.30233],[105.8989,21.3059],[105.89729,21.30974],[105.89721,21.31203],[105.89893,21.3215],[105.89918,21.32454],[105.89846,21.32646],[105.89678,21.32737],[105.89184,21.32627],[105.88967,21.32695],[105.88163,21.3362],[105.88203,21.33859],[105.88704,21.34562],[105.89443,21.34319],[105.898,21.34305],[105.90094,21.34387],[105.90172,21.3465],[105.90009,21.35069],[105.90023,21.35248],[105.90658,21.36858],[105.91019,21.37466],[105.91172,21.37537],[105.91825,21.374],[105.92767,21.37444],[105.93646,21.37272],[105.93901,21.3727],[105.94081,21.37377],[105.94325,21.37686],[105.94455,21.38104],[105.94474,21.38976],[105.94352,21.39405],[105.94385,21.39558],[105.94796,21.40016],[105.9517,21.40156],[105.95633,21.40709],[105.95834,21.42211],[105.95722,21.43101],[105.95824,21.43343],[105.96149,21.43535],[105.96495,21.4349],[105.96996,21.423],[105.97616,21.41671],[105.9856,21.41126],[105.99643,21.40623],[106.00351,21.40493],[106.00944,21.40477],[106.01269,21.4035],[106.01752,21.4006],[106.02131,21.39622],[106.02329,21.39555],[106.02749,21.39773],[106.03503,21.40954],[106.03546,21.4127],[106.03217,21.42362],[106.02772,21.42986],[106.02642,21.43359],[106.02736,21.43684],[106.02962,21.4395],[106.0331,21.44034],[106.04239,21.43942],[106.04485,21.44046],[106.04782,21.44283],[106.0502,21.44674],[106.05135,21.45094],[106.05149,21.45495],[106.05009,21.45936],[106.04837,21.46224],[106.04339,21.46619],[106.04088,21.47165],[106.0412,21.47423],[106.04655,21.47946],[106.04536,21.48358],[106.04241,21.4856],[106.04191,21.48752],[106.04376,21.50367],[106.04522,21.50786],[106.04524,21.51035],[106.04342,21.51429],[106.04345,21.51796],[106.04846,21.53268],[106.05356,21.54164],[106.05629,21.55182],[106.05383,21.55112],[106.05085,21.55297],[106.04805,21.55765],[106.04621,21.55866],[106.0378,21.56083],[106.03346,21.56043],[106.03049,21.56199],[106.03313,21.56879],[106.03576,21.5725],[106.04824,21.58103],[106.05751,21.60119],[106.07523,21.61255],[106.07863,21.61575],[106.08618,21.6208],[106.09333,21.6234],[106.09932,21.62429],[106.11139,21.61869],[106.11797,21.61657],[106.13024,21.61685],[106.15401,21.62536],[106.15877,21.62611],[106.1619,21.6248],[106.16492,21.61837],[106.16965,21.61456],[106.17141,21.61124],[106.17314,21.60985],[106.18613,21.60515],[106.18063,21.60084],[106.17047,21.59661],[106.16954,21.59461],[106.16967,21.58629],[106.16744,21.57544],[106.16869,21.56498],[106.16851,21.55542],[106.1706,21.54881],[106.16758,21.54371],[106.16737,21.54109],[106.16954,21.53206],[106.16817,21.52664],[106.16807,21.51993],[106.16895,21.51476],[106.17091,21.51116],[106.17641,21.50869],[106.18207,21.50793],[106.20911,21.49745],[106.21434,21.49627],[106.23731,21.49431],[106.24254,21.48633],[106.24617,21.48576],[106.25793,21.48735],[106.25973,21.48805],[106.26199,21.4909],[106.27337,21.49338],[106.28648,21.49046],[106.28673,21.48761],[106.28414,21.47814],[106.2845,21.47278],[106.28602,21.47095],[106.2862,21.46818],[106.2842,21.4589],[106.28416,21.45161],[106.28798,21.44997],[106.29265,21.4442],[106.30167,21.44208],[106.30454,21.44345],[106.30484,21.44837],[106.31033,21.45177],[106.31232,21.45113],[106.31459,21.448],[106.31581,21.44752],[106.31948,21.44687],[106.3258,21.44734],[106.32911,21.44606],[106.33141,21.43953],[106.32389,21.41149],[106.32479,21.40962],[106.33362,21.40381],[106.33734,21.40034],[106.33947,21.39961],[106.34638,21.4007],[106.3514,21.39707],[106.35904,21.39601],[106.36764,21.39845],[106.37182,21.39519],[106.3774,21.39435],[106.38693,21.39779],[106.39619,21.40524],[106.39917,21.40536],[106.40498,21.40402],[106.41504,21.4073],[106.41582,21.40895],[106.41497,21.41598],[106.41353,21.41764],[106.40736,21.42056],[106.40535,21.4266],[106.4056,21.42846],[106.4136,21.43248],[106.41893,21.43738],[106.42508,21.43948],[106.42982,21.43901],[106.43782,21.44217],[106.43919,21.44202],[106.44351,21.43717],[106.44565,21.43637],[106.44894,21.43641],[106.45418,21.43952],[106.46174,21.43716],[106.4651,21.4367],[106.4671,21.43747],[106.46942,21.43946],[106.47224,21.44603],[106.47387,21.44781],[106.4813,21.44824],[106.48269,21.44967],[106.4882,21.46424],[106.48824,21.46783],[106.48935,21.4714],[106.49113,21.47374],[106.49444,21.48204],[106.49637,21.48353],[106.50674,21.48666],[106.51521,21.49096],[106.51824,21.49523],[106.5196,21.50046],[106.50905,21.51711],[106.50778,21.52093],[106.50852,21.52544],[106.51216,21.52892],[106.52211,21.53571],[106.52732,21.54993],[106.52708,21.55603],[106.52803,21.55953],[106.52998,21.56224],[106.5362,21.5639],[106.53883,21.5661],[106.54305,21.57337],[106.55181,21.58261],[106.55318,21.58905],[106.55598,21.59304],[106.56228,21.59427],[106.5659,21.59617],[106.57094,21.60143],[106.5887,21.59861],[106.59254,21.599],[106.59599,21.59954],[106.61479,21.60732],[106.61824,21.60765],[106.6267,21.6029],[106.63412,21.60147],[106.63703,21.60158],[106.64582,21.60573],[106.65514,21.60341],[106.66967,21.60685],[106.67189,21.60647],[106.67852,21.60311],[106.68482,21.60156],[106.69909,21.59512],[106.70232,21.59266],[106.70223,21.58511],[106.69947,21.57634],[106.70001,21.5722],[106.71084,21.56084],[106.72658,21.55476],[106.73821,21.54348],[106.74371,21.54109],[106.75249,21.54081],[106.75598,21.54163],[106.75723,21.54353],[106.7596,21.55373],[106.75584,21.56391],[106.75638,21.56686],[106.76124,21.57131],[106.76483,21.57261],[106.77352,21.57242],[106.78399,21.57632],[106.78713,21.57428],[106.78863,21.57121],[106.79146,21.56859],[106.80209,21.56083],[106.80647,21.55964],[106.81107,21.56007],[106.81949,21.56303],[106.82296,21.56299],[106.82845,21.56035],[106.84009,21.55965],[106.84395,21.55818],[106.84667,21.55528],[106.84886,21.55038],[106.8509,21.54185],[106.8524,21.53992],[106.85824,21.5387],[106.8622,21.53636],[106.86493,21.53427],[106.86538,21.53174],[106.86504,21.52882],[106.86012,21.52268],[106.8584,21.52247],[106.8542,21.52498],[106.85119,21.52433],[106.84999,21.52159],[106.85006,21.51677],[106.84535,21.51338],[106.84038,21.51298],[106.83976,21.51212],[106.83897,21.50754],[106.84229,21.50355],[106.84226,21.49621],[106.84298,21.49482],[106.84579,21.49428],[106.85336,21.4963],[106.87406,21.49672],[106.88657,21.49228],[106.88899,21.48967],[106.88893,21.48566],[106.89236,21.47802],[106.90011,21.47363],[106.90145,21.47075],[106.9011,21.46731],[106.8983,21.46347],[106.89234,21.45926],[106.89128,21.45622],[106.89154,21.45288],[106.89775,21.44315],[106.91069,21.43144],[106.91525,21.431],[106.92248,21.43742],[106.92546,21.43901],[106.92751,21.43918],[106.92882,21.43802],[106.93077,21.4314],[106.93239,21.42995],[106.93546,21.43039],[106.94133,21.43481],[106.94348,21.43469],[106.94622,21.43332],[106.9494,21.42707],[106.95171,21.42427],[106.95466,21.42338],[106.95712,21.42412],[106.96331,21.42901],[106.9685,21.43564],[106.98428,21.43976],[106.98774,21.43914],[106.98935,21.4374],[106.99122,21.43212],[107.00214,21.42473],[107.00324,21.42271],[107.00353,21.42127],[107.00187,21.41948],[106.99428,21.41718],[106.99221,21.4151],[106.99149,21.40727],[106.986,21.40084],[106.98679,21.39127],[106.99216,21.38126],[106.99212,21.37792],[106.99065,21.37507],[106.99095,21.36675],[106.98862,21.36076],[106.98941,21.35864],[106.9955,21.35637],[106.99945,21.35394],[107.00185,21.35095],[107.00825,21.34848],[107.01744,21.34197],[107.02186,21.33656],[107.02291,21.33139],[107.03178,21.3233],[107.03222,21.31282],[107.0281,21.30777],[107.02011,21.30049],[107.00878,21.29634],[106.98624,21.29252],[106.97397,21.28449],[106.97364,21.28263],[106.97571,21.27142],[106.97706,21.26969],[106.98238,21.2669],[106.98372,21.26473],[106.98501,21.25805],[106.97902,21.24048],[106.9768,21.22711],[106.97586,21.22576],[106.97072,21.2241],[106.96894,21.22247],[106.96298,21.21128],[106.95719,21.20669],[106.95569,21.1918],[106.95483,21.19023],[106.94999,21.18835],[106.94813,21.18679],[106.94339,21.17452],[106.94137,21.17225],[106.93767,21.17014],[106.93484,21.1696],[106.93073,21.17086],[106.91812,21.18276],[106.915,21.18402],[106.91171,21.18398],[106.89377,21.17988],[106.88327,21.18351],[106.8792,21.18162],[106.87445,21.17501],[106.87154,21.17432],[106.86208,21.17615],[106.86057,21.1771],[106.85937,21.17926],[106.85771,21.18719],[106.85645,21.18826],[106.85019,21.18856],[106.84302,21.18625],[106.83401,21.18711],[106.8268,21.18872],[106.82532,21.18845],[106.82468,21.18636],[106.82656,21.17816],[106.82582,21.16694],[106.82614,21.16431],[106.83053,21.15685],[106.83014,21.15437],[106.82911,21.15378],[106.82211,21.15594],[106.81814,21.15617],[106.81159,21.154],[106.80642,21.15429],[106.79682,21.15009],[106.7906,21.14963],[106.78079,21.15165],[106.77183,21.15231],[106.77016,21.15286],[106.76718,21.15556],[106.76429,21.15631],[106.75694,21.15558],[106.74631,21.15674],[106.73336,21.16093],[106.72834,21.16012],[106.72122,21.16019],[106.71158,21.16316],[106.70684,21.16751],[106.70547,21.16791],[106.69499,21.16965],[106.6837,21.16731],[106.68193,21.16776],[106.67941,21.17022],[106.66821,21.17124],[106.6583,21.17407],[106.64477,21.17592],[106.6389,21.17531],[106.62928,21.17177],[106.61103,21.17127],[106.60906,21.17263],[106.60642,21.17853],[106.6048,21.17927],[106.5896,21.17874],[106.58868,21.17949],[106.58862,21.18664],[106.5861,21.18915],[106.58123,21.19134],[106.57647,21.19157],[106.5679,21.18903],[106.5648,21.18973],[106.56091,21.19325],[106.55745,21.19376],[106.55414,21.19374],[106.5458,21.19129],[106.54357,21.19203],[106.5396,21.19849],[106.53352,21.21354],[106.52976,21.2207],[106.52847,21.22196],[106.52504,21.22321],[106.51844,21.22435],[106.50817,21.2225],[106.49647,21.22768],[106.48835,21.23349],[106.48651,21.23315],[106.48074,21.22925],[106.46862,21.2271],[106.46452,21.22713],[106.45438,21.23206],[106.44702,21.22976],[106.43668,21.22849],[106.42623,21.23137],[106.42416,21.23082],[106.42246,21.22868],[106.41858,21.22283],[106.41451,21.21304],[106.41235,21.2112],[106.39059,21.19897],[106.3863,21.19714],[106.37642,21.19572],[106.37495,21.19437],[106.37167,21.18644],[106.3658,21.17974],[106.36306,21.17338],[106.35364,21.17138],[106.34838,21.17153],[106.34714,21.1702],[106.34628,21.16571],[106.34475,21.16515],[106.34182,21.16737],[106.34001,21.17025],[106.33303,21.17513],[106.33102,21.18009],[106.32441,21.18473],[106.32344,21.19225],[106.31446,21.19345],[106.31293,21.19288],[106.31151,21.19106],[106.30906,21.18448],[106.30904,21.18213],[106.31238,21.17224],[106.32071,21.15972],[106.32294,21.1499],[106.3208,21.14228],[106.31688,21.13497],[106.31403,21.13098],[106.31157,21.1291],[106.30722,21.12759],[106.29928,21.12146],[106.2954,21.11339],[106.29506,21.11002],[106.29526,21.10622],[106.30256,21.08448],[106.30217,21.07426],[106.30355,21.06927],[106.30927,21.05903],[106.30941,21.05738],[106.30578,21.05239],[106.29641,21.04342],[106.29406,21.03982],[106.29323,21.03271],[106.29503,21.0247],[106.29461,21.02052],[106.27654,21.00608],[106.27337,21.00007],[106.27275,20.9944],[106.27325,20.99207],[106.26558,20.98895],[106.25327,20.99644],[106.24973,20.99744],[106.24363,20.99869],[106.24253,20.99858],[106.24,20.99568],[106.23872,20.99534],[106.2306,20.99626],[106.20459,20.98381],[106.17711,20.97588],[106.1731,20.97349],[106.16832,20.96905],[106.16359,20.97523],[106.1688,20.98456],[106.1673,20.98802],[106.16283,20.98929],[106.15376,20.98868],[106.15091,20.98937],[106.13949,21.00025],[106.137,21.00092],[106.13246,20.99886],[106.1306,20.99505],[106.12805,20.98315],[106.1254,20.98397],[106.12567,20.98729],[106.12471,20.98936],[106.12036,20.98882],[106.11944,20.98762],[106.11911,20.98458],[106.118,20.9835],[106.11532,20.9842],[106.1154,20.99533],[106.10975,20.99916],[106.10824,20.99956],[106.10427,20.99801],[106.09999,20.99972],[106.08969,21.00684],[106.08572,21.00641],[106.08473,21.00538],[106.07987,20.99578],[106.07323,20.99762],[106.07001,21.00017],[106.06769,21.00087],[106.05888,21.00036],[106.05526,21.00599],[106.05026,21.00616],[106.04509,21.00504]]]}},{"type":"Feature","properties":{"kind":"buffer","province_code":"24","buffer_m":5000,"source":"derived","simplify_tolerance_deg":0.0005},"geometry":{"type":"Polygon","coordinates":[[[105.85056,21.30018],[105.8435,21.30853],[105.83833,21.31632],[105.83494,21.32493],[105.83347,21.334],[105.83399,21.34317],[105.8367,21.35399],[105.84442,21.3677],[105.85188,21.3766],[105.86106,21.38364],[105.8687,21.39784],[105.87549,21.40605],[105.88177,21.41118],[105.8889,21.41523],[105.89827,21.41879],[105.90316,21.4197],[105.90936,21.42739],[105.90976,21.43894],[105.91337,21.44999],[105.91806,21.45843],[105.92453,21.46576],[105.9325,21.47167],[105.94345,21.47729],[105.95146,21.47958],[105.95977,21.48054],[105.97159,21.47969],[105.98139,21.47741],[105.99283,21.47154],[105.99426,21.48329],[105.99371,21.48983],[105.99584,21.50719],[105.99524,21.51826],[105.99708,21.52945],[105.99129,21.53566],[105.98661,21.54325],[105.98358,21.55154],[105.98231,21.56023],[105.98285,21.56898],[105.98783,21.58427],[105.99298,21.59383],[106.00099,21.60383],[106.00865,21.60992],[106.01479,21.6223],[106.02135,21.6311],[106.03083,21.63902],[106.04503,21.64814],[106.05726,21.65719],[106.06872,21.66294],[106.08069,21.66704],[106.09182,21.66932],[106.10137,21.66947],[106.11129,21.6681],[106.12449,21.66307],[106.13698,21.66766],[106.14596,21.66994],[106.15904,21.67133],[106.16912,21.67031],[106.18032,21.66705],[106.19036,21.66134],[106.1976,21.65519],[106.20363,21.64718],[106.21143,21.64365],[106.21924,21.63802],[106.22567,21.63102],[106.23045,21.62295],[106.23338,21.61413],[106.23434,21.60493],[106.23329,21.59575],[106.23026,21.58695],[106.2254,21.57892],[106.2166,21.57003],[106.21685,21.56179],[106.21833,21.55519],[106.21878,21.54722],[106.21819,21.54273],[106.22278,21.54097],[106.24592,21.53885],[106.25602,21.53593],[106.26993,21.53849],[106.27893,21.53856],[106.29529,21.53542],[106.30542,21.53205],[106.31437,21.52735],[106.32205,21.52099],[106.32795,21.51378],[106.33195,21.5062],[106.33438,21.49805],[106.33496,21.49173],[106.3476,21.48821],[106.35833,21.48203],[106.36512,21.47613],[106.37059,21.46912],[106.374,21.4623],[106.39302,21.47552],[106.40244,21.47987],[106.42604,21.48602],[106.43475,21.4873],[106.44427,21.48699],[106.45222,21.50388],[106.45735,21.51094],[106.46025,21.51365],[106.4596,21.52373],[106.46248,21.53888],[106.46713,21.54863],[106.47409,21.55709],[106.47943,21.56189],[106.48132,21.57074],[106.48404,21.57804],[106.48999,21.5875],[106.4972,21.5954],[106.50477,21.6006],[106.50797,21.60449],[106.51292,21.61393],[106.52125,21.62441],[106.52795,21.62983],[106.53952,21.63552],[106.54959,21.64197],[106.5592,21.64529],[106.57111,21.64668],[106.58685,21.64505],[106.60215,21.65096],[106.61343,21.65264],[106.62476,21.65245],[106.63566,21.6498],[106.64817,21.65089],[106.65489,21.65025],[106.66635,21.652],[106.67835,21.65133],[106.68763,21.64921],[106.70487,21.64268],[106.72709,21.63193],[106.73456,21.62628],[106.74139,21.61915],[106.74467,21.61378],[106.75506,21.61689],[106.76452,21.61772],[106.77655,21.621],[106.78722,21.62144],[106.79773,21.61966],[106.80673,21.61648],[106.81369,21.61255],[106.81912,21.60816],[106.83484,21.60682],[106.83997,21.60497],[106.85083,21.60373],[106.86214,21.60005],[106.87187,21.59504],[106.88013,21.58807],[106.88754,21.57927],[106.89135,21.57229],[106.90161,21.56361],[106.9066,21.557],[106.91026,21.54967],[106.91246,21.54184],[106.91321,21.52979],[106.92295,21.52195],[106.93049,21.51267],[106.93427,21.50518],[106.93894,21.50044],[106.9443,21.49171],[106.9486,21.47957],[106.9536,21.47868],[106.97015,21.48324],[106.98415,21.48498],[106.99671,21.48357],[107.00696,21.48061],[107.01626,21.4756],[107.02415,21.46878],[107.02994,21.46168],[107.03876,21.45415],[107.04622,21.44321],[107.05063,21.43102],[107.05174,21.42151],[107.05101,21.41343],[107.04875,21.40559],[107.04503,21.39827],[107.03918,21.39082],[107.04018,21.38267],[107.04952,21.37572],[107.05572,21.36946],[107.06013,21.36406],[107.06507,21.35587],[107.0706,21.35012],[107.07547,21.34243],[107.07862,21.334],[107.07995,21.32514],[107.0804,21.3144],[107.07953,21.3041],[107.07618,21.29425],[107.06642,21.28032],[107.0537,21.26805],[107.04707,21.263],[107.03316,21.25646],[107.0316,21.24612],[107.02553,21.22837],[107.02213,21.2117],[107.0163,21.20113],[107.01064,21.19444],[107.00596,21.19065],[107.0034,21.18684],[107.00221,21.17993],[106.99854,21.17108],[106.99324,21.1629],[106.98825,21.15772],[106.98043,21.14558],[106.97285,21.13799],[106.96273,21.1315],[106.95527,21.12804],[106.94729,21.12583],[106.93619,21.1244],[106.92789,21.12485],[106.91569,21.1279],[106.90625,21.1319],[106.90147,21.13524],[106.89626,21.13477],[106.88326,21.13046],[106.87008,21.12933],[106.86254,21.12088],[106.8542,21.11516],[106.84478,21.11102],[106.83464,21.10886],[106.82423,21.10879],[106.82013,21.10961],[106.80435,21.10536],[106.79006,21.10441],[106.76783,21.10725],[106.75301,21.1107],[106.73651,21.11246],[106.72688,21.11492],[106.70985,21.11625],[106.69495,21.12055],[106.69026,21.12269],[106.68172,21.12213],[106.6712,21.12364],[106.64766,21.12973],[106.63436,21.1268],[106.62561,21.12612],[106.60988,21.12607],[106.60022,21.1272],[106.591,21.13014],[106.58363,21.1339],[106.57257,21.13644],[106.565,21.13985],[106.55782,21.14473],[106.55088,21.14646],[106.5376,21.14673],[106.5298,21.14863],[106.52037,21.15239],[106.51379,21.15646],[106.5073,21.16222],[106.50052,21.17112],[106.49617,21.17894],[106.49149,21.17999],[106.4826,21.18361],[106.46407,21.18192],[106.451,21.18394],[106.44484,21.17779],[106.43743,21.17258],[106.40813,21.15678],[106.40373,21.14909],[106.39837,21.14259],[106.39185,21.13711],[106.38438,21.13283],[106.37484,21.12952],[106.36469,21.124],[106.35696,21.10983],[106.3482,21.09922],[106.3504,21.09011],[106.35071,21.08187],[106.35336,21.07733],[106.35602,21.07011],[106.35734,21.06258],[106.35736,21.05265],[106.35564,21.04453],[106.3512,21.0347],[106.34323,21.02392],[106.3432,21.0176],[106.34117,21.00861],[106.33707,20.9991],[106.3322,20.99221],[106.32002,20.98138],[106.31699,20.97305],[106.31176,20.96486],[106.30481,20.95789],[106.2921,20.95019],[106.28202,20.94632],[106.26894,20.94384],[106.25902,20.94415],[106.24938,20.94636],[106.24065,20.95027],[106.21848,20.9405],[106.20101,20.93558],[106.19629,20.93198],[106.18781,20.92769],[106.1783,20.92482],[106.16837,20.92384],[106.15844,20.9248],[106.14871,20.9276],[106.1404,20.93188],[106.1326,20.93824],[106.11261,20.93856],[106.0986,20.94176],[106.08951,20.94601],[106.08281,20.95082],[106.07619,20.95069],[106.06702,20.9522],[106.05538,20.9554],[106.0503,20.95276],[106.04152,20.9501],[106.03236,20.94905],[106.02316,20.94966],[106.00615,20.95335],[105.99504,20.95449],[105.98507,20.95778],[105.97495,20.96282],[105.96749,20.96815],[105.96127,20.97473],[105.95652,20.98231],[105.95343,20.99061],[105.9511,21.00538],[105.95234,21.0155],[105.9568,21.0285],[105.94906,21.03095],[105.93426,21.04035],[105.92489,21.04242],[105.9172,21.04572],[105.90924,21.05101],[105.90223,21.05774],[105.89686,21.06569],[105.89065,21.08056],[105.8863,21.08312],[105.87952,21.08909],[105.87409,21.09616],[105.86693,21.11289],[105.8647,21.12165],[105.86436,21.13066],[105.86593,21.13954],[105.86934,21.14796],[105.87192,21.15179],[105.86912,21.16519],[105.86664,21.16808],[105.8623,21.1758],[105.85963,21.18415],[105.85871,21.19463],[105.85975,21.20553],[105.85642,21.2151],[105.85553,21.2257],[105.85627,21.23406],[105.85864,21.24216],[105.86558,21.25432],[105.8704,21.26049],[105.87515,21.26481],[105.87495,21.26647],[105.87034,21.26948],[105.86195,21.27686],[105.85476,21.28762],[105.85197,21.29415],[105.85056,21.30018]]]}}]}