{"type":"FeatureCollection","features":[{"type":"Feature","properties":{"kind":"boundary","province_code":"15","name":"Tỉnh Lào Cai","source":"VNSDI","valid_from":"16/6/2025","simplify_tolerance_deg":0.0005},"geometry":{"type":"Polygon","coordinates":[[[104.13238,21.65398],[104.11307,21.64756],[104.10377,21.64598],[104.09019,21.64232],[104.07868,21.65047],[104.05088,21.65829],[104.04552,21.66088],[104.03528,21.66868],[104.02928,21.67151],[104.0243,21.67133],[104.00854,21.66568],[104.00445,21.67231],[104.00113,21.67384],[103.98405,21.67731],[103.98175,21.67718],[103.96937,21.6646],[103.96758,21.66482],[103.9631,21.66872],[103.9594,21.66989],[103.93776,21.66952],[103.93647,21.67129],[103.93554,21.67772],[103.93648,21.68785],[103.9353,21.69189],[103.93338,21.69438],[103.9234,21.70027],[103.92159,21.70553],[103.91907,21.70969],[103.91371,21.71543],[103.91318,21.7172],[103.91607,21.72099],[103.91754,21.72554],[103.91679,21.73404],[103.91763,21.7363],[103.92549,21.74181],[103.93354,21.74475],[103.93543,21.74476],[103.93821,21.74076],[103.94616,21.74377],[103.9528,21.74166],[103.95347,21.74359],[103.95254,21.75322],[103.95494,21.75484],[103.9582,21.75502],[103.96436,21.75827],[103.96554,21.76069],[103.9667,21.76728],[103.96634,21.77001],[103.96218,21.77464],[103.95332,21.78855],[103.95187,21.79882],[103.94978,21.80234],[103.93854,21.81254],[103.93212,21.82101],[103.92056,21.8272],[103.91848,21.82944],[103.91911,21.8365],[103.91789,21.83923],[103.90836,21.84896],[103.8895,21.86457],[103.88811,21.86729],[103.88735,21.89828],[103.88983,21.91162],[103.89269,21.91903],[103.89553,21.92077],[103.90266,21.92038],[103.90678,21.92153],[103.91755,21.92899],[103.92116,21.93029],[103.92443,21.92935],[103.92794,21.92481],[103.93758,21.91884],[103.94154,21.91774],[103.94446,21.91888],[103.96169,21.9373],[103.96164,21.94501],[103.97049,21.95791],[103.97924,21.96254],[103.98522,21.96715],[103.97604,21.97561],[103.96891,21.98552],[103.95586,22.00044],[103.96153,22.00511],[103.9643,22.01177],[103.96314,22.01608],[103.95984,22.01974],[103.95485,22.02339],[103.95313,22.02696],[103.95732,22.03994],[103.95599,22.05152],[103.95276,22.06182],[103.94931,22.06959],[103.94145,22.07933],[103.93871,22.08405],[103.93913,22.08753],[103.94376,22.10262],[103.94384,22.10746],[103.94234,22.11156],[103.93765,22.11901],[103.93729,22.12216],[103.93928,22.1287],[103.93853,22.13828],[103.93749,22.14028],[103.93579,22.14142],[103.91985,22.1429],[103.91543,22.14529],[103.90894,22.1523],[103.90042,22.15835],[103.88934,22.17323],[103.88605,22.175],[103.87066,22.17774],[103.86816,22.1794],[103.86689,22.18266],[103.87282,22.19028],[103.87231,22.19744],[103.8706,22.20016],[103.86775,22.20215],[103.85812,22.20618],[103.8564,22.20817],[103.85317,22.21657],[103.84396,22.22409],[103.84281,22.2264],[103.84316,22.23799],[103.84073,22.24481],[103.8318,22.25875],[103.82948,22.26537],[103.82001,22.27657],[103.79337,22.29785],[103.78893,22.30098],[103.77567,22.30414],[103.77144,22.30917],[103.76611,22.31071],[103.76281,22.313],[103.76303,22.31447],[103.76718,22.31766],[103.77121,22.32264],[103.77186,22.32591],[103.77,22.33243],[103.77224,22.33423],[103.78195,22.3362],[103.78238,22.33863],[103.78065,22.34325],[103.7805,22.34746],[103.77855,22.35018],[103.7714,22.35308],[103.76809,22.35589],[103.76704,22.35978],[103.76625,22.37283],[103.76718,22.382],[103.76602,22.38557],[103.75972,22.39468],[103.74419,22.40973],[103.73214,22.41574],[103.72885,22.41656],[103.71598,22.41319],[103.71093,22.40894],[103.7063,22.40753],[103.69215,22.40784],[103.67917,22.40436],[103.64556,22.40377],[103.63249,22.3985],[103.62457,22.39801],[103.61934,22.40049],[103.60738,22.40839],[103.60452,22.41132],[103.60346,22.41636],[103.60315,22.42394],[103.60188,22.42656],[103.58939,22.43056],[103.58925,22.4333],[103.58797,22.43644],[103.58104,22.43965],[103.57804,22.44467],[103.56971,22.45187],[103.56556,22.45878],[103.55701,22.4647],[103.55551,22.46764],[103.55547,22.47132],[103.5578,22.47534],[103.56845,22.48576],[103.5779,22.49195],[103.58481,22.50254],[103.58819,22.51573],[103.59442,22.52357],[103.59522,22.52621],[103.59338,22.5283],[103.58531,22.53129],[103.58256,22.53453],[103.57951,22.54461],[103.5798,22.54977],[103.56889,22.56378],[103.56761,22.56756],[103.5687,22.57157],[103.57183,22.57602],[103.57215,22.57792],[103.55939,22.58454],[103.552,22.58721],[103.54429,22.58725],[103.53841,22.58614],[103.53229,22.58651],[103.52874,22.59553],[103.53279,22.59788],[103.53926,22.60721],[103.54572,22.61801],[103.55081,22.63048],[103.55392,22.63598],[103.56926,22.64349],[103.57283,22.64878],[103.57901,22.66526],[103.56726,22.68348],[103.56408,22.69498],[103.56538,22.70622],[103.56895,22.70966],[103.57871,22.72475],[103.58278,22.72754],[103.58948,22.73454],[103.59193,22.73591],[103.59738,22.74375],[103.59747,22.74685],[103.59874,22.74909],[103.60412,22.74949],[103.60894,22.75607],[103.61021,22.76485],[103.62049,22.77544],[103.61745,22.78292],[103.6178,22.78493],[103.61872,22.78597],[103.62431,22.78625],[103.63091,22.79125],[103.63151,22.79095],[103.63071,22.78855],[103.63161,22.78745],[103.63801,22.78675],[103.63515,22.79072],[103.63591,22.79195],[103.63932,22.79243],[103.63868,22.79574],[103.63973,22.79736],[103.64202,22.79708],[103.64131,22.79391],[103.64181,22.79325],[103.64651,22.79495],[103.65021,22.79185],[103.65595,22.79085],[103.66082,22.7884],[103.66433,22.78292],[103.66823,22.77132],[103.67235,22.76819],[103.67942,22.76446],[103.68286,22.76049],[103.68497,22.75377],[103.69091,22.74897],[103.70271,22.74466],[103.73374,22.71594],[103.73879,22.71226],[103.73943,22.71033],[103.73708,22.705],[103.73772,22.70243],[103.74714,22.69569],[103.7526,22.68914],[103.75501,22.68815],[103.76526,22.69074],[103.76797,22.69004],[103.77142,22.68441],[103.78393,22.66801],[103.79645,22.6585],[103.80591,22.64552],[103.81331,22.63855],[103.82135,22.62027],[103.82407,22.61719],[103.83463,22.6101],[103.8393,22.6059],[103.84765,22.59593],[103.86272,22.58406],[103.87615,22.5653],[103.87856,22.56388],[103.88219,22.56369],[103.88365,22.56463],[103.88523,22.57002],[103.88823,22.57047],[103.89156,22.56899],[103.91414,22.5447],[103.91455,22.54219],[103.91351,22.53723],[103.91398,22.53545],[103.91562,22.53381],[103.91871,22.53311],[103.92009,22.53377],[103.92398,22.53967],[103.92715,22.53969],[103.92887,22.53734],[103.93069,22.53068],[103.93241,22.52782],[103.93559,22.52634],[103.94339,22.52589],[103.9461,22.5244],[103.95221,22.51283],[103.95841,22.50806],[103.96384,22.50695],[103.96906,22.51075],[103.97067,22.5104],[103.97159,22.50724],[103.97616,22.50691],[103.97943,22.50848],[103.98338,22.51287],[103.98736,22.51463],[103.99125,22.51913],[104.00541,22.51755],[104.00893,22.51936],[104.01178,22.52362],[104.01001,22.52914],[104.00951,22.53414],[104.00521,22.53944],[104.00931,22.54454],[104.01301,22.54344],[104.01511,22.54394],[104.01511,22.54474],[104.01321,22.54534],[104.01231,22.54804],[104.01471,22.54974],[104.01481,22.55114],[104.01361,22.55454],[104.01061,22.55724],[104.01231,22.56014],[104.01041,22.56124],[104.01001,22.56234],[104.01051,22.56324],[104.01231,22.56264],[104.01381,22.56364],[104.01591,22.56364],[104.01651,22.56454],[104.01441,22.56654],[104.01488,22.56751],[104.01291,22.57074],[104.00891,22.57214],[104.00761,22.57464],[104.00561,22.57594],[104.01031,22.57944],[104.01381,22.57844],[104.01381,22.58294],[104.01501,22.58604],[104.01351,22.58784],[104.01441,22.59004],[104.01431,22.59294],[104.01641,22.59474],[104.01971,22.59584],[104.02081,22.60004],[104.02071,22.60564],[104.02331,22.60864],[104.02521,22.61384],[104.02491,22.62214],[104.02521,22.62304],[104.02961,22.62604],[104.02911,22.62724],[104.03001,22.63234],[104.02791,22.63434],[104.02781,22.63624],[104.02861,22.63944],[104.03091,22.64194],[104.0332,22.66184],[104.0351,22.66959],[104.03965,22.67777],[104.03959,22.68063],[104.03874,22.68214],[104.03336,22.68433],[104.0294,22.68693],[104.02815,22.69291],[104.03352,22.7006],[104.04246,22.72809],[104.06449,22.75435],[104.07633,22.76206],[104.08888,22.7722],[104.09093,22.77676],[104.09225,22.78238],[104.09905,22.79548],[104.10827,22.80492],[104.11709,22.81145],[104.12386,22.81313],[104.1272,22.81305],[104.13308,22.8066],[104.13799,22.80585],[104.16098,22.81575],[104.16408,22.82167],[104.16522,22.82235],[104.16804,22.82256],[104.17483,22.82047],[104.17695,22.82143],[104.17771,22.82324],[104.18001,22.82334],[104.18261,22.82534],[104.18521,22.82564],[104.18671,22.82274],[104.18851,22.82274],[104.19091,22.82084],[104.19151,22.82304],[104.19411,22.82364],[104.19721,22.82614],[104.20061,22.82654],[104.21514,22.83112],[104.21996,22.82873],[104.2407,22.84141],[104.24031,22.84284],[104.24111,22.84394],[104.24371,22.84384],[104.25006,22.83988],[104.25203,22.84001],[104.25316,22.84282],[104.25597,22.84457],[104.25889,22.84439],[104.26371,22.84054],[104.26721,22.84024],[104.26802,22.83524],[104.27173,22.82883],[104.26953,22.82522],[104.2671,22.81184],[104.25671,22.78083],[104.25699,22.77209],[104.26192,22.76179],[104.26854,22.75456],[104.26806,22.74813],[104.26969,22.74203],[104.27854,22.7406],[104.28855,22.73559],[104.30196,22.73123],[104.31081,22.73084],[104.3183,22.73151],[104.32921,22.72692],[104.33718,22.72127],[104.34336,22.71358],[104.33668,22.69504],[104.33625,22.69072],[104.33763,22.68757],[104.35469,22.67553],[104.35935,22.67386],[104.36854,22.67359],[104.39041,22.67907],[104.40513,22.6549],[104.40416,22.65038],[104.40872,22.63865],[104.43023,22.61419],[104.43385,22.6117],[104.44314,22.61222],[104.46056,22.61027],[104.46009,22.60505],[104.4626,22.59521],[104.46599,22.5759],[104.46373,22.57242],[104.45671,22.57292],[104.44559,22.57615],[104.43063,22.57567],[104.42633,22.57355],[104.42386,22.56965],[104.42176,22.55721],[104.42293,22.54795],[104.41629,22.53687],[104.41473,22.53107],[104.4186,22.52656],[104.42892,22.52364],[104.43448,22.52071],[104.43744,22.51641],[104.44031,22.50894],[104.45088,22.49897],[104.45712,22.49552],[104.46597,22.49218],[104.4704,22.48946],[104.47358,22.48641],[104.47337,22.48304],[104.46603,22.47754],[104.45803,22.46709],[104.44979,22.46032],[104.449,22.45758],[104.44994,22.44969],[104.45325,22.44411],[104.46077,22.4355],[104.46668,22.4252],[104.47246,22.42227],[104.48753,22.42022],[104.49025,22.41717],[104.49436,22.40739],[104.49629,22.40582],[104.49777,22.40487],[104.5066,22.40458],[104.5142,22.39966],[104.52145,22.3962],[104.5311,22.38781],[104.54912,22.3807],[104.55139,22.37691],[104.55345,22.37071],[104.54815,22.36469],[104.54669,22.36184],[104.54726,22.35942],[104.54988,22.35679],[104.55294,22.35522],[104.56074,22.35482],[104.5707,22.35548],[104.575,22.35433],[104.58113,22.34793],[104.5808,22.34456],[104.56737,22.3342],[104.56579,22.33156],[104.57181,22.32431],[104.57818,22.31464],[104.57943,22.30959],[104.579,22.3038],[104.56963,22.29661],[104.55972,22.28489],[104.54989,22.2815],[104.54527,22.27717],[104.54494,22.27358],[104.54813,22.26633],[104.54849,22.25885],[104.54693,22.25158],[104.54706,22.24663],[104.54854,22.24358],[104.55149,22.24201],[104.55714,22.2415],[104.5697,22.24465],[104.5742,22.2467],[104.57647,22.2503],[104.58164,22.25209],[104.58616,22.25241],[104.58714,22.26633],[104.59886,22.28068],[104.60314,22.28722],[104.60731,22.29039],[104.61116,22.29113],[104.62044,22.28768],[104.62723,22.28696],[104.64161,22.27783],[104.64489,22.27826],[104.64692,22.28026],[104.65315,22.27806],[104.6579,22.2746],[104.66107,22.27355],[104.6656,22.27377],[104.66978,22.27568],[104.67074,22.27534],[104.6784,22.26369],[104.68202,22.2619],[104.70101,22.26363],[104.70927,22.26132],[104.71934,22.25966],[104.72206,22.2565],[104.7232,22.25113],[104.7291,22.23777],[104.72901,22.22755],[104.72214,22.21543],[104.72124,22.2129],[104.7217,22.2089],[104.72453,22.20469],[104.72578,22.2009],[104.72816,22.19806],[104.73303,22.19639],[104.73812,22.19323],[104.74118,22.18766],[104.74355,22.18629],[104.75226,22.18494],[104.75531,22.18305],[104.75748,22.17336],[104.7594,22.17157],[104.76833,22.1679],[104.77444,22.16664],[104.77873,22.16802],[104.78392,22.17319],[104.78742,22.17319],[104.7959,22.17131],[104.80957,22.17164],[104.8133,22.17364],[104.8186,22.18208],[104.82233,22.18324],[104.82979,22.17882],[104.83487,22.17935],[104.8403,22.18136],[104.84767,22.18552],[104.85081,22.1761],[104.85624,22.16758],[104.85411,22.15715],[104.85705,22.15178],[104.86158,22.14789],[104.86248,22.14294],[104.86147,22.13967],[104.86182,22.12851],[104.865,22.10861],[104.86501,22.09681],[104.86987,22.09176],[104.87214,22.08745],[104.87259,22.08355],[104.87474,22.07944],[104.87938,22.07481],[104.8831,22.07197],[104.89191,22.07208],[104.89519,22.07124],[104.9031,22.06482],[104.90558,22.06377],[104.90953,22.06451],[104.9119,22.06399],[104.91563,22.06093],[104.91891,22.05978],[104.925,22.06168],[104.92997,22.06115],[104.93697,22.05684],[104.94081,22.05315],[104.94194,22.05052],[104.94104,22.04578],[104.9415,22.04283],[104.9468,22.03662],[104.95493,22.03546],[104.96419,22.02873],[104.96577,22.02936],[104.97209,22.03852],[104.9748,22.04073],[104.99332,22.04547],[104.99591,22.04474],[104.9984,22.04263],[104.99817,22.04031],[104.99564,22.03825],[104.99413,22.03353],[104.99291,22.02211],[104.99549,22.01459],[104.99151,22.00819],[104.99038,22.00377],[104.99025,21.99903],[104.99057,21.99398],[104.99752,21.99257],[104.99857,21.98947],[104.99827,21.98398],[104.99389,21.97595],[104.99269,21.97017],[104.99299,21.95609],[104.98695,21.94031],[104.98695,21.93707],[104.99027,21.93256],[104.99405,21.93017],[104.99767,21.93002],[105.00358,21.93427],[105.01077,21.93637],[105.01549,21.93599],[105.01836,21.93446],[105.02164,21.92606],[105.02205,21.91976],[105.02103,21.91652],[105.01754,21.91155],[105.01487,21.90563],[105.01405,21.89838],[105.01918,21.89475],[105.03518,21.89169],[105.03846,21.88959],[105.04174,21.88577],[105.04256,21.88119],[105.04256,21.87202],[105.04338,21.86744],[105.04522,21.86477],[105.04912,21.86171],[105.05609,21.85865],[105.05969,21.85573],[105.06388,21.84562],[105.06759,21.84148],[105.07203,21.83803],[105.07672,21.83182],[105.07968,21.83044],[105.08783,21.82928],[105.09029,21.82698],[105.09309,21.82242],[105.09918,21.81663],[105.10115,21.81249],[105.1009,21.81135],[105.09818,21.80951],[105.09102,21.80859],[105.08781,21.80561],[105.08114,21.79113],[105.07546,21.78101],[105.07619,21.77642],[105.07866,21.77343],[105.08039,21.76906],[105.0789,21.76538],[105.07075,21.75366],[105.06779,21.75067],[105.06025,21.74887],[105.05835,21.74474],[105.0641,21.74246],[105.0761,21.73531],[105.07693,21.73206],[105.0747,21.72868],[105.07609,21.72361],[105.07735,21.72257],[105.07906,21.72252],[105.08291,21.72376],[105.08459,21.72236],[105.08673,21.71725],[105.09061,21.71378],[105.09161,21.71159],[105.09144,21.70988],[105.08826,21.70801],[105.08642,21.70333],[105.08675,21.70224],[105.08943,21.70099],[105.09495,21.70005],[105.09679,21.69802],[105.0998,21.68741],[105.09828,21.68056],[105.09271,21.67996],[105.08478,21.68218],[105.07575,21.68268],[105.06938,21.68516],[105.06328,21.68949],[105.06142,21.68974],[105.05651,21.68838],[105.05306,21.68863],[105.04642,21.69123],[105.03952,21.69544],[105.03474,21.69989],[105.03089,21.69927],[105.02677,21.69358],[105.02027,21.68826],[105.01615,21.68802],[105.00189,21.69096],[105.0002,21.68945],[104.99969,21.68046],[104.99857,21.67941],[104.98942,21.6772],[104.98043,21.67407],[104.97953,21.67281],[104.98614,21.66611],[104.98603,21.66359],[104.98334,21.66097],[104.97741,21.65835],[104.97382,21.65552],[104.97282,21.64756],[104.9708,21.64683],[104.96722,21.64871],[104.95702,21.65981],[104.95489,21.66118],[104.95064,21.65677],[104.93803,21.65194],[104.93777,21.64776],[104.93667,21.64531],[104.93312,21.64175],[104.92468,21.64042],[104.91341,21.63681],[104.90895,21.63347],[104.90425,21.62692],[104.90425,21.62346],[104.9068,21.61834],[104.90769,21.61322],[104.90681,21.60953],[104.90375,21.60834],[104.89752,21.60893],[104.89217,21.61226],[104.88911,21.61274],[104.88835,21.61154],[104.89128,21.60547],[104.89384,21.59452],[104.8983,21.58237],[104.89881,21.57606],[104.89996,21.57332],[104.90289,21.57058],[104.90225,21.5688],[104.89132,21.55938],[104.8744,21.55604],[104.87033,21.55401],[104.86805,21.54567],[104.86945,21.54222],[104.87238,21.53865],[104.87721,21.53531],[104.88078,21.53127],[104.88384,21.52508],[104.88309,21.50971],[104.88564,21.49864],[104.89315,21.48233],[104.89621,21.47304],[104.90118,21.46351],[104.91047,21.44994],[104.91187,21.44589],[104.91276,21.43815],[104.91187,21.4347],[104.90705,21.42934],[104.90782,21.41671],[104.90642,21.41362],[104.8955,21.39586],[104.88585,21.39133],[104.88407,21.38883],[104.88243,21.38299],[104.88345,21.37525],[104.88815,21.36835],[104.89502,21.36287],[104.89947,21.35644],[104.90024,21.35287],[104.89973,21.35025],[104.89719,21.34572],[104.89338,21.3431],[104.88906,21.34238],[104.88411,21.3425],[104.87966,21.34416],[104.87381,21.34797],[104.8658,21.36369],[104.86313,21.36606],[104.85855,21.36606],[104.8555,21.36451],[104.85488,21.35403],[104.85399,21.352],[104.84624,21.35152],[104.84548,21.35045],[104.84574,21.34664],[104.84943,21.34021],[104.84829,21.3389],[104.84372,21.33758],[104.82174,21.33673],[104.80333,21.33087],[104.79964,21.33182],[104.79494,21.33443],[104.79176,21.33431],[104.78491,21.32918],[104.78085,21.32763],[104.77386,21.32774],[104.77094,21.32976],[104.76928,21.33285],[104.76876,21.34405],[104.76672,21.3469],[104.76189,21.34678],[104.74994,21.35355],[104.74866,21.35557],[104.74559,21.36855],[104.73955,21.37511],[104.73412,21.38723],[104.73348,21.39402],[104.73537,21.40212],[104.73396,21.40486],[104.73079,21.40568],[104.72457,21.40139],[104.7186,21.40019],[104.71364,21.40053],[104.70817,21.40291],[104.70575,21.40481],[104.70283,21.40468],[104.69894,21.40221],[104.69178,21.40061],[104.68949,21.3993],[104.68849,21.39501],[104.68787,21.38489],[104.6856,21.37905],[104.68306,21.37678],[104.67811,21.37558],[104.67404,21.37557],[104.65458,21.38303],[104.64683,21.38397],[104.64047,21.38622],[104.63296,21.39216],[104.61539,21.40296],[104.61132,21.40628],[104.60507,21.41461],[104.59285,21.42184],[104.58751,21.42278],[104.58459,21.42051],[104.58155,21.41514],[104.58093,21.41157],[104.57928,21.40978],[104.57064,21.4113],[104.56428,21.40998],[104.55755,21.40984],[104.5503,21.41089],[104.54,21.41432],[104.53339,21.41454],[104.52882,21.4125],[104.52425,21.40856],[104.5082,21.38195],[104.5039,21.37718],[104.49375,21.37203],[104.47945,21.35555],[104.47552,21.35327],[104.4693,21.35242],[104.4576,21.35441],[104.44921,21.35688],[104.43143,21.3548],[104.4238,21.35822],[104.42099,21.36048],[104.41984,21.36369],[104.42019,21.3706],[104.41953,21.37548],[104.41672,21.38095],[104.41136,21.38665],[104.40003,21.39065],[104.39071,21.40086],[104.38524,21.40227],[104.38042,21.40178],[104.37293,21.39913],[104.36823,21.39923],[104.36402,21.40124],[104.34997,21.41738],[104.34692,21.41844],[104.34426,21.41665],[104.34263,21.41164],[104.34035,21.40913],[104.33502,21.40815],[104.32942,21.40897],[104.32662,21.41062],[104.31994,21.42631],[104.31713,21.42916],[104.31101,21.43211],[104.30376,21.43375],[104.30057,21.43719],[104.29927,21.44254],[104.30252,21.45304],[104.3015,21.45494],[104.28977,21.46275],[104.28478,21.46749],[104.28286,21.47094],[104.28297,21.47511],[104.28545,21.48667],[104.28492,21.49143],[104.28605,21.49525],[104.29173,21.50325],[104.29373,21.51088],[104.2937,21.51743],[104.29136,21.52826],[104.28202,21.53882],[104.27675,21.55046],[104.27762,21.55261],[104.28862,21.56671],[104.29687,21.57234],[104.29154,21.59495],[104.28847,21.59898],[104.28896,21.60149],[104.30128,21.60666],[104.31587,21.61649],[104.31903,21.62031],[104.32143,21.6258],[104.32586,21.63094],[104.33346,21.63811],[104.33867,21.64111],[104.33901,21.64957],[104.3376,21.6529],[104.33491,21.65479],[104.31747,21.65532],[104.31174,21.65494],[104.30233,21.65251],[104.29902,21.65274],[104.29084,21.65985],[104.27313,21.66394],[104.26052,21.66341],[104.25708,21.66458],[104.25529,21.66636],[104.25463,21.67005],[104.25208,21.67159],[104.241,21.6713],[104.22547,21.67254],[104.2177,21.67238],[104.21312,21.67093],[104.19606,21.64787],[104.19225,21.64701],[104.1762,21.64896],[104.16688,21.65403],[104.16114,21.65591],[104.13238,21.65398]]]}},{"type":"Feature","properties":{"kind":"buffer","province_code":"15","buffer_m":5000,"source":"derived","simplify_tolerance_deg":0.0005},"geometry":{"type":"Polygon","coordinates":[[[103.49707,22.62961],[103.50168,22.63716],[103.50551,22.64655],[103.51107,22.6571],[103.51622,22.66439],[103.52147,22.66938],[103.51706,22.68402],[103.51556,22.69579],[103.51631,22.70743],[103.51769,22.71481],[103.52127,22.72496],[103.53761,22.74871],[103.54317,22.75549],[103.55329,22.76472],[103.55591,22.77025],[103.56106,22.77752],[103.56529,22.78155],[103.56946,22.78917],[103.57194,22.79958],[103.57574,22.8074],[103.58129,22.8147],[103.5881,22.82102],[103.5961,22.82597],[103.60618,22.82977],[103.61177,22.8343],[103.62023,22.83876],[103.63024,22.84171],[103.64005,22.84273],[103.64836,22.84223],[103.65648,22.8404],[103.67767,22.83136],[103.68851,22.82551],[103.69644,22.81905],[103.7029,22.81167],[103.70905,22.80006],[103.71711,22.79289],[103.7227,22.78586],[103.73432,22.77894],[103.74017,22.77408],[103.7657,22.75018],[103.77177,22.74539],[103.78137,22.73372],[103.79209,22.72926],[103.80132,22.72286],[103.80866,22.7146],[103.81948,22.69966],[103.83001,22.69112],[103.8357,22.68503],[103.84273,22.67546],[103.85053,22.6675],[103.85763,22.65712],[103.86211,22.64739],[103.87292,22.63847],[103.88225,22.62796],[103.88912,22.62303],[103.89845,22.61455],[103.90671,22.61231],[103.91412,22.60906],[103.92225,22.60399],[103.92787,22.59894],[103.94317,22.58211],[103.94655,22.58113],[103.95739,22.57499],[103.95739,22.58048],[103.95943,22.58967],[103.96456,22.60013],[103.96754,22.60391],[103.96877,22.60841],[103.97658,22.62382],[103.9805,22.64605],[103.98377,22.65612],[103.98529,22.66824],[103.98182,22.67748],[103.97974,22.68975],[103.98057,22.70154],[103.98357,22.71066],[103.98952,22.72026],[103.99314,22.73315],[103.99758,22.74516],[104.0043,22.75596],[104.02633,22.78222],[104.03148,22.78746],[104.04717,22.7987],[104.0512,22.80791],[104.05713,22.81817],[104.06323,22.82594],[104.07815,22.84034],[104.08697,22.84687],[104.09534,22.85186],[104.10462,22.85514],[104.11139,22.85683],[104.12508,22.85834],[104.13485,22.85742],[104.13908,22.86043],[104.14977,22.86521],[104.16567,22.86763],[104.17524,22.8702],[104.18798,22.87057],[104.19175,22.87152],[104.20616,22.87542],[104.21294,22.88073],[104.22021,22.88474],[104.22811,22.8875],[104.2345,22.88875],[104.25916,22.8897],[104.27128,22.88811],[104.28002,22.88509],[104.2901,22.8801],[104.29677,22.87607],[104.30264,22.87109],[104.30833,22.8644],[104.31229,22.85748],[104.31897,22.83894],[104.32016,22.83062],[104.31968,22.82224],[104.31613,22.81117],[104.31315,22.79775],[104.30737,22.78129],[104.31099,22.77628],[104.32207,22.77659],[104.33031,22.77531],[104.3382,22.77274],[104.34912,22.76815],[104.35854,22.76292],[104.36651,22.75726],[104.37594,22.74841],[104.38213,22.74072],[104.38695,22.73334],[104.39039,22.72412],[104.39658,22.72392],[104.40538,22.72208],[104.41367,22.71874],[104.42115,22.71403],[104.42757,22.7081],[104.4327,22.70117],[104.44673,22.67808],[104.45058,22.67059],[104.45316,22.65936],[104.4556,22.65659],[104.46806,22.65494],[104.47685,22.65285],[104.48506,22.64928],[104.49242,22.64434],[104.49866,22.63821],[104.50357,22.6311],[104.50698,22.62327],[104.50876,22.61498],[104.50882,22.6094],[104.51445,22.57634],[104.51371,22.56805],[104.51136,22.56002],[104.50523,22.54905],[104.49994,22.54236],[104.49343,22.53668],[104.48685,22.53277],[104.49707,22.52721],[104.50508,22.52103],[104.5141,22.51122],[104.51843,22.50353],[104.52112,22.49521],[104.52204,22.48657],[104.52164,22.47878],[104.51957,22.46939],[104.51627,22.46201],[104.51354,22.45806],[104.51689,22.45619],[104.52471,22.44921],[104.52863,22.44455],[104.55012,22.43266],[104.55757,22.42643],[104.57062,22.42122],[104.57882,22.41643],[104.58583,22.41021],[104.59139,22.40282],[104.59552,22.395],[104.59884,22.39371],[104.60804,22.38742],[104.61834,22.37716],[104.62501,22.36712],[104.62794,22.35963],[104.62942,22.35179],[104.62939,22.34382],[104.62767,22.33356],[104.63141,22.33202],[104.6438,22.32945],[104.65335,22.32496],[104.66917,22.32075],[104.67718,22.32036],[104.68666,22.31806],[104.69614,22.31385],[104.70347,22.30866],[104.71242,22.30768],[104.73392,22.30278],[104.74264,22.29931],[104.75046,22.29432],[104.75982,22.28484],[104.76597,22.27562],[104.76993,22.2637],[104.77366,22.25555],[104.77662,22.24666],[104.77756,22.23738],[104.77708,22.22357],[104.78512,22.21841],[104.78979,22.21814],[104.79424,22.22116],[104.80696,22.22612],[104.81605,22.22808],[104.82537,22.22837],[104.83044,22.22761],[104.83686,22.2296],[104.84612,22.23072],[104.85544,22.23016],[104.86447,22.22794],[104.87288,22.22414],[104.88035,22.21891],[104.8866,22.21244],[104.89142,22.20498],[104.89476,22.19623],[104.90056,22.18589],[104.90326,22.17854],[104.90454,22.16825],[104.90643,22.16501],[104.91025,22.15058],[104.91087,22.1404],[104.91021,22.13122],[104.913,22.11309],[104.92637,22.10685],[104.94168,22.10506],[104.95021,22.10224],[104.96368,22.09457],[104.97268,22.08744],[104.99098,22.09064],[104.99929,22.09035],[105.01002,22.088],[105.01985,22.08406],[105.03099,22.07609],[105.03703,22.06994],[105.04174,22.06285],[105.04499,22.05508],[105.04664,22.04688],[105.04643,22.03622],[105.04473,22.02777],[105.04281,22.02323],[105.04368,22.01936],[105.04314,22.00748],[105.04664,21.99526],[105.04667,21.98166],[105.04498,21.97204],[105.04966,21.96899],[105.05591,21.96306],[105.06211,21.95406],[105.06813,21.93885],[105.06937,21.93399],[105.07043,21.92294],[105.07627,21.91787],[105.08414,21.90767],[105.08751,21.90066],[105.08992,21.89113],[105.0976,21.8839],[105.10244,21.87703],[105.10492,21.87154],[105.11388,21.86741],[105.12455,21.85897],[105.13926,21.84205],[105.14543,21.83086],[105.14852,21.82204],[105.14961,21.81282],[105.14841,21.80243],[105.14582,21.79437],[105.14168,21.7869],[105.13612,21.78028],[105.12833,21.77405],[105.12883,21.77022],[105.12817,21.76154],[105.12384,21.74871],[105.13045,21.73952],[105.13616,21.7294],[105.13909,21.71995],[105.14357,21.70983],[105.14682,21.69836],[105.14821,21.68947],[105.14769,21.6805],[105.14494,21.66832],[105.14116,21.65949],[105.13549,21.65159],[105.12818,21.64496],[105.11954,21.63992],[105.10983,21.63664],[105.09808,21.63502],[105.08834,21.63493],[105.07626,21.63736],[105.06484,21.63862],[105.05069,21.64345],[105.04167,21.64468],[105.03715,21.64606],[105.02956,21.64404],[105.02649,21.63869],[105.01659,21.62828],[105.01222,21.62123],[105.00609,21.61469],[104.99874,21.60935],[104.99043,21.60543],[104.98019,21.60246],[104.97167,21.60161],[104.96312,21.60218],[104.9583,21.60332],[104.95448,21.60125],[104.95122,21.59144],[104.94815,21.58627],[104.95005,21.58099],[104.95129,21.57276],[104.9509,21.56445],[104.94825,21.55457],[104.94328,21.54474],[104.93149,21.53227],[104.93241,21.52547],[104.93183,21.51331],[104.94144,21.48967],[104.95131,21.47428],[104.95659,21.46384],[104.96005,21.45074],[104.96113,21.43526],[104.959,21.42415],[104.95598,21.41612],[104.95563,21.40931],[104.95249,21.39918],[104.94113,21.37928],[104.94438,21.37344],[104.94776,21.36173],[104.9487,21.35329],[104.94742,21.34223],[104.94558,21.33559],[104.94267,21.32929],[104.93399,21.3163],[104.92216,21.30671],[104.91252,21.30156],[104.90188,21.29858],[104.88785,21.29718],[104.87433,21.29821],[104.87124,21.29908],[104.85799,21.29437],[104.84416,21.29237],[104.83199,21.29226],[104.8156,21.28713],[104.80725,21.2858],[104.79939,21.28585],[104.79093,21.2834],[104.78231,21.28243],[104.76909,21.28274],[104.76055,21.28426],[104.75244,21.28718],[104.7421,21.29342],[104.73382,21.30069],[104.72758,21.30956],[104.72512,21.31466],[104.71487,21.32234],[104.70815,21.33064],[104.70491,21.33656],[104.69029,21.33181],[104.67821,21.33036],[104.66425,21.33128],[104.65478,21.33408],[104.6426,21.33889],[104.62965,21.34169],[104.61586,21.34727],[104.60393,21.35584],[104.58822,21.36554],[104.5842,21.36479],[104.55365,21.36494],[104.55014,21.3593],[104.54099,21.34808],[104.53456,21.34216],[104.52472,21.33627],[104.51193,21.32199],[104.50107,21.31485],[104.49217,21.31081],[104.48257,21.30853],[104.46847,21.30721],[104.44561,21.31069],[104.43363,21.30962],[104.42567,21.3099],[104.41786,21.31139],[104.40278,21.31748],[104.38937,21.32621],[104.38334,21.332],[104.37852,21.33869],[104.37505,21.34608],[104.37285,21.35345],[104.37202,21.35394],[104.35632,21.3554],[104.34613,21.35899],[104.3384,21.36319],[104.32758,21.36347],[104.31238,21.36663],[104.3007,21.37242],[104.29318,21.37789],[104.28696,21.38463],[104.28168,21.39363],[104.27442,21.39776],[104.26713,21.40414],[104.25925,21.41356],[104.25567,21.42016],[104.25174,21.43435],[104.24556,21.44093],[104.2418,21.4466],[104.23674,21.45705],[104.2349,21.46444],[104.23452,21.47619],[104.23668,21.48974],[104.23662,21.49515],[104.2382,21.50343],[104.24193,21.51395],[104.23817,21.51956],[104.23146,21.53435],[104.22908,21.54228],[104.22828,21.55048],[104.22909,21.55868],[104.23236,21.56876],[104.23798,21.57861],[104.24268,21.58486],[104.24114,21.58923],[104.24001,21.59821],[104.24131,21.60972],[104.24525,21.6206],[104.23687,21.6238],[104.23255,21.6181],[104.22526,21.61177],[104.21674,21.60697],[104.20354,21.60304],[104.19583,21.60192],[104.1756,21.60315],[104.15954,21.6065],[104.15121,21.61021],[104.1492,21.61012],[104.14238,21.60948],[104.12176,21.60308],[104.10273,21.59864],[104.09264,21.59716],[104.08243,21.59768],[104.07257,21.60019],[104.0635,21.60458],[104.05593,21.60967],[104.03711,21.61494],[104.02861,21.61813],[104.0209,21.62216],[104.00798,21.62046],[103.99878,21.62138],[103.99016,21.62386],[103.98057,21.6206],[103.97173,21.61943],[103.96103,21.62002],[103.95139,21.6222],[103.94634,21.62444],[103.92906,21.62503],[103.9198,21.62752],[103.91125,21.63166],[103.90375,21.63731],[103.8963,21.646],[103.8912,21.65517],[103.88777,21.66987],[103.88506,21.6726],[103.88051,21.67922],[103.87797,21.68487],[103.87106,21.69396],[103.86651,21.70502],[103.86493,21.71293],[103.86488,21.72098],[103.86637,21.7289],[103.86834,21.73392],[103.86901,21.74161],[103.87102,21.74892],[103.87587,21.75925],[103.88149,21.76643],[103.88851,21.77244],[103.89637,21.77796],[103.90362,21.78173],[103.89908,21.78657],[103.88977,21.79228],[103.88188,21.79979],[103.87682,21.80633],[103.87308,21.8136],[103.87148,21.81904],[103.85734,21.83075],[103.8508,21.83735],[103.84579,21.84504],[103.84097,21.85677],[103.83966,21.86626],[103.8389,21.89725],[103.8396,21.90599],[103.84424,21.92698],[103.85165,21.94307],[103.85806,21.95066],[103.86606,21.9568],[103.87809,21.96296],[103.88891,21.96549],[103.90357,21.97243],[103.91595,21.97508],[103.91144,21.98234],[103.90865,21.9902],[103.90744,21.99839],[103.90855,22.00945],[103.90589,22.01685],[103.90468,22.02566],[103.90535,22.03452],[103.90781,22.04413],[103.90659,22.04765],[103.89611,22.06249],[103.89231,22.07097],[103.89044,22.07999],[103.89098,22.09266],[103.89312,22.10175],[103.8913,22.10607],[103.88082,22.11364],[103.87538,22.11908],[103.86925,22.12372],[103.85941,22.13402],[103.85215,22.13595],[103.83997,22.14262],[103.83213,22.14916],[103.82599,22.15713],[103.82071,22.16794],[103.81861,22.17988],[103.81218,22.19017],[103.80414,22.19831],[103.79885,22.20735],[103.79552,22.21648],[103.79432,22.22937],[103.78465,22.24546],[103.76635,22.25976],[103.75754,22.26221],[103.75005,22.26576],[103.73388,22.27672],[103.72632,22.28325],[103.7204,22.29112],[103.7164,22.29998],[103.7145,22.30943],[103.71479,22.31904],[103.71704,22.32874],[103.72219,22.33852],[103.72262,22.34089],[103.72005,22.34871],[103.71824,22.36404],[103.7077,22.36233],[103.69763,22.36238],[103.68137,22.35919],[103.656,22.35865],[103.65108,22.35674],[103.63617,22.35323],[103.622,22.35286],[103.61203,22.35434],[103.6026,22.35771],[103.5913,22.36362],[103.5794,22.37147],[103.57158,22.37792],[103.56341,22.38737],[103.55923,22.39541],[103.55533,22.3984],[103.54573,22.40868],[103.53979,22.41588],[103.53428,22.42101],[103.52851,22.42838],[103.52426,22.43137],[103.51806,22.4378],[103.51177,22.44815],[103.50829,22.45743],[103.50704,22.4672],[103.50762,22.47849],[103.50959,22.48588],[103.51286,22.49287],[103.51971,22.5033],[103.53689,22.51986],[103.53274,22.53278],[103.52717,22.54134],[103.51747,22.54345],[103.50824,22.54725],[103.50005,22.55275],[103.49325,22.55971],[103.48815,22.56783],[103.48502,22.57488],[103.48068,22.58967],[103.48036,22.59828],[103.4818,22.60678],[103.48493,22.61488],[103.48966,22.62228],[103.49707,22.62961]]]}}]}