{"type":"FeatureCollection","features":[{"type":"Feature","geometry":{"type":"MultiPolygon","coordinates":[[[[103.964819,22.506659],[103.96483,22.50646],[103.964848,22.50633],[103.964876,22.506234],[103.96495,22.506095],[103.96507,22.505949],[103.965289,22.505814],[103.96542,22.506046],[103.965157,22.506192],[103.965061,22.506332],[103.965026,22.50647],[103.965014,22.506764],[103.96502,22.506947],[103.96486,22.507033],[103.964832,22.506887],[103.964819,22.506659]]]]},"properties":{"group":"public","tag":"leisure=park","name":null,"levels":null,"lat":22.506359128642234,"lng":103.96503210710188,"osm_type":"way","osm_id":304226046}},{"type":"Feature","geometry":{"type":"MultiPolygon","coordinates":[[[[103.967455,22.509996],[103.967662,22.509843],[103.968004,22.510084],[103.968314,22.510248],[103.968193,22.510438],[103.968149,22.510515],[103.968029,22.510462],[103.967686,22.510229],[103.967455,22.509996]]]]},"properties":{"group":"public","tag":"leisure=park","name":null,"levels":null,"lat":22.510178046970925,"lng":103.96789198964579,"osm_type":"way","osm_id":304226054}},{"type":"Feature","geometry":{"type":"MultiPolygon","coordinates":[[[[103.966206,22.506142],[103.966223,22.50605],[103.966317,22.505929],[103.966597,22.505694],[103.96689,22.505993],[103.966418,22.506436],[103.966223,22.506232],[103.966206,22.506142]]]]},"properties":{"group":"mall","tag":"shop=mall","name":"Bitis","levels":null,"lat":22.50605911862909,"lng":103.96651491239446,"osm_type":"way","osm_id":304226065}},{"type":"Feature","geometry":{"type":"MultiPolygon","coordinates":[[[[104.272251,22.603665],[104.272289,22.603517],[104.272477,22.603376],[104.272601,22.603444],[104.272959,22.603424],[104.272979,22.604035],[104.272815,22.604108],[104.272487,22.604121],[104.272251,22.603665]]]]},"properties":{"group":"edu_health","tag":"amenity=school","name":null,"levels":null,"lat":22.603750182158173,"lng":104.27264697367715,"osm_type":"way","osm_id":306026907}},{"type":"Feature","geometry":{"type":"MultiPolygon","coordinates":[[[[103.965204,22.498775],[103.965308,22.498573],[103.965423,22.498539],[103.965838,22.498789],[103.965718,22.498958],[103.965708,22.499001],[103.965661,22.499001],[103.965651,22.499025],[103.965616,22.499051],[103.965584,22.499068],[103.965557,22.499073],[103.965538,22.49906],[103.965514,22.499032],[103.965496,22.499032],[103.965446,22.499031],[103.965411,22.499009],[103.965204,22.498775]]]]},"properties":{"group":"mall","tag":"shop=mall","name":"Siêu thị Anh Mỹ","levels":null,"lat":22.49880490676856,"lng":103.96550447517285,"osm_type":"way","osm_id":318471620}},{"type":"Feature","geometry":{"type":"MultiPolygon","coordinates":[[[[103.959196,22.490773],[103.959808,22.490453],[103.960044,22.490882],[103.959453,22.491169],[103.959196,22.490773]]]]},"properties":{"group":"edu_health","tag":"amenity=school","name":null,"levels":null,"lat":22.490816438466613,"lng":103.95962611693054,"osm_type":"way","osm_id":411389987}},{"type":"Feature","geometry":{"type":"MultiPolygon","coordinates":[[[[103.964948,22.487065],[103.965055,22.485672],[103.966241,22.483873],[103.966548,22.483837],[103.967173,22.483946],[103.967259,22.483961],[103.967739,22.484044],[103.970098,22.484443],[103.969875,22.485685],[103.969726,22.486457],[103.96951,22.487492],[103.969425,22.48785],[103.969096,22.487804],[103.968994,22.487783],[103.964948,22.487065]]]]},"properties":{"group":"public","tag":"leisure=park","name":"Công viên Nhạc Sơn","levels":null,"lat":22.4858239276094,"lng":103.96757636849098,"osm_type":"way","osm_id":411389992}},{"type":"Feature","geometry":{"type":"MultiPolygon","coordinates":[[[[103.963885,22.496716],[103.964338,22.496332],[103.964797,22.496481],[103.965155,22.497695],[103.964704,22.497804],[103.964542,22.497848],[103.964459,22.497697],[103.96411,22.497365],[103.963885,22.496716]]]]},"properties":{"group":"edu_health","tag":"amenity=school","name":"Trường Trung học cơ sở Hoàng Hoa Thám","levels":null,"lat":22.49708699882283,"lng":103.96452663765517,"osm_type":"way","osm_id":411390018}},{"type":"Feature","geometry":{"type":"MultiPolygon","coordinates":[[[[103.965287,22.494805],[103.965397,22.493713],[103.965569,22.493626],[103.966513,22.493747],[103.966293,22.494954],[103.965287,22.494805]]]]},"properties":{"group":"edu_health","tag":"amenity=school","name":"Trường Tiểu học Hoàng Văn Thụ","levels":null,"lat":22.494273161063553,"lng":103.96588054009813,"osm_type":"way","osm_id":411390020}},{"type":"Feature","geometry":{"type":"MultiPolygon","coordinates":[[[[103.972426,22.485702],[103.972704,22.484938],[103.973352,22.485199],[103.973503,22.485369],[103.973628,22.485588],[103.973279,22.485935],[103.972426,22.485702]]]]},"properties":{"group":"edu_health","tag":"amenity=school","name":"Trường Trung học cơ sở Kim Tân","levels":null,"lat":22.485474545611027,"lng":103.9730117752106,"osm_type":"way","osm_id":411390021}},{"type":"Feature","geometry":{"type":"MultiPolygon","coordinates":[[[[103.963495,22.503177],[103.964143,22.502831],[103.964395,22.503234],[103.963746,22.50358],[103.963495,22.503177]]]]},"properties":{"group":"edu_health","tag":"amenity=school","name":"Trường Trung học cơ sở Lê Quý Đôn","levels":null,"lat":22.503205549999993,"lng":103.9639449,"osm_type":"way","osm_id":411390022}},{"type":"Feature","geometry":{"type":"MultiPolygon","coordinates":[[[[103.961539,22.500727],[103.96156,22.500271],[103.962129,22.499998],[103.962741,22.50092],[103.961539,22.500727]]]]},"properties":{"group":"edu_health","tag":"amenity=school","name":"Trường Trung học phổ thông Lê Hồng Phong","levels":null,"lat":22.500504373292774,"lng":103.96205601407908,"osm_type":"way","osm_id":411390023}},{"type":"Feature","geometry":{"type":"MultiPolygon","coordinates":[[[[103.961877,22.502216],[103.961931,22.501679],[103.962746,22.501669],[103.962789,22.502082],[103.96218,22.502479],[103.961888,22.502295],[103.961877,22.502216]]]]},"properties":{"group":"edu_health","tag":"amenity=school","name":"Trường Tiểu học Duyên Hải","levels":null,"lat":22.502010396063106,"lng":103.96230264665941,"osm_type":"way","osm_id":411390025}},{"type":"Feature","geometry":{"type":"MultiPolygon","coordinates":[[[[103.967568,22.498176],[103.967901,22.497804],[103.968418,22.497811],[103.968386,22.498138],[103.968032,22.498111],[103.967772,22.498302],[103.967568,22.498176]]]]},"properties":{"group":"edu_health","tag":"amenity=school","name":"Trường Tiểu học Kim Đồng","levels":null,"lat":22.49801325134903,"lng":103.96802191109984,"osm_type":"way","osm_id":411390026}},{"type":"Feature","geometry":{"type":"MultiPolygon","coordinates":[[[[103.977707,22.489498],[103.977768,22.489416],[103.978743,22.489303],[103.978825,22.489351],[103.978828,22.489416],[103.978189,22.490543],[103.978131,22.490531],[103.977707,22.489542],[103.977707,22.489498]]]]},"properties":{"group":"edu_health","tag":"amenity=school","name":"Trường Trung học cơ sở Ngô Văn Sở","levels":null,"lat":22.48977474550039,"lng":103.97823788750081,"osm_type":"way","osm_id":413878097}},{"type":"Feature","geometry":{"type":"MultiPolygon","coordinates":[[[[103.973784,22.482765],[103.974771,22.48166],[103.975286,22.481893],[103.975785,22.481913],[103.97637,22.48278],[103.976214,22.483192],[103.976026,22.483613],[103.975892,22.483871],[103.97557,22.483965],[103.975248,22.484119],[103.974733,22.484475],[103.973907,22.483791],[103.974433,22.483266],[103.973784,22.482765]]]]},"properties":{"group":"edu_health","tag":"amenity=school","name":"Trường Trung học phổ thông Dân tộc Nội trú Lào Cai","levels":null,"lat":22.48301989910621,"lng":103.97508629457566,"osm_type":"way","osm_id":413878098}},{"type":"Feature","geometry":{"type":"MultiPolygon","coordinates":[[[[104.273731,22.691592],[104.273736,22.691448],[104.273786,22.691271],[104.273892,22.691113],[104.274694,22.691788],[104.274659,22.691816],[104.273731,22.691592]]]]},"properties":{"group":"public","tag":"leisure=park","name":null,"levels":null,"lat":22.691503150620047,"lng":104.27410337588942,"osm_type":"way","osm_id":481968863}},{"type":"Feature","geometry":{"type":"MultiPolygon","coordinates":[[[[103.988275,22.455917],[103.990054,22.453711],[103.991636,22.455015],[103.991427,22.455313],[103.992494,22.456051],[103.992189,22.456448],[103.992749,22.456778],[103.992561,22.457003],[103.992138,22.456758],[103.991427,22.457799],[103.988275,22.455917]]]]},"properties":{"group":"edu_health","tag":"amenity=college","name":"Trường Cao đẳng Lào Cai (cơ sở 2)","levels":null,"lat":22.455832555780557,"lng":103.99050680501625,"osm_type":"way","osm_id":546816752}},{"type":"Feature","geometry":{"type":"MultiPolygon","coordinates":[[[[103.985435,22.462566],[103.98699,22.460077],[103.988031,22.459378],[103.988251,22.459021],[103.988747,22.459165],[103.989233,22.459541],[103.989592,22.459834],[103.988723,22.461172],[103.988471,22.461445],[103.987334,22.461901],[103.987178,22.462065],[103.986411,22.463195],[103.985505,22.46264],[103.985435,22.462566]]]]},"properties":{"group":"edu_health","tag":"amenity=college","name":"Trường Cao đẳng Lào Cai (cơ sở 1)","levels":null,"lat":22.46096859598649,"lng":103.98752838088585,"osm_type":"way","osm_id":546816754}},{"type":"Feature","geometry":{"type":"MultiPolygon","coordinates":[[[[103.986969,22.458743],[103.98827,22.456698],[103.989313,22.457296],[103.988345,22.458869],[103.988251,22.459021],[103.988031,22.459378],[103.986969,22.458743]]]]},"properties":{"group":"edu_health","tag":"amenity=school","name":"Trường Trung học phổ thông chuyên Lào Cai","levels":null,"lat":22.458034301890667,"lng":103.9881434964104,"osm_type":"way","osm_id":546816770}},{"type":"Feature","geometry":{"type":"MultiPolygon","coordinates":[[[[104.009713,22.437179],[104.011085,22.436114],[104.011533,22.436533],[104.01149,22.436691],[104.010292,22.437738],[104.009713,22.437179]]]]},"properties":{"group":"edu_health","tag":"amenity=school","name":"Trường Trung học cơ sở Lý Tự Trọng","levels":null,"lat":22.43692078419872,"lng":104.01065319603624,"osm_type":"way","osm_id":547912701}},{"type":"Feature","geometry":{"type":"MultiPolygon","coordinates":[[[[103.973939,22.480002],[103.97436,22.47944],[103.974811,22.479789],[103.974727,22.479905],[103.974789,22.479958],[103.974454,22.480421],[103.974086,22.480158],[103.973939,22.480002]]]]},"properties":{"group":"edu_health","tag":"amenity=school","name":"Trường Tiểu học Lê Văn Tám","levels":null,"lat":22.479933634240812,"lng":103.97439226681848,"osm_type":"way","osm_id":547912727}},{"type":"Feature","geometry":{"type":"MultiPolygon","coordinates":[[[[103.978536,22.472135],[103.979236,22.471533],[103.979397,22.471424],[103.979504,22.471424],[103.979636,22.471424],[103.979834,22.471476],[103.980424,22.471826],[103.979732,22.472817],[103.978536,22.472135]]]]},"properties":{"group":"edu_health","tag":"amenity=school","name":"Trường Tiểu học Bắc Cường","levels":null,"lat":22.472049945185844,"lng":103.97953285744414,"osm_type":"way","osm_id":547912742}},{"type":"Feature","geometry":{"type":"MultiPolygon","coordinates":[[[[104.027668,22.417593],[104.027949,22.416673],[104.029063,22.416964],[104.028782,22.417884],[104.027668,22.417593]]]]},"properties":{"group":"edu_health","tag":"amenity=school","name":"Trường Trung học phổ thông Cam Đường","levels":null,"lat":22.417278300000007,"lng":104.02836554999999,"osm_type":"way","osm_id":548984553}},{"type":"Feature","geometry":{"type":"MultiPolygon","coordinates":[[[[104.014885,22.42391],[104.015382,22.423347],[104.015813,22.423679],[104.01609,22.42381],[104.015706,22.424326],[104.014885,22.42391]]]]},"properties":{"group":"edu_health","tag":"amenity=school","name":"Trường Trung học cơ sở Bắc Lệnh","levels":null,"lat":22.42385297448688,"lng":104.01549664525291,"osm_type":"way","osm_id":548984556}},{"type":"Feature","geometry":{"type":"MultiPolygon","coordinates":[[[[104.01447,22.424554],[104.014885,22.42391],[104.015706,22.424326],[104.015384,22.424956],[104.01447,22.424554]]]]},"properties":{"group":"edu_health","tag":"amenity=school","name":"Trường Tiểu học Bắc Lệnh","levels":null,"lat":22.42443806684932,"lng":104.01510376620261,"osm_type":"way","osm_id":548984557}},{"type":"Feature","geometry":{"type":"MultiPolygon","coordinates":[[[[104.029694,22.436274],[104.029882,22.435592],[104.033111,22.436504],[104.033213,22.436636],[104.032733,22.44004],[104.030981,22.439639],[104.030356,22.43942],[104.030517,22.438976],[104.030753,22.439031],[104.031006,22.43787],[104.030957,22.436804],[104.030586,22.436837],[104.030307,22.436789],[104.030397,22.436482],[104.029694,22.436274]]]]},"properties":{"group":"edu_health","tag":"amenity=hospital","name":"Bệnh viện Đa khoa số 2 tỉnh Lào Cai","levels":null,"lat":22.43779908947353,"lng":104.03173835986085,"osm_type":"way","osm_id":548984610}},{"type":"Feature","geometry":{"type":"MultiPolygon","coordinates":[[[[104.908606,21.728381],[104.908708,21.727884],[104.908765,21.727877],[104.908659,21.72839],[104.908606,21.728381]]]]},"properties":{"group":"edu_health","tag":"amenity=college","name":"Yen Bai Sports and Phisical Training College","levels":null,"lat":21.728132950265493,"lng":104.90868457593932,"osm_type":"way","osm_id":610744878}},{"type":"Feature","geometry":{"type":"MultiPolygon","coordinates":[[[[104.906014,21.727933],[104.906198,21.727726],[104.906265,21.727694],[104.906233,21.727634],[104.906664,21.727455],[104.906714,21.727585],[104.906715,21.727781],[104.907154,21.727804],[104.907123,21.727923],[104.906996,21.727924],[104.906885,21.72798],[104.906838,21.728104],[104.906455,21.728397],[104.906014,21.727933]]]]},"properties":{"group":"edu_health","tag":"amenity=school","name":"Trường Tiểu học Nguyễn Trãi","levels":null,"lat":21.72791977137398,"lng":104.90652167518348,"osm_type":"way","osm_id":610757173}},{"type":"Feature","geometry":{"type":"MultiPolygon","coordinates":[[[[104.912518,21.722232],[104.912534,21.722172],[104.912675,21.722135],[104.913199,21.722108],[104.913874,21.722127],[104.914034,21.722146],[104.914146,21.722218],[104.914191,21.722303],[104.914183,21.722384],[104.914077,21.722509],[104.913858,21.722705],[104.913593,21.722939],[104.913386,21.723079],[104.913187,21.722898],[104.912931,21.722679],[104.912658,21.722429],[104.912532,21.722293],[104.912518,21.722232]]]]},"properties":{"group":"public","tag":"leisure=park","name":"Vườn Hoa KM5","levels":null,"lat":21.722467182813936,"lng":104.91338311671285,"osm_type":"way","osm_id":610758641}},{"type":"Feature","geometry":{"type":"MultiPolygon","coordinates":[[[[104.907394,21.72488],[104.907577,21.724686],[104.907775,21.724696],[104.907853,21.724754],[104.907947,21.724825],[104.908049,21.724825],[104.90814,21.724741],[104.908215,21.724651],[104.908253,21.724586],[104.908333,21.724551],[104.908414,21.724486],[104.908403,21.724362],[104.908382,21.724302],[104.908382,21.724162],[104.90836,21.724108],[104.908408,21.724028],[104.908484,21.723973],[104.908591,21.724043],[104.908741,21.724103],[104.90888,21.724168],[104.909004,21.724217],[104.9091,21.724162],[104.909176,21.724058],[104.909261,21.723953],[104.909326,21.723844],[104.909385,21.723784],[104.909621,21.723639],[104.909841,21.723365],[104.910034,21.723106],[104.910104,21.722927],[104.910034,21.722685],[104.909991,21.722543],[104.909841,21.722296],[104.909804,21.722243],[104.909784,21.722214],[104.909886,21.722229],[104.910208,21.722393],[104.910442,21.72257],[104.91059,21.722642],[104.910597,21.722783],[104.910472,21.722933],[104.910168,21.72331],[104.909991,21.723516],[104.909337,21.724223],[104.9088,21.724683],[104.908333,21.725],[104.907706,21.725264],[104.907443,21.725119],[104.907394,21.72488]]]]},"properties":{"group":"public","tag":"leisure=park","name":null,"levels":null,"lat":21.724011609486798,"lng":104.90903417524036,"osm_type":"way","osm_id":610762689}},{"type":"Feature","geometry":{"type":"MultiPolygon","coordinates":[[[[104.882143,21.711075],[104.882202,21.710963],[104.882419,21.710681],[104.882647,21.710516],[104.883283,21.710753],[104.882917,21.71061],[104.882908,21.710605],[104.882905,21.710604],[104.882906,21.7106],[104.88291,21.710599],[104.882915,21.710601],[104.882921,21.710603],[104.883361,21.710736],[104.883572,21.710606],[104.883562,21.710559],[104.883417,21.710486],[104.883355,21.710437],[104.883288,21.710217],[104.883406,21.710008],[104.883696,21.709702],[104.883948,21.709216],[104.884039,21.708443],[104.884173,21.708299],[104.884794,21.709007],[104.884626,21.709237],[104.884438,21.709388],[104.884385,21.709464],[104.884782,21.710175],[104.883987,21.710427],[104.883874,21.710643],[104.884193,21.711085],[104.884193,21.711087],[104.884192,21.711089],[104.88419,21.71109],[104.884188,21.711089],[104.883837,21.71078],[104.883573,21.710987],[104.883252,21.710821],[104.883116,21.710781],[104.882971,21.71075],[104.882756,21.710785],[104.882644,21.710859],[104.882532,21.710963],[104.882425,21.711059],[104.882387,21.711137],[104.882271,21.711228],[104.882252,21.711314],[104.882205,21.711367],[104.882148,21.711369],[104.882154,21.711281],[104.882143,21.711075]]]]},"properties":{"group":"public","tag":"leisure=park","name":"Công viên Yên Hòa","levels":null,"lat":21.709892448947883,"lng":104.88385966130761,"osm_type":"way","osm_id":611028742}},{"type":"Feature","geometry":{"type":"MultiPolygon","coordinates":[[[[104.904591,21.726192],[104.904615,21.726008],[104.904667,21.725883],[104.904732,21.725785],[104.904804,21.725676],[104.904948,21.725673],[104.904945,21.725187],[104.904836,21.72512],[104.90479,21.724954],[104.905511,21.724848],[104.905737,21.724825],[104.905737,21.724989],[104.90622,21.725033],[104.906562,21.725626],[104.906521,21.725753],[104.904677,21.726466],[104.904616,21.726342],[104.904591,21.726192]]]]},"properties":{"group":"edu_health","tag":"amenity=school","name":"Trường Trung học phổ thông Nguyễn Huệ","levels":null,"lat":21.72558420776755,"lng":104.90549985389255,"osm_type":"way","osm_id":611510680}},{"type":"Feature","geometry":{"type":"MultiPolygon","coordinates":[[[[103.969802,22.480252],[103.97013,22.4801],[103.970268,22.480103],[103.970621,22.480209],[103.97031,22.480878],[103.970233,22.480883],[103.969838,22.480778],[103.969802,22.480252]]]]},"properties":{"group":"edu_health","tag":"amenity=school","name":"Trường Mầm non Hoa Hồng","levels":null,"lat":22.480465558380946,"lng":103.97016714479936,"osm_type":"way","osm_id":661734131}},{"type":"Feature","geometry":{"type":"MultiPolygon","coordinates":[[[[103.974494,22.476928],[103.974683,22.476496],[103.974874,22.476571],[103.974931,22.476464],[103.97509,22.476594],[103.975104,22.476644],[103.97489,22.477068],[103.974494,22.476928]]]]},"properties":{"group":"edu_health","tag":"amenity=hospital","name":"Bệnh viện Đa khoa Hưng Thịnh","levels":null,"lat":22.476765974100708,"lng":103.97480804330613,"osm_type":"way","osm_id":661734147}},{"type":"Feature","geometry":{"type":"MultiPolygon","coordinates":[[[[103.980196,22.473496],[103.98053,22.473015],[103.980948,22.473262],[103.980614,22.473744],[103.980196,22.473496]]]]},"properties":{"group":"public","tag":"leisure=park","name":"Công viên Bắc Cường","levels":null,"lat":22.473379350000005,"lng":103.98057195,"osm_type":"way","osm_id":661734160}},{"type":"Feature","geometry":{"type":"MultiPolygon","coordinates":[[[[103.986492,22.470222],[103.9886,22.470165],[103.988565,22.470807],[103.988561,22.470896],[103.988531,22.470943],[103.98847,22.470967],[103.988267,22.470966],[103.987956,22.470926],[103.987634,22.470844],[103.987382,22.470837],[103.986897,22.470866],[103.986839,22.470793],[103.986792,22.470685],[103.986693,22.470574],[103.986516,22.470457],[103.986492,22.470222]]]]},"properties":{"group":"edu_health","tag":"amenity=hospital","name":"Bệnh viện Phục hồi chức năng tỉnh Lào Cai","levels":null,"lat":22.470528236586777,"lng":103.98765474995099,"osm_type":"way","osm_id":661734174}},{"type":"Feature","geometry":{"type":"MultiPolygon","coordinates":[[[[103.993452,22.454564],[103.993453,22.454544],[103.993651,22.454261],[103.993693,22.454218],[103.993736,22.45421],[103.994519,22.454673],[103.994247,22.455058],[103.99409,22.454959],[103.993477,22.454617],[103.993452,22.454564]]]]},"properties":{"group":"public","tag":"leisure=park","name":null,"levels":null,"lat":22.454624601954272,"lng":103.9939734632435,"osm_type":"way","osm_id":661734230}},{"type":"Feature","geometry":{"type":"MultiPolygon","coordinates":[[[[103.992213,22.453654],[103.993154,22.452541],[103.993889,22.453072],[103.993342,22.453714],[103.993218,22.453882],[103.99287,22.454314],[103.992449,22.454019],[103.992274,22.453798],[103.992213,22.453654]]]]},"properties":{"group":"edu_health","tag":"amenity=school","name":"Trường Tiểu học Nam Cường","levels":null,"lat":22.453419844757303,"lng":103.99301422119379,"osm_type":"way","osm_id":661734248}},{"type":"Feature","geometry":{"type":"MultiPolygon","coordinates":[[[[103.993581,22.449155],[103.994385,22.448912],[103.994573,22.449381],[103.993876,22.449728],[103.993581,22.449155]]]]},"properties":{"group":"edu_health","tag":"amenity=school","name":"Trường Trung học cơ sở Nam Cường","levels":null,"lat":22.44929681414786,"lng":103.99408745579971,"osm_type":"way","osm_id":661734260}},{"type":"Feature","geometry":{"type":"MultiPolygon","coordinates":[[[[103.999978,22.448501],[104.000019,22.448372],[104.000195,22.448118],[104.000812,22.447578],[104.000945,22.447459],[104.001001,22.447415],[104.001143,22.447334],[104.001339,22.447272],[104.001531,22.44723],[104.001718,22.44723],[104.001773,22.447254],[104.001815,22.447296],[104.001804,22.447342],[104.00009,22.448846],[104.000066,22.448845],[104.000035,22.448835],[104.000007,22.448814],[103.999983,22.448767],[103.999978,22.448501]]]]},"properties":{"group":"public","tag":"leisure=park","name":null,"levels":null,"lat":22.447947098439013,"lng":104.00078663711922,"osm_type":"way","osm_id":661754776}},{"type":"Feature","geometry":{"type":"MultiPolygon","coordinates":[[[[103.979262,22.488317],[103.979482,22.487919],[103.979545,22.487655],[103.979539,22.487312],[103.979542,22.487174],[103.97955,22.487125],[103.979724,22.487042],[103.979889,22.486965],[103.979954,22.486955],[103.979973,22.486995],[103.980121,22.487367],[103.980148,22.487568],[103.980149,22.487702],[103.980105,22.487826],[103.980007,22.488127],[103.979904,22.488325],[103.979884,22.488338],[103.979791,22.488384],[103.979614,22.488475],[103.979484,22.488529],[103.979584,22.488349],[103.979715,22.48812],[103.979795,22.487928],[103.97983,22.487728],[103.979854,22.487524],[103.979834,22.48741],[103.97981,22.487317],[103.979686,22.487367],[103.9797,22.487467],[103.979708,22.487578],[103.979699,22.487769],[103.979657,22.487898],[103.979584,22.488052],[103.979376,22.488406],[103.979317,22.488401],[103.979278,22.488373],[103.979262,22.488317]]]]},"properties":{"group":"public","tag":"leisure=park","name":null,"levels":null,"lat":22.487716529252832,"lng":103.97978247935748,"osm_type":"way","osm_id":661754883}},{"type":"Feature","geometry":{"type":"MultiPolygon","coordinates":[[[[103.973404,22.496873],[103.973738,22.496219],[103.973794,22.496201],[103.974528,22.496502],[103.97432,22.496994],[103.973986,22.496934],[103.973928,22.497033],[103.973404,22.496873]]]]},"properties":{"group":"edu_health","tag":"amenity=school","name":"Trường Tiểu học Lê Ngọc Hân","levels":null,"lat":22.49664787661718,"lng":103.97396600886754,"osm_type":"way","osm_id":661755081}},{"type":"Feature","geometry":{"type":"MultiPolygon","coordinates":[[[[103.971194,22.500927],[103.971306,22.500546],[103.971434,22.499934],[103.971561,22.499144],[103.971684,22.498602],[103.971751,22.49819],[103.971847,22.497615],[103.971903,22.497166],[103.971966,22.496942],[103.972083,22.496639],[103.972226,22.496381],[103.97252,22.49601],[103.972961,22.495502],[103.972981,22.495518],[103.973024,22.495539],[103.972996,22.495697],[103.972956,22.495837],[103.972761,22.496196],[103.972574,22.496557],[103.972364,22.496934],[103.972343,22.497005],[103.972324,22.497179],[103.97234,22.497414],[103.972461,22.498289],[103.972598,22.499228],[103.972591,22.499258],[103.972021,22.499709],[103.971931,22.499814],[103.971839,22.499915],[103.971749,22.500046],[103.971603,22.500315],[103.971365,22.500727],[103.971318,22.500812],[103.971223,22.501016],[103.971194,22.500927]]]]},"properties":{"group":"public","tag":"leisure=park","name":"Công viên Hồ Chí Minh","levels":null,"lat":22.498307197541997,"lng":103.97208237509345,"osm_type":"way","osm_id":661755085}},{"type":"Feature","geometry":{"type":"MultiPolygon","coordinates":[[[[104.121235,22.761765],[104.121251,22.761696],[104.121302,22.761619],[104.121966,22.76153],[104.121987,22.762083],[104.121349,22.761924],[104.121277,22.761875],[104.121239,22.761815],[104.121235,22.761765]]]]},"properties":{"group":"public","tag":"leisure=park","name":null,"levels":null,"lat":22.76178781581143,"lng":104.12165807675022,"osm_type":"way","osm_id":662627873}},{"type":"Feature","geometry":{"type":"MultiPolygon","coordinates":[[[[104.124645,22.75932],[104.124671,22.759226],[104.12471,22.759148],[104.124801,22.759028],[104.124865,22.758967],[104.124958,22.759],[104.125995,22.759745],[104.12583,22.759856],[104.125608,22.759936],[104.125386,22.76002],[104.125313,22.760098],[104.125131,22.760186],[104.124792,22.759683],[104.124655,22.759437],[104.124645,22.75932]]]]},"properties":{"group":"edu_health","tag":"amenity=school","name":"Trường Trung học phổ thông số 1 Mường Khương","levels":null,"lat":22.759588009494284,"lng":104.12520596963627,"osm_type":"way","osm_id":662627889}},{"type":"Feature","geometry":{"type":"MultiPolygon","coordinates":[[[[104.126506,22.761978],[104.127428,22.761768],[104.127611,22.763027],[104.127498,22.763281],[104.127153,22.763374],[104.126837,22.763274],[104.126791,22.763227],[104.126772,22.762896],[104.126703,22.762594],[104.126614,22.762281],[104.126506,22.761978]]]]},"properties":{"group":"edu_health","tag":"amenity=hospital","name":"Trung tâm Y tế khu vực Mường Khương","levels":null,"lat":22.762565456357056,"lng":104.12711450660528,"osm_type":"way","osm_id":662627890}},{"type":"Feature","geometry":{"type":"MultiPolygon","coordinates":[[[[103.969675,22.491625],[103.96974,22.491179],[103.969786,22.491127],[103.969852,22.491114],[103.96993,22.491122],[103.970367,22.491269],[103.970411,22.491315],[103.970418,22.49137],[103.97028,22.491705],[103.970184,22.491753],[103.969751,22.491701],[103.969675,22.491625]]]]},"properties":{"group":"public","tag":"leisure=park","name":null,"levels":null,"lat":22.491443389652897,"lng":103.9700240810903,"osm_type":"way","osm_id":934329584}},{"type":"Feature","geometry":{"type":"MultiPolygon","coordinates":[[[[104.027891,22.443083],[104.028435,22.441325],[104.028856,22.441417],[104.029149,22.441453],[104.029652,22.441489],[104.030242,22.441544],[104.030347,22.441587],[104.030329,22.441723],[104.030697,22.441772],[104.030583,22.442393],[104.030381,22.443113],[104.030165,22.443661],[104.029786,22.443503],[104.029706,22.443627],[104.029599,22.443529],[104.029174,22.443395],[104.02891,22.443308],[104.028215,22.443165],[104.02823,22.443113],[104.028149,22.443059],[104.028044,22.443072],[104.028027,22.443122],[104.027891,22.443083]]]]},"properties":{"group":"edu_health","tag":"amenity=college","name":"Trường Cao đẳng Lào Cai","levels":null,"lat":22.44244564649605,"lng":104.02934466169985,"osm_type":"way","osm_id":968214117}},{"type":"Feature","geometry":{"type":"MultiPolygon","coordinates":[[[[104.021009,22.437688],[104.02102,22.437637],[104.022787,22.437334],[104.022851,22.437388],[104.023302,22.437364],[104.023335,22.437286],[104.023645,22.437223],[104.0245,22.43701],[104.024681,22.436977],[104.025047,22.436935],[104.025818,22.440449],[104.02493,22.440806],[104.025079,22.440966],[104.024068,22.441389],[104.023966,22.441425],[104.022932,22.441871],[104.022842,22.441853],[104.021431,22.439177],[104.021287,22.438804],[104.021009,22.437688]]]]},"properties":{"group":"edu_health","tag":"amenity=university","name":"Phân hiệu Đại học Thái Nguyên tại Lào Cai","levels":null,"lat":22.439219682383875,"lng":104.02352681165819,"osm_type":"way","osm_id":968214119}},{"type":"Feature","geometry":{"type":"MultiPolygon","coordinates":[[[[103.988903,22.470668],[103.988995,22.469594],[103.98899,22.469426],[103.989381,22.469401],[103.989789,22.469401],[103.990333,22.469433],[103.990433,22.469439],[103.990701,22.469409],[103.990637,22.470648],[103.990015,22.470608],[103.988903,22.470668]]]]},"properties":{"group":"edu_health","tag":"amenity=hospital","name":"Bệnh viện Y học cổ truyền tỉnh Lào Cai","levels":null,"lat":22.470026488790076,"lng":103.98980630461804,"osm_type":"way","osm_id":1160468225}},{"type":"Feature","geometry":{"type":"MultiPolygon","coordinates":[[[[103.988751,22.468186],[103.989169,22.467472],[103.99043,22.468221],[103.990333,22.469433],[103.989789,22.469401],[103.989381,22.469401],[103.98899,22.469426],[103.989024,22.468806],[103.989019,22.468637],[103.988981,22.468514],[103.988912,22.468385],[103.988756,22.468236],[103.988751,22.468186]]]]},"properties":{"group":"edu_health","tag":"amenity=hospital","name":"Bệnh viện Nội tiết tỉnh Lào Cai","levels":null,"lat":22.468570913518597,"lng":103.98961450364612,"osm_type":"way","osm_id":1160468226}},{"type":"Feature","geometry":{"type":"MultiPolygon","coordinates":[[[[104.029688,22.440612],[104.029752,22.440042],[104.029806,22.439318],[104.030356,22.43942],[104.030981,22.439639],[104.032733,22.44004],[104.032697,22.440478],[104.032617,22.440523],[104.032552,22.441009],[104.031549,22.440875],[104.030551,22.440711],[104.029688,22.440612]]]]},"properties":{"group":"edu_health","tag":"amenity=hospital","name":"Bệnh viện Sản Nhi tỉnh Lào Cai","levels":null,"lat":22.44022809299389,"lng":104.03113205478432,"osm_type":"way","osm_id":1160468227}},{"type":"Feature","geometry":{"type":"MultiPolygon","coordinates":[[[[103.957656,22.493585],[103.957843,22.493283],[103.958428,22.493597],[103.958246,22.493905],[103.957656,22.493585]]]]},"properties":{"group":"edu_health","tag":"amenity=hospital","name":"Trung tâm Y tế khu vực Lào Cai - Cam Đường","levels":null,"lat":22.49359279379461,"lng":103.95804326341411,"osm_type":"way","osm_id":1160468228}},{"type":"Feature","geometry":{"type":"MultiPolygon","coordinates":[[[[104.288089,22.539487],[104.288298,22.539339],[104.288494,22.539168],[104.288411,22.538979],[104.289331,22.538746],[104.289438,22.538754],[104.289543,22.538813],[104.289891,22.539103],[104.28991,22.539462],[104.289403,22.539569],[104.288961,22.539723],[104.288767,22.539802],[104.288633,22.539638],[104.288263,22.539812],[104.288089,22.539487]]]]},"properties":{"group":"edu_health","tag":"amenity=hospital","name":"Trung tâm Y tế khu vực Bắc Hà","levels":null,"lat":22.53927996541336,"lng":104.28903984897293,"osm_type":"way","osm_id":1160468231}},{"type":"Feature","geometry":{"type":"MultiPolygon","coordinates":[[[[104.190737,22.316746],[104.191136,22.316426],[104.191005,22.316247],[104.191654,22.31578],[104.191807,22.315902],[104.192147,22.315706],[104.192354,22.315632],[104.192445,22.315756],[104.192509,22.316014],[104.192222,22.316071],[104.192164,22.316138],[104.192507,22.316438],[104.192676,22.316577],[104.192783,22.316743],[104.192196,22.317048],[104.191949,22.317225],[104.191734,22.317098],[104.191563,22.317088],[104.19115,22.317098],[104.191002,22.31712],[104.190737,22.316746]]]]},"properties":{"group":"edu_health","tag":"amenity=hospital","name":"Trung tâm Y tế khu vực Bảo Thắng","levels":null,"lat":22.316506828803966,"lng":104.19176935079827,"osm_type":"way","osm_id":1160468232}},{"type":"Feature","geometry":{"type":"MultiPolygon","coordinates":[[[[103.884075,22.546705],[103.88422,22.546497],[103.885301,22.545511],[103.885451,22.545645],[103.886015,22.545107],[103.886511,22.54556],[103.884929,22.546987],[103.884658,22.546752],[103.884464,22.546952],[103.884075,22.546705]]]]},"properties":{"group":"edu_health","tag":"amenity=hospital","name":"Trung tâm Y tế khu vực Bát Xát","levels":null,"lat":22.54610317568867,"lng":103.88529659239497,"osm_type":"way","osm_id":1160468234}},{"type":"Feature","geometry":{"type":"MultiPolygon","coordinates":[[[[104.479405,22.228163],[104.479446,22.227906],[104.479441,22.227752],[104.479521,22.227697],[104.479521,22.227531],[104.479741,22.227496],[104.47987,22.227454],[104.480291,22.228062],[104.480594,22.228531],[104.479913,22.228817],[104.479658,22.228328],[104.479492,22.228261],[104.479405,22.228163]]]]},"properties":{"group":"edu_health","tag":"amenity=hospital","name":"Trung tâm Y tế khu vực Bảo Yên","levels":null,"lat":22.22814637090425,"lng":104.47993076280827,"osm_type":"way","osm_id":1160468235}},{"type":"Feature","geometry":{"type":"MultiPolygon","coordinates":[[[[104.250063,22.090471],[104.250098,22.089723],[104.250149,22.089658],[104.251374,22.089646],[104.251492,22.090309],[104.251557,22.090314],[104.251619,22.090506],[104.250299,22.09055],[104.250299,22.090473],[104.250063,22.090471]]]]},"properties":{"group":"edu_health","tag":"amenity=hospital","name":"Trung tâm Y tế khu vực Văn Bàn","levels":null,"lat":22.090101380255902,"lng":104.25078212319112,"osm_type":"way","osm_id":1160468238}},{"type":"Feature","geometry":{"type":"MultiPolygon","coordinates":[[[[103.856519,22.348724],[103.856567,22.34857],[103.856567,22.348288],[103.85661,22.348163],[103.856653,22.347538],[103.856728,22.347345],[103.8569,22.347027],[103.857018,22.346457],[103.857329,22.346481],[103.857163,22.347077],[103.857441,22.347097],[103.85742,22.3473],[103.857785,22.347811],[103.857747,22.347965],[103.857844,22.347985],[103.857801,22.348278],[103.85797,22.348283],[103.857881,22.348905],[103.856591,22.349024],[103.856578,22.348863],[103.856524,22.348863],[103.856519,22.348724]]]]},"properties":{"group":"edu_health","tag":"amenity=hospital","name":"Bệnh viện Đa khoa số 4 tỉnh Lào Cai","levels":null,"lat":22.348033048325036,"lng":103.85718552034203,"osm_type":"way","osm_id":1160468239}},{"type":"Feature","geometry":{"type":"MultiPolygon","coordinates":[[[[104.270274,22.690611],[104.270287,22.690418],[104.270746,22.690274],[104.270601,22.689923],[104.271126,22.689735],[104.271161,22.690004],[104.271231,22.690269],[104.271293,22.69047],[104.27151,22.691024],[104.270534,22.69143],[104.270322,22.690912],[104.270274,22.690611]]]]},"properties":{"group":"edu_health","tag":"amenity=hospital","name":"Trung tâm Y tế khu vực Si Ma Cai","levels":null,"lat":22.690647733119768,"lng":104.27085846377602,"osm_type":"way","osm_id":1160468240}},{"type":"Feature","geometry":{"type":"MultiPolygon","coordinates":[[[[104.905737,21.724825],[104.905759,21.724184],[104.906314,21.724152],[104.906384,21.72406],[104.90662,21.724057],[104.906848,21.72411],[104.907011,21.724229],[104.90688,21.724361],[104.907065,21.724511],[104.907076,21.724599],[104.90704,21.724685],[104.906961,21.724762],[104.906649,21.724752],[104.9064,21.724914],[104.90622,21.725033],[104.905737,21.724989],[104.905737,21.724825]]]]},"properties":{"group":"edu_health","tag":"amenity=school","name":"Trung tâm Giáo dục thường xuyên tỉnh Yên Bái","levels":null,"lat":21.724525009804434,"lng":104.90633672157958,"osm_type":"way","osm_id":1167465327}},{"type":"Feature","geometry":{"type":"MultiPolygon","coordinates":[[[[104.906287,21.722943],[104.906333,21.722881],[104.906652,21.722615],[104.906491,21.72245],[104.906593,21.722293],[104.907164,21.7225],[104.907264,21.722515],[104.907358,21.722507],[104.907416,21.722433],[104.907537,21.722535],[104.907561,21.722635],[104.90754,21.722752],[104.907438,21.722901],[104.90734,21.722936],[104.907151,21.723003],[104.907017,21.72332],[104.906743,21.723218],[104.906615,21.723222],[104.90636,21.723113],[104.906306,21.723051],[104.906287,21.722943]]]]},"properties":{"group":"edu_health","tag":"amenity=school","name":"Trường Trung học cơ sở Quang Trung","levels":null,"lat":21.722804884999743,"lng":104.90690560526222,"osm_type":"way","osm_id":1167465333}},{"type":"Feature","geometry":{"type":"MultiPolygon","coordinates":[[[[104.90734,21.722936],[104.907438,21.722901],[104.90754,21.722752],[104.907561,21.722635],[104.907537,21.722535],[104.907416,21.722433],[104.907494,21.722246],[104.907787,21.722246],[104.907972,21.722283],[104.908055,21.72232],[104.908111,21.72244],[104.908208,21.722602],[104.908294,21.722687],[104.908406,21.722724],[104.908559,21.722739],[104.908562,21.722772],[104.908248,21.722911],[104.908135,21.723018],[104.907985,21.723133],[104.907897,21.723277],[104.907698,21.72313],[104.907682,21.723153],[104.907411,21.722991],[104.90734,21.722936]]],[[[104.908058,21.723317],[104.908087,21.72323],[104.90821,21.723108],[104.908468,21.722968],[104.908656,21.722821],[104.909034,21.722405],[104.90908,21.72244],[104.909235,21.722605],[104.909294,21.722762],[104.909286,21.722993],[104.909216,21.72325],[104.909074,21.723414],[104.90872,21.723554],[104.908554,21.723467],[104.908235,21.723464],[104.908058,21.723317]]]]},"properties":{"group":"public","tag":"amenity=community_centre","name":null,"levels":null,"lat":21.722912442138668,"lng":104.9083648281633,"osm_type":"relation","osm_id":15789968}},{"type":"Feature","geometry":{"type":"MultiPolygon","coordinates":[[[[104.925991,21.724108],[104.926072,21.723991],[104.926299,21.723879],[104.92644,21.723677],[104.926466,21.723424],[104.926531,21.72341],[104.926456,21.723091],[104.926476,21.722579],[104.926723,21.722589],[104.926875,21.722561],[104.927051,21.722687],[104.927127,21.72279],[104.927213,21.72303],[104.92739,21.723245],[104.928253,21.72423],[104.927879,21.724488],[104.927798,21.724404],[104.927228,21.724334],[104.927183,21.724535],[104.927097,21.724671],[104.926955,21.724746],[104.926668,21.724779],[104.926274,21.724901],[104.926097,21.72469],[104.925991,21.724108]]]]},"properties":{"group":"edu_health","tag":"amenity=school","name":"Trường Phổ thông Dân tộc nội trú Trung học phổ thông tỉnh Yên Bái","levels":null,"lat":21.723851123214157,"lng":104.92695837318597,"osm_type":"way","osm_id":1167465342}},{"type":"Feature","geometry":{"type":"MultiPolygon","coordinates":[[[[104.934721,21.728604],[104.935737,21.728637],[104.935865,21.728808],[104.935926,21.729036],[104.935936,21.729622],[104.935762,21.730864],[104.934785,21.730835],[104.934751,21.729271],[104.934721,21.728604]]]]},"properties":{"group":"edu_health","tag":"amenity=school","name":"Trường Trung học phổ thông chuyên Nguyễn Tất Thành","levels":null,"lat":21.72970982153861,"lng":104.93531610360382,"osm_type":"way","osm_id":1177884117}},{"type":"Feature","geometry":{"type":"MultiPolygon","coordinates":[[[[104.3245,22.597377],[104.324572,22.597098],[104.324631,22.59688],[104.324703,22.59681],[104.324848,22.596748],[104.32499,22.596753],[104.325248,22.596753],[104.325385,22.596842],[104.325277,22.597028],[104.325237,22.597179],[104.325189,22.597432],[104.325116,22.5976],[104.325039,22.597697],[104.324912,22.597662],[104.324773,22.597652],[104.324601,22.597662],[104.324575,22.59764],[104.324521,22.59762],[104.324516,22.597566],[104.3245,22.597377]]]]},"properties":{"group":"edu_health","tag":"amenity=school","name":"Trường Trung học cơ sở & Trung học phổ thông Bắc Hà","levels":null,"lat":22.597202525983295,"lng":104.32490434675005,"osm_type":"way","osm_id":1188381637}},{"type":"Feature","geometry":{"type":"MultiPolygon","coordinates":[[[[104.254776,22.086653],[104.254921,22.08629],[104.255109,22.085922],[104.255291,22.085629],[104.255425,22.085231],[104.255624,22.084948],[104.255822,22.084868],[104.25719,22.085236],[104.257147,22.08545],[104.256589,22.086653],[104.256428,22.087051],[104.256214,22.087433],[104.255892,22.08722],[104.254776,22.086653]]]]},"properties":{"group":"public","tag":"leisure=park","name":null,"levels":null,"lat":22.08605211950277,"lng":104.25599314158643,"osm_type":"way","osm_id":1188382319}},{"type":"Feature","geometry":{"type":"MultiPolygon","coordinates":[[[[104.013989,22.426043],[104.014217,22.424788],[104.014362,22.424515],[104.01447,22.424554],[104.015384,22.424956],[104.01514,22.425909],[104.015049,22.425894],[104.014926,22.42631],[104.014614,22.426191],[104.013989,22.426043]]]]},"properties":{"group":"edu_health","tag":"amenity=college","name":"Trường Trung cấp nghề Công ty Apatit Việt Nam","levels":null,"lat":22.42542045741779,"lng":104.01465797792318,"osm_type":"way","osm_id":1193713676}},{"type":"Feature","geometry":{"type":"MultiPolygon","coordinates":[[[[104.904678,21.682076],[104.905735,21.681139],[104.905917,21.680979],[104.906083,21.680935],[104.906239,21.680969],[104.906443,21.681094],[104.906593,21.681099],[104.907242,21.680705],[104.908535,21.682355],[104.906142,21.683861],[104.904678,21.682076]]]]},"properties":{"group":"edu_health","tag":"amenity=hospital","name":"Bệnh viện Đa khoa số 1 tỉnh Lào Cai","levels":null,"lat":21.682204243249636,"lng":104.90657031583785,"osm_type":"way","osm_id":1204792342}},{"type":"Feature","geometry":{"type":"MultiPolygon","coordinates":[[[[104.90324,21.68343],[104.903787,21.683248],[104.903868,21.683352],[104.904141,21.683292],[104.904335,21.682993],[104.904474,21.682809],[104.905585,21.684195],[104.90427,21.685017],[104.903342,21.683726],[104.90324,21.68343]]]]},"properties":{"group":"edu_health","tag":"amenity=hospital","name":"Bệnh viện Phổi tỉnh Yên Bái","levels":null,"lat":21.68393416781491,"lng":104.90439878868459,"osm_type":"way","osm_id":1204792343}},{"type":"Feature","geometry":{"type":"MultiPolygon","coordinates":[[[[104.505172,21.613349],[104.50521,21.61302],[104.505252,21.612905],[104.505397,21.612935],[104.505526,21.61294],[104.50581,21.612815],[104.505977,21.61276],[104.506234,21.61275],[104.506283,21.612848],[104.506585,21.61346],[104.506839,21.613974],[104.50699,21.614281],[104.5061,21.61469],[104.50559,21.614486],[104.505231,21.614082],[104.505172,21.613962],[104.505279,21.613912],[104.505172,21.613349]]]]},"properties":{"group":"edu_health","tag":"amenity=hospital","name":"Bệnh viện Đa khoa số 3 tỉnh Lào Cai & Bệnh viện Đa khoa Trường Đức","levels":null,"lat":21.613734647353212,"lng":104.50598164456007,"osm_type":"way","osm_id":1204792344}},{"type":"Feature","geometry":{"type":"MultiPolygon","coordinates":[[[[104.892017,21.728348],[104.892055,21.728226],[104.892157,21.728079],[104.892203,21.72803],[104.892494,21.727799],[104.892567,21.727715],[104.892619,21.72773],[104.892594,21.727824],[104.892924,21.727894],[104.89339,21.727981],[104.893235,21.728183],[104.893085,21.728265],[104.892945,21.728303],[104.892904,21.728413],[104.89283,21.728393],[104.892574,21.728935],[104.892438,21.728893],[104.892406,21.728812],[104.892234,21.728707],[104.8923,21.728531],[104.892165,21.728505],[104.892089,21.72853],[104.892017,21.728348]]]]},"properties":{"group":"edu_health","tag":"amenity=hospital","name":"Bệnh viện Tâm thần tỉnh Yên Bái","levels":null,"lat":21.72826460214194,"lng":104.89260089550235,"osm_type":"way","osm_id":1204792345}},{"type":"Feature","geometry":{"type":"MultiPolygon","coordinates":[[[[104.89331,21.728238],[104.893524,21.727991],[104.893578,21.727929],[104.893927,21.727037],[104.893986,21.726758],[104.893777,21.726708],[104.893862,21.726454],[104.894297,21.726539],[104.8942,21.726863],[104.894479,21.726933],[104.894351,21.727371],[104.89405,21.727406],[104.893632,21.728328],[104.89331,21.728238]]]]},"properties":{"group":"edu_health","tag":"amenity=hospital","name":"Bệnh viện Y học cổ truyền tỉnh Yên Bái","levels":null,"lat":21.727302194485887,"lng":104.89396067215243,"osm_type":"way","osm_id":1204792346}},{"type":"Feature","geometry":{"type":"MultiPolygon","coordinates":[[[[104.881232,21.717888],[104.881632,21.717467],[104.88164,21.717338],[104.881744,21.717211],[104.881833,21.717208],[104.881916,21.717298],[104.881964,21.717482],[104.882139,21.717602],[104.882463,21.717694],[104.882723,21.717991],[104.882723,21.718113],[104.882597,21.718257],[104.882444,21.718197],[104.882157,21.717953],[104.881763,21.71822],[104.881642,21.718095],[104.881506,21.718025],[104.88142,21.717938],[104.881379,21.717976],[104.881232,21.717888]]]]},"properties":{"group":"edu_health","tag":"amenity=hospital","name":"Bệnh viện Nội tiết tỉnh Yên Bái","levels":null,"lat":21.71780547657432,"lng":104.88197263761633,"osm_type":"way","osm_id":1213207154}},{"type":"Feature","geometry":{"type":"MultiPolygon","coordinates":[[[[104.892567,21.727715],[104.892675,21.727557],[104.89305,21.726281],[104.893147,21.726261],[104.893862,21.726454],[104.893777,21.726708],[104.893986,21.726758],[104.893927,21.727037],[104.893578,21.727929],[104.893524,21.727991],[104.89339,21.727981],[104.892924,21.727894],[104.892594,21.727824],[104.892619,21.72773],[104.892567,21.727715]]]]},"properties":{"group":"edu_health","tag":"amenity=hospital","name":"Bệnh viện Sản - Nhi tỉnh Yên Bái","levels":null,"lat":21.727158530782642,"lng":104.89330223903653,"osm_type":"way","osm_id":1213207156}},{"type":"Feature","geometry":{"type":"MultiPolygon","coordinates":[[[[104.878042,21.70796],[104.878104,21.707186],[104.878072,21.707051],[104.878176,21.707026],[104.87834,21.707039],[104.878552,21.706957],[104.878597,21.707034],[104.87868,21.707317],[104.878815,21.707507],[104.878876,21.707609],[104.878863,21.707895],[104.878597,21.707883],[104.878586,21.708092],[104.878407,21.708057],[104.87816,21.70801],[104.878042,21.70796]]]]},"properties":{"group":"edu_health","tag":"amenity=hospital","name":"Trung tâm Y tế khu vực Yên Bái","levels":null,"lat":21.707550546508095,"lng":104.87842023158738,"osm_type":"way","osm_id":1213207157}},{"type":"Feature","geometry":{"type":"MultiPolygon","coordinates":[[[[104.829363,21.76143],[104.82961,21.761087],[104.829728,21.760603],[104.829674,21.760614],[104.829653,21.760469],[104.829808,21.760419],[104.830087,21.760509],[104.830061,21.760823],[104.830173,21.760957],[104.830484,21.761206],[104.830366,21.7615],[104.830281,21.761739],[104.83013,21.761904],[104.829905,21.762073],[104.829664,21.762342],[104.829465,21.762437],[104.829417,21.762268],[104.829465,21.762228],[104.829562,21.762033],[104.829497,21.761924],[104.829433,21.76158],[104.829363,21.76143]]]]},"properties":{"group":"edu_health","tag":"amenity=hospital","name":"Trung tâm Y tế khu vực Trấn Yên","levels":null,"lat":21.761409285526902,"lng":104.82987319657559,"osm_type":"way","osm_id":1213207158}},{"type":"Feature","geometry":{"type":"MultiPolygon","coordinates":[[[[104.828631,21.758274],[104.829336,21.757743],[104.829476,21.757686],[104.829597,21.757713],[104.829565,21.757883],[104.829814,21.75792],[104.829798,21.75803],[104.829425,21.758015],[104.829355,21.758134],[104.82935,21.758339],[104.829417,21.758388],[104.829042,21.758722],[104.828631,21.758274]]]]},"properties":{"group":"public","tag":"leisure=park","name":null,"levels":null,"lat":21.758183275260226,"lng":104.82917400588454,"osm_type":"way","osm_id":1213207176}},{"type":"Feature","geometry":{"type":"MultiPolygon","coordinates":[[[[104.680166,21.8808],[104.680767,21.880287],[104.680928,21.880182],[104.6811,21.880118],[104.681384,21.880103],[104.681481,21.880466],[104.681432,21.88061],[104.681534,21.88084],[104.68155,21.880959],[104.681539,21.881054],[104.681212,21.881073],[104.680976,21.881571],[104.68052,21.881325],[104.680298,21.881009],[104.680341,21.880954],[104.680166,21.8808]]]]},"properties":{"group":"edu_health","tag":"amenity=hospital","name":"Trung tâm Y tế khu vực Văn Yên","levels":null,"lat":21.88079212222654,"lng":104.68092291974584,"osm_type":"way","osm_id":1219129937}},{"type":"Feature","geometry":{"type":"MultiPolygon","coordinates":[[[[104.7631,22.105182],[104.763114,22.104799],[104.76365,22.104946],[104.764506,22.104928],[104.764498,22.105646],[104.763508,22.105674],[104.763494,22.105366],[104.763285,22.105366],[104.763267,22.105169],[104.7631,22.105182]]]]},"properties":{"group":"edu_health","tag":"amenity=hospital","name":"Trung tâm Y tế khu vực Lục Yên","levels":null,"lat":22.10525530311696,"lng":104.76386866990138,"osm_type":"way","osm_id":1219129938}},{"type":"Feature","geometry":{"type":"MultiPolygon","coordinates":[[[[104.735428,21.476533],[104.735841,21.476271],[104.735798,21.476179],[104.736096,21.476104],[104.736608,21.476119],[104.73675,21.476219],[104.737453,21.476521],[104.737313,21.476865],[104.737019,21.47697],[104.737013,21.477255],[104.736654,21.477225],[104.736423,21.477135],[104.735648,21.477082],[104.735428,21.476533]]]]},"properties":{"group":"edu_health","tag":"amenity=hospital","name":"Trung tâm Y tế khu vực Văn Chấn","levels":null,"lat":21.47666547275329,"lng":104.73641288172811,"osm_type":"way","osm_id":1219129939}},{"type":"Feature","geometry":{"type":"MultiPolygon","coordinates":[[[[104.375453,21.470935],[104.375667,21.470465],[104.375968,21.47061],[104.375989,21.470578],[104.37615,21.47061],[104.376201,21.470461],[104.376939,21.4706],[104.376979,21.470628],[104.377011,21.470877],[104.376984,21.470987],[104.376644,21.470937],[104.376504,21.471152],[104.375453,21.470935]]]]},"properties":{"group":"edu_health","tag":"amenity=hospital","name":"Trung tâm Y tế khu vực Trạm Tấu","levels":null,"lat":21.470792692767677,"lng":104.37625390850305,"osm_type":"way","osm_id":1219129940}},{"type":"Feature","geometry":{"type":"MultiPolygon","coordinates":[[[[104.092643,21.848658],[104.092871,21.848549],[104.093075,21.848327],[104.093161,21.84822],[104.093319,21.848377],[104.093477,21.848522],[104.093721,21.848454],[104.093778,21.848524],[104.093912,21.848656],[104.093609,21.848942],[104.093437,21.848882],[104.093244,21.848975],[104.092732,21.84897],[104.092643,21.848658]]]]},"properties":{"group":"edu_health","tag":"amenity=hospital","name":"Trung tâm Y tế khu vực Mù Cang Chải","levels":null,"lat":21.84868068818283,"lng":104.0932381557549,"osm_type":"way","osm_id":1219129941}},{"type":"Feature","geometry":{"type":"MultiPolygon","coordinates":[[[[103.957858,22.507767],[103.960395,22.50572],[103.961296,22.505319],[103.961807,22.504952],[103.961866,22.504972],[103.962054,22.504997],[103.962237,22.504932],[103.963039,22.505035],[103.963658,22.504898],[103.964844,22.504372],[103.965681,22.503877],[103.966324,22.503485],[103.966466,22.503622],[103.96633,22.503748],[103.965294,22.504367],[103.963744,22.505129],[103.963575,22.505186],[103.961724,22.505352],[103.961397,22.505446],[103.960384,22.50607],[103.958889,22.50727],[103.95788,22.508083],[103.957858,22.507767]]]]},"properties":{"group":"public","tag":"leisure=park","name":"Công viên Thuỷ Hoa","levels":null,"lat":22.505583201268255,"lng":103.96185879205227,"osm_type":"way","osm_id":1235174572}},{"type":"Feature","geometry":{"type":"MultiPolygon","coordinates":[[[[105.025504,21.748804],[105.025524,21.748707],[105.025545,21.748619],[105.025676,21.748719],[105.026125,21.749032],[105.026448,21.749272],[105.027448,21.749939],[105.028805,21.750712],[105.028663,21.751013],[105.028444,21.750952],[105.027998,21.750831],[105.027894,21.750772],[105.027713,21.750673],[105.027602,21.750668],[105.027453,21.750681],[105.027256,21.750578],[105.027107,21.750426],[105.027092,21.750348],[105.026812,21.750012],[105.026432,21.749637],[105.026212,21.749389],[105.026059,21.749189],[105.025896,21.749083],[105.025723,21.749014],[105.025569,21.748917],[105.025504,21.748804]]]]},"properties":{"group":"public","tag":"leisure=park","name":null,"levels":null,"lat":21.750081750125837,"lng":105.02731027431231,"osm_type":"way","osm_id":1279736066}},{"type":"Feature","geometry":{"type":"MultiPolygon","coordinates":[[[[103.840782,22.335694],[103.840921,22.335649],[103.840939,22.335694],[103.840892,22.335709],[103.840799,22.33574],[103.840782,22.335694]]]]},"properties":{"group":"public","tag":"leisure=park","name":"Không Gian Văn Hóa - Sapa Tinh Hoa Hội Tụ","levels":null,"lat":22.335694206481246,"lng":103.84086040530477,"osm_type":"way","osm_id":1324773443}},{"type":"Feature","geometry":{"type":"MultiPolygon","coordinates":[[[[104.83269,21.722654],[104.832713,21.722512],[104.832763,21.72249],[104.832799,21.722599],[104.832781,21.722624],[104.832764,21.72262],[104.832739,21.722668],[104.83269,21.722654]]]]},"properties":{"group":"public","tag":"leisure=garden","name":null,"levels":null,"lat":21.722581834653344,"lng":104.83274126947836,"osm_type":"way","osm_id":1327932369}},{"type":"Feature","geometry":{"type":"MultiPolygon","coordinates":[[[[104.111086,22.04782],[104.111225,22.047382],[104.111306,22.047455],[104.111776,22.047761],[104.111809,22.047793],[104.111823,22.047842],[104.111717,22.048105],[104.111086,22.04782]]]]},"properties":{"group":"edu_health","tag":"amenity=school","name":"PTDTBT Trung học cơ sở Thẳm Dương","levels":null,"lat":22.047770602610854,"lng":104.11144861646999,"osm_type":"way","osm_id":1331562711}},{"type":"Feature","geometry":{"type":"MultiPolygon","coordinates":[[[[104.11197,22.048474],[104.112231,22.048323],[104.112514,22.048743],[104.112253,22.048894],[104.11197,22.048474]]]]},"properties":{"group":"edu_health","tag":"amenity=hospital","name":"Trạm Y Tế xã Thẳm Dương","levels":null,"lat":22.048608650452344,"lng":104.11224196800507,"osm_type":"way","osm_id":1331562713}},{"type":"Feature","geometry":{"type":"MultiPolygon","coordinates":[[[[104.850408,21.69489],[104.850528,21.694875],[104.850541,21.694967],[104.850421,21.694982],[104.850408,21.69489]]]]},"properties":{"group":"apartment","tag":"building=apartments","name":null,"levels":null,"lat":21.69492845,"lng":104.85047455,"osm_type":"way","osm_id":1359101255}},{"type":"Feature","geometry":{"type":"MultiPolygon","coordinates":[[[[104.943435,21.773881],[104.943437,21.773866],[104.943439,21.77385],[104.943453,21.773822],[104.943477,21.773801],[104.943507,21.773788],[104.943538,21.773785],[104.943568,21.773791],[104.943595,21.773806],[104.943616,21.773828],[104.943627,21.773855],[104.94363,21.773883],[104.943622,21.773911],[104.943606,21.773936],[104.943582,21.773954],[104.943551,21.773965],[104.943517,21.773965],[104.943486,21.773956],[104.94346,21.773937],[104.943442,21.773911],[104.943435,21.773881]]]]},"properties":{"group":"public","tag":"leisure=park","name":null,"levels":null,"lat":21.77387568338769,"lng":104.94353238690339,"osm_type":"way","osm_id":1366794313}},{"type":"Feature","geometry":{"type":"MultiPolygon","coordinates":[[[[104.878663,21.699281],[104.878821,21.699155],[104.878881,21.69922],[104.878722,21.699346],[104.878663,21.699281]]]]},"properties":{"group":"apartment","tag":"building=apartments","name":null,"levels":4.0,"lat":21.699250749999994,"lng":104.87877189999999,"osm_type":"way","osm_id":1370416341}},{"type":"Feature","geometry":{"type":"MultiPolygon","coordinates":[[[[104.88305,21.717727],[104.883466,21.717481],[104.883488,21.717483],[104.883616,21.717652],[104.883173,21.717912],[104.88305,21.717727]]]]},"properties":{"group":"public","tag":"leisure=park","name":null,"levels":null,"lat":21.717691275665306,"lng":104.8833299798659,"osm_type":"way","osm_id":1373566669}},{"type":"Feature","geometry":{"type":"MultiPolygon","coordinates":[[[[104.881674,21.708196],[104.881853,21.707884],[104.882395,21.708152],[104.882215,21.708465],[104.881674,21.708196]]]]},"properties":{"group":"mall","tag":"shop=mall","name":"Vincom Plaza Yên Bái","levels":null,"lat":21.7081741827287,"lng":104.88203426001733,"osm_type":"way","osm_id":1377826439}},{"type":"Feature","geometry":{"type":"MultiPolygon","coordinates":[[[[103.971703,22.476833],[103.971783,22.476649],[103.972447,22.476894],[103.972367,22.477078],[103.971703,22.476833]]]]},"properties":{"group":"apartment","tag":"building=apartments","name":null,"levels":null,"lat":22.47686349847677,"lng":103.97207496458806,"osm_type":"way","osm_id":1378225013}},{"type":"Feature","geometry":{"type":"MultiPolygon","coordinates":[[[[104.020494,22.443719],[104.021795,22.442824],[104.022498,22.442382],[104.024102,22.446393],[104.023699,22.446552],[104.023554,22.446527],[104.023511,22.446265],[104.023152,22.446151],[104.023039,22.445922],[104.022868,22.445759],[104.022605,22.445689],[104.022379,22.445263],[104.022143,22.445184],[104.022058,22.444926],[104.022219,22.444668],[104.022487,22.444633],[104.022503,22.444038],[104.022481,22.443944],[104.022272,22.44383],[104.02209,22.44384],[104.021918,22.444271],[104.021779,22.444504],[104.021564,22.444619],[104.0215,22.444504],[104.021038,22.44442],[104.020915,22.444455],[104.020494,22.443719]]]]},"properties":{"group":"edu_health","tag":"amenity=school","name":"Trường Quốc tế Canada Lào Cai","levels":null,"lat":22.444336680206124,"lng":104.02241191830909,"osm_type":"way","osm_id":1412237901}},{"type":"Feature","geometry":{"type":"MultiPolygon","coordinates":[[[[104.020535,22.408163],[104.021359,22.407918],[104.021506,22.408443],[104.020875,22.408715],[104.020943,22.408925],[104.020831,22.408971],[104.020738,22.408774],[104.020535,22.408163]]]]},"properties":{"group":"edu_health","tag":"amenity=school","name":"Trường Trung học phổ thông Lương Thế Vinh","levels":null,"lat":22.40835591142355,"lng":104.0210129507258,"osm_type":"way","osm_id":1412971716}},{"type":"Feature","geometry":{"type":"MultiPolygon","coordinates":[[[[104.02325,22.44292],[104.025841,22.442103],[104.026417,22.443658],[104.025193,22.443986],[104.025517,22.444899],[104.024237,22.445315],[104.02325,22.44292]]]]},"properties":{"group":"edu_health","tag":"amenity=school","name":"Trường PTDTNT Trung học phổ thông Lào Cai","levels":null,"lat":22.443586681325172,"lng":104.02481188622832,"osm_type":"way","osm_id":1412974576}},{"type":"Feature","geometry":{"type":"MultiPolygon","coordinates":[[[[103.979206,22.469423],[103.980106,22.46807],[103.980189,22.468032],[103.980248,22.468096],[103.980355,22.468684],[103.98045,22.469373],[103.98044,22.469636],[103.980386,22.46972],[103.980218,22.469755],[103.979808,22.469718],[103.979233,22.469494],[103.979206,22.469423]]]]},"properties":{"group":"edu_health","tag":"amenity=school","name":"Trường Trung học cơ sở Bắc Cường","levels":null,"lat":22.46907671010267,"lng":103.97995386874585,"osm_type":"way","osm_id":1413240384}},{"type":"Feature","geometry":{"type":"MultiPolygon","coordinates":[[[[103.887979,22.302188],[103.888607,22.301732],[103.888938,22.302122],[103.88831,22.302578],[103.887979,22.302188]]]]},"properties":{"group":"edu_health","tag":"amenity=school","name":null,"levels":null,"lat":22.302155299999995,"lng":103.88845829999997,"osm_type":"way","osm_id":1415528977}},{"type":"Feature","geometry":{"type":"MultiPolygon","coordinates":[[[[104.196745,22.312403],[104.198075,22.311572],[104.198348,22.311411],[104.199196,22.312766],[104.199125,22.312956],[104.198752,22.313146],[104.19878,22.313198],[104.198234,22.313503],[104.198188,22.313466],[104.197757,22.313701],[104.197646,22.31375],[104.19759,22.313741],[104.196745,22.312403]]]]},"properties":{"group":"edu_health","tag":"amenity=school","name":"Trường PTDTNT Trung học cơ sở & Trung học phổ thông Bảo Thắng","levels":null,"lat":22.31261651376763,"lng":104.19800132995022,"osm_type":"way","osm_id":1417144603}},{"type":"Feature","geometry":{"type":"MultiPolygon","coordinates":[[[[104.188237,22.315307],[104.188317,22.315198],[104.189538,22.314379],[104.19042,22.313669],[104.190635,22.313605],[104.191659,22.313525],[104.191793,22.31356],[104.192067,22.31415],[104.192045,22.314274],[104.191879,22.314428],[104.189803,22.316071],[104.189551,22.316255],[104.189433,22.316314],[104.189358,22.316319],[104.189309,22.316289],[104.188253,22.315376],[104.188237,22.315307]]]]},"properties":{"group":"public","tag":"leisure=park","name":null,"levels":null,"lat":22.314816364131026,"lng":104.19019027017809,"osm_type":"way","osm_id":1417144620}},{"type":"Feature","geometry":{"type":"MultiPolygon","coordinates":[[[[103.970798,22.482418],[103.970839,22.482195],[103.971209,22.482397],[103.971259,22.482426],[103.971255,22.482489],[103.970798,22.482418]]]]},"properties":{"group":"public","tag":"leisure=garden","name":null,"levels":null,"lat":22.482367804906335,"lng":103.97099623407743,"osm_type":"way","osm_id":1448582642}},{"type":"Feature","geometry":{"type":"MultiPolygon","coordinates":[[[[103.844636,22.337104],[103.844645,22.337072],[103.844668,22.336933],[103.844678,22.336879],[103.845775,22.337125],[103.845677,22.337211],[103.845445,22.337346],[103.845152,22.337471],[103.844916,22.337353],[103.844822,22.337283],[103.844636,22.337104]]]]},"properties":{"group":"public","tag":"leisure=park","name":null,"levels":null,"lat":22.33716869674119,"lng":103.84513234091119,"osm_type":"way","osm_id":1449948582}},{"type":"Feature","geometry":{"type":"MultiPolygon","coordinates":[[[[103.841658,22.335812],[103.841724,22.335723],[103.841981,22.335639],[103.843262,22.336002],[103.843276,22.336018],[103.843277,22.336069],[103.843265,22.336119],[103.843208,22.336133],[103.842927,22.336139],[103.841937,22.336024],[103.841694,22.335916],[103.841658,22.335812]]]]},"properties":{"group":"public","tag":"leisure=park","name":null,"levels":null,"lat":22.33592057807877,"lng":103.84239682776587,"osm_type":"way","osm_id":1449949868}},{"type":"Feature","geometry":{"type":"MultiPolygon","coordinates":[[[[103.849818,22.337031],[103.849857,22.336971],[103.8499,22.336963],[103.850122,22.337073],[103.850149,22.337101],[103.85014,22.337118],[103.850084,22.337124],[103.849872,22.337117],[103.849835,22.337096],[103.849818,22.337031]]]]},"properties":{"group":"public","tag":"leisure=garden","name":null,"levels":null,"lat":22.33705910189518,"lng":103.84995867391787,"osm_type":"way","osm_id":1452489967}},{"type":"Feature","geometry":{"type":"MultiPolygon","coordinates":[[[[103.969154,22.500894],[103.969342,22.500506],[103.969467,22.500151],[103.969536,22.500175],[103.969427,22.500508],[103.969288,22.500864],[103.969251,22.500928],[103.969154,22.500894]]]]},"properties":{"group":"public","tag":"leisure=garden","name":null,"levels":null,"lat":22.500567394232345,"lng":103.96935157094144,"osm_type":"way","osm_id":1452901450}},{"type":"Feature","geometry":{"type":"MultiPolygon","coordinates":[[[[103.966432,22.501595],[103.966433,22.501577],[103.966439,22.50156],[103.966451,22.501546],[103.966469,22.501535],[103.96649,22.50153],[103.966511,22.501532],[103.96653,22.501541],[103.966545,22.501555],[103.966554,22.501573],[103.966556,22.501593],[103.96655,22.501612],[103.966538,22.501628],[103.966522,22.501639],[103.966503,22.501644],[103.966484,22.501644],[103.966465,22.501638],[103.966449,22.501627],[103.966438,22.501613],[103.966432,22.501595]]]]},"properties":{"group":"public","tag":"leisure=garden","name":null,"levels":null,"lat":22.501587309396495,"lng":103.96649394019146,"osm_type":"way","osm_id":1456601048}},{"type":"Feature","geometry":{"type":"MultiPolygon","coordinates":[[[[103.964158,22.489188],[103.96448,22.489123],[103.964331,22.489443],[103.964303,22.489358],[103.964255,22.489282],[103.964192,22.48922],[103.964158,22.489188]]]]},"properties":{"group":"public","tag":"leisure=garden","name":null,"levels":null,"lat":22.48924331621432,"lng":103.96433163536506,"osm_type":"way","osm_id":1456601053}},{"type":"Feature","geometry":{"type":"MultiPolygon","coordinates":[[[[103.971942,22.483364],[103.972006,22.483057],[103.972463,22.483453],[103.972195,22.483776],[103.972065,22.483763],[103.972143,22.483397],[103.971942,22.483364]]]]},"properties":{"group":"public","tag":"leisure=garden","name":null,"levels":null,"lat":22.483432354481398,"lng":103.97218288358785,"osm_type":"way","osm_id":1456601393}},{"type":"Feature","geometry":{"type":"MultiPolygon","coordinates":[[[[104.87924,21.699557],[104.879306,21.699503],[104.879513,21.699742],[104.879437,21.69979],[104.87924,21.699557]]]]},"properties":{"group":"apartment","tag":"building=apartments","name":null,"levels":4.0,"lat":21.699648431688885,"lng":104.87937489122329,"osm_type":"way","osm_id":1473304926}},{"type":"Feature","geometry":{"type":"MultiPolygon","coordinates":[[[[104.87901,21.699534],[104.879205,21.699396],[104.8793,21.699494],[104.879222,21.699545],[104.87919,21.699513],[104.879061,21.699604],[104.87901,21.699534]]]]},"properties":{"group":"apartment","tag":"building=apartments","name":null,"levels":4.0,"lat":21.699499179800732,"lng":104.87915420938495,"osm_type":"way","osm_id":1473304927}},{"type":"Feature","geometry":{"type":"MultiPolygon","coordinates":[[[[104.879062,21.69963],[104.879184,21.699543],[104.87938,21.699759],[104.879252,21.699868],[104.879062,21.69963]]]]},"properties":{"group":"public","tag":"leisure=park","name":null,"levels":null,"lat":21.699702425637135,"lng":104.87922070615019,"osm_type":"way","osm_id":1473305145}},{"type":"Feature","geometry":{"type":"MultiPolygon","coordinates":[[[[104.879203,21.703981],[104.879273,21.70392],[104.879363,21.70401],[104.879293,21.70407],[104.879203,21.703981]]]]},"properties":{"group":"apartment","tag":"building=apartments","name":null,"levels":null,"lat":21.70399504689389,"lng":104.87928306626573,"osm_type":"way","osm_id":1473310572}},{"type":"Feature","geometry":{"type":"MultiPolygon","coordinates":[[[[104.883327,21.710815],[104.883591,21.710597],[104.883826,21.710754],[104.883559,21.710954],[104.883327,21.710815]]]]},"properties":{"group":"public","tag":"leisure=park","name":null,"levels":null,"lat":21.710778455955907,"lng":104.88357639857306,"osm_type":"way","osm_id":1473320679}},{"type":"Feature","geometry":{"type":"MultiPolygon","coordinates":[[[[104.892874,21.704481],[104.893266,21.704362],[104.893444,21.704135],[104.893973,21.703958],[104.89442,21.703793],[104.895085,21.703471],[104.89559,21.703079],[104.895705,21.703175],[104.896247,21.702729],[104.896726,21.703363],[104.896301,21.703801],[104.895929,21.704073],[104.895337,21.704411],[104.894598,21.704773],[104.89382,21.705026],[104.893126,21.705299],[104.892874,21.704481]]]]},"properties":{"group":"public","tag":"leisure=garden","name":null,"levels":null,"lat":21.704078683416135,"lng":104.89479846246988,"osm_type":"way","osm_id":1473327894}},{"type":"Feature","geometry":{"type":"MultiPolygon","coordinates":[[[[104.507043,21.605824],[104.507689,21.605782],[104.507709,21.606395],[104.5071,21.606445],[104.507043,21.605824]]]]},"properties":{"group":"edu_health","tag":"amenity=school","name":"Trường THPT Nguyễn Trãi","levels":null,"lat":21.606108610285855,"lng":104.50738419323793,"osm_type":"way","osm_id":1485561164}},{"type":"Feature","geometry":{"type":"MultiPolygon","coordinates":[[[[104.507068,21.605121],[104.507798,21.605051],[104.507838,21.605672],[104.507438,21.605709],[104.507118,21.605739],[104.507068,21.605121]]]]},"properties":{"group":"edu_health","tag":"amenity=school","name":"Trường THCS Tô Hiệu","levels":null,"lat":21.605395187619838,"lng":104.5074554570049,"osm_type":"way","osm_id":1485561165}},{"type":"Feature","geometry":{"type":"MultiPolygon","coordinates":[[[[104.51748,21.592064],[104.518683,21.590479],[104.518757,21.590439],[104.518843,21.590459],[104.520319,21.591458],[104.520317,21.591542],[104.520166,21.591802],[104.520065,21.59208],[104.520022,21.592312],[104.519996,21.592713],[104.520023,21.59314],[104.519984,21.593229],[104.519909,21.593248],[104.51748,21.592064]]]]},"properties":{"group":"public","tag":"leisure=park","name":"Công viên Mường Lò","levels":null,"lat":21.591827619979302,"lng":104.51904526606705,"osm_type":"way","osm_id":1486092201}},{"type":"Feature","geometry":{"type":"MultiPolygon","coordinates":[[[[104.497021,21.596739],[104.4976,21.596353],[104.498311,21.597303],[104.497734,21.597659],[104.497021,21.596739]]]]},"properties":{"group":"edu_health","tag":"amenity=school","name":"Trường Trung cấp DTNT Nghĩa Lộ","levels":null,"lat":21.59701054358402,"lng":104.49766549349908,"osm_type":"way","osm_id":1488483191}},{"type":"Feature","geometry":{"type":"MultiPolygon","coordinates":[[[[104.501983,21.600872],[104.50312,21.60062],[104.503241,21.601078],[104.50268,21.601191],[104.502723,21.601448],[104.502567,21.601472],[104.502119,21.601298],[104.501983,21.600872]]]]},"properties":{"group":"edu_health","tag":"amenity=school","name":"Trường TH - THCS Lý Tự Trọng","levels":null,"lat":21.6010201685309,"lng":104.50260319955223,"osm_type":"way","osm_id":1488483192}},{"type":"Feature","geometry":{"type":"MultiPolygon","coordinates":[[[[104.499955,21.599442],[104.500194,21.599],[104.500573,21.599152],[104.500371,21.599612],[104.499955,21.599442]]]]},"properties":{"group":"edu_health","tag":"amenity=school","name":"Trường Trung cấp DTNT Nghĩa Lộ (cơ sở 2)","levels":null,"lat":21.59930523049289,"lng":104.50027149739286,"osm_type":"way","osm_id":1488483193}},{"type":"Feature","geometry":{"type":"MultiPolygon","coordinates":[[[[104.497562,21.598926],[104.497621,21.598423],[104.498987,21.59855],[104.499008,21.598437],[104.499869,21.598512],[104.499874,21.598999],[104.499703,21.598994],[104.499311,21.599368],[104.499105,21.599363],[104.499075,21.599639],[104.498705,21.599612],[104.498718,21.599432],[104.498002,21.599353],[104.498029,21.598996],[104.497562,21.598926]]]]},"properties":{"group":"edu_health","tag":"amenity=school","name":"Trường PTDTNT - THCS Miền Tây (Nghĩa Lộ)","levels":null,"lat":21.598915409879623,"lng":104.49874591352824,"osm_type":"way","osm_id":1488483194}},{"type":"Feature","geometry":{"type":"Point","coordinates":[104.270552,22.50493]},"properties":{"group":"edu_health","tag":"amenity=school","name":"Trường mầm non Cồ Đề Chài II","levels":null,"lat":22.5049296,"lng":104.2705518,"osm_type":"node","osm_id":1756059415}},{"type":"Feature","geometry":{"type":"Point","coordinates":[104.261196,22.489446]},"properties":{"group":"edu_health","tag":"amenity=school","name":"Trường tiểu học Nậm Mòn 2 - phân hiệu Làng Mương","levels":null,"lat":22.4894465,"lng":104.2611963,"osm_type":"node","osm_id":1756062249}},{"type":"Feature","geometry":{"type":"Point","coordinates":[104.248644,22.486175]},"properties":{"group":"edu_health","tag":"amenity=hospital","name":"Trạm y tế xã Nậm Mòn","levels":null,"lat":22.4861752,"lng":104.2486435,"osm_type":"node","osm_id":1756064227}},{"type":"Feature","geometry":{"type":"Point","coordinates":[104.232035,22.511471]},"properties":{"group":"edu_health","tag":"amenity=school","name":"Trường Trung học cơ sở Cốc Ly","levels":null,"lat":22.5114712,"lng":104.2320353,"osm_type":"node","osm_id":1756068007}},{"type":"Feature","geometry":{"type":"Point","coordinates":[104.291731,22.542079]},"properties":{"group":"edu_health","tag":"amenity=school","name":"Trường Trung Học Cơ Sở Thị Trấn Bắc Hà","levels":null,"lat":22.5420794,"lng":104.2917308,"osm_type":"node","osm_id":2431234782}},{"type":"Feature","geometry":{"type":"Point","coordinates":[104.400306,22.27834]},"properties":{"group":"edu_health","tag":"amenity=school","name":"Visit, ask for English teacher!","levels":null,"lat":22.2783404,"lng":104.4003058,"osm_type":"node","osm_id":3425236800}},{"type":"Feature","geometry":{"type":"Point","coordinates":[103.828933,22.397245]},"properties":{"group":"edu_health","tag":"amenity=school","name":"Trường Mầm non Tả Phìn\nđiểm trường thôn lư khâu","levels":null,"lat":22.3972454,"lng":103.8289332,"osm_type":"node","osm_id":4121511389}},{"type":"Feature","geometry":{"type":"Point","coordinates":[103.923298,22.293362]},"properties":{"group":"edu_health","tag":"amenity=school","name":"Su Pan school","levels":null,"lat":22.2933617,"lng":103.9232976,"osm_type":"node","osm_id":4539039889}},{"type":"Feature","geometry":{"type":"Point","coordinates":[104.533989,21.59824]},"properties":{"group":"public","tag":"amenity=community_centre","name":"Phu Nham CPC","levels":null,"lat":21.5982398,"lng":104.5339885,"osm_type":"node","osm_id":4747829521}},{"type":"Feature","geometry":{"type":"Point","coordinates":[103.840528,22.397671]},"properties":{"group":"edu_health","tag":"amenity=hospital","name":null,"levels":null,"lat":22.3976707,"lng":103.8405279,"osm_type":"node","osm_id":4748730920}},{"type":"Feature","geometry":{"type":"Point","coordinates":[103.842455,22.39489]},"properties":{"group":"edu_health","tag":"amenity=school","name":null,"levels":null,"lat":22.3948904,"lng":103.8424545,"osm_type":"node","osm_id":4748731937}},{"type":"Feature","geometry":{"type":"Point","coordinates":[103.857035,22.366149]},"properties":{"group":"edu_health","tag":"amenity=hospital","name":null,"levels":null,"lat":22.3661486,"lng":103.857035,"osm_type":"node","osm_id":4748732217}},{"type":"Feature","geometry":{"type":"Point","coordinates":[103.834721,22.389774]},"properties":{"group":"edu_health","tag":"amenity=school","name":"Diem Truong Can Ngai","levels":null,"lat":22.3897739,"lng":103.8347212,"osm_type":"node","osm_id":4748732465}},{"type":"Feature","geometry":{"type":"Point","coordinates":[103.833638,22.327823]},"properties":{"group":"public","tag":"leisure=playground","name":null,"levels":null,"lat":22.3278226,"lng":103.8336379,"osm_type":"node","osm_id":4748822330}},{"type":"Feature","geometry":{"type":"Point","coordinates":[103.870449,22.30744]},"properties":{"group":"edu_health","tag":"amenity=school","name":null,"levels":null,"lat":22.3074403,"lng":103.8704487,"osm_type":"node","osm_id":4748981648}},{"type":"Feature","geometry":{"type":"Point","coordinates":[104.996002,21.707892]},"properties":{"group":"edu_health","tag":"amenity=hospital","name":null,"levels":null,"lat":21.7078923,"lng":104.9960015,"osm_type":"node","osm_id":4801183022}},{"type":"Feature","geometry":{"type":"Point","coordinates":[103.857167,22.346091]},"properties":{"group":"edu_health","tag":"amenity=hospital","name":null,"levels":null,"lat":22.3460908,"lng":103.8571672,"osm_type":"node","osm_id":5057594021}},{"type":"Feature","geometry":{"type":"Point","coordinates":[104.03309,21.725739]},"properties":{"group":"public","tag":"amenity=community_centre","name":null,"levels":null,"lat":21.7257391,"lng":104.0330903,"osm_type":"node","osm_id":5302075221}},{"type":"Feature","geometry":{"type":"Point","coordinates":[103.978974,22.487061]},"properties":{"group":"edu_health","tag":"amenity=hospital","name":null,"levels":null,"lat":22.4870609,"lng":103.9789742,"osm_type":"node","osm_id":5351967525}},{"type":"Feature","geometry":{"type":"Point","coordinates":[103.850497,22.33815]},"properties":{"group":"edu_health","tag":"amenity=school","name":null,"levels":null,"lat":22.3381497,"lng":103.8504969,"osm_type":"node","osm_id":5405088849}},{"type":"Feature","geometry":{"type":"Point","coordinates":[103.878304,22.306409]},"properties":{"group":"edu_health","tag":"amenity=school","name":"Lao Chai Primary School","levels":null,"lat":22.306409,"lng":103.8783045,"osm_type":"node","osm_id":5447928121}},{"type":"Feature","geometry":{"type":"Point","coordinates":[104.144898,22.647532]},"properties":{"group":"edu_health","tag":"amenity=school","name":"Trường Trung học cơ sở Cao Sơn","levels":null,"lat":22.6475318,"lng":104.1448977,"osm_type":"node","osm_id":5514355903}},{"type":"Feature","geometry":{"type":"Point","coordinates":[103.956702,22.501756]},"properties":{"group":"public","tag":"amenity=community_centre","name":"Trung tâm dịch vụ khu kinh tế tỉnh Lào Cai","levels":null,"lat":22.5017564,"lng":103.9567016,"osm_type":"node","osm_id":5606360321}},{"type":"Feature","geometry":{"type":"Point","coordinates":[103.555231,22.616934]},"properties":{"group":"edu_health","tag":"amenity=school","name":"Điểm trường Hồng Ngài","levels":null,"lat":22.6169338,"lng":103.5552312,"osm_type":"node","osm_id":6959691672}},{"type":"Feature","geometry":{"type":"Point","coordinates":[103.827872,22.331147]},"properties":{"group":"edu_health","tag":"amenity=school","name":null,"levels":null,"lat":22.3311466,"lng":103.8278723,"osm_type":"node","osm_id":7171953865}},{"type":"Feature","geometry":{"type":"Point","coordinates":[103.813819,22.340619]},"properties":{"group":"edu_health","tag":"amenity=school","name":null,"levels":null,"lat":22.3406195,"lng":103.8138191,"osm_type":"node","osm_id":7171966340}},{"type":"Feature","geometry":{"type":"Point","coordinates":[103.891771,22.300869]},"properties":{"group":"edu_health","tag":"amenity=school","name":null,"levels":null,"lat":22.3008694,"lng":103.8917705,"osm_type":"node","osm_id":7174600773}},{"type":"Feature","geometry":{"type":"Point","coordinates":[104.920891,21.729085]},"properties":{"group":"edu_health","tag":"amenity=school","name":"Yen Thinh Secondary","levels":null,"lat":21.7290852,"lng":104.9208914,"osm_type":"node","osm_id":9441328817}},{"type":"Feature","geometry":{"type":"Point","coordinates":[104.916377,21.730489]},"properties":{"group":"edu_health","tag":"amenity=school","name":null,"levels":null,"lat":21.7304887,"lng":104.9163774,"osm_type":"node","osm_id":9713174417}},{"type":"Feature","geometry":{"type":"Point","coordinates":[103.866565,22.322563]},"properties":{"group":"public","tag":"leisure=park","name":"Alpine Coaster Sapa","levels":null,"lat":22.3225629,"lng":103.8665646,"osm_type":"node","osm_id":11871599148}},{"type":"Feature","geometry":{"type":"Point","coordinates":[104.534828,21.596292]},"properties":{"group":"edu_health","tag":"amenity=school","name":null,"levels":null,"lat":21.5962917,"lng":104.5348281,"osm_type":"node","osm_id":12753548627}},{"type":"Feature","geometry":{"type":"Point","coordinates":[104.53305,21.568365]},"properties":{"group":"edu_health","tag":"amenity=school","name":null,"levels":null,"lat":21.5683652,"lng":104.53305,"osm_type":"node","osm_id":12753548631}},{"type":"Feature","geometry":{"type":"Point","coordinates":[103.882432,22.390196]},"properties":{"group":"edu_health","tag":"amenity=school","name":null,"levels":null,"lat":22.3901964,"lng":103.8824322,"osm_type":"node","osm_id":12761117009}},{"type":"Feature","geometry":{"type":"Point","coordinates":[104.383838,21.465058]},"properties":{"group":"public","tag":"leisure=park","name":"Đồi thông Eo gió","levels":null,"lat":21.4650581,"lng":104.3838377,"osm_type":"node","osm_id":12761669401}},{"type":"Feature","geometry":{"type":"Point","coordinates":[104.378,21.470739]},"properties":{"group":"edu_health","tag":"amenity=school","name":null,"levels":null,"lat":21.4707389,"lng":104.3779999,"osm_type":"node","osm_id":12765005641}},{"type":"Feature","geometry":{"type":"Point","coordinates":[104.373303,21.466096]},"properties":{"group":"edu_health","tag":"amenity=school","name":null,"levels":null,"lat":21.4660959,"lng":104.3733034,"osm_type":"node","osm_id":12765405733}},{"type":"Feature","geometry":{"type":"Point","coordinates":[104.187083,22.319858]},"properties":{"group":"edu_health","tag":"amenity=school","name":"Trường Tiểu học số 2","levels":null,"lat":22.3198582,"lng":104.1870833,"osm_type":"node","osm_id":12887944275}},{"type":"Feature","geometry":{"type":"Point","coordinates":[103.788302,22.40767]},"properties":{"group":"edu_health","tag":"amenity=school","name":null,"levels":null,"lat":22.4076701,"lng":103.7883021,"osm_type":"node","osm_id":13086473225}},{"type":"Feature","geometry":{"type":"Point","coordinates":[103.765672,22.314718]},"properties":{"group":"public","tag":"leisure=garden","name":null,"levels":null,"lat":22.3147177,"lng":103.7656719,"osm_type":"node","osm_id":13279323024}},{"type":"Feature","geometry":{"type":"Point","coordinates":[103.844154,22.337824]},"properties":{"group":"edu_health","tag":"amenity=school","name":"Trường Tiểu học Sa Pa","levels":null,"lat":22.3378243,"lng":103.8441542,"osm_type":"node","osm_id":13359141960}},{"type":"Feature","geometry":{"type":"Point","coordinates":[104.671071,22.213144]},"properties":{"group":"public","tag":"leisure=playground","name":"Spinning top","levels":null,"lat":22.2131435,"lng":104.671071,"osm_type":"node","osm_id":13844360701}},{"type":"Feature","geometry":{"type":"Point","coordinates":[104.671052,22.213037]},"properties":{"group":"public","tag":"leisure=playground","name":"Soccer ground","levels":null,"lat":22.213037,"lng":104.6710521,"osm_type":"node","osm_id":13844360801}}]}