{"type":"FeatureCollection","features":[{"type":"Feature","properties":{"kind":"boundary","province_code":"37","name":"Tỉnh Ninh Bình","source":"VNSDI","valid_from":"16/6/2025","simplify_tolerance_deg":0.0005},"geometry":{"type":"MultiPolygon","coordinates":[[[[105.92213,20.10282],[105.90872,20.10657],[105.90555,20.1082],[105.89439,20.11976],[105.88824,20.11962],[105.87145,20.12355],[105.86561,20.12726],[105.85968,20.13313],[105.8498,20.13999],[105.84297,20.14186],[105.83662,20.14189],[105.83369,20.14375],[105.83201,20.14836],[105.82885,20.15182],[105.82251,20.153],[105.81397,20.15626],[105.8052,20.16068],[105.794,20.16832],[105.78131,20.17183],[105.77376,20.176],[105.76033,20.17882],[105.7435,20.1851],[105.73743,20.19295],[105.72209,20.20383],[105.71503,20.20984],[105.70364,20.21675],[105.69614,20.21926],[105.69331,20.22156],[105.69259,20.23089],[105.69113,20.23266],[105.68606,20.2342],[105.68221,20.23689],[105.66931,20.25701],[105.65676,20.2668],[105.64928,20.27428],[105.629,20.28142],[105.62007,20.28241],[105.61642,20.2851],[105.61218,20.29199],[105.60977,20.29926],[105.60614,20.30482],[105.60007,20.31133],[105.59541,20.31326],[105.58118,20.31216],[105.57672,20.31351],[105.57267,20.3162],[105.56414,20.3168],[105.56353,20.31833],[105.56477,20.32273],[105.56376,20.32559],[105.56133,20.32751],[105.55545,20.3283],[105.55139,20.33003],[105.54957,20.33195],[105.54877,20.3373],[105.55022,20.34341],[105.5484,20.34666],[105.54496,20.35011],[105.54356,20.35776],[105.54358,20.36333],[105.54927,20.36039],[105.56664,20.35887],[105.57235,20.36104],[105.57574,20.36445],[105.58302,20.36906],[105.60037,20.36314],[105.61046,20.35628],[105.61665,20.34894],[105.62339,20.34721],[105.62805,20.34719],[105.63556,20.34302],[105.64228,20.33714],[105.65363,20.32442],[105.65984,20.32196],[105.66346,20.31853],[105.66551,20.31389],[105.66809,20.31071],[105.67844,20.30628],[105.68544,20.30552],[105.68985,20.30721],[105.69428,20.3128],[105.69695,20.31406],[105.70357,20.32489],[105.70811,20.32653],[105.71154,20.32404],[105.71971,20.3283],[105.72837,20.33486],[105.73372,20.33691],[105.72534,20.34142],[105.71949,20.34742],[105.71494,20.35463],[105.70488,20.37399],[105.70721,20.38311],[105.70536,20.38519],[105.69473,20.39072],[105.69694,20.39771],[105.69418,20.40172],[105.68754,20.40296],[105.68512,20.40569],[105.68563,20.40984],[105.69368,20.41169],[105.69667,20.41163],[105.71546,20.40807],[105.72349,20.40462],[105.72917,20.39899],[105.73122,20.39313],[105.73066,20.3863],[105.73377,20.38458],[105.74202,20.38413],[105.74444,20.3832],[105.74574,20.3807],[105.74481,20.37339],[105.74741,20.36792],[105.74945,20.36698],[105.75375,20.36738],[105.75602,20.36956],[105.75872,20.377],[105.75942,20.38191],[105.75618,20.38786],[105.75322,20.39611],[105.75288,20.39904],[105.75424,20.40398],[105.75279,20.40737],[105.75296,20.4102],[105.7534,20.41241],[105.75526,20.41381],[105.75607,20.41952],[105.75147,20.43245],[105.75261,20.43941],[105.75583,20.44155],[105.77375,20.44047],[105.77477,20.43472],[105.78079,20.43621],[105.78374,20.43894],[105.78859,20.44763],[105.78655,20.45295],[105.79221,20.45408],[105.79387,20.44835],[105.79869,20.43986],[105.80324,20.43381],[105.80863,20.42855],[105.81952,20.42357],[105.82323,20.41883],[105.82781,20.41772],[105.82942,20.41869],[105.82906,20.42395],[105.83017,20.42502],[105.8321,20.42484],[105.83731,20.42107],[105.84187,20.42103],[105.85662,20.42718],[105.85543,20.42913],[105.8513,20.45929],[105.85286,20.477],[105.84842,20.47946],[105.84268,20.48028],[105.82516,20.48878],[105.82047,20.4961],[105.81949,20.50309],[105.80766,20.50108],[105.80446,20.50316],[105.7995,20.51132],[105.79389,20.51669],[105.78168,20.54167],[105.77692,20.54596],[105.77349,20.55113],[105.77108,20.55669],[105.76955,20.56377],[105.78543,20.56554],[105.79083,20.56703],[105.7938,20.56879],[105.79732,20.57307],[105.80107,20.59194],[105.80442,20.59958],[105.81052,20.6049],[105.80707,20.60721],[105.8058,20.60991],[105.80612,20.61134],[105.81273,20.61711],[105.81118,20.62924],[105.81443,20.63377],[105.82077,20.63839],[105.83036,20.64375],[105.83317,20.64674],[105.83283,20.6497],[105.82321,20.6564],[105.82073,20.66001],[105.82079,20.66326],[105.82286,20.66477],[105.82818,20.66433],[105.84327,20.65818],[105.84776,20.65532],[105.85286,20.64811],[105.85701,20.64511],[105.8671,20.64548],[105.8747,20.64332],[105.88035,20.64338],[105.89142,20.6482],[105.89652,20.65249],[105.89632,20.66767],[105.90345,20.66639],[105.90805,20.66864],[105.91211,20.67241],[105.92022,20.67591],[105.92778,20.67865],[105.94352,20.68175],[105.94541,20.67995],[105.94685,20.67632],[105.94667,20.66732],[105.94353,20.66326],[105.9437,20.65864],[105.94468,20.6557],[105.94667,20.65404],[105.95834,20.65061],[105.95697,20.65584],[105.9584,20.66154],[105.96273,20.66404],[105.96714,20.66479],[105.97545,20.66981],[105.98748,20.68117],[105.99702,20.69102],[106.00136,20.70359],[106.00646,20.7034],[106.01367,20.70154],[106.02287,20.69536],[106.03246,20.68546],[106.03637,20.67826],[106.03735,20.67214],[106.03689,20.66449],[106.03207,20.64234],[106.03405,20.63601],[106.03767,20.63006],[106.04543,20.62036],[106.0545,20.61141],[106.06057,20.60678],[106.06887,20.60367],[106.07405,20.60316],[106.08035,20.60456],[106.09333,20.61519],[106.0975,20.6165],[106.10948,20.61642],[106.11657,20.61375],[106.1188,20.61225],[106.12342,20.60572],[106.12843,20.59651],[106.13124,20.57765],[106.13304,20.57439],[106.14224,20.56897],[106.16168,20.56225],[106.16521,20.55935],[106.16823,20.55551],[106.17334,20.54716],[106.17629,20.53451],[106.17979,20.5146],[106.17844,20.49702],[106.17992,20.49089],[106.18262,20.48561],[106.18745,20.4807],[106.1914,20.47953],[106.20449,20.47982],[106.21269,20.47804],[106.21795,20.4758],[106.22339,20.47041],[106.22548,20.46523],[106.22606,20.4615],[106.22469,20.45472],[106.2195,20.44376],[106.2109,20.43091],[106.20966,20.42786],[106.20983,20.42384],[106.21203,20.41972],[106.21806,20.4126],[106.22513,20.40873],[106.2313,20.40658],[106.239,20.40538],[106.26724,20.40548],[106.27803,20.40318],[106.28186,20.40009],[106.28526,20.39481],[106.28665,20.39059],[106.28671,20.38591],[106.28556,20.3819],[106.27851,20.37497],[106.26168,20.36324],[106.25637,20.3585],[106.25401,20.3545],[106.25202,20.34696],[106.25248,20.34122],[106.25446,20.33499],[106.25756,20.33028],[106.2625,20.32738],[106.26594,20.32659],[106.2702,20.32675],[106.27538,20.32824],[106.28169,20.33116],[106.29025,20.33635],[106.30864,20.35304],[106.32097,20.36108],[106.3357,20.37626],[106.33835,20.37711],[106.34108,20.3767],[106.34289,20.37506],[106.35177,20.35836],[106.3591,20.35046],[106.36566,20.34716],[106.37497,20.34498],[106.39077,20.34299],[106.3937,20.34187],[106.40378,20.33519],[106.4087,20.32999],[106.41308,20.32221],[106.42801,20.30306],[106.4412,20.29358],[106.44837,20.29075],[106.45717,20.28886],[106.46375,20.28871],[106.47715,20.29118],[106.48183,20.29315],[106.49748,20.30802],[106.50022,20.30867],[106.51056,20.30839],[106.51483,20.30979],[106.52349,20.31507],[106.52837,20.31607],[106.53088,20.31424],[106.54158,20.3007],[106.57902,20.26509],[106.58182,20.26105],[106.58898,20.24326],[106.58418,20.23617],[106.58517,20.22906],[106.58459,20.22426],[106.58309,20.21875],[106.58155,20.21626],[106.56564,20.20572],[106.56359,20.20509],[106.55485,20.20642],[106.55237,20.2056],[106.55172,20.20358],[106.54829,20.202],[106.5412,20.20212],[106.54102,20.20379],[106.54353,20.20771],[106.54341,20.22383],[106.5426,20.22492],[106.5395,20.22482],[106.53448,20.22284],[106.52826,20.22158],[106.52038,20.22511],[106.51146,20.22501],[106.50307,20.22155],[106.49196,20.21866],[106.48418,20.21915],[106.47859,20.2174],[106.45037,20.21443],[106.43711,20.21164],[106.4266,20.20694],[106.40817,20.20589],[106.40569,20.20466],[106.40488,20.20256],[106.38832,20.1974],[106.38686,20.19486],[106.38257,20.19079],[106.36695,20.18114],[106.36183,20.18026],[106.3568,20.18144],[106.35357,20.18044],[106.35223,20.17663],[106.35551,20.1742],[106.35494,20.17168],[106.33981,20.15566],[106.32757,20.14485],[106.29823,20.11142],[106.29049,20.10487],[106.2772,20.08852],[106.2625,20.07352],[106.25626,20.06525],[106.2471,20.05776],[106.23557,20.04335],[106.20238,20.00515],[106.19991,20.00505],[106.19628,20.01015],[106.19457,20.01016],[106.18949,20.00655],[106.18877,19.9952],[106.18356,19.98251],[106.17978,19.97608],[106.167,19.95848],[106.15602,19.94995],[106.1402,19.94336],[106.08535,19.92788],[106.07136,19.92187],[106.06415,19.92162],[106.0609,19.92279],[106.05917,19.92481],[106.05799,19.92919],[106.05471,19.93537],[106.05336,19.94525],[106.0523,19.9474],[106.0356,19.96118],[106.02521,19.96477],[106.02435,19.97389],[106.02468,19.98429],[106.02578,19.98947],[106.02947,19.99596],[106.03501,20.00038],[106.04674,20.00145],[106.052,20.00379],[106.06121,20.01789],[106.06517,20.02928],[106.06593,20.03653],[106.07417,20.05181],[106.07568,20.05778],[106.07303,20.06286],[106.06938,20.06495],[106.06238,20.06533],[106.03321,20.0601],[106.02027,20.05926],[106.01152,20.06575],[106.00494,20.0674],[105.9935,20.06876],[105.9705,20.06621],[105.9622,20.06649],[105.95587,20.06928],[105.9498,20.07392],[105.93794,20.08507],[105.92987,20.09036],[105.92697,20.09497],[105.9257,20.0988],[105.92213,20.10282]]],[[[106.06417,19.86602],[106.06175,19.86737],[106.06013,19.86939],[106.05875,19.87608],[106.05975,19.87603],[106.06503,19.86863],[106.06769,19.86806],[106.06711,19.87099],[106.06954,19.87016],[106.07047,19.87067],[106.07281,19.87363],[106.07345,19.87646],[106.07552,19.87838],[106.0744,19.88389],[106.07539,19.88408],[106.07706,19.87974],[106.07432,19.87303],[106.07017,19.86864],[106.06417,19.86602]]],[[[106.5364,20.19758],[106.53886,20.19844],[106.55051,20.19488],[106.55598,20.19512],[106.56557,20.19783],[106.57205,20.20191],[106.58338,20.21086],[106.5926,20.22101],[106.59425,20.22434],[106.59408,20.2274],[106.5922,20.23163],[106.58929,20.235],[106.58982,20.23729],[106.59276,20.23726],[106.59588,20.23484],[106.59776,20.23043],[106.59848,20.22163],[106.59823,20.21752],[106.5973,20.21542],[106.59336,20.21106],[106.57534,20.1976],[106.56199,20.19112],[106.55638,20.18995],[106.54349,20.192],[106.53812,20.19449],[106.53647,20.19608],[106.5364,20.19758]]]]}},{"type":"Feature","properties":{"kind":"buffer","province_code":"37","buffer_m":5000,"source":"derived","simplify_tolerance_deg":0.0005},"geometry":{"type":"Polygon","coordinates":[[[105.50129,20.33193],[105.49776,20.34244],[105.49636,20.35008],[105.49569,20.36347],[105.49658,20.37199],[105.49915,20.3802],[105.50331,20.3878],[105.50892,20.39453],[105.51577,20.40014],[105.52361,20.40443],[105.53218,20.40724],[105.54114,20.40849],[105.5502,20.40811],[105.55651,20.40669],[105.56437,20.41071],[105.57384,20.41344],[105.5837,20.41427],[105.59587,20.41268],[105.61746,20.40539],[105.62837,20.39983],[105.6395,20.39203],[105.63725,20.4032],[105.63751,20.41434],[105.63927,20.42202],[105.64257,20.42963],[105.64684,20.43636],[105.65227,20.44228],[105.65975,20.44791],[105.6686,20.45239],[105.67825,20.45503],[105.69477,20.4569],[105.70806,20.45545],[105.7112,20.46212],[105.71728,20.46993],[105.72498,20.47634],[105.73721,20.48322],[105.74709,20.48601],[105.7548,20.48656],[105.75677,20.48812],[105.75084,20.49689],[105.74126,20.51625],[105.7329,20.52713],[105.72677,20.53952],[105.72262,20.55475],[105.72166,20.56404],[105.72274,20.57333],[105.72582,20.5822],[105.73076,20.59029],[105.73735,20.59724],[105.74532,20.60277],[105.75604,20.607],[105.75817,20.61232],[105.75921,20.62046],[105.76344,20.63149],[105.76479,20.6405],[105.76854,20.64982],[105.77297,20.65713],[105.7734,20.66985],[105.7759,20.67902],[105.77977,20.6866],[105.78506,20.69337],[105.79158,20.69909],[105.80265,20.70576],[105.81263,20.70894],[105.82311,20.70998],[105.83315,20.70938],[105.84339,20.70721],[105.86264,20.69951],[105.86753,20.7038],[105.87606,20.70864],[105.88547,20.71171],[105.88972,20.71221],[105.90305,20.71812],[105.9165,20.7226],[105.9389,20.72676],[105.94829,20.72674],[105.95894,20.72447],[105.96416,20.73208],[105.97038,20.73808],[105.97767,20.74289],[105.98577,20.74635],[105.99442,20.74833],[106.0084,20.74858],[106.01909,20.74702],[106.03416,20.74241],[106.05061,20.73223],[106.05823,20.72587],[106.06782,20.71596],[106.07506,20.70612],[106.08196,20.69213],[106.08471,20.67885],[106.08516,20.66958],[106.08437,20.65976],[106.09493,20.66165],[106.10164,20.66199],[106.12049,20.66043],[106.13435,20.65574],[106.14438,20.65057],[106.15317,20.64374],[106.15862,20.63738],[106.16603,20.62637],[106.17104,20.61716],[106.1751,20.60597],[106.18696,20.60065],[106.1966,20.59351],[106.20672,20.58242],[106.21481,20.56978],[106.21799,20.56352],[106.22012,20.55688],[106.22597,20.53],[106.22723,20.5209],[106.23762,20.51703],[106.24565,20.5127],[106.25808,20.50159],[106.26391,20.49452],[106.27023,20.48133],[106.27287,20.47179],[106.27394,20.46052],[106.27255,20.45029],[106.2881,20.4475],[106.3007,20.44301],[106.31297,20.43448],[106.31833,20.4294],[106.32489,20.42032],[106.33429,20.42216],[106.34574,20.42178],[106.35787,20.41905],[106.36657,20.41498],[106.37423,20.40934],[106.38186,20.40136],[106.38879,20.38912],[106.39878,20.38757],[106.41169,20.38378],[106.42121,20.37888],[106.43129,20.3722],[106.44442,20.3601],[106.46047,20.33718],[106.46707,20.34304],[106.47711,20.34895],[106.48863,20.35254],[106.49854,20.35352],[106.50836,20.35797],[106.5193,20.36076],[106.52881,20.36129],[106.53909,20.36015],[106.54887,20.35694],[106.55769,20.35183],[106.56927,20.34128],[106.57792,20.33034],[106.60729,20.30297],[106.61451,20.29545],[106.62191,20.28578],[106.62631,20.27777],[106.63155,20.26495],[106.63673,20.25844],[106.64219,20.24729],[106.64439,20.24072],[106.64551,20.23391],[106.64605,20.21498],[106.6449,20.20734],[106.64238,20.19999],[106.63807,20.1917],[106.62978,20.1817],[106.62432,20.17656],[106.61222,20.16704],[106.59962,20.15863],[106.58249,20.15025],[106.57231,20.14696],[106.5667,20.14579],[106.54902,20.14507],[106.53293,20.14789],[106.5224,20.1514],[106.51009,20.15782],[106.50394,20.16281],[106.49671,20.17086],[106.49491,20.17398],[106.45874,20.16987],[106.45401,20.16889],[106.44287,20.16441],[106.43048,20.16187],[106.42467,20.16148],[106.41529,20.15797],[106.40787,20.15239],[106.3917,20.14276],[106.37504,20.12503],[106.36297,20.1142],[106.33567,20.08321],[106.32513,20.07346],[106.31621,20.06229],[106.3,20.04529],[106.29528,20.03902],[106.28844,20.03175],[106.28362,20.02808],[106.24107,19.9785],[106.23508,19.97211],[106.22884,19.96757],[106.21928,19.95051],[106.20651,19.93292],[106.19744,19.92357],[106.18645,19.91504],[106.17535,19.90858],[106.15953,19.90199],[106.1234,19.89156],[106.12494,19.88107],[106.12428,19.87219],[106.12236,19.86453],[106.11659,19.85175],[106.10775,19.8401],[106.0965,19.83084],[106.08249,19.82394],[106.06876,19.821],[106.05698,19.82132],[106.04352,19.82509],[106.03516,19.8297],[106.02637,19.83689],[106.01926,19.84582],[106.01383,19.85776],[106.01087,19.87379],[106.01124,19.88181],[106.01324,19.89017],[106.01899,19.90094],[106.01436,19.90868],[106.00932,19.92206],[105.99828,19.92738],[105.99045,19.93366],[105.98421,19.94139],[105.97987,19.95019],[105.97762,19.95966],[105.97656,19.97085],[105.97757,19.99246],[105.98208,20.00798],[105.98626,20.0159],[105.99164,20.02316],[105.97669,20.02137],[105.96052,20.0213],[105.95099,20.02252],[105.93559,20.02832],[105.92578,20.0341],[105.9197,20.03874],[105.90623,20.0508],[105.89483,20.05953],[105.89042,20.06509],[105.88266,20.06848],[105.87554,20.07296],[105.87103,20.07706],[105.85203,20.08222],[105.83888,20.08974],[105.82966,20.09733],[105.81813,20.10018],[105.8099,20.10437],[105.79828,20.11348],[105.78269,20.12076],[105.7719,20.12741],[105.75604,20.1334],[105.74312,20.13662],[105.72528,20.14329],[105.71764,20.14704],[105.71084,20.15203],[105.70241,20.16149],[105.68585,20.17379],[105.67209,20.18016],[105.66204,20.18731],[105.65556,20.19374],[105.64929,20.20427],[105.642,20.21234],[105.63192,20.22751],[105.622,20.2357],[105.61785,20.23713],[105.60597,20.2392],[105.59791,20.24232],[105.59058,20.24678],[105.58147,20.25418],[105.57684,20.25964],[105.57128,20.26815],[105.5468,20.27465],[105.53784,20.27901],[105.53004,20.28505],[105.52324,20.29346],[105.51392,20.30175],[105.50834,20.30893],[105.50436,20.31701],[105.50129,20.33193]]]}}]}