{"type":"FeatureCollection","features":[{"type":"Feature","properties":{"kind":"boundary","province_code":"79","name":"Thành phố Hồ Chí Minh","source":"VNSDI","valid_from":"16/6/2025","simplify_tolerance_deg":0.0005},"geometry":{"type":"MultiPolygon","coordinates":[[[[106.08597,8.57871],[106.08657,8.58109],[106.08816,8.58168],[106.09008,8.57856],[106.08945,8.57744],[106.08765,8.57741],[106.08597,8.57871]]],[[[106.13941,8.61452],[106.14066,8.6146],[106.14529,8.61071],[106.14568,8.60606],[106.14423,8.60652],[106.14166,8.60982],[106.13941,8.61452]]],[[[106.55757,8.62821],[106.55623,8.62903],[106.55799,8.63035],[106.55867,8.62926],[106.55757,8.62821]]],[[[106.61722,8.63516],[106.61777,8.63866],[106.6192,8.63899],[106.62039,8.63799],[106.61938,8.63474],[106.61722,8.63516]]],[[[106.55561,8.68412],[106.55585,8.68854],[106.55794,8.68899],[106.55981,8.68604],[106.55985,8.68394],[106.5589,8.68324],[106.55677,8.68347],[106.55561,8.68412]]],[[[106.66698,8.74832],[106.66442,8.74672],[106.66127,8.74657],[106.65957,8.75294],[106.65823,8.75371],[106.6551,8.75359],[106.65269,8.74964],[106.65278,8.74542],[106.65456,8.74517],[106.65531,8.74636],[106.6649,8.73981],[106.66328,8.73336],[106.66101,8.7305],[106.65129,8.73025],[106.64804,8.73153],[106.64539,8.73077],[106.64335,8.72816],[106.63923,8.71673],[106.63951,8.71451],[106.64055,8.71458],[106.64523,8.70858],[106.65922,8.6961],[106.65998,8.69452],[106.65964,8.69295],[106.65187,8.69114],[106.64238,8.69756],[106.63525,8.69932],[106.63146,8.69565],[106.62701,8.68713],[106.62728,8.68273],[106.62582,8.67948],[106.62438,8.67819],[106.61966,8.67697],[106.61426,8.67408],[106.61232,8.67415],[106.61072,8.67739],[106.61439,8.68092],[106.61483,8.68316],[106.61411,8.6846],[106.60722,8.68018],[106.60462,8.67933],[106.5993,8.67127],[106.59866,8.66778],[106.6097,8.652],[106.61348,8.64305],[106.61354,8.64032],[106.60766,8.63984],[106.59802,8.64441],[106.59038,8.64584],[106.58521,8.64625],[106.57682,8.64557],[106.57151,8.64006],[106.56661,8.63999],[106.56465,8.63877],[106.56107,8.63558],[106.56008,8.63238],[106.5581,8.63093],[106.55376,8.63506],[106.55252,8.64084],[106.55141,8.64246],[106.54692,8.64546],[106.54185,8.64728],[106.54023,8.65331],[106.54084,8.661],[106.55084,8.66487],[106.5542,8.66312],[106.55611,8.65792],[106.55913,8.65429],[106.56588,8.65271],[106.57265,8.64963],[106.57327,8.65178],[106.56803,8.65794],[106.5604,8.67263],[106.55909,8.67386],[106.55727,8.67418],[106.55722,8.67591],[106.56974,8.693],[106.57249,8.6937],[106.57523,8.69666],[106.57919,8.70651],[106.58038,8.70672],[106.58459,8.70498],[106.59008,8.70636],[106.59067,8.71034],[106.58896,8.71626],[106.59378,8.72462],[106.59859,8.72465],[106.60215,8.72559],[106.60885,8.7292],[106.61146,8.73359],[106.61334,8.73458],[106.61642,8.73366],[106.619,8.73073],[106.6202,8.73054],[106.62368,8.73406],[106.62485,8.73717],[106.62471,8.73927],[106.62217,8.74105],[106.62338,8.74344],[106.63437,8.7477],[106.64055,8.75298],[106.64642,8.75329],[106.65036,8.75442],[106.65717,8.76033],[106.66452,8.75915],[106.66893,8.75549],[106.66997,8.75171],[106.66698,8.74832]]],[[[106.53661,8.70616],[106.53707,8.70897],[106.53874,8.70988],[106.54728,8.7091],[106.54916,8.70804],[106.54738,8.70471],[106.54537,8.70346],[106.53943,8.70475],[106.53661,8.70616]]],[[[106.55054,8.7119],[106.55134,8.71034],[106.55032,8.70951],[106.55013,8.70993],[106.55054,8.7119]]],[[[106.58422,8.73609],[106.58555,8.73733],[106.58785,8.73776],[106.5891,8.73749],[106.5894,8.73642],[106.58755,8.735],[106.5851,8.73525],[106.58422,8.73609]]],[[[106.59542,10.6532],[106.59138,10.65118],[106.58087,10.65631],[106.57959,10.65563],[106.5783,10.65323],[106.57979,10.65058],[106.57915,10.6492],[106.57305,10.64906],[106.57184,10.6497],[106.56871,10.6558],[106.56329,10.65795],[106.56268,10.65187],[106.55579,10.65131],[106.55535,10.6559],[106.55039,10.65769],[106.55314,10.6653],[106.5536,10.67355],[106.55071,10.68508],[106.54715,10.68705],[106.53555,10.68566],[106.53443,10.68731],[106.5289,10.70238],[106.52723,10.7092],[106.52937,10.71765],[106.52015,10.72365],[106.50933,10.71707],[106.50179,10.72634],[106.49973,10.72498],[106.48944,10.73096],[106.48715,10.72982],[106.4739,10.74601],[106.47208,10.74572],[106.46363,10.75652],[106.50473,10.78906],[106.51355,10.82622],[106.53268,10.89907],[106.53292,10.90049],[106.53195,10.90227],[106.49607,10.92126],[106.45391,10.94223],[106.41213,10.97482],[106.37393,10.97042],[106.35731,10.99076],[106.35898,10.9919],[106.36135,10.99561],[106.36771,10.99862],[106.37627,11.0],[106.37978,10.999],[106.3909,10.99989],[106.39613,11.00103],[106.41315,11.00761],[106.40908,11.01478],[106.4086,11.02084],[106.41202,11.03022],[106.41939,11.03631],[106.42217,11.04146],[106.42334,11.0454],[106.42155,11.06188],[106.42017,11.06335],[106.42279,11.06603],[106.42572,11.06656],[106.42767,11.0654],[106.4289,11.08108],[106.42789,11.0823],[106.42825,11.09139],[106.42942,11.09138],[106.43736,11.11145],[106.44242,11.11559],[106.44472,11.12648],[106.44714,11.12975],[106.44789,11.13585],[106.44457,11.13592],[106.44134,11.13717],[106.43552,11.14173],[106.43023,11.14847],[106.43692,11.15711],[106.43614,11.16099],[106.43272,11.16593],[106.43284,11.17059],[106.43158,11.17333],[106.42936,11.17434],[106.42698,11.17098],[106.42531,11.17047],[106.4188,11.17331],[106.41224,11.17361],[106.41018,11.17546],[106.40952,11.18263],[106.40811,11.1841],[106.40547,11.18494],[106.40218,11.18239],[106.3984,11.1823],[106.3884,11.18582],[106.38457,11.19107],[106.38395,11.19346],[106.38443,11.19955],[106.38903,11.21053],[106.38921,11.21268],[106.38083,11.21753],[106.38032,11.21931],[106.38175,11.22287],[106.38117,11.22802],[106.37978,11.23218],[106.37115,11.24429],[106.36725,11.24272],[106.36378,11.23913],[106.36094,11.23857],[106.35905,11.23982],[106.35755,11.24311],[106.35281,11.24911],[106.35455,11.25539],[106.35349,11.26362],[106.35405,11.27328],[106.35603,11.28625],[106.35424,11.28851],[106.34702,11.28955],[106.34524,11.28784],[106.3436,11.28459],[106.342,11.28468],[106.34083,11.28627],[106.34297,11.29408],[106.33973,11.29809],[106.33768,11.29919],[106.33712,11.30133],[106.34413,11.31964],[106.34478,11.32446],[106.33988,11.32843],[106.33432,11.3365],[106.32997,11.34535],[106.32968,11.34997],[106.33081,11.35326],[106.3426,11.37013],[106.34843,11.38923],[106.3615,11.41417],[106.36741,11.44584],[106.37381,11.45328],[106.38415,11.46011],[106.40603,11.47017],[106.42345,11.495],[106.42907,11.49731],[106.43513,11.50166],[106.44625,11.49909],[106.45598,11.49906],[106.47177,11.4965],[106.47518,11.49629],[106.48378,11.49788],[106.49325,11.49726],[106.52333,11.48048],[106.54003,11.46812],[106.54384,11.4679],[106.54775,11.47019],[106.55672,11.48399],[106.56031,11.47196],[106.5734,11.45755],[106.57318,11.45577],[106.57189,11.45251],[106.56223,11.44248],[106.55883,11.44038],[106.55205,11.43839],[106.54731,11.43477],[106.54222,11.42832],[106.54132,11.4265],[106.54158,11.42373],[106.54782,11.41445],[106.54839,11.40695],[106.54453,11.39385],[106.53899,11.38762],[106.54108,11.38712],[106.54656,11.38315],[106.55372,11.373],[106.55737,11.37113],[106.56143,11.37048],[106.56639,11.37144],[106.57761,11.37748],[106.59054,11.37976],[106.59925,11.38643],[106.61344,11.3875],[106.61304,11.37966],[106.61615,11.3632],[106.62629,11.35988],[106.63288,11.35909],[106.64313,11.36016],[106.65065,11.35975],[106.65329,11.35915],[106.65558,11.35708],[106.6667,11.35398],[106.67355,11.35407],[106.6743,11.35501],[106.67798,11.36925],[106.67919,11.38556],[106.67478,11.39732],[106.68359,11.39887],[106.68637,11.39555],[106.69167,11.39884],[106.69279,11.40175],[106.69446,11.40279],[106.69788,11.40314],[106.70432,11.3961],[106.70499,11.39738],[106.70987,11.39995],[106.71025,11.40177],[106.70897,11.4043],[106.70941,11.40615],[106.7187,11.41461],[106.72041,11.42297],[106.72449,11.42302],[106.7264,11.42464],[106.72607,11.4309],[106.72752,11.43269],[106.72926,11.43322],[106.73626,11.43177],[106.73875,11.43247],[106.74136,11.43496],[106.74191,11.44076],[106.75251,11.44598],[106.75543,11.44877],[106.75674,11.45349],[106.75229,11.45708],[106.75013,11.46666],[106.75017,11.4697],[106.75334,11.47598],[106.75566,11.4772],[106.76177,11.4777],[106.76642,11.47951],[106.77075,11.48251],[106.77345,11.48276],[106.77901,11.48531],[106.78988,11.49153],[106.79705,11.49112],[106.80052,11.48785],[106.80313,11.48374],[106.80369,11.48149],[106.80341,11.47305],[106.80821,11.46094],[106.80565,11.45121],[106.78811,11.43172],[106.78387,11.42873],[106.77942,11.42681],[106.77072,11.42651],[106.77002,11.40388],[106.77465,11.40217],[106.789,11.40097],[106.78844,11.38286],[106.79365,11.38295],[106.80042,11.38112],[106.81231,11.37575],[106.81605,11.37717],[106.82563,11.38446],[106.82716,11.37998],[106.83445,11.38043],[106.84062,11.37496],[106.85446,11.37675],[106.85723,11.37297],[106.85655,11.35252],[106.85797,11.34749],[106.85981,11.34505],[106.86188,11.34386],[106.86317,11.34052],[106.86294,11.33824],[106.85691,11.33175],[106.85614,11.32993],[106.85563,11.32275],[106.8568,11.31793],[106.85979,11.31472],[106.87214,11.30988],[106.87496,11.30736],[106.87539,11.30836],[106.87445,11.31143],[106.87003,11.32046],[106.87019,11.32237],[106.87263,11.3271],[106.87734,11.33111],[106.88457,11.34006],[106.89046,11.34132],[106.89966,11.34102],[106.90139,11.34191],[106.90394,11.34596],[106.9054,11.35091],[106.90762,11.35318],[106.91169,11.35501],[106.91699,11.35622],[106.91947,11.35106],[106.92107,11.35118],[106.92441,11.35391],[106.928,11.35415],[106.93517,11.35331],[106.93955,11.35171],[106.94422,11.34874],[106.94581,11.3449],[106.95056,11.33868],[106.95292,11.32897],[106.95226,11.32359],[106.95116,11.32179],[106.9435,11.31625],[106.93847,11.31105],[106.9372,11.30562],[106.93904,11.29761],[106.94161,11.29436],[106.94149,11.29343],[106.94006,11.291],[106.9319,11.28303],[106.92881,11.27752],[106.92732,11.27258],[106.92806,11.25928],[106.92685,11.2568],[106.92523,11.25565],[106.92522,11.25408],[106.93174,11.24526],[106.93017,11.24334],[106.92666,11.24181],[106.92419,11.24149],[106.919,11.24283],[106.91132,11.24207],[106.9108,11.23918],[106.91341,11.2302],[106.91536,11.22926],[106.9163,11.22757],[106.91763,11.22432],[106.91794,11.22037],[106.91525,11.21429],[106.90902,11.21188],[106.90211,11.21069],[106.90133,11.2088],[106.90263,11.20623],[106.9061,11.2046],[106.90721,11.20282],[106.90734,11.19819],[106.90572,11.19512],[106.90643,11.19271],[106.90834,11.19215],[106.91321,11.19333],[106.91985,11.19308],[106.92116,11.1914],[106.9215,11.18828],[106.92357,11.18701],[106.92629,11.18892],[106.92963,11.18988],[106.9339,11.18849],[106.93914,11.17951],[106.9412,11.1777],[106.94427,11.17748],[106.94578,11.1766],[106.9446,11.1729],[106.9413,11.16941],[106.94157,11.16742],[106.94934,11.16571],[106.9534,11.16371],[106.95551,11.15906],[106.95591,11.15267],[106.96506,11.14947],[106.96596,11.14765],[106.96654,11.14453],[106.96533,11.14269],[106.95552,11.14213],[106.95399,11.14053],[106.95307,11.13288],[106.95343,11.12908],[106.95674,11.12303],[106.96241,11.11688],[106.96589,11.10996],[106.96542,11.10808],[106.95957,11.10773],[106.95811,11.10692],[106.95771,11.10493],[106.95937,11.10283],[106.95936,11.10042],[106.95778,11.0989],[106.95293,11.09742],[106.94772,11.08927],[106.94561,11.07834],[106.94649,11.07673],[106.95122,11.07376],[106.95254,11.07112],[106.95008,11.06852],[106.94744,11.05883],[106.94469,11.05693],[106.9417,11.05678],[106.93577,11.06429],[106.9334,11.06481],[106.93143,11.06406],[106.92415,11.05723],[106.92288,11.05224],[106.92355,11.04886],[106.92283,11.0471],[106.91449,11.04293],[106.91277,11.04116],[106.91139,11.02685],[106.90985,11.02359],[106.90783,11.02211],[106.90369,11.02284],[106.89835,11.02681],[106.8925,11.02729],[106.87348,11.01989],[106.86894,11.02167],[106.86657,11.02357],[106.85828,11.03254],[106.84591,11.03603],[106.83924,11.04076],[106.82993,11.06198],[106.82792,11.06429],[106.82621,11.06522],[106.82154,11.06504],[106.80139,11.05928],[106.79925,11.05699],[106.79966,11.054],[106.80754,11.04716],[106.81107,11.04194],[106.81296,11.03466],[106.81225,11.03025],[106.8089,11.02641],[106.79758,11.02449],[106.79246,11.0225],[106.7776,11.00852],[106.77507,11.00401],[106.77588,10.99898],[106.78144,10.98717],[106.79566,10.9748],[106.79635,10.97384],[106.79622,10.97181],[106.79432,10.97007],[106.78542,10.9669],[106.78294,10.96463],[106.77959,10.96323],[106.77537,10.95924],[106.77315,10.95961],[106.77259,10.96257],[106.77029,10.96417],[106.76357,10.9646],[106.762,10.96359],[106.76215,10.96198],[106.7633,10.96096],[106.76352,10.955],[106.77019,10.94677],[106.77124,10.94276],[106.77656,10.93857],[106.79121,10.93134],[106.7919,10.92932],[106.79102,10.9257],[106.79222,10.92302],[106.80207,10.92078],[106.807,10.92052],[106.81138,10.91798],[106.81445,10.91101],[106.81517,10.90469],[106.81629,10.90274],[106.81916,10.90218],[106.83246,10.90503],[106.8383,10.90237],[106.84075,10.897],[106.84324,10.88609],[106.85037,10.87701],[106.8508,10.87543],[106.85012,10.87163],[106.84711,10.86655],[106.84702,10.86354],[106.84871,10.85831],[106.85698,10.84238],[106.87758,10.81934],[106.88071,10.81453],[106.88202,10.81097],[106.88159,10.80583],[106.87902,10.80158],[106.86778,10.79252],[106.8655,10.78794],[106.86656,10.78256],[106.87165,10.77377],[106.87177,10.76961],[106.86958,10.76639],[106.86529,10.76527],[106.86225,10.7663],[106.85525,10.77279],[106.85178,10.77439],[106.84539,10.77493],[106.8411,10.77381],[106.8379,10.77161],[106.82862,10.76075],[106.82549,10.76041],[106.8234,10.76236],[106.82583,10.77449],[106.82521,10.77744],[106.82204,10.78083],[106.82013,10.78105],[106.81687,10.77994],[106.81281,10.7773],[106.80557,10.76977],[106.80218,10.76182],[106.79943,10.75928],[106.77522,10.74785],[106.76645,10.73921],[106.75774,10.7262],[106.75513,10.72055],[106.75272,10.70995],[106.75318,10.70373],[106.75593,10.69582],[106.76399,10.6861],[106.77349,10.67753],[106.78392,10.67185],[106.80725,10.6566],[106.80971,10.65315],[106.81456,10.63992],[106.81687,10.6364],[106.82327,10.62992],[106.82656,10.62778],[106.83491,10.62704],[106.83835,10.62909],[106.84114,10.63617],[106.84341,10.6384],[106.85166,10.63969],[106.8599,10.63639],[106.86141,10.63716],[106.8644,10.64184],[106.86932,10.64286],[106.87237,10.64766],[106.87744,10.64843],[106.88199,10.64799],[106.88352,10.6467],[106.88452,10.64267],[106.88694,10.63866],[106.89567,10.63031],[106.90327,10.62468],[106.90532,10.62181],[106.90909,10.61099],[106.91127,10.60789],[106.91373,10.60735],[106.91858,10.60997],[106.9202,10.61003],[106.92725,10.60344],[106.94135,10.5967],[106.94945,10.59633],[106.96171,10.59272],[106.96659,10.59051],[106.97572,10.58176],[106.98348,10.57868],[106.98576,10.58307],[106.98691,10.58737],[106.98761,10.59773],[106.99058,10.60352],[106.99787,10.60587],[107.0059,10.60967],[107.00845,10.61281],[107.00178,10.61752],[106.99741,10.62344],[106.99631,10.62806],[106.99669,10.63045],[106.99749,10.63291],[106.9997,10.63544],[107.00605,10.63731],[107.01183,10.63439],[107.01446,10.6348],[107.01534,10.6355],[107.01358,10.64363],[107.03831,10.6557],[107.04499,10.65748],[107.05311,10.65811],[107.06377,10.65741],[107.06706,10.65361],[107.09537,10.65299],[107.11581,10.67073],[107.1293,10.68703],[107.13695,10.70047],[107.13972,10.70976],[107.13878,10.71995],[107.13834,10.74444],[107.14785,10.74429],[107.15604,10.74621],[107.16772,10.75334],[107.18175,10.76648],[107.18836,10.77154],[107.19916,10.7724],[107.20439,10.77467],[107.20674,10.77467],[107.20704,10.77291],[107.20686,10.75863],[107.21784,10.75768],[107.22753,10.76271],[107.23436,10.76426],[107.24081,10.76372],[107.24374,10.76117],[107.24436,10.75945],[107.24407,10.7562],[107.30049,10.75501],[107.30415,10.7256],[107.30141,10.70206],[107.3061,10.69811],[107.30778,10.69339],[107.30468,10.68868],[107.29928,10.68635],[107.30006,10.68466],[107.31289,10.67188],[107.31734,10.66902],[107.32242,10.67035],[107.32701,10.67443],[107.33238,10.67696],[107.33849,10.67783],[107.34035,10.67714],[107.34197,10.6754],[107.34404,10.67518],[107.35019,10.67848],[107.35194,10.68184],[107.35247,10.68579],[107.35113,10.69347],[107.35061,10.7053],[107.3518,10.70913],[107.35841,10.71554],[107.36047,10.72589],[107.36865,10.73321],[107.37496,10.73661],[107.37858,10.73978],[107.38012,10.74192],[107.38121,10.74767],[107.39499,10.76309],[107.40846,10.77307],[107.4178,10.77741],[107.42149,10.78008],[107.44088,10.80083],[107.44544,10.80285],[107.45303,10.80448],[107.45844,10.7916],[107.46613,10.79217],[107.47216,10.79377],[107.47799,10.77894],[107.48386,10.76987],[107.48542,10.76895],[107.48923,10.76887],[107.50545,10.77159],[107.5061,10.74619],[107.51324,10.74096],[107.52789,10.72571],[107.53404,10.72187],[107.54359,10.70588],[107.54601,10.69478],[107.53932,10.67988],[107.53904,10.67738],[107.56131,10.63371],[107.56766,10.61737],[107.56698,10.61248],[107.57151,10.59628],[107.56835,10.58337],[107.57056,10.56932],[107.56236,10.56293],[107.55407,10.55415],[107.52685,10.52219],[107.51701,10.50724],[107.51174,10.50171],[107.50317,10.49941],[107.48462,10.49877],[107.47668,10.49926],[107.4707,10.4981],[107.4579,10.48624],[107.44471,10.46909],[107.44285,10.46863],[107.43946,10.46951],[107.43213,10.46942],[107.41974,10.46687],[107.38691,10.46879],[107.36894,10.46748],[107.36263,10.46485],[107.35183,10.45752],[107.34297,10.45417],[107.33766,10.45091],[107.33509,10.45054],[107.3327,10.45194],[107.33121,10.45185],[107.31906,10.44526],[107.29378,10.42342],[107.28562,10.41487],[107.25767,10.38141],[107.25532,10.37969],[107.2481,10.38111],[107.24336,10.37893],[107.23832,10.38137],[107.22189,10.3997],[107.21911,10.40211],[107.21126,10.40536],[107.20255,10.40607],[107.181,10.40042],[107.17847,10.40012],[107.17699,10.401],[107.16454,10.39807],[107.16158,10.39577],[107.15707,10.38916],[107.15324,10.38682],[107.1439,10.38313],[107.1328,10.377],[107.12077,10.36893],[107.11119,10.3613],[107.10228,10.35173],[107.09422,10.34103],[107.08995,10.33315],[107.08557,10.32129],[107.08382,10.32027],[107.08042,10.32646],[107.07458,10.33009],[107.07248,10.33284],[107.07157,10.33617],[107.07318,10.3424],[107.07303,10.34497],[107.07161,10.34763],[107.06261,10.35361],[107.0609,10.35586],[107.06054,10.36009],[107.06154,10.36685],[107.0556,10.37386],[107.05548,10.3792],[107.05826,10.38624],[107.06196,10.38696],[107.07133,10.37975],[107.07318,10.3736],[107.07676,10.37234],[107.08189,10.37406],[107.08103,10.37726],[107.0774,10.37801],[107.07603,10.37976],[107.07679,10.38401],[107.07621,10.38494],[107.0731,10.38627],[107.07689,10.39314],[107.09259,10.38789],[107.10125,10.39302],[107.1048,10.39872],[107.10549,10.40188],[107.1088,10.40796],[107.11722,10.41141],[107.1172,10.41903],[107.1183,10.42127],[107.12156,10.42309],[107.12193,10.42522],[107.11633,10.42721],[107.11363,10.43592],[107.10189,10.43694],[107.10138,10.4356],[107.10018,10.43504],[107.09553,10.43402],[107.08757,10.43553],[107.08423,10.43508],[107.07949,10.43591],[107.07496,10.44142],[107.07107,10.44393],[107.06697,10.44452],[107.06284,10.44317],[107.05918,10.44435],[107.0548,10.44744],[107.05083,10.45167],[107.04352,10.4641],[107.03843,10.47457],[107.03362,10.47834],[107.0301,10.47971],[107.02858,10.4794],[107.027,10.47624],[107.02648,10.47001],[107.02566,10.46852],[107.02395,10.46917],[107.01988,10.47291],[107.01921,10.4771],[107.02028,10.47972],[107.02011,10.48543],[107.01805,10.4943],[107.01639,10.49497],[107.0075,10.49304],[107.00279,10.49725],[107.00202,10.50072],[106.99943,10.50565],[106.98708,10.49373],[106.97345,10.45811],[106.9748,10.41578],[106.97415,10.41065],[106.97202,10.40764],[106.96555,10.40446],[106.93951,10.39482],[106.91482,10.38328],[106.89754,10.37745],[106.88139,10.377],[106.87585,10.3778],[106.83443,10.39511],[106.81397,10.38767],[106.80555,10.40444],[106.79688,10.41518],[106.78156,10.42847],[106.75328,10.46663],[106.73461,10.497],[106.74343,10.51243],[106.7474,10.52424],[106.74746,10.53402],[106.74388,10.55111],[106.74424,10.575],[106.73903,10.58485],[106.73724,10.58623],[106.73528,10.58599],[106.73445,10.58323],[106.73226,10.58012],[106.73039,10.57972],[106.72865,10.58035],[106.72372,10.58798],[106.72369,10.59151],[106.71966,10.60425],[106.7235,10.61011],[106.72558,10.61058],[106.72811,10.60927],[106.73157,10.61214],[106.73023,10.61324],[106.72924,10.61605],[106.7294,10.61848],[106.73161,10.62259],[106.73287,10.62834],[106.73155,10.63553],[106.72873,10.63692],[106.71686,10.64726],[106.71121,10.65017],[106.70213,10.65303],[106.69995,10.65294],[106.69523,10.64989],[106.69204,10.64949],[106.68996,10.65137],[106.68804,10.6552],[106.68623,10.65616],[106.68592,10.65132],[106.67328,10.64062],[106.66926,10.6391],[106.66268,10.63938],[106.6564,10.64342],[106.65319,10.63623],[106.64843,10.63284],[106.6453,10.63202],[106.64066,10.6233],[106.63958,10.62329],[106.62922,10.62582],[106.62972,10.63979],[106.62838,10.64066],[106.62615,10.64063],[106.62359,10.6443],[106.62288,10.64802],[106.61715,10.65231],[106.60691,10.65768],[106.60395,10.65649],[106.60012,10.65106],[106.59542,10.6532]]],[[[106.63678,8.63657],[106.63449,8.63629],[106.63105,8.63286],[106.62986,8.63254],[106.62827,8.63557],[106.62716,8.63615],[106.62911,8.637],[106.62992,8.63907],[106.6328,8.63779],[106.63672,8.63741],[106.63678,8.63657]]],[[[106.62934,8.6816],[106.63022,8.68406],[106.63472,8.68889],[106.63802,8.69051],[106.63903,8.68903],[106.63837,8.68719],[106.63459,8.6825],[106.63183,8.68054],[106.62934,8.6816]]],[[[106.67402,8.65065],[106.6749,8.65183],[106.67597,8.65141],[106.67577,8.64958],[106.67402,8.65065]]],[[[106.67191,8.6811],[106.68036,8.67308],[106.68668,8.67458],[106.69053,8.6727],[106.69234,8.67327],[106.69567,8.67889],[106.70054,8.67816],[106.70254,8.67651],[106.7039,8.67153],[106.70564,8.67024],[106.70975,8.66979],[106.71088,8.66725],[106.7071,8.66458],[106.69516,8.66066],[106.68582,8.66389],[106.68357,8.66535],[106.68229,8.66483],[106.67778,8.65585],[106.67324,8.65712],[106.67012,8.65922],[106.66066,8.67176],[106.65848,8.67604],[106.65911,8.67833],[106.66315,8.68136],[106.66499,8.68174],[106.67191,8.6811]]],[[[106.73986,8.68302],[106.73972,8.68628],[106.73583,8.68848],[106.73348,8.68808],[106.73761,8.69547],[106.7408,8.69884],[106.74152,8.69856],[106.74333,8.69246],[106.7434,8.68887],[106.74149,8.68328],[106.741,8.68269],[106.73986,8.68302]]],[[[106.7209,8.77795],[106.71976,8.77991],[106.72051,8.78136],[106.72218,8.77878],[106.72183,8.77793],[106.7209,8.77795]]],[[[107.08857,10.32471],[107.09003,10.32459],[107.09,10.32359],[107.08839,10.32328],[107.08857,10.32471]]],[[[107.09511,10.39649],[107.09599,10.39776],[107.09632,10.40175],[107.09745,10.40217],[107.09842,10.40094],[107.09783,10.39634],[107.09558,10.39475],[107.09511,10.39649]]],[[[107.10013,10.4096],[107.10024,10.41077],[107.10454,10.41332],[107.10231,10.40796],[107.10013,10.4096]]],[[[107.07385,10.43303],[107.06461,10.44155],[107.06558,10.44245],[107.06847,10.44285],[107.07138,10.44192],[107.0794,10.43407],[107.0793,10.43287],[107.07703,10.43206],[107.07385,10.43303]]],[[[107.02502,10.46213],[107.02585,10.46407],[107.02671,10.46379],[107.02573,10.46201],[107.02502,10.46213]]],[[[107.00573,10.48902],[107.01156,10.49198],[107.01446,10.49215],[107.01731,10.48302],[107.01559,10.48254],[107.01175,10.48415],[107.00573,10.48902]]]]}},{"type":"Feature","properties":{"kind":"buffer","province_code":"79","buffer_m":5000,"source":"derived","simplify_tolerance_deg":0.0005},"geometry":{"type":"MultiPolygon","coordinates":[[[[106.29385,11.31559],[106.2888,11.32565],[106.28506,11.33664],[106.28384,11.34617],[106.28505,11.36001],[106.28982,11.37332],[106.30107,11.38994],[106.30466,11.40236],[106.30791,11.41019],[106.31745,11.42835],[106.32282,11.45588],[106.32652,11.46608],[106.33257,11.47512],[106.33897,11.48257],[106.34841,11.49088],[106.35875,11.49771],[106.37494,11.5055],[106.38601,11.52096],[106.39159,11.52744],[106.3983,11.53277],[106.41884,11.54391],[106.42782,11.5463],[106.43711,11.54684],[106.44659,11.5458],[106.45108,11.54445],[106.45971,11.54413],[106.47406,11.54207],[106.48707,11.54324],[106.49656,11.54259],[106.50854,11.53987],[106.51552,11.53675],[106.53685,11.52462],[106.54599,11.52795],[106.55459,11.52916],[106.56326,11.52874],[106.57169,11.52672],[106.57958,11.52315],[106.58665,11.51817],[106.59265,11.51197],[106.59735,11.50475],[106.60124,11.49457],[106.60743,11.48777],[106.61311,11.47999],[106.617,11.47119],[106.61893,11.46179],[106.61881,11.45219],[106.61575,11.43924],[106.61272,11.43254],[106.61857,11.43243],[106.627,11.43069],[106.63494,11.42741],[106.63874,11.42493],[106.64328,11.4301],[106.65028,11.4355],[106.65821,11.43946],[106.67468,11.44323],[106.68109,11.44587],[106.69177,11.4609],[106.69815,11.46736],[106.70446,11.4716],[106.70577,11.48053],[106.71141,11.49446],[106.71893,11.50577],[106.72698,11.51296],[106.737,11.51852],[106.74788,11.52167],[106.75845,11.52592],[106.7676,11.53102],[106.77663,11.53481],[106.78563,11.53681],[106.79477,11.53702],[106.80435,11.53576],[106.8132,11.53343],[106.82141,11.5294],[106.8321,11.52056],[106.83873,11.51281],[106.84352,11.50495],[106.84751,11.49466],[106.84931,11.48475],[106.84926,11.48109],[106.85321,11.46902],[106.85391,11.45923],[106.85247,11.44953],[106.84672,11.43132],[106.8434,11.42604],[106.85271,11.42187],[106.86229,11.4213],[106.87079,11.41899],[106.87867,11.41511],[106.88566,11.40981],[106.89149,11.40328],[106.89558,11.39719],[106.90433,11.39987],[106.91484,11.40139],[106.92448,11.40083],[106.93072,11.39912],[106.9405,11.39822],[106.95541,11.39412],[106.96431,11.38973],[106.97625,11.38102],[106.98219,11.37395],[106.99284,11.35591],[106.99548,11.34827],[106.99808,11.33612],[106.99858,11.32638],[106.99753,11.31676],[106.99363,11.3043],[106.9871,11.2942],[106.98686,11.28774],[106.98359,11.27576],[106.97699,11.26429],[106.97451,11.26136],[106.9769,11.25241],[106.97746,11.24445],[106.97661,11.23653],[106.97401,11.22799],[106.96852,11.21803],[106.97186,11.21368],[106.97634,11.21045],[106.9831,11.20274],[106.98855,11.1922],[106.99403,11.18426],[107.00208,11.17604],[107.00601,11.16992],[107.0089,11.16326],[107.01209,11.14859],[107.01175,11.13766],[107.00848,11.12648],[107.00975,11.12347],[107.01151,11.11335],[107.01143,11.10578],[107.00983,11.09728],[107.00653,11.08827],[107.00139,11.08015],[106.9978,11.07617],[106.99779,11.06452],[106.99553,11.05568],[106.99195,11.04834],[106.98916,11.04029],[106.98356,11.03109],[106.9763,11.02352],[106.97088,11.01955],[106.96328,11.0156],[106.95486,11.01286],[106.95175,11.00508],[106.9473,10.99764],[106.94262,10.99205],[106.93508,10.98579],[106.92749,10.98128],[106.91915,10.9783],[106.90858,10.97686],[106.89936,10.97727],[106.89361,10.9787],[106.87707,10.97481],[106.86707,10.97511],[106.85782,10.97709],[106.84754,10.98171],[106.83988,10.98675],[106.84161,10.98042],[106.8422,10.97064],[106.84064,10.96097],[106.83834,10.95462],[106.84528,10.94824],[106.8542,10.94518],[106.86212,10.94121],[106.86985,10.9351],[106.87603,10.92792],[106.88257,10.91531],[106.88581,10.90567],[106.89158,10.89663],[106.89457,10.88864],[106.89645,10.87852],[106.89589,10.86681],[106.91436,10.84621],[106.91952,10.83861],[106.9237,10.82996],[106.92753,10.81542],[106.92787,10.80502],[106.92589,10.79461],[106.92238,10.78538],[106.91723,10.77669],[106.9172,10.76434],[106.91379,10.75174],[106.90874,10.74226],[106.90311,10.73558],[106.89551,10.72915],[106.8866,10.72437],[106.88004,10.72201],[106.87319,10.72065],[106.86042,10.72031],[106.85215,10.72212],[106.84114,10.71723],[106.83211,10.71532],[106.82286,10.71524],[106.81539,10.71654],[106.80493,10.71203],[106.83186,10.69476],[106.83743,10.69058],[106.84333,10.68439],[106.8461,10.68464],[106.85445,10.68928],[106.86617,10.69278],[106.87305,10.69353],[106.88524,10.6933],[106.8931,10.69185],[106.90097,10.68913],[106.90864,10.68485],[106.91544,10.67929],[106.92105,10.67254],[106.92512,10.66527],[106.93275,10.65925],[106.94093,10.65034],[106.95267,10.64231],[106.95393,10.64669],[106.9594,10.65795],[106.96898,10.66895],[106.99333,10.68418],[107.01807,10.69625],[107.0331,10.70114],[107.04992,10.70324],[107.07073,10.70211],[107.07987,10.6997],[107.09139,10.71263],[107.09324,10.71587],[107.09261,10.74363],[107.0934,10.75285],[107.09608,10.76172],[107.10052,10.76987],[107.10655,10.77695],[107.11392,10.78267],[107.1223,10.78678],[107.13136,10.78913],[107.14024,10.78961],[107.15374,10.80223],[107.16035,10.8073],[107.16903,10.81253],[107.17867,10.81574],[107.18763,10.81664],[107.19286,10.81843],[107.20183,10.81982],[107.20844,10.81988],[107.21563,10.81902],[107.22442,10.81637],[107.2325,10.81203],[107.23586,10.80924],[107.24466,10.80878],[107.25418,10.80696],[107.26311,10.8032],[107.26627,10.80099],[107.30172,10.80021],[107.31085,10.79906],[107.31956,10.79612],[107.32749,10.79151],[107.33434,10.78543],[107.33981,10.77812],[107.34287,10.77161],[107.34699,10.7779],[107.36208,10.7945],[107.38105,10.80931],[107.39311,10.81601],[107.40866,10.83304],[107.42046,10.84129],[107.42827,10.84476],[107.44331,10.84866],[107.45233,10.84969],[107.46138,10.84894],[107.4701,10.84643],[107.47814,10.84227],[107.48473,10.83699],[107.48848,10.83601],[107.49698,10.83175],[107.5044,10.82584],[107.51164,10.81619],[107.52337,10.81319],[107.53101,10.80908],[107.53773,10.80362],[107.54327,10.797],[107.54745,10.78947],[107.55012,10.78128],[107.55132,10.76681],[107.5569,10.76108],[107.56505,10.75511],[107.57062,10.74901],[107.584,10.72706],[107.58669,10.72109],[107.58907,10.71296],[107.59094,10.70322],[107.59173,10.69577],[107.59127,10.6883],[107.58931,10.68021],[107.6046,10.64888],[107.60876,10.63823],[107.6109,10.63211],[107.61318,10.62178],[107.61309,10.6171],[107.617,10.60099],[107.61715,10.59327],[107.61494,10.58146],[107.61628,10.5679],[107.61523,10.55958],[107.61264,10.55159],[107.6086,10.54421],[107.60326,10.53769],[107.59376,10.52995],[107.58842,10.52428],[107.56487,10.49675],[107.55016,10.47585],[107.54252,10.46826],[107.53587,10.4633],[107.52498,10.45828],[107.51694,10.45598],[107.50281,10.45419],[107.49058,10.4538],[107.48198,10.44247],[107.47565,10.43579],[107.46964,10.43117],[107.46293,10.42761],[107.45571,10.4252],[107.44523,10.42347],[107.43574,10.42403],[107.419,10.42166],[107.39319,10.42344],[107.38215,10.42327],[107.37041,10.4162],[107.35344,10.40847],[107.3428,10.40585],[107.32359,10.38901],[107.28978,10.34918],[107.28196,10.3427],[107.27162,10.33744],[107.26338,10.33517],[107.25545,10.33435],[107.24143,10.33376],[107.23212,10.3351],[107.21824,10.34074],[107.20901,10.34665],[107.19796,10.3582],[107.18777,10.35569],[107.17727,10.34835],[107.15694,10.33859],[107.14254,10.32837],[107.13566,10.32053],[107.13512,10.31576],[107.13173,10.3051],[107.12783,10.29819],[107.123,10.29229],[107.11694,10.28705],[107.10271,10.27884],[107.09277,10.27581],[107.0823,10.27508],[107.07301,10.27633],[107.06417,10.27944],[107.0555,10.28475],[107.04909,10.2906],[107.04587,10.29493],[107.03812,10.30274],[107.03103,10.31373],[107.02733,10.325],[107.0203,10.33504],[107.01735,10.34205],[107.01497,10.35327],[107.01188,10.36059],[107.01011,10.36922],[107.00984,10.38221],[107.00464,10.37594],[106.99889,10.37105],[106.98594,10.36398],[106.95733,10.35313],[106.92964,10.3405],[106.91228,10.33464],[106.89918,10.33226],[106.88198,10.33179],[106.8693,10.33304],[106.85804,10.33615],[106.83327,10.34651],[106.82052,10.34291],[106.81099,10.34254],[106.80159,10.34414],[106.79272,10.34762],[106.78478,10.35285],[106.77811,10.3596],[106.773,10.36756],[106.76675,10.38002],[106.76366,10.38384],[106.7514,10.39448],[106.74467,10.40175],[106.71639,10.43991],[106.69553,10.47351],[106.6914,10.48217],[106.68921,10.4915],[106.68906,10.50107],[106.69095,10.51046],[106.69479,10.51925],[106.70142,10.53084],[106.69861,10.54641],[106.68992,10.55626],[106.68133,10.571],[106.67522,10.59397],[106.6719,10.59028],[106.66525,10.58517],[106.65776,10.58136],[106.64968,10.57897],[106.64131,10.57809],[106.63078,10.57891],[106.61122,10.58425],[106.60291,10.58884],[106.59574,10.59502],[106.58886,10.60499],[106.57711,10.60353],[106.56861,10.60401],[106.55891,10.60606],[106.54561,10.60722],[106.5366,10.61027],[106.52841,10.61509],[106.52142,10.62148],[106.51223,10.63278],[106.50805,10.64061],[106.50521,10.65206],[106.49558,10.66343],[106.48953,10.67647],[106.48002,10.68236],[106.4764,10.68604],[106.46598,10.68974],[106.45874,10.69439],[106.43603,10.7179],[106.42714,10.72926],[106.42248,10.73678],[106.41939,10.74506],[106.41798,10.75377],[106.41831,10.76258],[106.42036,10.77117],[106.42406,10.7792],[106.42927,10.78636],[106.43578,10.79239],[106.46365,10.81387],[106.47977,10.87821],[106.4352,10.90097],[106.42557,10.90674],[106.39822,10.92809],[106.38019,10.92563],[106.37077,10.92531],[106.36148,10.92691],[106.35273,10.93036],[106.34487,10.93551],[106.33825,10.94214],[106.32188,10.96216],[106.31672,10.96993],[106.31327,10.97858],[106.31168,10.98775],[106.31202,10.99704],[106.31428,11.00607],[106.31836,11.01445],[106.32845,11.02703],[106.33659,11.03371],[106.34422,11.03811],[106.35111,11.04082],[106.36841,11.04455],[106.37267,11.05329],[106.37508,11.05655],[106.37444,11.06356],[106.3753,11.07212],[106.37779,11.08036],[106.38229,11.08857],[106.38392,11.10253],[106.38686,11.11064],[106.39286,11.12251],[106.38911,11.12867],[106.38634,11.1362],[106.38082,11.14046],[106.37102,11.14399],[106.36406,11.14754],[106.35684,11.15306],[106.35023,11.16026],[106.34459,11.16911],[106.34042,11.17915],[106.33839,11.18947],[106.33843,11.19928],[106.33005,11.20477],[106.32465,11.21003],[106.31218,11.22836],[106.309,11.23614],[106.30733,11.24437],[106.3076,11.25488],[106.30267,11.26134],[106.298,11.27039],[106.29534,11.2825],[106.29295,11.28861],[106.29142,11.29965],[106.29196,11.3085],[106.29385,11.31559]],[[107.02301,10.41492],[107.02051,10.41718],[107.02024,10.41137],[107.02162,10.4133],[107.02301,10.41492]]],[[[106.49523,8.68691],[106.49212,8.6957],[106.49088,8.70555],[106.4921,8.71755],[106.49558,8.728],[106.49966,8.73499],[106.50476,8.74097],[106.51036,8.74579],[106.51611,8.74937],[106.52715,8.75362],[106.54335,8.75641],[106.54779,8.76373],[106.55432,8.77065],[106.56567,8.77806],[106.57586,8.78152],[106.58363,8.78279],[106.59216,8.78283],[106.59909,8.78166],[106.61013,8.7868],[106.61965,8.7932],[106.63101,8.79716],[106.63431,8.79949],[106.64228,8.80308],[106.65079,8.8051],[106.65954,8.80548],[106.67932,8.80174],[106.68532,8.81054],[106.69012,8.81531],[106.69591,8.81955],[106.70569,8.82415],[106.71325,8.82601],[106.72005,8.82658],[106.7303,8.82556],[106.73733,8.82349],[106.74593,8.81911],[106.75552,8.81088],[106.76247,8.80061],[106.76544,8.79356],[106.76748,8.78503],[106.76771,8.77429],[106.76675,8.76841],[106.76449,8.76136],[106.75926,8.75188],[106.75069,8.74292],[106.75998,8.74001],[106.769,8.73471],[106.77615,8.72811],[106.78157,8.72041],[106.78526,8.71178],[106.78793,8.70244],[106.78917,8.69003],[106.78874,8.68289],[106.78429,8.66735],[106.78114,8.66076],[106.77697,8.65475],[106.77048,8.64812],[106.76345,8.64329],[106.75563,8.63985],[106.74558,8.63776],[106.73869,8.63106],[106.7311,8.62608],[106.72316,8.62224],[106.70736,8.61709],[106.69892,8.61057],[106.6913,8.60704],[106.68357,8.60496],[106.67592,8.60425],[106.66918,8.60474],[106.66198,8.59883],[106.65143,8.59238],[106.64168,8.58879],[106.63402,8.58751],[106.62621,8.58747],[106.6185,8.58874],[106.60546,8.5913],[106.59156,8.59752],[106.58388,8.59096],[106.57391,8.58586],[106.56727,8.58396],[106.55834,8.58299],[106.55025,8.5835],[106.54324,8.58512],[106.53069,8.59129],[106.52286,8.59791],[106.51965,8.60171],[106.51387,8.61193],[106.50779,8.61711],[106.50209,8.62493],[106.49669,8.63854],[106.49477,8.64816],[106.49513,8.66545],[106.49689,8.67353],[106.49953,8.67984],[106.49523,8.68691]]],[[[106.04558,8.55749],[106.04277,8.56385],[106.04098,8.57054],[106.04013,8.57994],[106.04116,8.58936],[106.04415,8.59836],[106.04885,8.60666],[106.05756,8.61605],[106.06823,8.62266],[106.07785,8.62583],[106.08784,8.6269],[106.09527,8.62613],[106.09804,8.63381],[106.10265,8.64142],[106.10867,8.648],[106.11632,8.65355],[106.12543,8.65769],[106.13431,8.65972],[106.14314,8.65998],[106.15185,8.65857],[106.16068,8.65526],[106.16884,8.65022],[106.17831,8.64204],[106.18406,8.6347],[106.18761,8.62785],[106.19096,8.61561],[106.19178,8.60605],[106.19075,8.59731],[106.18754,8.5875],[106.18216,8.57866],[106.17489,8.57126],[106.16685,8.56597],[106.15816,8.56255],[106.14894,8.56095],[106.13907,8.56119],[106.13292,8.56264],[106.12948,8.55524],[106.12515,8.54914],[106.12184,8.54551],[106.11406,8.53933],[106.10512,8.53496],[106.0949,8.53254],[106.08053,8.53274],[106.07301,8.53456],[106.06507,8.53793],[106.05723,8.54315],[106.05064,8.54983],[106.04558,8.55749]]]]}}]}