{"type":"FeatureCollection","features":[{"type":"Feature","properties":{"kind":"boundary","province_code":"86","name":"Tỉnh Vĩnh Long","source":"VNSDI","valid_from":"16/6/2025","simplify_tolerance_deg":0.0005},"geometry":{"type":"MultiPolygon","coordinates":[[[[106.11335,9.75091],[106.06562,9.78509],[106.04738,9.80498],[106.03306,9.8175],[106.00192,9.84168],[105.99127,9.87272],[105.98425,9.88195],[105.98197,9.88382],[105.97353,9.88693],[105.96938,9.89022],[105.96211,9.89998],[105.93753,9.91654],[105.9266,9.92641],[105.91601,9.93191],[105.90237,9.93347],[105.86328,9.96364],[105.84478,9.9816],[105.82694,10.00378],[105.80916,10.02872],[105.80072,10.04623],[105.79075,10.06098],[105.78707,10.06513],[105.77951,10.07123],[105.75488,10.08197],[105.71467,10.11388],[105.68274,10.13416],[105.68643,10.13932],[105.68391,10.14218],[105.72779,10.20521],[105.74679,10.19741],[105.75812,10.18426],[105.76445,10.17833],[105.77539,10.18837],[105.80139,10.15541],[105.81815,10.15085],[105.82708,10.14986],[105.84913,10.15044],[105.85161,10.16022],[105.86809,10.15315],[105.87115,10.1564],[105.87439,10.16633],[105.87104,10.16829],[105.871,10.17064],[105.87594,10.18961],[105.89431,10.18635],[105.91293,10.19242],[105.91922,10.21128],[105.91259,10.22665],[105.9019,10.23404],[105.90194,10.24204],[105.89923,10.24468],[105.89265,10.24448],[105.89015,10.2451],[105.88665,10.24933],[105.88631,10.25086],[105.8767,10.26501],[105.88412,10.26699],[105.88786,10.27025],[105.89258,10.27721],[105.89707,10.27436],[105.90088,10.27405],[105.92665,10.28343],[105.93776,10.29511],[105.95947,10.31327],[105.97062,10.32387],[105.98255,10.33023],[105.98821,10.33122],[105.9921,10.33047],[106.01221,10.31778],[106.03007,10.30233],[106.03875,10.29702],[106.06806,10.28209],[106.07893,10.27774],[106.08682,10.27663],[106.09153,10.27695],[106.09893,10.27989],[106.10388,10.28319],[106.11727,10.28419],[106.13377,10.28361],[106.14504,10.28484],[106.18001,10.3001],[106.20296,10.3148],[106.2126,10.31662],[106.23827,10.31833],[106.25989,10.32329],[106.27745,10.32619],[106.30349,10.31981],[106.34622,10.3321],[106.37958,10.34035],[106.3899,10.34021],[106.43141,10.31633],[106.44292,10.30895],[106.47159,10.30677],[106.50944,10.28733],[106.53823,10.26663],[106.56532,10.2598],[106.58481,10.2528],[106.59433,10.25028],[106.64201,10.2401],[106.65814,10.23937],[106.67461,10.23604],[106.68969,10.22846],[106.69573,10.22392],[106.70551,10.21455],[106.71332,10.20928],[106.7376,10.19719],[106.74844,10.19279],[106.76025,10.19034],[106.7888,10.19142],[106.78381,10.15856],[106.78931,10.15012],[106.78972,10.14605],[106.78797,10.13629],[106.78562,10.13339],[106.77798,10.13236],[106.77414,10.13281],[106.77235,10.13172],[106.77375,10.12987],[106.78236,10.12855],[106.78592,10.12702],[106.79106,10.12129],[106.79235,10.11679],[106.79216,10.11407],[106.79177,10.11106],[106.77889,10.09005],[106.75213,10.05906],[106.73787,10.04442],[106.73064,10.03953],[106.72359,10.037],[106.72236,10.03713],[106.72177,10.03805],[106.72233,10.03978],[106.72518,10.04261],[106.72509,10.04396],[106.72363,10.04502],[106.72146,10.04513],[106.71241,10.04158],[106.70569,10.04037],[106.69063,10.02318],[106.69043,10.02003],[106.68873,10.0157],[106.68109,10.00702],[106.67522,10.00453],[106.67117,10.00117],[106.66164,9.99163],[106.64869,9.97608],[106.64424,9.97377],[106.63526,9.97148],[106.62376,9.95001],[106.62934,9.94843],[106.65307,9.93419],[106.66222,9.92678],[106.66603,9.91975],[106.66821,9.91154],[106.67,9.90802],[106.68471,9.8907],[106.68804,9.88407],[106.68796,9.87718],[106.68626,9.87339],[106.66621,9.84253],[106.65351,9.82566],[106.64213,9.81262],[106.62913,9.8014],[106.6188,9.79395],[106.61518,9.7939],[106.56779,9.73819],[106.57067,9.72243],[106.56964,9.69625],[106.57103,9.69503],[106.57543,9.69472],[106.57783,9.69364],[106.57915,9.68827],[106.57888,9.67381],[106.57785,9.66504],[106.57282,9.64824],[106.56531,9.63113],[106.55568,9.61325],[106.53486,9.58545],[106.52791,9.57776],[106.51773,9.56956],[106.49864,9.55649],[106.48545,9.55017],[106.4592,9.54125],[106.42625,9.53294],[106.41386,9.5284],[106.40892,9.52808],[106.4083,9.529],[106.40918,9.5325],[106.40859,9.53472],[106.40398,9.53655],[106.40079,9.53604],[106.39523,9.53266],[106.39013,9.5309],[106.38398,9.52952],[106.37829,9.52966],[106.38144,9.5401],[106.37288,9.55064],[106.34314,9.57848],[106.32788,9.5897],[106.32053,9.58949],[106.30346,9.58051],[106.30032,9.58381],[106.27948,9.59963],[106.24912,9.61692],[106.22485,9.63634],[106.19252,9.66651],[106.15177,9.70825],[106.11335,9.75091]]],[[[106.61617,9.6874],[106.60883,9.70409],[106.60952,9.70868],[106.60531,9.71501],[106.60416,9.71607],[106.6005,9.71685],[106.59896,9.71839],[106.59897,9.71935],[106.60148,9.72068],[106.60515,9.72085],[106.60745,9.7195],[106.62079,9.70432],[106.62614,9.69482],[106.62573,9.69023],[106.62214,9.6845],[106.62124,9.67829],[106.6193,9.67543],[106.61795,9.67505],[106.61593,9.67621],[106.61527,9.68004],[106.61617,9.6874]]],[[[106.73036,9.88079],[106.72882,9.88224],[106.72989,9.88453],[106.73415,9.88575],[106.73792,9.88803],[106.74168,9.88705],[106.74581,9.88378],[106.74483,9.88024],[106.73824,9.87549],[106.72985,9.87515],[106.73102,9.87811],[106.73036,9.88079]]],[[[106.71446,9.94154],[106.71932,9.94697],[106.71828,9.95166],[106.72032,9.95337],[106.72176,9.95356],[106.72301,9.95183],[106.724,9.93862],[106.7238,9.9369],[106.72099,9.93433],[106.72001,9.93232],[106.71837,9.93262],[106.71483,9.93723],[106.71446,9.94154]]],[[[106.6938,9.96023],[106.68615,9.96255],[106.68446,9.96369],[106.68381,9.96531],[106.68702,9.9684],[106.69246,9.96999],[106.69263,9.96867],[106.68899,9.96331],[106.70351,9.96048],[106.70193,9.95942],[106.6938,9.96023]]],[[[106.6932,9.97357],[106.69271,9.97172],[106.69174,9.97113],[106.68558,9.97056],[106.68501,9.97661],[106.68762,9.9791],[106.68657,9.9751],[106.69164,9.9752],[106.6932,9.97357]]],[[[106.81118,10.1681],[106.80775,10.17334],[106.80797,10.17499],[106.80994,10.17634],[106.81501,10.17732],[106.82059,10.17685],[106.82636,10.17512],[106.82904,10.17415],[106.84102,10.16547],[106.84895,10.15854],[106.8498,10.15523],[106.84877,10.15266],[106.84592,10.14937],[106.84389,10.14924],[106.83082,10.1557],[106.82316,10.15833],[106.81753,10.16173],[106.81118,10.1681]]]]}},{"type":"Feature","properties":{"kind":"buffer","province_code":"86","buffer_m":5000,"source":"derived","simplify_tolerance_deg":0.0005},"geometry":{"type":"Polygon","coordinates":[[[105.63715,10.13548],[105.63948,10.15235],[105.64219,10.16043],[105.64638,10.16787],[105.69025,10.2309],[105.69596,10.2376],[105.70286,10.24308],[105.7107,10.24714],[105.71918,10.24962],[105.72798,10.25043],[105.73678,10.24954],[105.74524,10.24699],[105.76424,10.23919],[105.77431,10.23334],[105.7791,10.23344],[105.78836,10.23172],[105.79707,10.22815],[105.80486,10.22289],[105.81139,10.21614],[105.82605,10.19746],[105.83191,10.20077],[105.8337,10.20666],[105.83764,10.21415],[105.84291,10.22079],[105.84824,10.22539],[105.83568,10.24513],[105.83202,10.25594],[105.83109,10.2651],[105.83206,10.27426],[105.83487,10.28303],[105.83942,10.29105],[105.84551,10.298],[105.85289,10.30358],[105.85753,10.30579],[105.86065,10.3095],[105.86785,10.3152],[105.87605,10.31935],[105.88493,10.32179],[105.90096,10.32222],[105.90795,10.32934],[105.92902,10.34696],[105.93905,10.3565],[105.94743,10.3628],[105.9575,10.36849],[105.97052,10.37385],[105.97879,10.37562],[105.98971,10.37642],[106.00079,10.37486],[106.00928,10.37236],[106.01713,10.36828],[106.03503,10.35693],[106.04173,10.35226],[106.0572,10.33891],[106.08511,10.32411],[106.08795,10.32556],[106.10402,10.32876],[106.11536,10.32937],[106.13308,10.32903],[106.15831,10.34003],[106.1782,10.35278],[106.18601,10.35678],[106.19445,10.35923],[106.20954,10.36173],[106.23156,10.3632],[106.24961,10.36734],[106.26996,10.37079],[106.27896,10.37138],[106.28791,10.3702],[106.30277,10.36669],[106.33518,10.37598],[106.36854,10.38423],[106.38021,10.38557],[106.39843,10.38463],[106.40607,10.38249],[106.41322,10.37907],[106.45796,10.35316],[106.47508,10.35186],[106.48408,10.35026],[106.49257,10.34692],[106.53042,10.32748],[106.55793,10.30832],[106.57882,10.30299],[106.60419,10.29444],[106.64956,10.28495],[106.66555,10.28398],[106.68681,10.27972],[106.69661,10.27599],[106.70689,10.27089],[106.72329,10.25996],[106.73705,10.24797],[106.76178,10.23616],[106.76461,10.23553],[106.78654,10.23658],[106.79548,10.23615],[106.80417,10.23399],[106.81226,10.23019],[106.81945,10.2249],[106.82199,10.22211],[106.83383,10.22012],[106.84459,10.21666],[106.85596,10.21066],[106.86793,10.20198],[106.87912,10.19245],[106.88529,10.18585],[106.89003,10.17817],[106.89314,10.16971],[106.89537,10.15708],[106.89476,10.14767],[106.89117,10.13602],[106.88781,10.12929],[106.88053,10.11992],[106.87398,10.11372],[106.86632,10.10893],[106.85785,10.10573],[106.84688,10.10412],[106.83687,10.10468],[106.83491,10.09639],[106.83108,10.08813],[106.81774,10.06637],[106.7866,10.02946],[106.77069,10.01301],[106.76357,10.00706],[106.75634,10.00217],[106.74614,9.997],[106.74022,9.99488],[106.74778,9.9907],[106.75495,9.98459],[106.75967,9.97904],[106.76343,9.9728],[106.76673,9.96471],[106.76829,9.9572],[106.76947,9.94217],[106.7693,9.93339],[106.7676,9.92431],[106.77251,9.92096],[106.78158,9.91187],[106.78739,9.90237],[106.79042,9.89317],[106.79142,9.88354],[106.79078,9.87508],[106.78913,9.86779],[106.7863,9.86087],[106.78235,9.8545],[106.77691,9.8481],[106.76823,9.84088],[106.7595,9.83548],[106.75113,9.83212],[106.73449,9.82989],[106.72769,9.82975],[106.71748,9.83162],[106.71382,9.83302],[106.70433,9.81769],[106.69703,9.8077],[106.67661,9.78303],[106.65884,9.76709],[106.64832,9.75898],[106.64178,9.75504],[106.63909,9.75187],[106.65397,9.73534],[106.65985,9.72765],[106.66727,9.71437],[106.67016,9.70664],[106.6716,9.69852],[106.67179,9.68904],[106.67003,9.67947],[106.66101,9.65615],[106.65518,9.64747],[106.6477,9.64005],[106.64008,9.63517],[106.63028,9.63152],[106.62084,9.62992],[106.61468,9.63018],[106.6061,9.6109],[106.59486,9.59011],[106.58328,9.57348],[106.57143,9.55843],[106.55755,9.5434],[106.54417,9.53272],[106.52916,9.52232],[106.51442,9.51363],[106.49562,9.50571],[106.46444,9.49547],[106.43977,9.48972],[106.42325,9.48415],[106.41316,9.48255],[106.40526,9.48265],[106.39403,9.48541],[106.38085,9.48412],[106.36999,9.48517],[106.36041,9.48806],[106.35296,9.49205],[106.34638,9.49735],[106.3409,9.50376],[106.33671,9.51107],[106.33396,9.51902],[106.33297,9.52581],[106.31954,9.53838],[106.30873,9.53559],[106.30026,9.5354],[106.2919,9.53677],[106.28394,9.53964],[106.27665,9.54393],[106.25415,9.56191],[106.22106,9.58127],[106.19593,9.60137],[106.15975,9.63506],[106.1183,9.67753],[106.08239,9.71731],[106.03898,9.74839],[106.03188,9.75467],[106.01533,9.77271],[106.00389,9.78271],[105.9738,9.80608],[105.96744,9.81209],[105.96236,9.81919],[105.95874,9.82712],[105.95185,9.84722],[105.94091,9.85489],[105.92944,9.86773],[105.91269,9.87861],[105.9013,9.88809],[105.88918,9.89018],[105.88139,9.89332],[105.87431,9.89782],[105.83529,9.92793],[105.81287,9.94929],[105.79016,9.97705],[105.77206,10.00241],[105.76441,10.01583],[105.76036,10.0248],[105.75542,10.03215],[105.73585,10.04087],[105.72592,10.04703],[105.68758,10.07738],[105.65918,10.09532],[105.64979,10.10288],[105.64423,10.10993],[105.64017,10.11792],[105.63778,10.12655],[105.63715,10.13548]]]}}]}