{"type":"FeatureCollection","features":[{"type":"Feature","properties":{"kind":"boundary","province_code":"92","name":"Thành phố Cần Thơ","source":"VNSDI","valid_from":"16/6/2025","simplify_tolerance_deg":0.0005},"geometry":{"type":"Polygon","coordinates":[[[105.47113,9.59296],[105.46438,9.58926],[105.46087,9.58912],[105.45839,9.59004],[105.45127,9.58697],[105.44905,9.58681],[105.44883,9.59282],[105.44721,9.59626],[105.44501,9.59662],[105.44283,9.59488],[105.44104,9.59449],[105.43618,9.59784],[105.43019,9.60065],[105.42943,9.60005],[105.43005,9.59709],[105.42943,9.5953],[105.41793,9.59273],[105.41665,9.59371],[105.41656,9.59494],[105.41818,9.59877],[105.41796,9.60003],[105.41689,9.6013],[105.41518,9.60148],[105.4129,9.59895],[105.4101,9.59755],[105.40139,9.59771],[105.39643,9.59085],[105.39462,9.58944],[105.39316,9.58887],[105.39139,9.59018],[105.38976,9.59016],[105.385,9.5864],[105.38213,9.58547],[105.37821,9.5863],[105.37693,9.59208],[105.3738,9.59627],[105.37524,9.59992],[105.37577,9.61263],[105.38395,9.62008],[105.38931,9.62798],[105.3919,9.6244],[105.39938,9.622],[105.399,9.63017],[105.40654,9.64361],[105.40644,9.65066],[105.40055,9.65526],[105.39726,9.65659],[105.37061,9.65896],[105.36886,9.66092],[105.36863,9.66249],[105.36932,9.66435],[105.37373,9.6693],[105.37394,9.67137],[105.37272,9.67233],[105.37061,9.67243],[105.3598,9.66885],[105.35661,9.66867],[105.3392,9.67612],[105.33809,9.67739],[105.33735,9.68101],[105.33769,9.68661],[105.33369,9.6933],[105.32874,9.69806],[105.3283,9.70044],[105.32942,9.70204],[105.33147,9.70271],[105.33743,9.70319],[105.34163,9.70471],[105.35811,9.71342],[105.36157,9.71656],[105.37044,9.72781],[105.37274,9.72956],[105.3771,9.7321],[105.38846,9.7347],[105.39097,9.73624],[105.39261,9.73835],[105.39472,9.74535],[105.40249,9.74895],[105.41167,9.74987],[105.41523,9.75443],[105.4147,9.75893],[105.41297,9.76109],[105.40957,9.76035],[105.40696,9.761],[105.40555,9.76632],[105.4055,9.77074],[105.40758,9.77355],[105.41589,9.77299],[105.41686,9.77485],[105.41458,9.77884],[105.41532,9.78085],[105.41791,9.78152],[105.42158,9.77945],[105.42371,9.77963],[105.42518,9.78055],[105.43045,9.78838],[105.43428,9.79137],[105.43492,9.79412],[105.43078,9.81567],[105.44514,9.81956],[105.47688,9.83238],[105.52052,9.85911],[105.51874,9.86201],[105.52065,9.86967],[105.54004,9.91204],[105.44745,9.99727],[105.39969,10.04246],[105.36451,10.07328],[105.35674,10.08237],[105.35259,10.10053],[105.31158,10.14702],[105.30068,10.13592],[105.27801,10.15898],[105.22576,10.20095],[105.24726,10.23067],[105.25651,10.2417],[105.26093,10.24585],[105.26714,10.23891],[105.28865,10.25967],[105.29192,10.26669],[105.30094,10.27667],[105.30165,10.27669],[105.30652,10.26905],[105.31172,10.27334],[105.31599,10.26752],[105.33632,10.23438],[105.39944,10.25366],[105.44124,10.26964],[105.42653,10.30309],[105.47735,10.31186],[105.48449,10.31945],[105.48744,10.32379],[105.49689,10.32501],[105.51481,10.30629],[105.53029,10.29961],[105.54856,10.28785],[105.56748,10.27101],[105.59653,10.24211],[105.60325,10.23455],[105.61452,10.21773],[105.61963,10.20485],[105.62486,10.18637],[105.64653,10.16662],[105.65019,10.16112],[105.66194,10.1482],[105.66989,10.14206],[105.71467,10.11388],[105.75488,10.08197],[105.77951,10.07123],[105.78707,10.06513],[105.79075,10.06098],[105.80072,10.04623],[105.80916,10.02872],[105.82694,10.00378],[105.84478,9.9816],[105.86328,9.96364],[105.90237,9.93347],[105.91601,9.93191],[105.9266,9.92641],[105.93753,9.91654],[105.96211,9.89998],[105.96938,9.89022],[105.97353,9.88693],[105.98197,9.88382],[105.98425,9.88195],[105.99127,9.87272],[106.00192,9.84168],[106.03306,9.8175],[106.04738,9.80498],[106.06562,9.78509],[106.11335,9.75091],[106.15177,9.70825],[106.19252,9.66651],[106.22485,9.63634],[106.24912,9.61692],[106.27948,9.59963],[106.30032,9.58381],[106.30346,9.58051],[106.29315,9.57508],[106.29167,9.56354],[106.28675,9.54434],[106.28232,9.53476],[106.2703,9.51401],[106.26801,9.5103],[106.26258,9.50503],[106.25338,9.49696],[106.24766,9.49377],[106.23991,9.49189],[106.23741,9.49182],[106.23397,9.4932],[106.23102,9.49898],[106.21163,9.49966],[106.21115,9.48745],[106.2088,9.47248],[106.20759,9.46733],[106.2029,9.4556],[106.20051,9.45225],[106.19295,9.44516],[106.18395,9.43943],[106.17538,9.43003],[106.16802,9.42449],[106.16827,9.41758],[106.17412,9.41989],[106.18288,9.4191],[106.18863,9.41493],[106.19064,9.4121],[106.19152,9.40945],[106.19202,9.40187],[106.1899,9.39088],[106.19041,9.39007],[106.19269,9.38959],[106.19111,9.38796],[106.19109,9.37813],[106.18494,9.36823],[106.17611,9.36119],[106.17063,9.35598],[106.16473,9.34869],[106.15954,9.34431],[106.1398,9.33271],[106.13973,9.34057],[106.13037,9.33364],[106.12636,9.33276],[106.12343,9.3341],[106.12676,9.33459],[106.1284,9.33767],[106.12411,9.33938],[106.11505,9.34069],[106.11505,9.33878],[106.11381,9.33818],[106.10812,9.33865],[106.10412,9.34079],[106.10202,9.3407],[106.09017,9.33595],[106.06569,9.32939],[105.9652,9.29426],[105.91375,9.27895],[105.8821,9.26795],[105.82756,9.24546],[105.81889,9.27355],[105.82588,9.2767],[105.81215,9.33939],[105.82887,9.348],[105.84874,9.35484],[105.85109,9.35611],[105.85495,9.36003],[105.85894,9.35978],[105.85987,9.36168],[105.86029,9.36442],[105.85304,9.37912],[105.8533,9.38079],[105.85686,9.38209],[105.85689,9.38433],[105.85363,9.38768],[105.85088,9.38838],[105.84849,9.39293],[105.8482,9.39693],[105.84313,9.40362],[105.84201,9.40449],[105.83678,9.40125],[105.83279,9.40166],[105.83117,9.40099],[105.83123,9.39923],[105.83452,9.39912],[105.83507,9.39765],[105.8339,9.3927],[105.8307,9.39075],[105.82825,9.39045],[105.82509,9.39312],[105.82094,9.39379],[105.82156,9.38587],[105.82026,9.38137],[105.81856,9.37887],[105.81447,9.37777],[105.81359,9.37656],[105.81442,9.37465],[105.81796,9.37254],[105.81724,9.37044],[105.81508,9.37021],[105.81021,9.37096],[105.80763,9.37334],[105.80239,9.37518],[105.79853,9.37512],[105.79321,9.37739],[105.79028,9.38019],[105.79026,9.38387],[105.7855,9.38273],[105.78425,9.38551],[105.77775,9.39308],[105.77886,9.39563],[105.78533,9.40049],[105.78422,9.40294],[105.77815,9.40203],[105.7717,9.41126],[105.76847,9.40998],[105.76665,9.41079],[105.75085,9.41101],[105.74574,9.40592],[105.74642,9.40369],[105.7458,9.40278],[105.73749,9.39831],[105.73659,9.39544],[105.7327,9.39406],[105.72679,9.39331],[105.72257,9.39079],[105.71613,9.39132],[105.71109,9.39469],[105.71009,9.39676],[105.70804,9.39454],[105.70535,9.37782],[105.70187,9.37746],[105.69406,9.37966],[105.68537,9.37828],[105.68252,9.38438],[105.67844,9.38378],[105.67314,9.39076],[105.65389,9.3859],[105.64981,9.38746],[105.64997,9.39233],[105.64843,9.39438],[105.64691,9.39508],[105.64265,9.39401],[105.63669,9.39626],[105.64205,9.40201],[105.63724,9.40927],[105.63181,9.41283],[105.63108,9.41673],[105.62807,9.41923],[105.6187,9.41371],[105.61711,9.41104],[105.6168,9.40714],[105.61612,9.40667],[105.61402,9.40721],[105.6096,9.41232],[105.60271,9.41657],[105.60243,9.42013],[105.59814,9.42109],[105.5926,9.42104],[105.58763,9.42328],[105.58138,9.41199],[105.54394,9.45358],[105.54953,9.5164],[105.55542,9.55332],[105.55471,9.56925],[105.54623,9.58642],[105.54513,9.58523],[105.54333,9.58551],[105.53507,9.59396],[105.53324,9.59498],[105.52496,9.59463],[105.52283,9.59267],[105.52085,9.58896],[105.51846,9.58692],[105.51202,9.58395],[105.50731,9.58509],[105.50598,9.58658],[105.50489,9.59037],[105.50291,9.59146],[105.49447,9.59101],[105.48979,9.5869],[105.48601,9.58549],[105.48027,9.58844],[105.47428,9.59332],[105.47113,9.59296]]]}},{"type":"Feature","properties":{"kind":"buffer","province_code":"92","buffer_m":5000,"source":"derived","simplify_tolerance_deg":0.0005},"geometry":{"type":"Polygon","coordinates":[[[105.25318,10.29035],[105.258,10.29689],[105.26702,10.30687],[105.27395,10.31311],[105.28201,10.31781],[105.29087,10.32077],[105.30086,10.3219],[105.31015,10.32111],[105.32611,10.31625],[105.33468,10.3124],[105.34227,10.30689],[105.34856,10.29995],[105.3568,10.28795],[105.38175,10.29557],[105.38096,10.30265],[105.38179,10.31168],[105.38442,10.32036],[105.38874,10.32835],[105.39458,10.33533],[105.40171,10.34101],[105.40983,10.34516],[105.41863,10.34762],[105.45306,10.35357],[105.46099,10.36062],[105.46947,10.36534],[105.48263,10.36895],[105.49296,10.37006],[105.50155,10.37],[105.50998,10.36833],[105.51794,10.36512],[105.52516,10.36048],[105.5409,10.34443],[105.55432,10.33804],[105.57818,10.32221],[105.59923,10.30345],[105.62962,10.2732],[105.64009,10.26118],[105.65383,10.24061],[105.65926,10.22911],[105.66542,10.21046],[105.67859,10.19876],[105.69377,10.18068],[105.73913,10.15204],[105.77924,10.12063],[105.79916,10.11203],[105.80791,10.1066],[105.81784,10.09848],[105.82541,10.09035],[105.83292,10.07998],[105.83887,10.07097],[105.84797,10.0526],[105.8631,10.03132],[105.87867,10.01197],[105.89329,9.99777],[105.92027,9.97695],[105.92969,9.97504],[105.94772,9.96648],[105.95728,9.95985],[105.96546,9.95246],[105.98932,9.93626],[105.99439,9.9319],[106.0,9.9252],[106.00475,9.92298],[106.01329,9.9168],[106.02061,9.90921],[106.03154,9.89391],[106.04069,9.86899],[106.06115,9.8531],[106.07751,9.83891],[106.09611,9.81904],[106.14008,9.78754],[106.14768,9.78066],[106.18485,9.73935],[106.22452,9.69873],[106.25494,9.67033],[106.27459,9.65455],[106.30718,9.63554],[106.33346,9.61485],[106.34226,9.60423],[106.34631,9.59592],[106.34857,9.58697],[106.34895,9.57775],[106.34744,9.56865],[106.3441,9.56004],[106.33906,9.55228],[106.33488,9.54805],[106.32958,9.52884],[106.32236,9.51316],[106.30687,9.48668],[106.29987,9.47797],[106.28357,9.46309],[106.27571,9.45754],[106.26999,9.45435],[106.25846,9.44984],[106.24877,9.44764],[106.24239,9.43302],[106.23509,9.42282],[106.23699,9.41257],[106.23733,9.39763],[106.23822,9.39153],[106.23575,9.36912],[106.23369,9.36206],[106.2305,9.35542],[106.2237,9.34445],[106.2172,9.33626],[106.20439,9.32545],[106.19462,9.31456],[106.18445,9.30645],[106.15891,9.29166],[106.15033,9.28872],[106.14134,9.28752],[106.12131,9.28782],[106.11203,9.28956],[106.10385,9.29286],[106.07854,9.28595],[105.98061,9.25171],[105.92801,9.23599],[105.8986,9.22577],[105.86726,9.21251],[105.83886,9.20165],[105.83029,9.20032],[105.82163,9.20063],[105.81318,9.20255],[105.80525,9.20603],[105.79813,9.21094],[105.79207,9.21709],[105.7873,9.22427],[105.78398,9.23222],[105.77531,9.26031],[105.77351,9.26943],[105.77362,9.27873],[105.77643,9.28954],[105.76761,9.32978],[105.76675,9.34053],[105.7596,9.34552],[105.75165,9.35269],[105.74076,9.34957],[105.73344,9.34221],[105.72629,9.33765],[105.7184,9.33449],[105.70659,9.33248],[105.69792,9.33241],[105.69159,9.33357],[105.68418,9.33308],[105.67581,9.33406],[105.66777,9.33657],[105.65939,9.34124],[105.6559,9.34073],[105.64657,9.34127],[105.63347,9.34524],[105.62511,9.34946],[105.61798,9.35513],[105.61127,9.35873],[105.60674,9.36242],[105.59411,9.36652],[105.59144,9.36809],[105.58647,9.36705],[105.57777,9.36691],[105.5692,9.36841],[105.56108,9.3715],[105.55369,9.37607],[105.54732,9.38194],[105.51006,9.42334],[105.50456,9.43082],[105.50072,9.43926],[105.49868,9.44829],[105.49855,9.45755],[105.50413,9.52037],[105.50699,9.53901],[105.49547,9.54136],[105.48962,9.54041],[105.48062,9.54059],[105.46683,9.54419],[105.45443,9.54186],[105.44266,9.54204],[105.43338,9.54435],[105.42533,9.54827],[105.41843,9.54751],[105.41263,9.54802],[105.39627,9.54248],[105.3885,9.54069],[105.37801,9.54036],[105.36765,9.54192],[105.35792,9.54578],[105.34996,9.55082],[105.34422,9.55618],[105.33951,9.56243],[105.33305,9.57603],[105.3297,9.58486],[105.32828,9.5942],[105.33149,9.6233],[105.3335,9.629],[105.31928,9.63543],[105.3111,9.64051],[105.30438,9.6467],[105.29898,9.65418],[105.29559,9.66107],[105.29309,9.67006],[105.2885,9.67683],[105.28495,9.68499],[105.28306,9.69378],[105.28275,9.70226],[105.28475,9.71379],[105.29001,9.72501],[105.29835,9.73512],[105.30616,9.74092],[105.31504,9.74495],[105.32604,9.7476],[105.32913,9.74917],[105.33635,9.75781],[105.34259,9.76359],[105.34995,9.76883],[105.3593,9.77355],[105.36033,9.775],[105.36145,9.78233],[105.36608,9.79355],[105.37132,9.80143],[105.38529,9.81477],[105.38598,9.82397],[105.38831,9.83208],[105.39212,9.83961],[105.39727,9.84631],[105.40358,9.85195],[105.41083,9.85632],[105.43049,9.86246],[105.45618,9.87284],[105.47854,9.88653],[105.4852,9.90134],[105.41675,9.96386],[105.36892,10.0091],[105.3337,10.03996],[105.32199,10.05311],[105.31597,10.06216],[105.31229,10.07237],[105.31067,10.07949],[105.30086,10.09074],[105.29141,10.09164],[105.28271,10.09436],[105.27472,10.09875],[105.26777,10.10463],[105.24741,10.12535],[105.19697,10.1659],[105.19088,10.17185],[105.18602,10.17883],[105.18255,10.18659],[105.18061,10.19485],[105.18025,10.20333],[105.1815,10.21172],[105.18431,10.21973],[105.18857,10.22709],[105.2103,10.25713],[105.22516,10.27452],[105.23679,10.28421],[105.24497,10.28821],[105.25318,10.29035]]]}}]}