{"type":"FeatureCollection","features":[{"type":"Feature","properties":{"kind":"boundary","province_code":"08","name":"Tỉnh Tuyên Quang","source":"VNSDI","valid_from":"16/6/2025","simplify_tolerance_deg":0.0005},"geometry":{"type":"Polygon","coordinates":[[[104.84767,22.18552],[104.83487,22.17935],[104.82979,22.17882],[104.82233,22.18324],[104.8186,22.18208],[104.8133,22.17364],[104.80957,22.17164],[104.7959,22.17131],[104.78742,22.17319],[104.78392,22.17319],[104.77873,22.16802],[104.77444,22.16664],[104.76833,22.1679],[104.7594,22.17157],[104.75748,22.17336],[104.75531,22.18305],[104.75226,22.18494],[104.74355,22.18629],[104.74118,22.18766],[104.73812,22.19323],[104.73303,22.19639],[104.72816,22.19806],[104.72578,22.2009],[104.72453,22.20469],[104.7217,22.2089],[104.72124,22.2129],[104.72214,22.21543],[104.72901,22.22755],[104.7291,22.23777],[104.7232,22.25113],[104.72206,22.2565],[104.71934,22.25966],[104.70927,22.26132],[104.70101,22.26363],[104.68202,22.2619],[104.6784,22.26369],[104.67074,22.27534],[104.66978,22.27568],[104.6656,22.27377],[104.66107,22.27355],[104.6579,22.2746],[104.65315,22.27806],[104.64692,22.28026],[104.64489,22.27826],[104.64161,22.27783],[104.62723,22.28696],[104.62044,22.28768],[104.61116,22.29113],[104.60731,22.29039],[104.60314,22.28722],[104.59886,22.28068],[104.58714,22.26633],[104.58616,22.25241],[104.58164,22.25209],[104.57647,22.2503],[104.5742,22.2467],[104.5697,22.24465],[104.55714,22.2415],[104.55149,22.24201],[104.54854,22.24358],[104.54706,22.24663],[104.54693,22.25158],[104.54849,22.25885],[104.54813,22.26633],[104.54494,22.27358],[104.54527,22.27717],[104.54989,22.2815],[104.55972,22.28489],[104.56963,22.29661],[104.579,22.3038],[104.57943,22.30959],[104.57818,22.31464],[104.57181,22.32431],[104.56579,22.33156],[104.56737,22.3342],[104.5808,22.34456],[104.58113,22.34793],[104.575,22.35433],[104.5707,22.35548],[104.56074,22.35482],[104.55294,22.35522],[104.54988,22.35679],[104.54726,22.35942],[104.54669,22.36184],[104.54815,22.36469],[104.55345,22.37071],[104.55139,22.37691],[104.54912,22.3807],[104.5311,22.38781],[104.52145,22.3962],[104.5142,22.39966],[104.5066,22.40458],[104.49777,22.40487],[104.49629,22.40582],[104.49436,22.40739],[104.49025,22.41717],[104.48753,22.42022],[104.47246,22.42227],[104.46668,22.4252],[104.46077,22.4355],[104.45325,22.44411],[104.44994,22.44969],[104.44902,22.45358],[104.44979,22.46032],[104.45803,22.46709],[104.46603,22.47754],[104.47337,22.48304],[104.47358,22.48641],[104.4704,22.48946],[104.46597,22.49218],[104.45712,22.49552],[104.45088,22.49897],[104.44031,22.50894],[104.43744,22.51641],[104.43448,22.52071],[104.42892,22.52364],[104.4186,22.52656],[104.41644,22.52834],[104.41473,22.53107],[104.41472,22.53265],[104.41629,22.53687],[104.42293,22.54795],[104.42176,22.55721],[104.42386,22.56965],[104.42633,22.57355],[104.43063,22.57567],[104.44559,22.57615],[104.45671,22.57292],[104.46373,22.57242],[104.46599,22.5759],[104.4626,22.59521],[104.46009,22.60505],[104.46056,22.61027],[104.44314,22.61222],[104.43385,22.6117],[104.43023,22.61419],[104.40872,22.63865],[104.40416,22.65038],[104.40513,22.6549],[104.39041,22.67907],[104.36854,22.67359],[104.35935,22.67386],[104.35469,22.67553],[104.33763,22.68757],[104.33625,22.69072],[104.33668,22.69504],[104.34336,22.71358],[104.349,22.69963],[104.35236,22.69413],[104.35477,22.69298],[104.3629,22.69292],[104.3698,22.68869],[104.37385,22.68996],[104.3864,22.70394],[104.3913,22.70483],[104.3984,22.70157],[104.40904,22.72435],[104.41642,22.72989],[104.42358,22.73756],[104.43399,22.74302],[104.44492,22.74635],[104.45772,22.75191],[104.47208,22.76047],[104.49308,22.77757],[104.49609,22.78136],[104.49844,22.78609],[104.50601,22.78844],[104.50951,22.78814],[104.51371,22.78984],[104.51391,22.79144],[104.51541,22.79284],[104.51641,22.79534],[104.51801,22.79714],[104.51921,22.79734],[104.51901,22.79924],[104.52051,22.80154],[104.51951,22.80244],[104.52021,22.80484],[104.52321,22.80564],[104.52421,22.80734],[104.52529,22.81522],[104.52736,22.81764],[104.53119,22.82053],[104.53319,22.82113],[104.53687,22.8264],[104.54204,22.82627],[104.55171,22.83389],[104.55161,22.83525],[104.55051,22.83602],[104.54664,22.83732],[104.54698,22.83954],[104.55434,22.84215],[104.5599,22.84159],[104.56381,22.84307],[104.565,22.84261],[104.56677,22.8444],[104.57022,22.84412],[104.57019,22.84704],[104.57749,22.85358],[104.58045,22.85177],[104.59103,22.8522],[104.59715,22.84611],[104.60296,22.83319],[104.60312,22.82927],[104.59841,22.82269],[104.59821,22.82041],[104.60022,22.81803],[104.60751,22.81899],[104.61015,22.81854],[104.61315,22.81615],[104.61939,22.82239],[104.62093,22.82494],[104.62155,22.83016],[104.6194,22.84153],[104.62369,22.8467],[104.62715,22.83939],[104.62903,22.83727],[104.63342,22.83515],[104.63832,22.83458],[104.64249,22.83643],[104.64792,22.83634],[104.65377,22.83452],[104.65962,22.83134],[104.66714,22.82516],[104.67175,22.81859],[104.67415,22.8183],[104.6999,22.82648],[104.70397,22.82649],[104.72464,22.82053],[104.72861,22.8214],[104.73246,22.82354],[104.73464,22.82925],[104.73096,22.84328],[104.72532,22.84879],[104.72531,22.8513],[104.73354,22.85741],[104.73678,22.85839],[104.75337,22.85706],[104.75577,22.859],[104.76232,22.87091],[104.76491,22.88136],[104.7695,22.88815],[104.77323,22.90092],[104.77813,22.905],[104.78909,22.90617],[104.7941,22.9085],[104.80808,22.91558],[104.81256,22.92014],[104.8158,22.92188],[104.82947,22.92461],[104.83856,22.92258],[104.83981,22.92404],[104.84074,22.92801],[104.84981,22.93733],[104.86189,22.94226],[104.86311,22.94314],[104.86452,22.94651],[104.86407,22.95036],[104.86541,22.96073],[104.86159,22.96751],[104.8597,22.97699],[104.85802,22.97825],[104.8499,22.97877],[104.84831,22.97966],[104.8458,22.984],[104.84409,22.98519],[104.84017,22.98449],[104.83683,22.98566],[104.83563,22.9885],[104.83858,22.99168],[104.83726,22.9968],[104.8326,22.99881],[104.83038,22.99792],[104.82913,22.99876],[104.8309,23.00364],[104.82968,23.01691],[104.82828,23.02239],[104.82013,23.03685],[104.82074,23.0535],[104.81969,23.05543],[104.81582,23.05649],[104.81394,23.05823],[104.81518,23.06559],[104.81392,23.07197],[104.81705,23.07517],[104.81705,23.07972],[104.81015,23.08029],[104.80722,23.08212],[104.80638,23.08367],[104.80322,23.10176],[104.80216,23.11594],[104.8047,23.11727],[104.82051,23.11814],[104.82171,23.11724],[104.82141,23.11414],[104.82311,23.10974],[104.82621,23.10774],[104.82831,23.11004],[104.83111,23.11604],[104.83561,23.11584],[104.83941,23.11284],[104.83991,23.11814],[104.84488,23.11796],[104.84767,23.12026],[104.85214,23.12229],[104.85386,23.12332],[104.85763,23.12873],[104.85988,23.1287],[104.86221,23.12403],[104.86503,23.12387],[104.8683,23.12549],[104.87428,23.12527],[104.87595,23.12595],[104.87835,23.12836],[104.8771,23.13387],[104.87793,23.13764],[104.8818,23.14229],[104.8819,23.14576],[104.88005,23.15034],[104.883,23.15508],[104.88145,23.16327],[104.88181,23.16506],[104.88318,23.16764],[104.88741,23.16984],[104.88891,23.17374],[104.89571,23.17934],[104.90071,23.17864],[104.90851,23.18054],[104.91691,23.17634],[104.91807,23.17376],[104.9165,23.1697],[104.92561,23.16399],[104.9276,23.1577],[104.93032,23.15693],[104.93283,23.15751],[104.94559,23.15162],[104.94797,23.15125],[104.95008,23.15622],[104.95084,23.16342],[104.94726,23.16758],[104.94726,23.17039],[104.95014,23.17189],[104.95416,23.17813],[104.95604,23.17978],[104.95776,23.19188],[104.96287,23.1989],[104.97011,23.20225],[104.97952,23.20518],[104.98755,23.20135],[104.99684,23.2034],[104.99861,23.20853],[104.99891,23.21273],[105.00041,23.21443],[105.00574,23.21709],[105.01131,23.21613],[105.02041,23.21773],[105.02498,23.21965],[105.02802,23.22188],[105.03032,23.22633],[105.03608,23.23242],[105.04184,23.23426],[105.04665,23.24016],[105.04665,23.24248],[105.04749,23.24393],[105.05,23.24548],[105.05168,23.2478],[105.05388,23.24887],[105.05785,23.24887],[105.0589,23.25399],[105.06079,23.25545],[105.06529,23.25583],[105.06696,23.25718],[105.06937,23.25776],[105.07073,23.26105],[105.07461,23.26154],[105.07691,23.26492],[105.07984,23.26618],[105.08277,23.26676],[105.08874,23.26385],[105.09198,23.26385],[105.09366,23.26104],[105.09763,23.25988],[105.09889,23.25814],[105.1015,23.25717],[105.10161,23.2531],[105.10035,23.25097],[105.10056,23.24788],[105.10265,23.24681],[105.10516,23.24816],[105.10704,23.24594],[105.10987,23.24613],[105.11626,23.2498],[105.12097,23.25106],[105.12411,23.25289],[105.12516,23.25434],[105.12516,23.25628],[105.12631,23.25715],[105.1351,23.25637],[105.14024,23.26139],[105.14484,23.26178],[105.1506,23.26516],[105.15511,23.26632],[105.1571,23.26806],[105.15773,23.27105],[105.16129,23.27299],[105.1637,23.27676],[105.16601,23.2784],[105.16748,23.28188],[105.17041,23.28265],[105.17177,23.28439],[105.17052,23.28875],[105.17283,23.28933],[105.17879,23.28816],[105.18099,23.28535],[105.18265,23.27954],[105.18244,23.2779],[105.18359,23.27741],[105.18967,23.2805],[105.19522,23.28069],[105.19721,23.27991],[105.19845,23.27517],[105.19981,23.27333],[105.20347,23.2712],[105.20735,23.27196],[105.21017,23.26828],[105.21163,23.26751],[105.21456,23.26808],[105.21865,23.27021],[105.22095,23.2703],[105.22587,23.26681],[105.22638,23.26178],[105.22774,23.2609],[105.23067,23.261],[105.23486,23.26283],[105.23748,23.26573],[105.23835,23.27643],[105.24221,23.27713],[105.23898,23.28155],[105.23561,23.28303],[105.23438,23.28634],[105.2347,23.28867],[105.24559,23.29242],[105.24759,23.29523],[105.24759,23.29765],[105.25132,23.30087],[105.24981,23.30945],[105.25181,23.31119],[105.2561,23.31224],[105.2581,23.31679],[105.2581,23.3194],[105.25633,23.32153],[105.25466,23.32657],[105.2532,23.32889],[105.25017,23.33035],[105.24975,23.33335],[105.25143,23.33635],[105.25647,23.34089],[105.26035,23.34291],[105.26653,23.3429],[105.27364,23.33989],[105.2836,23.342],[105.28771,23.35273],[105.28835,23.35902],[105.29716,23.3652],[105.29916,23.37003],[105.30095,23.37119],[105.30652,23.3795],[105.31344,23.38355],[105.32193,23.39198],[105.32565,23.39183],[105.33053,23.38343],[105.33556,23.37862],[105.34797,23.36963],[105.35006,23.36661],[105.35105,23.3608],[105.35034,23.35672],[105.35155,23.34539],[105.35441,23.34043],[105.36913,23.32325],[105.37018,23.31972],[105.38291,23.31093],[105.38621,23.31403],[105.40121,23.29703],[105.41147,23.28792],[105.41628,23.28597],[105.42088,23.28499],[105.42865,23.29077],[105.42865,23.29271],[105.42678,23.29716],[105.42911,23.30277],[105.43219,23.30281],[105.44153,23.29969],[105.44523,23.29435],[105.44687,23.2855],[105.449,23.28055],[105.45427,23.27454],[105.46108,23.26983],[105.46869,23.25916],[105.47253,23.25209],[105.47723,23.24675],[105.47953,23.24655],[105.48328,23.24296],[105.48609,23.23888],[105.48775,23.23433],[105.4911,23.23413],[105.49202,23.229],[105.49178,23.22048],[105.49397,23.21834],[105.4973,23.21175],[105.49791,23.20953],[105.49769,23.2043],[105.49956,23.20255],[105.50847,23.19813],[105.5123,23.19661],[105.51597,23.1966],[105.5242,23.1896],[105.5265,23.18902],[105.53614,23.19189],[105.54294,23.19273],[105.54535,23.19205],[105.54732,23.18924],[105.55203,23.18825],[105.55628,23.18117],[105.55762,23.1741],[105.55907,23.17081],[105.56354,23.16624],[105.56803,23.16371],[105.57032,23.16109],[105.57346,23.16108],[105.57471,23.15933],[105.57132,23.14948],[105.56408,23.14331],[105.56584,23.13895],[105.56571,23.13421],[105.56466,23.13237],[105.56046,23.12948],[105.56004,23.12842],[105.56003,23.12658],[105.56492,23.12066],[105.56326,23.11856],[105.55932,23.11854],[105.554,23.11329],[105.54672,23.1095],[105.53094,23.11116],[105.52097,23.08654],[105.51849,23.07677],[105.49574,23.03418],[105.4928,23.02581],[105.48911,23.01028],[105.48773,23.00896],[105.47257,23.0071],[105.4608,23.00442],[105.42286,23.00002],[105.41301,22.99635],[105.38066,22.99106],[105.36839,22.98646],[105.36245,22.98198],[105.36068,22.97197],[105.36261,22.96125],[105.36279,22.94226],[105.35676,22.93736],[105.35244,22.93504],[105.34726,22.93477],[105.33554,22.93124],[105.32369,22.91901],[105.31839,22.9152],[105.3082,22.91268],[105.30524,22.90396],[105.30542,22.89075],[105.30406,22.87543],[105.30154,22.87443],[105.27263,22.87998],[105.26922,22.87999],[105.26778,22.87932],[105.26675,22.86752],[105.27908,22.8575],[105.29514,22.8562],[105.30317,22.85401],[105.31782,22.84659],[105.33816,22.82798],[105.34927,22.81896],[105.35501,22.81695],[105.36506,22.81526],[105.38049,22.81089],[105.38909,22.80487],[105.3955,22.79816],[105.41023,22.7899],[105.4285,22.77813],[105.43997,22.77243],[105.44751,22.76672],[105.45421,22.75897],[105.45697,22.75706],[105.46827,22.7529],[105.47104,22.75111],[105.47586,22.74393],[105.47655,22.73527],[105.47513,22.72929],[105.47607,22.71879],[105.48027,22.71336],[105.48982,22.70866],[105.49913,22.70197],[105.49946,22.69531],[105.49637,22.68965],[105.48684,22.67653],[105.48754,22.6722],[105.49304,22.66567],[105.49539,22.66001],[105.49481,22.65002],[105.49665,22.63416],[105.51808,22.6355],[105.53084,22.6331],[105.52939,22.62692],[105.52937,22.62038],[105.54466,22.60239],[105.54965,22.58423],[105.55673,22.57337],[105.56458,22.56402],[105.58004,22.55805],[105.58239,22.55626],[105.59492,22.53459],[105.59593,22.52027],[105.59581,22.49262],[105.59365,22.48796],[105.57281,22.47338],[105.56597,22.46474],[105.55803,22.45078],[105.55333,22.43881],[105.55185,22.42815],[105.55253,22.41716],[105.56144,22.40846],[105.56107,22.40414],[105.55891,22.40181],[105.55497,22.40182],[105.53793,22.40707],[105.52849,22.40591],[105.52168,22.4016],[105.51407,22.37831],[105.51589,22.36172],[105.51325,22.35033],[105.51002,22.34701],[105.49962,22.34171],[105.49854,22.33905],[105.49849,22.32539],[105.49632,22.3194],[105.48701,22.3171],[105.48199,22.31345],[105.48019,22.31079],[105.48018,22.30779],[105.48418,22.30053],[105.48872,22.29567],[105.48871,22.29313],[105.48148,22.28879],[105.46684,22.28538],[105.46257,22.28319],[105.46256,22.27919],[105.46434,22.27752],[105.46934,22.27551],[105.47005,22.27284],[105.46502,22.2662],[105.45071,22.26557],[105.43906,22.26129],[105.4367,22.25803],[105.43927,22.23787],[105.43907,22.23187],[105.43602,22.22805],[105.43277,22.22006],[105.4315,22.21274],[105.4356,22.20756],[105.45234,22.1902],[105.46091,22.18501],[105.46197,22.18334],[105.46139,22.17184],[105.46741,22.16401],[105.47052,22.16201],[105.47774,22.16308],[105.49098,22.15886],[105.49272,22.15649],[105.49251,22.15159],[105.48059,22.14345],[105.47472,22.13692],[105.47411,22.12839],[105.46766,22.12204],[105.46296,22.11443],[105.4641,22.10716],[105.46682,22.10406],[105.47227,22.10114],[105.47323,22.09714],[105.47131,22.09358],[105.4669,22.07797],[105.46653,22.07498],[105.4683,22.06897],[105.48798,22.04707],[105.49208,22.0246],[105.49561,22.01526],[105.50551,22.00466],[105.50627,21.99647],[105.50879,21.99226],[105.51167,21.98889],[105.52124,21.98465],[105.52611,21.98077],[105.5306,21.97403],[105.53529,21.96897],[105.55496,21.9583],[105.55642,21.95818],[105.55316,21.95305],[105.55102,21.94737],[105.55062,21.92509],[105.55354,21.9129],[105.5515,21.90896],[105.54651,21.90504],[105.5463,21.89784],[105.54537,21.89528],[105.54333,21.89254],[105.53876,21.89035],[105.5273,21.88866],[105.52196,21.8861],[105.51991,21.88165],[105.52026,21.87531],[105.5288,21.84531],[105.52767,21.8376],[105.52581,21.83298],[105.5223,21.83025],[105.51733,21.82975],[105.50999,21.83337],[105.50447,21.83339],[105.49599,21.83067],[105.49451,21.82708],[105.49541,21.82142],[105.49517,21.80515],[105.49678,21.79127],[105.4938,21.78254],[105.49379,21.77997],[105.49625,21.77299],[105.50214,21.77075],[105.51329,21.77296],[105.51905,21.77198],[105.52291,21.77023],[105.5239,21.76771],[105.52346,21.76427],[105.51812,21.75735],[105.5104,21.74981],[105.50951,21.74686],[105.51573,21.74015],[105.51664,21.73775],[105.51184,21.73246],[105.50521,21.73025],[105.5017,21.72666],[105.49965,21.71827],[105.49226,21.70887],[105.48969,21.7043],[105.48416,21.70205],[105.48061,21.69814],[105.48236,21.69421],[105.48658,21.68988],[105.48752,21.68543],[105.48591,21.68083],[105.48191,21.6788],[105.47942,21.67448],[105.48223,21.6703],[105.48362,21.66108],[105.48833,21.65186],[105.4903,21.64444],[105.49512,21.64046],[105.49657,21.63817],[105.50079,21.62315],[105.5039,21.61538],[105.51065,21.60451],[105.52088,21.59237],[105.53085,21.58326],[105.54277,21.57506],[105.52758,21.55255],[105.52591,21.5443],[105.52228,21.53758],[105.51702,21.53392],[105.51047,21.53425],[105.50554,21.53212],[105.48484,21.51964],[105.47776,21.5208],[105.46878,21.51908],[105.45829,21.51819],[105.45006,21.50995],[105.43301,21.50694],[105.42709,21.50236],[105.42382,21.50176],[105.41793,21.50759],[105.40909,21.5125],[105.40188,21.51344],[105.39368,21.51162],[105.3891,21.51408],[105.38355,21.52052],[105.37667,21.5242],[105.3711,21.52483],[105.36355,21.5227],[105.35797,21.51874],[105.34518,21.51754],[105.34157,21.51449],[105.33894,21.51052],[105.33925,21.50685],[105.33695,21.50441],[105.32606,21.50669],[105.3241,21.50793],[105.3198,21.51296],[105.31392,21.51249],[105.30612,21.50916],[105.30102,21.50941],[105.29516,21.51993],[105.29736,21.53176],[105.29679,21.53471],[105.29407,21.53769],[105.28975,21.54003],[105.28043,21.54217],[105.27065,21.54303],[105.26679,21.54643],[105.26748,21.55004],[105.27295,21.55448],[105.27409,21.55724],[105.27344,21.56203],[105.27242,21.56335],[105.26336,21.56814],[105.25902,21.57174],[105.24996,21.58275],[105.24856,21.58586],[105.24717,21.59399],[105.24488,21.5971],[105.25029,21.60217],[105.25154,21.60565],[105.2508,21.61075],[105.24856,21.61447],[105.24533,21.61679],[105.23463,21.61797],[105.2314,21.6196],[105.22643,21.62587],[105.22473,21.6303],[105.231,21.63453],[105.23579,21.6428],[105.23717,21.65192],[105.23483,21.65887],[105.22392,21.66119],[105.20417,21.66314],[105.20023,21.66474],[105.19611,21.66891],[105.19315,21.67367],[105.18792,21.67759],[105.18153,21.68077],[105.17758,21.68494],[105.1726,21.68767],[105.16745,21.68831],[105.16402,21.68752],[105.15886,21.68272],[105.15645,21.68256],[105.14935,21.69874],[105.14711,21.69967],[105.14312,21.69967],[105.1344,21.69806],[105.13191,21.69876],[105.1247,21.70317],[105.11897,21.70503],[105.11175,21.7062],[105.10677,21.71038],[105.1007,21.71714],[105.09333,21.71967],[105.08673,21.71725],[105.08459,21.72236],[105.08291,21.72376],[105.07906,21.72252],[105.07735,21.72257],[105.07609,21.72361],[105.0747,21.72868],[105.07693,21.73206],[105.0761,21.73531],[105.0641,21.74246],[105.05835,21.74474],[105.05866,21.74662],[105.06025,21.74887],[105.06779,21.75067],[105.07075,21.75366],[105.0789,21.76538],[105.08039,21.76906],[105.07866,21.77343],[105.07619,21.77642],[105.07546,21.78101],[105.08114,21.79113],[105.08781,21.80561],[105.09102,21.80859],[105.09818,21.80951],[105.1009,21.81135],[105.10115,21.81249],[105.09918,21.81663],[105.09309,21.82242],[105.09029,21.82698],[105.08783,21.82928],[105.07968,21.83044],[105.07672,21.83182],[105.07203,21.83803],[105.06759,21.84148],[105.06388,21.84562],[105.05969,21.85573],[105.05609,21.85865],[105.04912,21.86171],[105.04522,21.86477],[105.04338,21.86744],[105.04256,21.87202],[105.04256,21.88119],[105.04174,21.88577],[105.03846,21.88959],[105.03518,21.89169],[105.01918,21.89475],[105.01405,21.89838],[105.01487,21.90563],[105.01754,21.91155],[105.02103,21.91652],[105.02205,21.91976],[105.02164,21.92606],[105.01836,21.93446],[105.01549,21.93599],[105.01077,21.93637],[105.00358,21.93427],[104.99767,21.93002],[104.99405,21.93017],[104.99027,21.93256],[104.98695,21.93707],[104.98695,21.94031],[104.99299,21.95609],[104.99269,21.97017],[104.99389,21.97595],[104.99827,21.98398],[104.99857,21.98947],[104.99752,21.99257],[104.99057,21.99398],[104.99025,21.99903],[104.99038,22.00377],[104.99151,22.00819],[104.99549,22.01459],[104.99291,22.02211],[104.99413,22.03353],[104.99564,22.03825],[104.99817,22.04031],[104.9984,22.04263],[104.99591,22.04474],[104.99332,22.04547],[104.9748,22.04073],[104.97209,22.03852],[104.96577,22.02936],[104.96419,22.02873],[104.95493,22.03546],[104.9468,22.03662],[104.9415,22.04283],[104.94104,22.04578],[104.94194,22.05052],[104.94081,22.05315],[104.93697,22.05684],[104.92997,22.06115],[104.925,22.06168],[104.91891,22.05978],[104.91563,22.06093],[104.9119,22.06399],[104.90953,22.06451],[104.90558,22.06377],[104.9031,22.06482],[104.89519,22.07124],[104.89191,22.07208],[104.8831,22.07197],[104.87938,22.07481],[104.87474,22.07944],[104.87259,22.08355],[104.87214,22.08745],[104.86987,22.09176],[104.86501,22.09681],[104.865,22.10861],[104.86182,22.12851],[104.86147,22.13967],[104.86248,22.14294],[104.86158,22.14789],[104.85705,22.15178],[104.85411,22.15715],[104.85624,22.16758],[104.85081,22.1761],[104.84767,22.18552]]]}},{"type":"Feature","properties":{"kind":"buffer","province_code":"08","buffer_m":5000,"source":"derived","simplify_tolerance_deg":0.0005},"geometry":{"type":"Polygon","coordinates":[[[104.36094,22.62857],[104.3497,22.62955],[104.3419,22.63166],[104.32674,22.63853],[104.31533,22.64614],[104.30107,22.65777],[104.29625,22.66383],[104.29258,22.67056],[104.28816,22.68413],[104.28828,22.69924],[104.29078,22.70993],[104.29711,22.72748],[104.30076,22.73535],[104.30594,22.74244],[104.31248,22.74849],[104.32012,22.75329],[104.3286,22.75666],[104.33761,22.75848],[104.34683,22.75868],[104.35592,22.75726],[104.36456,22.75427],[104.36996,22.75122],[104.37604,22.75756],[104.39368,22.77322],[104.41011,22.78241],[104.43422,22.79161],[104.44242,22.7965],[104.45551,22.80704],[104.46176,22.81576],[104.46877,22.82191],[104.47818,22.82715],[104.48109,22.83406],[104.48727,22.8434],[104.50324,22.85888],[104.50613,22.86405],[104.51271,22.87161],[104.52088,22.87768],[104.53025,22.88199],[104.54384,22.88628],[104.55535,22.89384],[104.56421,22.89708],[104.57357,22.89865],[104.58308,22.8985],[104.58838,22.89743],[104.59608,22.89717],[104.60624,22.89515],[104.61581,22.89108],[104.62022,22.8918],[104.63015,22.89152],[104.6398,22.88936],[104.64878,22.88543],[104.65511,22.881],[104.66924,22.87739],[104.68204,22.87152],[104.68857,22.88091],[104.69482,22.88652],[104.71063,22.89729],[104.72145,22.9013],[104.72446,22.90654],[104.72969,22.92103],[104.73457,22.92833],[104.74575,22.93872],[104.75241,22.94336],[104.75982,22.94688],[104.76777,22.94917],[104.77447,22.9501],[104.78816,22.95925],[104.79529,22.96248],[104.78329,22.98371],[104.78095,22.99273],[104.78064,23.002],[104.78153,23.00751],[104.77545,23.01905],[104.77232,23.02869],[104.77176,23.03618],[104.76907,23.04082],[104.76628,23.04933],[104.76533,23.05948],[104.76014,23.0697],[104.7584,23.07641],[104.75523,23.0945],[104.75361,23.11037],[104.75369,23.11936],[104.75539,23.12825],[104.75895,23.13665],[104.76424,23.14423],[104.77103,23.15068],[104.78019,23.15663],[104.79034,23.16047],[104.80324,23.16247],[104.82618,23.16294],[104.8333,23.16763],[104.83401,23.17331],[104.83688,23.18234],[104.84241,23.19226],[104.85597,23.20703],[104.86207,23.21229],[104.872,23.21887],[104.87931,23.2219],[104.88739,23.22389],[104.90315,23.22548],[104.91291,23.22557],[104.92196,23.22394],[104.92949,23.23177],[104.93749,23.23747],[104.95439,23.24504],[104.97018,23.24954],[104.98278,23.25736],[104.9913,23.2603],[104.99911,23.26183],[105.00688,23.26851],[105.01438,23.27704],[105.02979,23.29028],[105.04815,23.30138],[105.0595,23.30725],[105.07268,23.31099],[105.08143,23.31196],[105.09023,23.31144],[105.09878,23.30945],[105.11208,23.30502],[105.1182,23.30167],[105.12503,23.3045],[105.12867,23.31175],[105.1342,23.3188],[105.14109,23.32474],[105.14908,23.32933],[105.15786,23.33241],[105.17146,23.33453],[105.18284,23.33358],[105.19732,23.32996],[105.20153,23.32791],[105.20128,23.33675],[105.20301,23.34577],[105.20834,23.35727],[105.21659,23.36788],[105.22395,23.3745],[105.23267,23.38032],[105.24412,23.38554],[105.25034,23.38704],[105.25858,23.39477],[105.27008,23.40943],[105.2944,23.42925],[105.30345,23.43381],[105.3135,23.43671],[105.32429,23.43755],[105.33276,23.43684],[105.34097,23.43477],[105.3508,23.43053],[105.35825,23.42538],[105.3645,23.41902],[105.36971,23.41128],[105.38432,23.39965],[105.39092,23.3911],[105.39449,23.38496],[105.39776,23.37573],[105.39933,23.36695],[105.39941,23.3609],[105.40329,23.3561],[105.40812,23.3544],[105.41661,23.34932],[105.41915,23.34698],[105.42848,23.34798],[105.43977,23.34747],[105.45397,23.34369],[105.468,23.33762],[105.47538,23.33214],[105.48148,23.32545],[105.48697,23.31761],[105.49093,23.30977],[105.49264,23.30408],[105.49843,23.29877],[105.51111,23.28069],[105.51813,23.27448],[105.5281,23.26346],[105.53345,23.25632],[105.53776,23.2469],[105.53984,23.23787],[105.54915,23.23758],[105.5596,23.23528],[105.56741,23.23234],[105.57789,23.22654],[105.58577,23.2208],[105.59222,23.21368],[105.59693,23.20659],[105.6009,23.19837],[105.60793,23.19297],[105.61519,23.18436],[105.62001,23.17572],[105.62274,23.16632],[105.62323,23.1566],[105.62148,23.147],[105.61911,23.13927],[105.61387,23.12804],[105.61245,23.11118],[105.60925,23.1021],[105.60406,23.09384],[105.59638,23.08547],[105.58923,23.08034],[105.56642,23.0684],[105.56104,23.05445],[105.54042,23.01617],[105.53385,22.99259],[105.5296,22.98526],[105.52261,22.97746],[105.51425,22.97106],[105.50457,22.96654],[105.46696,22.95956],[105.43587,22.95616],[105.42196,22.9519],[105.41141,22.95006],[105.4114,22.94215],[105.41028,22.93261],[105.40702,22.9235],[105.40177,22.91524],[105.39477,22.9082],[105.38108,22.89821],[105.36635,22.89171],[105.36185,22.89098],[105.3535,22.88331],[105.35321,22.8778],[105.37274,22.85992],[105.39464,22.85415],[105.40251,22.8512],[105.4097,22.84703],[105.4183,22.84101],[105.42682,22.8334],[105.45392,22.81676],[105.47062,22.80753],[105.47831,22.80171],[105.48509,22.79534],[105.49609,22.78999],[105.50627,22.78226],[105.51708,22.76789],[105.52206,22.75799],[105.52434,22.74726],[105.52484,22.74093],[105.53735,22.72991],[105.54201,22.72326],[105.54535,22.71596],[105.5478,22.70473],[105.54819,22.69594],[105.5464,22.68356],[105.54358,22.67672],[105.55205,22.67379],[105.55995,22.66932],[105.5668,22.66353],[105.57235,22.65664],[105.57639,22.6489],[105.57878,22.64058],[105.57922,22.63483],[105.5877,22.62341],[105.59295,22.61055],[105.59545,22.60118],[105.60424,22.59727],[105.61096,22.59295],[105.62271,22.58152],[105.63807,22.55542],[105.64174,22.54675],[105.64343,22.53756],[105.64455,22.52009],[105.64443,22.49244],[105.64339,22.48335],[105.64042,22.47464],[105.63422,22.46306],[105.62897,22.4569],[105.62265,22.45168],[105.60775,22.44127],[105.60256,22.43237],[105.60608,22.42638],[105.60907,22.41753],[105.61005,22.4083],[105.60916,22.39758],[105.60699,22.38929],[105.60317,22.38154],[105.59571,22.37226],[105.58806,22.36562],[105.57906,22.36066],[105.56913,22.3576],[105.56421,22.35713],[105.56207,22.34467],[105.56,22.33793],[105.55575,22.32838],[105.5461,22.31671],[105.54239,22.30497],[105.53733,22.29539],[105.53634,22.28405],[105.53347,22.27547],[105.52883,22.26759],[105.52261,22.26072],[105.51458,22.25484],[105.50477,22.24017],[105.49859,22.2335],[105.49114,22.22806],[105.4871,22.22615],[105.48665,22.22359],[105.49786,22.21439],[105.50269,22.20812],[105.50614,22.20183],[105.5161,22.19757],[105.52434,22.19175],[105.53106,22.18444],[105.53773,22.17358],[105.5406,22.1643],[105.54108,22.14977],[105.53973,22.14084],[105.5365,22.13233],[105.53151,22.12459],[105.52497,22.11793],[105.52052,22.1149],[105.51929,22.11215],[105.52067,22.107],[105.52184,22.09675],[105.52048,22.08651],[105.51911,22.08303],[105.53012,22.06962],[105.53358,22.06274],[105.53576,22.05542],[105.53902,22.03793],[105.54454,22.03161],[105.55089,22.0203],[105.56302,22.01019],[105.56828,22.00331],[105.58098,21.9972],[105.58871,21.99198],[105.5952,21.98545],[105.60018,21.97786],[105.60348,21.96951],[105.60495,21.96073],[105.60455,21.95185],[105.60229,21.94321],[105.59925,21.93713],[105.5992,21.93176],[105.60205,21.91574],[105.60187,21.90803],[105.60027,21.90046],[105.59732,21.89325],[105.59302,21.88591],[105.59143,21.88083],[105.58534,21.86954],[105.5754,21.85856],[105.57736,21.84733],[105.57696,21.83918],[105.57583,21.83148],[105.5732,21.82176],[105.56776,21.81013],[105.56293,21.80379],[105.55918,21.80031],[105.56456,21.79355],[105.56858,21.78573],[105.57218,21.77296],[105.57218,21.76242],[105.57011,21.75153],[105.56491,21.74095],[105.56511,21.73429],[105.56329,21.72506],[105.55947,21.71637],[105.5538,21.70861],[105.54246,21.6974],[105.536,21.68755],[105.53562,21.67889],[105.53287,21.66891],[105.53843,21.66117],[105.54363,21.64951],[105.54753,21.6356],[105.54926,21.63224],[105.55937,21.62029],[105.57507,21.60886],[105.58143,21.60248],[105.58636,21.59508],[105.58968,21.58694],[105.59125,21.57836],[105.59104,21.56966],[105.58903,21.56116],[105.58531,21.55318],[105.57313,21.53441],[105.56935,21.52398],[105.56571,21.51727],[105.55954,21.50853],[105.55138,21.50135],[105.53895,21.49356],[105.53111,21.49065],[105.52373,21.4892],[105.50764,21.4797],[105.49797,21.4761],[105.48769,21.4745],[105.4803,21.47484],[105.47674,21.47215],[105.46799,21.46792],[105.4536,21.46461],[105.44428,21.46007],[105.43325,21.4574],[105.42461,21.45655],[105.41595,21.45714],[105.40754,21.45915],[105.39965,21.46252],[105.39344,21.46656],[105.38668,21.46688],[105.37776,21.4689],[105.37074,21.47188],[105.36829,21.46959],[105.35946,21.46432],[105.34825,21.46042],[105.33726,21.45919],[105.32626,21.46029],[105.30994,21.46423],[105.30439,21.46385],[105.28993,21.46538],[105.28069,21.46833],[105.27228,21.47293],[105.26502,21.47901],[105.25578,21.4917],[105.25056,21.50199],[105.24137,21.50694],[105.23305,21.51344],[105.22715,21.52026],[105.22223,21.52837],[105.2192,21.53724],[105.21818,21.54688],[105.21104,21.55566],[105.20513,21.56528],[105.19756,21.58744],[105.18729,21.59905],[105.18066,21.61065],[105.17653,21.62554],[105.17198,21.62794],[105.16109,21.63753],[105.1511,21.63762],[105.1425,21.63924],[105.13436,21.64228],[105.12693,21.64663],[105.12047,21.65215],[105.11774,21.65551],[105.11115,21.65787],[105.10437,21.66149],[105.09466,21.66387],[105.08647,21.66757],[105.07915,21.67265],[105.07121,21.67439],[105.06295,21.67781],[105.05176,21.68412],[105.04375,21.68985],[105.03628,21.69766],[105.03057,21.70772],[105.02412,21.71264],[105.01825,21.71919],[105.0138,21.72665],[105.01094,21.73475],[105.00976,21.74322],[105.01064,21.75361],[105.01556,21.76758],[105.02352,21.77851],[105.02689,21.78144],[105.0279,21.79041],[105.03103,21.79938],[105.03531,21.80772],[105.02651,21.8167],[105.02061,21.82545],[105.00869,21.83493],[105.00247,21.84301],[104.99802,21.85118],[104.99699,21.85469],[104.9855,21.86118],[104.9779,21.86814],[104.97176,21.87607],[104.9676,21.88504],[104.96588,21.8933],[104.95593,21.90056],[104.94685,21.91151],[104.94219,21.91944],[104.93931,21.92807],[104.93834,21.9403],[104.93896,21.94752],[104.94441,21.96423],[104.94498,21.97886],[104.94253,21.98838],[104.93455,21.99288],[104.92492,21.99624],[104.91612,22.00155],[104.90875,22.00848],[104.90138,22.0176],[104.88545,22.02261],[104.87562,22.02755],[104.8704,22.02832],[104.86086,22.03177],[104.84857,22.03983],[104.83916,22.04863],[104.83466,22.05386],[104.83104,22.05965],[104.82645,22.06966],[104.82299,22.07408],[104.81892,22.08244],[104.81641,22.09403],[104.81625,22.10554],[104.81326,22.12667],[104.79652,22.12609],[104.78164,22.12192],[104.77276,22.12145],[104.75784,22.12375],[104.74902,22.1264],[104.73162,22.13446],[104.72312,22.14137],[104.71701,22.14839],[104.70691,22.15559],[104.70407,22.1589],[104.69583,22.16429],[104.68744,22.17311],[104.68266,22.18002],[104.67576,22.19411],[104.67336,22.20409],[104.6729,22.21761],[104.66684,22.21895],[104.65928,22.22194],[104.6453,22.23083],[104.63979,22.23276],[104.63041,22.23398],[104.62458,22.2247],[104.61755,22.21788],[104.60915,22.21256],[104.6023,22.20996],[104.59566,22.20613],[104.57962,22.20038],[104.56313,22.19662],[104.55244,22.19649],[104.53671,22.19893],[104.52435,22.20436],[104.51614,22.20987],[104.50933,22.21685],[104.50423,22.22498],[104.49967,22.23658],[104.49834,22.25048],[104.49914,22.25916],[104.49689,22.26676],[104.4965,22.27742],[104.49828,22.28875],[104.50115,22.29615],[104.50536,22.30298],[104.51077,22.30902],[104.51998,22.31697],[104.5182,22.32265],[104.51158,22.32871],[104.50634,22.33502],[104.50237,22.34208],[104.49902,22.35384],[104.4907,22.36018],[104.47982,22.36285],[104.47023,22.36761],[104.46232,22.37339],[104.45591,22.37986],[104.44302,22.38563],[104.43278,22.39279],[104.42621,22.40014],[104.42161,22.40833],[104.41437,22.41697],[104.40738,22.42783],[104.40247,22.43997],[104.40041,22.45341],[104.40202,22.46918],[104.40507,22.47776],[104.39898,22.48525],[104.39271,22.48829],[104.38634,22.49273],[104.37883,22.49968],[104.37272,22.50831],[104.36911,22.51544],[104.36689,22.52304],[104.36612,22.53089],[104.36677,22.54006],[104.36878,22.54743],[104.37357,22.55844],[104.37498,22.57222],[104.37825,22.58531],[104.38382,22.59551],[104.36642,22.61637],[104.36094,22.62857]]]}}]}