{"type":"FeatureCollection","features":[{"type":"Feature","geometry":{"type":"MultiPolygon","coordinates":[[[[105.182499,23.25183],[105.182639,23.251265],[105.182999,23.250819],[105.183248,23.250957],[105.18328,23.25134],[105.18324,23.251566],[105.183189,23.251606],[105.183065,23.251615],[105.182578,23.251979],[105.182545,23.251933],[105.182499,23.25183]]]]},"properties":{"group":"edu_health","tag":"amenity=school","name":"Trường PTDTNT Phó Bảng","levels":null,"lat":23.251384595830253,"lng":105.18291052760472,"osm_type":"way","osm_id":523736898}},{"type":"Feature","geometry":{"type":"MultiPolygon","coordinates":[[[[105.185328,23.254655],[105.185407,23.25446],[105.185856,23.254478],[105.185821,23.25487],[105.185408,23.254839],[105.185341,23.25476],[105.185328,23.254655]]]]},"properties":{"group":"edu_health","tag":"amenity=school","name":"Trường Tiểu học Phó Bảng","levels":null,"lat":23.25465982158877,"lng":105.18560032306812,"osm_type":"way","osm_id":680876537}},{"type":"Feature","geometry":{"type":"MultiPolygon","coordinates":[[[[105.207021,21.820189],[105.208527,21.819251],[105.209203,21.818412],[105.211366,21.819101],[105.212303,21.818973],[105.213391,21.820123],[105.210903,21.821564],[105.208694,21.822456],[105.208511,21.822177],[105.208369,21.82203],[105.208203,21.821965],[105.208043,21.821874],[105.207406,21.820917],[105.207243,21.820605],[105.207021,21.820189]]]]},"properties":{"group":"public","tag":"leisure=park","name":null,"levels":null,"lat":21.82033996492559,"lng":105.20996876120923,"osm_type":"way","osm_id":741067123}},{"type":"Feature","geometry":{"type":"MultiPolygon","coordinates":[[[[105.475529,21.540327],[105.475544,21.540207],[105.47559,21.540043],[105.475619,21.539858],[105.475635,21.539809],[105.475764,21.539665],[105.475922,21.539565],[105.475957,21.539306],[105.476979,21.539527],[105.476764,21.540251],[105.476666,21.540249],[105.476542,21.540278],[105.476444,21.540327],[105.476165,21.540411],[105.476051,21.540417],[105.475529,21.540327]]]]},"properties":{"group":"edu_health","tag":"amenity=school","name":"Trường Trung học cơ sở Sơn Nam","levels":null,"lat":21.539895413240806,"lng":105.4762405149939,"osm_type":"way","osm_id":772902303}},{"type":"Feature","geometry":{"type":"MultiPolygon","coordinates":[[[[105.475274,21.544698],[105.475439,21.544114],[105.475673,21.544056],[105.475925,21.544037],[105.476334,21.544038],[105.47652,21.544692],[105.47628,21.544768],[105.475568,21.544744],[105.475274,21.544698]]]]},"properties":{"group":"edu_health","tag":"amenity=school","name":"Trường Tiểu học Sơn Nam","levels":null,"lat":21.544418059859474,"lng":105.47590681654681,"osm_type":"way","osm_id":772902338}},{"type":"Feature","geometry":{"type":"MultiPolygon","coordinates":[[[[105.211025,21.794281],[105.211338,21.793547],[105.211414,21.793539],[105.211532,21.793307],[105.211853,21.793429],[105.212052,21.793489],[105.212111,21.793584],[105.211757,21.794396],[105.211094,21.794408],[105.211025,21.794281]]]]},"properties":{"group":"edu_health","tag":"amenity=school","name":null,"levels":null,"lat":21.793909425973368,"lng":105.21157031002868,"osm_type":"way","osm_id":804150347}},{"type":"Feature","geometry":{"type":"MultiPolygon","coordinates":[[[[105.217086,21.787729],[105.217373,21.787009],[105.217636,21.787031],[105.217583,21.787208],[105.218044,21.787315],[105.219114,21.787669],[105.21912,21.787873],[105.219527,21.788005],[105.219103,21.789118],[105.21785,21.788723],[105.217624,21.788631],[105.21754,21.788426],[105.21803,21.788017],[105.217086,21.787729]]]]},"properties":{"group":"edu_health","tag":"amenity=school","name":"Trường Trung học phổ thông Nguyễn Văn Huyên","levels":null,"lat":21.788093041605343,"lng":105.21835673062472,"osm_type":"way","osm_id":804161434}},{"type":"Feature","geometry":{"type":"MultiPolygon","coordinates":[[[[104.987807,22.828267],[104.987816,22.827636],[104.988368,22.827645],[104.98837,22.828278],[104.987807,22.828267]]]]},"properties":{"group":"edu_health","tag":"amenity=school","name":"Trường Trung học cơ sở Yên Biên","levels":null,"lat":22.827957496816627,"lng":104.98809057956879,"osm_type":"way","osm_id":853096722}},{"type":"Feature","geometry":{"type":"MultiPolygon","coordinates":[[[[104.984049,22.827861],[104.984082,22.827058],[104.984331,22.827074],[104.984382,22.827086],[104.984352,22.827709],[104.984358,22.827982],[104.984358,22.828058],[104.984355,22.828111],[104.984181,22.828091],[104.984147,22.828077],[104.9841,22.828047],[104.984079,22.828016],[104.984051,22.827954],[104.984049,22.827861]]]]},"properties":{"group":"public","tag":"leisure=park","name":null,"levels":null,"lat":22.827575393926754,"lng":104.98421483449678,"osm_type":"way","osm_id":853096746}},{"type":"Feature","geometry":{"type":"MultiPolygon","coordinates":[[[[104.985862,22.82326],[104.986426,22.823215],[104.986442,22.822984],[104.987049,22.822985],[104.98697,22.82318],[104.986907,22.8234],[104.986804,22.823807],[104.986017,22.823829],[104.985862,22.82326]]]]},"properties":{"group":"edu_health","tag":"amenity=college","name":"Trường Chính trị tỉnh Hà Giang","levels":null,"lat":22.82342783607037,"lng":104.98647011267752,"osm_type":"way","osm_id":853226182}},{"type":"Feature","geometry":{"type":"MultiPolygon","coordinates":[[[[104.988715,22.822598],[104.988922,22.822558],[104.989301,22.822484],[104.98942,22.823243],[104.989174,22.823293],[104.989168,22.823396],[104.988856,22.823427],[104.988846,22.823283],[104.988818,22.823304],[104.988715,22.822598]]]]},"properties":{"group":"edu_health","tag":"amenity=school","name":"Trường Trung học cơ sở Minh Khai","levels":null,"lat":22.822946449163272,"lng":104.98906418916457,"osm_type":"way","osm_id":853226189}},{"type":"Feature","geometry":{"type":"MultiPolygon","coordinates":[[[[104.986683,22.824631],[104.986746,22.824353],[104.986907,22.823923],[104.987106,22.823975],[104.987181,22.823678],[104.987736,22.82374],[104.987634,22.825189],[104.987623,22.825204],[104.987597,22.825204],[104.98755,22.8252],[104.987476,22.825185],[104.987358,22.825154],[104.987209,22.825108],[104.986804,22.824844],[104.986773,22.82482],[104.986741,22.824772],[104.986709,22.824723],[104.986683,22.824631]]]]},"properties":{"group":"edu_health","tag":"amenity=school","name":"Truờng Trung học phổ thông Lê Hồng Phong","levels":null,"lat":22.824432963459277,"lng":104.98726877096819,"osm_type":"way","osm_id":853226197}},{"type":"Feature","geometry":{"type":"MultiPolygon","coordinates":[[[[104.98595,22.821689],[104.985983,22.82105],[104.986536,22.821086],[104.986573,22.821126],[104.986579,22.821237],[104.986584,22.82133],[104.986559,22.821688],[104.985994,22.821808],[104.98595,22.821689]]]]},"properties":{"group":"edu_health","tag":"amenity=college","name":"Trường Trung cấp Y tế Hà Giang","levels":null,"lat":22.82141144496619,"lng":104.98625758155006,"osm_type":"way","osm_id":853226220}},{"type":"Feature","geometry":{"type":"MultiPolygon","coordinates":[[[[104.983812,22.819631],[104.984657,22.819248],[104.984863,22.819475],[104.985293,22.820071],[104.985461,22.82022],[104.98555,22.820358],[104.98573,22.820674],[104.985754,22.820833],[104.985789,22.820998],[104.985022,22.82133],[104.984931,22.821164],[104.984566,22.820672],[104.983812,22.819631]]]]},"properties":{"group":"edu_health","tag":"amenity=hospital","name":"Bệnh viện Đa khoa Hà Giang","levels":null,"lat":22.820277121827527,"lng":104.98486058050345,"osm_type":"way","osm_id":853226223}},{"type":"Feature","geometry":{"type":"MultiPolygon","coordinates":[[[[104.979369,22.83799],[104.97997,22.83753],[104.980289,22.838173],[104.97972,22.838565],[104.979369,22.83799]]]]},"properties":{"group":"edu_health","tag":"amenity=school","name":"Trường Tiểu học Quang Trung","levels":null,"lat":22.838058583557235,"lng":104.97983711942403,"osm_type":"way","osm_id":853226242}},{"type":"Feature","geometry":{"type":"MultiPolygon","coordinates":[[[[104.979903,22.813994],[104.979983,22.813777],[104.98008,22.813658],[104.980192,22.813505],[104.980262,22.813496],[104.980403,22.813489],[104.980435,22.813468],[104.980475,22.813421],[104.980508,22.813395],[104.980563,22.813376],[104.980624,22.813386],[104.980671,22.813433],[104.980714,22.813688],[104.980738,22.813915],[104.980862,22.814129],[104.980998,22.814587],[104.980438,22.814593],[104.980427,22.814284],[104.980333,22.814067],[104.98029,22.814024],[104.980218,22.814009],[104.979903,22.813994]]]]},"properties":{"group":"edu_health","tag":"amenity=school","name":"Trường Tiểu học Nguyễn Trãi","levels":null,"lat":22.813995747477943,"lng":104.98050141617937,"osm_type":"way","osm_id":853226272}},{"type":"Feature","geometry":{"type":"MultiPolygon","coordinates":[[[[104.975206,22.818244],[104.975348,22.818051],[104.975893,22.817595],[104.976274,22.817886],[104.977177,22.818545],[104.976903,22.818783],[104.97642,22.819087],[104.975913,22.818949],[104.975588,22.818647],[104.975206,22.818244]]]]},"properties":{"group":"edu_health","tag":"amenity=school","name":"Trường Trung học phổ thông chuyên Hà Giang","levels":null,"lat":22.818395198233745,"lng":104.97614047671532,"osm_type":"way","osm_id":853226288}},{"type":"Feature","geometry":{"type":"MultiPolygon","coordinates":[[[[104.997755,22.843956],[104.998295,22.843932],[104.998504,22.844814],[104.998068,22.84486],[104.997997,22.844615],[104.997859,22.844259],[104.997755,22.843956]]]]},"properties":{"group":"edu_health","tag":"amenity=school","name":"Trường Trung học cơ sở Quang Trung","levels":null,"lat":22.8443738072622,"lng":104.99815141560457,"osm_type":"way","osm_id":853226340}},{"type":"Feature","geometry":{"type":"MultiPolygon","coordinates":[[[[104.998257,22.843768],[104.998753,22.843739],[104.998852,22.844134],[104.99891,22.844257],[104.998937,22.84432],[104.998982,22.844547],[104.998743,22.844596],[104.998787,22.84479],[104.998504,22.844814],[104.998295,22.843932],[104.998257,22.843768]]]]},"properties":{"group":"edu_health","tag":"amenity=school","name":"Trường Tiểu học Nguyễn Huệ","levels":null,"lat":22.844239724383026,"lng":104.99861505600133,"osm_type":"way","osm_id":853226344}},{"type":"Feature","geometry":{"type":"MultiPolygon","coordinates":[[[[105.012954,22.837659],[105.013912,22.837591],[105.013923,22.837712],[105.013898,22.837809],[105.013871,22.83788],[105.013858,22.837945],[105.013876,22.838044],[105.013882,22.838076],[105.013995,22.838496],[105.013869,22.838531],[105.013638,22.838595],[105.013314,22.837947],[105.013086,22.838032],[105.01302,22.83792],[105.012988,22.837805],[105.012954,22.837659]]]]},"properties":{"group":"edu_health","tag":"amenity=school","name":"Trường Trung học cơ sở Ngọc Hà","levels":null,"lat":22.837999930211833,"lng":105.01356118355591,"osm_type":"way","osm_id":853226348}},{"type":"Feature","geometry":{"type":"MultiPolygon","coordinates":[[[[105.016098,22.841482],[105.016479,22.841376],[105.016567,22.841355],[105.016757,22.841764],[105.01678,22.841898],[105.016496,22.842036],[105.016365,22.842058],[105.016098,22.841482]]]]},"properties":{"group":"edu_health","tag":"amenity=school","name":"Trường Tiểu học Ngọc Đường","levels":null,"lat":22.841700033814593,"lng":105.01645674320879,"osm_type":"way","osm_id":853226379}},{"type":"Feature","geometry":{"type":"MultiPolygon","coordinates":[[[[105.015497,22.841672],[105.016098,22.841482],[105.016365,22.842058],[105.016496,22.842036],[105.016669,22.842345],[105.016141,22.842804],[105.015859,22.84235],[105.015679,22.842023],[105.015497,22.841672]]]]},"properties":{"group":"edu_health","tag":"amenity=school","name":"Trường Trung học phổ thông Ngọc Hà","levels":null,"lat":22.842105226092446,"lng":105.01608443226584,"osm_type":"way","osm_id":853226380}},{"type":"Feature","geometry":{"type":"MultiPolygon","coordinates":[[[[105.008236,22.842065],[105.008582,22.840839],[105.009569,22.841128],[105.009151,22.842331],[105.008236,22.842065]]]]},"properties":{"group":"edu_health","tag":"amenity=hospital","name":"Bệnh viện Y dược cổ truyền Hà Giang","levels":null,"lat":22.84158315510746,"lng":105.0088869063597,"osm_type":"way","osm_id":853226399}},{"type":"Feature","geometry":{"type":"MultiPolygon","coordinates":[[[[105.006467,22.844003],[105.006745,22.843249],[105.006829,22.843195],[105.007985,22.842982],[105.007956,22.843124],[105.007816,22.843351],[105.007065,22.844341],[105.006481,22.844119],[105.006467,22.844003]]]]},"properties":{"group":"edu_health","tag":"amenity=college","name":"Trường Cao đẳng Nghề Hà Giang","levels":null,"lat":22.84361787886292,"lng":105.00714337091199,"osm_type":"way","osm_id":853226405}},{"type":"Feature","geometry":{"type":"MultiPolygon","coordinates":[[[[104.972859,22.698789],[104.972893,22.697721],[104.97374,22.69777],[104.973634,22.698839],[104.973601,22.698848],[104.972859,22.698789]]]]},"properties":{"group":"edu_health","tag":"amenity=school","name":"Trường Tiểu học Kim Đồng","levels":null,"lat":22.69827458101724,"lng":104.97328289966437,"osm_type":"way","osm_id":853327996}},{"type":"Feature","geometry":{"type":"MultiPolygon","coordinates":[[[[104.986003,22.661646],[104.986792,22.660532],[104.987037,22.660699],[104.987649,22.661215],[104.98822,22.661616],[104.988385,22.661727],[104.988004,22.66224],[104.987141,22.661831],[104.986827,22.662262],[104.986247,22.661861],[104.986172,22.661777],[104.986003,22.661646]]]]},"properties":{"group":"edu_health","tag":"amenity=hospital","name":"Bệnh viện Đa khoa khu vực Vị Xuyên","levels":null,"lat":22.661510313085255,"lng":104.98711687171802,"osm_type":"way","osm_id":853328059}},{"type":"Feature","geometry":{"type":"MultiPolygon","coordinates":[[[[104.988692,22.661165],[104.989211,22.660335],[104.989349,22.660424],[104.988814,22.661231],[104.988692,22.661165]]]]},"properties":{"group":"public","tag":"leisure=park","name":null,"levels":null,"lat":22.660776946966244,"lng":104.9890243342125,"osm_type":"way","osm_id":853328060}},{"type":"Feature","geometry":{"type":"MultiPolygon","coordinates":[[[[104.973374,22.679434],[104.973595,22.679045],[104.974049,22.679176],[104.973872,22.679579],[104.973374,22.679434]]]]},"properties":{"group":"edu_health","tag":"amenity=school","name":"Trường Trung học cơ sở Lý Tự Trọng","levels":null,"lat":22.679311715719,"lng":104.97372101272572,"osm_type":"way","osm_id":853328065}},{"type":"Feature","geometry":{"type":"MultiPolygon","coordinates":[[[[104.979853,22.666588],[104.979996,22.666378],[104.979924,22.666347],[104.980237,22.665893],[104.980902,22.666364],[104.980599,22.666764],[104.980682,22.666811],[104.980514,22.667035],[104.980141,22.666732],[104.980041,22.666826],[104.979853,22.666588]]]]},"properties":{"group":"edu_health","tag":"amenity=school","name":"Trường Trung học phổ thông Vị Xuyên","levels":null,"lat":22.666460499551754,"lng":104.98035703069965,"osm_type":"way","osm_id":853328071}},{"type":"Feature","geometry":{"type":"MultiPolygon","coordinates":[[[[104.982271,22.664433],[104.982802,22.663664],[104.983516,22.664059],[104.982929,22.664639],[104.982734,22.664841],[104.982271,22.664433]]]]},"properties":{"group":"edu_health","tag":"amenity=school","name":"Trường Trung học cơ sở thị trấn Vị Xuyên","levels":null,"lat":22.66423667150474,"lng":104.98285144676733,"osm_type":"way","osm_id":853328080}},{"type":"Feature","geometry":{"type":"MultiPolygon","coordinates":[[[[104.981181,22.664678],[104.981369,22.664332],[104.981714,22.664488],[104.981717,22.664562],[104.981968,22.66473],[104.982189,22.66455],[104.982703,22.664992],[104.982248,22.665379],[104.981861,22.665666],[104.981849,22.665633],[104.981723,22.665371],[104.98161,22.665105],[104.981525,22.664978],[104.98146,22.664882],[104.981181,22.664678]]]]},"properties":{"group":"edu_health","tag":"amenity=school","name":"Trường Tiểu học số 1 Thị trấn Vị Xuyên","levels":null,"lat":22.664957900023705,"lng":104.98192822005548,"osm_type":"way","osm_id":853328086}},{"type":"Feature","geometry":{"type":"MultiPolygon","coordinates":[[[[105.372746,23.274406],[105.373443,23.273613],[105.374071,23.27413],[105.374084,23.274241],[105.373923,23.27431],[105.3738,23.274389],[105.37369,23.27447],[105.373604,23.274564],[105.373561,23.274665],[105.373542,23.274739],[105.373513,23.27483],[105.373478,23.274894],[105.373376,23.274983],[105.372746,23.274406]]]]},"properties":{"group":"edu_health","tag":"amenity=school","name":"Trường PTDTNT Trung học cơ sở và Trung học phổ thông Đồng Văn","levels":null,"lat":23.274279751091417,"lng":105.37340406343152,"osm_type":"way","osm_id":853584027}},{"type":"Feature","geometry":{"type":"MultiPolygon","coordinates":[[[[105.368406,23.275147],[105.368772,23.275153],[105.368879,23.275207],[105.368977,23.275274],[105.369032,23.275309],[105.369117,23.275362],[105.369177,23.275389],[105.369308,23.275388],[105.369424,23.275374],[105.369494,23.27536],[105.369864,23.275238],[105.370026,23.275766],[105.369889,23.275799],[105.369946,23.275959],[105.368693,23.276138],[105.368693,23.275924],[105.368677,23.275821],[105.368653,23.275806],[105.368427,23.275816],[105.368443,23.275516],[105.368406,23.275147]]]]},"properties":{"group":"edu_health","tag":"amenity=hospital","name":"Bệnh viện Đa khoa khu vực Đồng Văn","levels":null,"lat":23.275643305914308,"lng":105.36916769036374,"osm_type":"way","osm_id":853584033}},{"type":"Feature","geometry":{"type":"MultiPolygon","coordinates":[[[[105.361704,23.275684],[105.361821,23.275631],[105.362021,23.275582],[105.362313,23.275556],[105.36247,23.275562],[105.362814,23.275599],[105.363361,23.275691],[105.363551,23.275731],[105.363453,23.276017],[105.363226,23.276001],[105.362443,23.275866],[105.362018,23.275978],[105.361704,23.275684]]]]},"properties":{"group":"public","tag":"leisure=park","name":"Công viên Đồng Văn","levels":null,"lat":23.275772464769997,"lng":105.3626469708195,"osm_type":"way","osm_id":853584050}},{"type":"Feature","geometry":{"type":"MultiPolygon","coordinates":[[[[105.36403,23.279478],[105.364089,23.279193],[105.364092,23.279125],[105.364328,23.279091],[105.364613,23.279051],[105.364672,23.279152],[105.364679,23.27921],[105.364543,23.279982],[105.364565,23.280317],[105.364604,23.280561],[105.364515,23.280521],[105.364282,23.280381],[105.364185,23.280355],[105.364122,23.280334],[105.364086,23.280145],[105.364218,23.280105],[105.364175,23.279579],[105.36407,23.279531],[105.36403,23.279478]]]]},"properties":{"group":"edu_health","tag":"amenity=school","name":"Trường Trung học phổ thông Đồng Văn","levels":null,"lat":23.279708556192645,"lng":105.3643727947599,"osm_type":"way","osm_id":853584077}},{"type":"Feature","geometry":{"type":"MultiPolygon","coordinates":[[[[105.364543,23.279982],[105.364679,23.27921],[105.364804,23.279217],[105.364911,23.27931],[105.364966,23.279356],[105.364932,23.279616],[105.364932,23.279691],[105.365011,23.27972],[105.365197,23.279759],[105.365044,23.280464],[105.365037,23.280543],[105.364604,23.280561],[105.364565,23.280317],[105.364564,23.280311],[105.364543,23.279982]]]]},"properties":{"group":"edu_health","tag":"amenity=school","name":"Trường Tiểu học Đồng Văn A","levels":null,"lat":23.27995953514306,"lng":105.3648257799183,"osm_type":"way","osm_id":853584083}},{"type":"Feature","geometry":{"type":"MultiPolygon","coordinates":[[[[105.365611,23.280543],[105.365673,23.280317],[105.365732,23.279875],[105.365745,23.279751],[105.366434,23.279797],[105.366392,23.279999],[105.366064,23.280566],[105.365611,23.280543]]]]},"properties":{"group":"edu_health","tag":"amenity=school","name":"Trường Trung học cơ sở Đồng Văn","levels":null,"lat":23.280135159200313,"lng":105.36599284349134,"osm_type":"way","osm_id":853584088}},{"type":"Feature","geometry":{"type":"MultiPolygon","coordinates":[[[[105.314827,23.360688],[105.315053,23.360198],[105.315574,23.36035],[105.315522,23.360579],[105.315486,23.36073],[105.315325,23.36092],[105.315145,23.360804],[105.314958,23.360726],[105.314827,23.360688]]]]},"properties":{"group":"edu_health","tag":"amenity=school","name":"Trường PTDTBT Tiểu học Lũng Cú","levels":null,"lat":23.360543293817674,"lng":105.31522181660554,"osm_type":"way","osm_id":853689914}},{"type":"Feature","geometry":{"type":"MultiPolygon","coordinates":[[[[105.262738,23.309629],[105.262774,23.309521],[105.262834,23.309353],[105.262884,23.309342],[105.263051,23.309439],[105.263089,23.309477],[105.263071,23.309502],[105.263018,23.309523],[105.262956,23.309552],[105.262921,23.309608],[105.262905,23.309685],[105.262819,23.309685],[105.262742,23.309667],[105.262738,23.309629]]]]},"properties":{"group":"edu_health","tag":"amenity=school","name":"Điểm trường Gì Thàng","levels":null,"lat":23.309516039515646,"lng":105.26288679119126,"osm_type":"way","osm_id":854497434}},{"type":"Feature","geometry":{"type":"MultiPolygon","coordinates":[[[[105.300343,23.308298],[105.300385,23.308244],[105.300602,23.308093],[105.300617,23.308085],[105.300786,23.30822],[105.300801,23.308268],[105.300809,23.308331],[105.300909,23.30848],[105.301153,23.308784],[105.30107,23.309037],[105.300854,23.309067],[105.300781,23.308871],[105.300695,23.308769],[105.300443,23.308503],[105.300381,23.30843],[105.300346,23.308364],[105.300343,23.308298]]]]},"properties":{"group":"edu_health","tag":"amenity=school","name":"Trường PTDTBT Tiểu học Ma Lé","levels":null,"lat":23.308572811864618,"lng":105.30075576431645,"osm_type":"way","osm_id":854497455}},{"type":"Feature","geometry":{"type":"MultiPolygon","coordinates":[[[[105.301894,23.308412],[105.301904,23.308316],[105.302155,23.308339],[105.302144,23.308435],[105.301894,23.308412]]]]},"properties":{"group":"public","tag":"amenity=community_centre","name":"Trung tâm Học tập Cộng đồng xã Má Lé","levels":null,"lat":23.308375299999998,"lng":105.3020244,"osm_type":"way","osm_id":854497462}},{"type":"Feature","geometry":{"type":"MultiPolygon","coordinates":[[[[105.351898,23.277083],[105.351914,23.276957],[105.352279,23.27696],[105.35229,23.276774],[105.35243,23.276763],[105.352663,23.276745],[105.353069,23.276633],[105.353192,23.276534],[105.353235,23.276563],[105.353357,23.276647],[105.353548,23.276703],[105.35366,23.276784],[105.353517,23.277017],[105.353541,23.277183],[105.353485,23.277346],[105.353459,23.277378],[105.353369,23.277309],[105.353282,23.27725],[105.35279,23.277271],[105.352541,23.277219],[105.35217,23.277214],[105.351898,23.277083]]]]},"properties":{"group":"edu_health","tag":"amenity=school","name":"Trung tâm Giáo dục thường xuyên huyện Đồng Văn","levels":null,"lat":23.276975134868202,"lng":105.3528903899765,"osm_type":"way","osm_id":854540028}},{"type":"Feature","geometry":{"type":"MultiPolygon","coordinates":[[[[105.272876,23.278739],[105.272989,23.278573],[105.273048,23.2785],[105.273107,23.278461],[105.273241,23.278585],[105.273596,23.278962],[105.273871,23.279248],[105.273897,23.279312],[105.273892,23.279341],[105.273851,23.279417],[105.273787,23.279449],[105.2737,23.279514],[105.273465,23.279284],[105.273174,23.279003],[105.273057,23.278959],[105.272917,23.278814],[105.272876,23.278739]]]]},"properties":{"group":"edu_health","tag":"amenity=school","name":"Trường PTDTBT Tiểu học & Trung học cơ sở Lũng Táo","levels":null,"lat":23.27898357375744,"lng":105.2733817329298,"osm_type":"way","osm_id":854829823}},{"type":"Feature","geometry":{"type":"MultiPolygon","coordinates":[[[[105.321427,23.273002],[105.321433,23.272948],[105.321493,23.27236],[105.321726,23.27242],[105.322159,23.272631],[105.322206,23.272672],[105.322434,23.272991],[105.322562,23.273199],[105.322268,23.273399],[105.322102,23.273198],[105.321994,23.273114],[105.321962,23.273125],[105.321924,23.27308],[105.321868,23.273014],[105.321564,23.273009],[105.321427,23.273002]]]]},"properties":{"group":"edu_health","tag":"amenity=school","name":"Trường PTDTBT Tiểu Học Thài Phìn Tủng","levels":null,"lat":23.27285850386089,"lng":105.32194685290195,"osm_type":"way","osm_id":854906091}},{"type":"Feature","geometry":{"type":"MultiPolygon","coordinates":[[[[105.213728,23.231555],[105.213811,23.231273],[105.214113,23.23134],[105.214403,23.231301],[105.214824,23.231245],[105.214864,23.231426],[105.214892,23.231497],[105.214955,23.23156],[105.215071,23.231662],[105.215077,23.231815],[105.214532,23.231746],[105.213728,23.231555]]]]},"properties":{"group":"edu_health","tag":"amenity=school","name":"Trường PTDTBT Tiểu Học - Trung học cơ sở Sủng Là","levels":null,"lat":23.231517655360243,"lng":105.21443831106605,"osm_type":"way","osm_id":855231790}},{"type":"Feature","geometry":{"type":"MultiPolygon","coordinates":[[[[105.262615,23.255344],[105.26263,23.255305],[105.262798,23.255244],[105.263141,23.255153],[105.263371,23.255111],[105.263529,23.25554],[105.263173,23.255625],[105.262846,23.255698],[105.262758,23.255711],[105.262626,23.255689],[105.262615,23.255344]]]]},"properties":{"group":"edu_health","tag":"amenity=school","name":"Trường PTDTBT Tiểu Học - Trung học cơ sở Sà Phìn","levels":null,"lat":23.25542360560965,"lng":105.26304427147302,"osm_type":"way","osm_id":855231850}},{"type":"Feature","geometry":{"type":"MultiPolygon","coordinates":[[[[104.941338,22.844077],[104.941751,22.843682],[104.941831,22.843718],[104.942151,22.844022],[104.942054,22.844158],[104.941995,22.844241],[104.941725,22.844442],[104.941338,22.844077]]]]},"properties":{"group":"edu_health","tag":"amenity=school","name":"Trường Trung học cơ sở Phương Độ","levels":null,"lat":22.84406009579363,"lng":104.94175447805246,"osm_type":"way","osm_id":855396996}},{"type":"Feature","geometry":{"type":"MultiPolygon","coordinates":[[[[104.942073,22.841576],[104.942151,22.8414],[104.942262,22.841341],[104.942303,22.841226],[104.942384,22.841214],[104.943103,22.841513],[104.942931,22.841807],[104.942935,22.841913],[104.942932,22.842002],[104.94246,22.841814],[104.942149,22.841682],[104.942073,22.841576]]]]},"properties":{"group":"edu_health","tag":"amenity=school","name":"Trường Tiểu học Phương Độ","levels":null,"lat":22.841585694191956,"lng":104.94258415382832,"osm_type":"way","osm_id":855397002}},{"type":"Feature","geometry":{"type":"MultiPolygon","coordinates":[[[[104.955128,22.826553],[104.955225,22.826327],[104.955167,22.826315],[104.955249,22.826145],[104.955399,22.825666],[104.955601,22.825676],[104.955662,22.825592],[104.956242,22.825762],[104.956432,22.825876],[104.956719,22.825995],[104.956596,22.826722],[104.956706,22.826751],[104.956526,22.827426],[104.955788,22.827369],[104.955574,22.827273],[104.955619,22.827065],[104.95517,22.826877],[104.955201,22.826573],[104.955128,22.826553]]]]},"properties":{"group":"edu_health","tag":"amenity=college","name":"Trường Kinh tế Kỹ thuật Hà Giang","levels":null,"lat":22.826515959955774,"lng":104.95595666498231,"osm_type":"way","osm_id":855397014}},{"type":"Feature","geometry":{"type":"MultiPolygon","coordinates":[[[[104.985377,22.815829],[104.985928,22.814138],[104.986239,22.814239],[104.986344,22.81437],[104.986408,22.8146],[104.986424,22.814778],[104.98647,22.814909],[104.986548,22.815053],[104.98658,22.815189],[104.986567,22.815315],[104.986462,22.815567],[104.986406,22.815844],[104.986304,22.815938],[104.986202,22.815965],[104.985873,22.816004],[104.98569,22.815987],[104.985377,22.815829]]]]},"properties":{"group":"edu_health","tag":"amenity=hospital","name":"Bệnh viện Phổi Hà Giang","levels":null,"lat":22.815198643314705,"lng":104.98602564125024,"osm_type":"way","osm_id":860687885}},{"type":"Feature","geometry":{"type":"MultiPolygon","coordinates":[[[[104.978324,22.803601],[104.978339,22.803462],[104.978355,22.80334],[104.978812,22.803612],[104.978765,22.804129],[104.978737,22.804166],[104.978694,22.8042],[104.978672,22.804209],[104.978639,22.804185],[104.97859,22.804135],[104.978456,22.803916],[104.978351,22.803689],[104.978324,22.803601]]]]},"properties":{"group":"public","tag":"leisure=park","name":null,"levels":null,"lat":22.803761380556587,"lng":104.97858049985133,"osm_type":"way","osm_id":860687904}},{"type":"Feature","geometry":{"type":"MultiPolygon","coordinates":[[[[105.176258,23.201318],[105.176502,23.201208],[105.176699,23.20112],[105.177014,23.201688],[105.176569,23.201893],[105.176258,23.201318]]]]},"properties":{"group":"edu_health","tag":"amenity=school","name":"Trường Trung học cơ sở Phố Cáo","levels":null,"lat":23.201505460232898,"lng":105.17663510429114,"osm_type":"way","osm_id":862564498}},{"type":"Feature","geometry":{"type":"MultiPolygon","coordinates":[[[[105.137034,23.120598],[105.137544,23.120366],[105.13784,23.12108],[105.13776,23.121218],[105.137162,23.121319],[105.137034,23.120598]]]]},"properties":{"group":"edu_health","tag":"amenity=school","name":"Trường Tiểu học Thị trấn Yên Minh","levels":null,"lat":23.120880048634348,"lng":105.1374168146786,"osm_type":"way","osm_id":863296982}},{"type":"Feature","geometry":{"type":"MultiPolygon","coordinates":[[[[105.135821,23.121785],[105.135831,23.121567],[105.136263,23.121526],[105.136216,23.120848],[105.136215,23.120783],[105.136451,23.120739],[105.13654,23.121513],[105.136575,23.121645],[105.13653,23.121846],[105.136419,23.122046],[105.13625,23.12217],[105.135821,23.121785]]]]},"properties":{"group":"edu_health","tag":"amenity=school","name":"Trường Trung học cơ sở Thị trấn Yên Minh","levels":null,"lat":23.121547589837917,"lng":105.13627197841362,"osm_type":"way","osm_id":863296987}},{"type":"Feature","geometry":{"type":"MultiPolygon","coordinates":[[[[105.135801,23.120934],[105.136216,23.120848],[105.136263,23.121526],[105.135831,23.121567],[105.135801,23.120934]]]]},"properties":{"group":"edu_health","tag":"amenity=school","name":"Trường Trung học phổ thông Yên Minh","levels":null,"lat":23.121220312954662,"lng":105.1360306722761,"osm_type":"way","osm_id":863296990}},{"type":"Feature","geometry":{"type":"MultiPolygon","coordinates":[[[[105.163579,23.122233],[105.163842,23.121609],[105.164502,23.121926],[105.164411,23.122154],[105.164416,23.122277],[105.164279,23.122509],[105.163579,23.122233]]]]},"properties":{"group":"edu_health","tag":"amenity=school","name":"Trường Trung học cơ sở Hữu Vinh","levels":null,"lat":23.122073049293537,"lng":105.16405023689052,"osm_type":"way","osm_id":863796584}},{"type":"Feature","geometry":{"type":"MultiPolygon","coordinates":[[[[105.162911,23.120416],[105.162957,23.120192],[105.162941,23.119919],[105.163212,23.119761],[105.163557,23.119786],[105.163767,23.11983],[105.164333,23.120275],[105.164244,23.120519],[105.164276,23.120632],[105.164089,23.12099],[105.163187,23.120736],[105.163152,23.120573],[105.162933,23.120444],[105.162911,23.120416]]]]},"properties":{"group":"edu_health","tag":"amenity=school","name":"Trường PTDTNT Trung học cơ sở và Trung học phổ thông Yên Minh","levels":null,"lat":23.1203444509626,"lng":105.16361267286644,"osm_type":"way","osm_id":863796590}},{"type":"Feature","geometry":{"type":"MultiPolygon","coordinates":[[[[105.152874,23.11886],[105.153011,23.118782],[105.153483,23.118597],[105.154068,23.118365],[105.154462,23.118851],[105.154248,23.11914],[105.154057,23.119426],[105.154004,23.119685],[105.153724,23.119535],[105.153306,23.119263],[105.153169,23.119161],[105.152874,23.11886]]]]},"properties":{"group":"edu_health","tag":"amenity=hospital","name":"Bệnh viện Đa khoa khu vực Yên Minh","levels":null,"lat":23.118970904130634,"lng":105.15374591009288,"osm_type":"way","osm_id":863796599}},{"type":"Feature","geometry":{"type":"MultiPolygon","coordinates":[[[[105.211151,21.825219],[105.211266,21.824718],[105.212596,21.824292],[105.212762,21.824732],[105.21177,21.825064],[105.211678,21.825375],[105.211151,21.825219]]]]},"properties":{"group":"edu_health","tag":"amenity=school","name":"Trường Trung học cơ sở Lê Quý Đôn","levels":null,"lat":21.824805445617542,"lng":105.21190327126537,"osm_type":"way","osm_id":920933925}},{"type":"Feature","geometry":{"type":"MultiPolygon","coordinates":[[[[105.210302,21.825788],[105.21044,21.825122],[105.210728,21.825173],[105.210542,21.825833],[105.210302,21.825788]]]]},"properties":{"group":"edu_health","tag":"amenity=school","name":"Trường Tiểu học Hồng Thái","levels":null,"lat":21.825468826031504,"lng":105.21050561274743,"osm_type":"way","osm_id":920933928}},{"type":"Feature","geometry":{"type":"MultiPolygon","coordinates":[[[[105.316384,23.24265],[105.316494,23.242487],[105.316564,23.242492],[105.316718,23.24222],[105.316835,23.242295],[105.316853,23.242278],[105.316904,23.242225],[105.317001,23.242125],[105.31706,23.242103],[105.31713,23.242103],[105.317213,23.242113],[105.31728,23.242127],[105.317216,23.242285],[105.317353,23.242328],[105.317186,23.242564],[105.316814,23.242936],[105.316384,23.24265]]]]},"properties":{"group":"edu_health","tag":"amenity=school","name":"Trường Tiểu học Tả Phìn","levels":null,"lat":23.242500697628877,"lng":105.31688346345075,"osm_type":"way","osm_id":926419849}},{"type":"Feature","geometry":{"type":"MultiPolygon","coordinates":[[[[105.316874,23.241784],[105.316962,23.24141],[105.317031,23.241422],[105.31707,23.241344],[105.317231,23.241381],[105.317106,23.241819],[105.316874,23.241784]]]]},"properties":{"group":"edu_health","tag":"amenity=school","name":"Trường Trung học cơ sở Tả Phìn","levels":null,"lat":23.241586467646577,"lng":105.3170507814304,"osm_type":"way","osm_id":926419858}},{"type":"Feature","geometry":{"type":"MultiPolygon","coordinates":[[[[104.589405,22.408514],[104.58954,22.408002],[104.589604,22.407445],[104.59107,22.407618],[104.590902,22.408687],[104.589405,22.408514]]]]},"properties":{"group":"edu_health","tag":"amenity=hospital","name":"Bệnh viện Đa khoa khu vực Quang Bình","levels":null,"lat":22.408069016889016,"lng":104.59025435754577,"osm_type":"way","osm_id":1058092336}},{"type":"Feature","geometry":{"type":"MultiPolygon","coordinates":[[[[104.939029,22.62507],[104.93905,22.624897],[104.939418,22.624607],[104.939729,22.624483],[104.939939,22.624483],[104.940121,22.624468],[104.940161,22.624238],[104.941137,22.624194],[104.941179,22.624407],[104.941329,22.624621],[104.941323,22.624759],[104.941171,22.624974],[104.94119,22.62528],[104.941326,22.625488],[104.940868,22.625598],[104.939206,22.625791],[104.939108,22.625551],[104.939058,22.625305],[104.939029,22.62507]]]]},"properties":{"group":"edu_health","tag":"amenity=hospital","name":"Bệnh viện Phục hồi chức năng Hà Giang","levels":null,"lat":22.625020153102575,"lng":104.94021069884617,"osm_type":"way","osm_id":1058092337}},{"type":"Feature","geometry":{"type":"MultiPolygon","coordinates":[[[[104.461592,22.677113],[104.462298,22.676755],[104.462404,22.676858],[104.462495,22.676855],[104.462526,22.677011],[104.462344,22.677065],[104.462365,22.677379],[104.462432,22.677443],[104.462529,22.677533],[104.462551,22.677625],[104.462511,22.677736],[104.462413,22.6778],[104.462292,22.677821],[104.462293,22.678092],[104.462271,22.678162],[104.462185,22.678534],[104.462018,22.678565],[104.461867,22.678114],[104.461825,22.67786],[104.461706,22.677357],[104.461592,22.677113]]]]},"properties":{"group":"edu_health","tag":"amenity=hospital","name":"Bệnh viện Đa khoa khu vực Xín Mần","levels":null,"lat":22.677559084924923,"lng":104.46209275545452,"osm_type":"way","osm_id":1058092338}},{"type":"Feature","geometry":{"type":"MultiPolygon","coordinates":[[[[104.983298,22.818956],[104.983569,22.818833],[104.983504,22.818674],[104.983797,22.818546],[104.984118,22.819087],[104.984206,22.819253],[104.983637,22.819511],[104.983298,22.818956]]]]},"properties":{"group":"edu_health","tag":"amenity=hospital","name":"Bệnh viện Mắt Hà Giang","levels":null,"lat":22.819051125594665,"lng":104.98374851072678,"osm_type":"way","osm_id":1058092339}},{"type":"Feature","geometry":{"type":"MultiPolygon","coordinates":[[[[105.303693,22.739461],[105.303737,22.739286],[105.304206,22.739313],[105.304575,22.739379],[105.304906,22.739421],[105.304562,22.739998],[105.304021,22.739591],[105.303693,22.739461]]]]},"properties":{"group":"edu_health","tag":"amenity=hospital","name":"Bệnh viện Đa khoa khu vực Bắc Mê","levels":null,"lat":22.739555409970826,"lng":105.30433609665928,"osm_type":"way","osm_id":1058092340}},{"type":"Feature","geometry":{"type":"MultiPolygon","coordinates":[[[[104.679514,22.739072],[104.679616,22.738879],[104.679828,22.738517],[104.680153,22.738488],[104.680342,22.738544],[104.680576,22.73929],[104.680591,22.739362],[104.680263,22.739673],[104.680008,22.739684],[104.679774,22.739516],[104.679612,22.739335],[104.679514,22.739072]]]]},"properties":{"group":"edu_health","tag":"amenity=hospital","name":"Bệnh viện Đa khoa khu vực Hoàng Su Phì","levels":null,"lat":22.739091874182684,"lng":104.6800615699886,"osm_type":"way","osm_id":1058092341}},{"type":"Feature","geometry":{"type":"MultiPolygon","coordinates":[[[[104.512034,22.511342],[104.512214,22.511334],[104.512242,22.511407],[104.512319,22.511435],[104.512916,22.511397],[104.513181,22.51143],[104.513294,22.511467],[104.513396,22.511584],[104.512557,22.512256],[104.512263,22.511999],[104.512034,22.511342]]]]},"properties":{"group":"edu_health","tag":"amenity=hospital","name":"Bệnh viện Đa khoa khu vực Nà Chì","levels":null,"lat":22.511716334920973,"lng":104.51266072556321,"osm_type":"way","osm_id":1058092342}},{"type":"Feature","geometry":{"type":"MultiPolygon","coordinates":[[[[104.988568,23.070998],[104.989364,23.070581],[104.989476,23.07076],[104.989588,23.070702],[104.989625,23.070763],[104.989695,23.070757],[104.989724,23.071596],[104.988675,23.071639],[104.988622,23.071369],[104.98861,23.071099],[104.988568,23.070998]]]]},"properties":{"group":"edu_health","tag":"amenity=hospital","name":"Bệnh viện Đa khoa khu vực Quản Bạ","levels":null,"lat":23.07118078006327,"lng":104.98918710135698,"osm_type":"way","osm_id":1058092343}},{"type":"Feature","geometry":{"type":"MultiPolygon","coordinates":[[[[105.39382,21.698233],[105.393836,21.698163],[105.39389,21.698103],[105.394501,21.697715],[105.394882,21.698393],[105.394217,21.698791],[105.393858,21.698308],[105.39382,21.698233]]]]},"properties":{"group":"public","tag":"leisure=park","name":"Vườn hoa Võ Nguyên Giáp","levels":null,"lat":21.69826357524921,"lng":105.39434316586373,"osm_type":"way","osm_id":1060469886}},{"type":"Feature","geometry":{"type":"MultiPolygon","coordinates":[[[[105.171444,21.835991],[105.171699,21.834873],[105.17419,21.835363],[105.173928,21.836364],[105.176169,21.836853],[105.176381,21.836714],[105.176619,21.836705],[105.176798,21.83684],[105.176879,21.837031],[105.176875,21.837179],[105.179153,21.83946],[105.177964,21.840525],[105.176984,21.839512],[105.177931,21.838738],[105.176635,21.837429],[105.176521,21.837486],[105.176314,21.837452],[105.176175,21.837337],[105.176084,21.837165],[105.173896,21.836701],[105.173801,21.83705],[105.172747,21.836783],[105.172876,21.836324],[105.17175,21.836071],[105.171444,21.835991]]]]},"properties":{"group":"edu_health","tag":"amenity=university","name":"Trường Đại học Tân Trào","levels":null,"lat":21.837248155338827,"lng":105.17520045162979,"osm_type":"way","osm_id":1079234553}},{"type":"Feature","geometry":{"type":"MultiPolygon","coordinates":[[[[104.980336,22.812268],[104.980576,22.812094],[104.982293,22.811812],[104.982476,22.812318],[104.98243,22.812406],[104.982421,22.812543],[104.980885,22.812905],[104.980336,22.812268]]]]},"properties":{"group":"edu_health","tag":"amenity=university","name":"Phân hiệu Đại học Thái Nguyên tại Hà Giang","levels":null,"lat":22.812340744228987,"lng":104.98146366784685,"osm_type":"way","osm_id":1080000080}},{"type":"Feature","geometry":{"type":"MultiPolygon","coordinates":[[[[104.801534,22.414449],[104.802366,22.413884],[104.802972,22.414067],[104.803176,22.41437],[104.803288,22.414682],[104.803213,22.415044],[104.802961,22.415361],[104.802403,22.415629],[104.8022,22.415237],[104.801631,22.415282],[104.801534,22.414449]]]]},"properties":{"group":"edu_health","tag":"amenity=school","name":"Trường Trung cấp Dân tộc nội trú - Giáo dục thường xuyên Bắc Quang","levels":null,"lat":22.414722115733646,"lng":104.80242867376171,"osm_type":"way","osm_id":1112470768}},{"type":"Feature","geometry":{"type":"MultiPolygon","coordinates":[[[[105.217269,21.823697],[105.217504,21.823433],[105.217785,21.823249],[105.218335,21.823035],[105.218599,21.823594],[105.218186,21.823786],[105.218248,21.823968],[105.21756,21.824258],[105.217269,21.823697]]]]},"properties":{"group":"edu_health","tag":"amenity=school","name":"Trường Trung học phổ thông chuyên Tuyên Quang (cũ)","levels":null,"lat":21.82363790841302,"lng":105.21791711485777,"osm_type":"way","osm_id":1177884116}},{"type":"Feature","geometry":{"type":"MultiPolygon","coordinates":[[[[105.153283,21.852487],[105.154503,21.851576],[105.155369,21.852575],[105.154149,21.853486],[105.153283,21.852487]]]]},"properties":{"group":"edu_health","tag":"amenity=school","name":"Trường Trung học cơ sở Dân Tộc Nội Trú Huyện Yên Sơn","levels":null,"lat":21.85253101539907,"lng":105.15432618665444,"osm_type":"way","osm_id":1180919584}},{"type":"Feature","geometry":{"type":"MultiPolygon","coordinates":[[[[105.15496,21.857274],[105.155093,21.857229],[105.155165,21.85753],[105.15543,21.857412],[105.155653,21.85783],[105.155238,21.858008],[105.155066,21.85773],[105.15496,21.857274]]]]},"properties":{"group":"edu_health","tag":"amenity=school","name":"Trường Mầm Non Thắng Quân","levels":null,"lat":21.857660472511625,"lng":105.15528542224618,"osm_type":"way","osm_id":1180919585}},{"type":"Feature","geometry":{"type":"MultiPolygon","coordinates":[[[[105.374988,22.341206],[105.375474,22.341045],[105.37582,22.341382],[105.376228,22.342014],[105.376064,22.342102],[105.375404,22.342483],[105.375366,22.342493],[105.3753,22.342116],[105.374988,22.341206]]]]},"properties":{"group":"edu_health","tag":"amenity=school","name":"Trường Trung học phổ thông Na Hang","levels":null,"lat":22.34173738360757,"lng":105.37556100451754,"osm_type":"way","osm_id":1181067826}},{"type":"Feature","geometry":{"type":"MultiPolygon","coordinates":[[[[105.375404,22.342483],[105.376064,22.342102],[105.376359,22.342561],[105.376159,22.342648],[105.37601,22.34268],[105.37556,22.342948],[105.375404,22.342483]]]]},"properties":{"group":"edu_health","tag":"amenity=school","name":"Trường Trung học cơ sở Thị trấn Na Hang","levels":null,"lat":22.34251679717949,"lng":105.37585344995011,"osm_type":"way","osm_id":1181067827}},{"type":"Feature","geometry":{"type":"MultiPolygon","coordinates":[[[[105.376363,22.342934],[105.376689,22.342813],[105.376923,22.342906],[105.376975,22.34309],[105.377009,22.343291],[105.377037,22.343559],[105.37697,22.34371],[105.376614,22.343599],[105.376625,22.343503],[105.376363,22.342934]]]]},"properties":{"group":"edu_health","tag":"amenity=school","name":"Trường Tiểu học Thị trấn Na Hang","levels":null,"lat":22.34323380971604,"lng":105.37674841853025,"osm_type":"way","osm_id":1181067828}},{"type":"Feature","geometry":{"type":"MultiPolygon","coordinates":[[[[105.382099,22.348707],[105.382108,22.348676],[105.382132,22.34866],[105.382179,22.348649],[105.38221,22.348667],[105.38272,22.348939],[105.382761,22.34897],[105.382771,22.349018],[105.382769,22.349069],[105.382733,22.349116],[105.38269,22.349165],[105.38264,22.34922],[105.382604,22.349256],[105.382554,22.349281],[105.382512,22.349281],[105.382484,22.349266],[105.382461,22.349237],[105.382136,22.348789],[105.382108,22.348735],[105.382099,22.348707]]]]},"properties":{"group":"public","tag":"leisure=park","name":"Vườn hoa Lạc Long Quân","levels":null,"lat":22.348968905636497,"lng":105.382453711303,"osm_type":"way","osm_id":1183371525}},{"type":"Feature","geometry":{"type":"MultiPolygon","coordinates":[[[[105.377804,22.344804],[105.37782,22.344746],[105.378105,22.344701],[105.378135,22.344694],[105.378226,22.345058],[105.378215,22.345074],[105.378197,22.345088],[105.378177,22.345094],[105.378146,22.345081],[105.377982,22.34491],[105.377849,22.344821],[105.377804,22.344804]]]]},"properties":{"group":"public","tag":"leisure=park","name":"Vườn hoa Âu Cơ","levels":null,"lat":22.344862120367623,"lng":105.37805148637996,"osm_type":"way","osm_id":1183371526}},{"type":"Feature","geometry":{"type":"MultiPolygon","coordinates":[[[[105.380848,22.352229],[105.380849,22.352192],[105.380856,22.35215],[105.38089,22.352122],[105.380955,22.352081],[105.381179,22.351965],[105.381232,22.351951],[105.381277,22.351965],[105.381313,22.351986],[105.38135,22.352032],[105.381385,22.352111],[105.381473,22.352411],[105.381488,22.352471],[105.381487,22.352533],[105.381468,22.352597],[105.381446,22.352616],[105.381406,22.352638],[105.381373,22.352643],[105.381316,22.352624],[105.381218,22.352572],[105.381053,22.352455],[105.380941,22.352357],[105.380848,22.352229]]]]},"properties":{"group":"public","tag":"leisure=park","name":"Vườn hoa 19/5","levels":null,"lat":22.352288075797137,"lng":105.38120073003942,"osm_type":"way","osm_id":1183371527}},{"type":"Feature","geometry":{"type":"MultiPolygon","coordinates":[[[[104.786838,22.210332],[104.786852,22.210143],[104.786932,22.209768],[104.78693,22.20943],[104.786932,22.209108],[104.787318,22.208996],[104.787815,22.210734],[104.787362,22.210849],[104.787378,22.210923],[104.786924,22.211032],[104.786838,22.210332]]]]},"properties":{"group":"edu_health","tag":"amenity=school","name":"Trường Trung học phổ thông Đồng Yên","levels":null,"lat":22.210103241764134,"lng":104.78724374993509,"osm_type":"way","osm_id":1213776476}},{"type":"Feature","geometry":{"type":"MultiPolygon","coordinates":[[[[104.874485,22.339269],[104.875426,22.338745],[104.875775,22.339301],[104.875786,22.339395],[104.875627,22.339862],[104.875434,22.33979],[104.875263,22.339911],[104.875048,22.339941],[104.874766,22.3395],[104.874485,22.339269]]]]},"properties":{"group":"edu_health","tag":"amenity=school","name":"Trường Trung học phổ thông Hùng An","levels":null,"lat":22.339372266776753,"lng":104.87523003784472,"osm_type":"way","osm_id":1213776482}},{"type":"Feature","geometry":{"type":"MultiPolygon","coordinates":[[[[104.873491,22.340862],[104.873512,22.340604],[104.873619,22.340341],[104.873745,22.34014],[104.873869,22.340272],[104.874126,22.340262],[104.874123,22.34013],[104.874724,22.340081],[104.874805,22.340363],[104.874899,22.340793],[104.874059,22.340999],[104.873523,22.341065],[104.873491,22.340862]]]]},"properties":{"group":"edu_health","tag":"amenity=school","name":"Trường Trung học cơ sở Hùng An","levels":null,"lat":22.34057689503764,"lng":104.87417287109442,"osm_type":"way","osm_id":1213776487}},{"type":"Feature","geometry":{"type":"MultiPolygon","coordinates":[[[[104.934236,22.432196],[104.934352,22.431705],[104.934564,22.431653],[104.934719,22.431489],[104.934921,22.431479],[104.935148,22.4317],[104.935114,22.432337],[104.934674,22.432317],[104.934236,22.432196]]]]},"properties":{"group":"edu_health","tag":"amenity=school","name":"Trường Trung học phổ thông Kim Ngọc","levels":null,"lat":22.431942242714864,"lng":104.93474046346297,"osm_type":"way","osm_id":1213776493}},{"type":"Feature","geometry":{"type":"MultiPolygon","coordinates":[[[[104.806187,22.411011],[104.806214,22.410882],[104.806351,22.410758],[104.806627,22.410763],[104.806917,22.410696],[104.807145,22.410629],[104.807349,22.4105],[104.80758,22.4105],[104.807429,22.411482],[104.807193,22.411388],[104.807145,22.411482],[104.806724,22.411735],[104.806592,22.411653],[104.806187,22.411011]]]]},"properties":{"group":"edu_health","tag":"amenity=school","name":"Trường Trung học phổ thông Việt Vinh","levels":null,"lat":22.411086016126884,"lng":104.80692172755342,"osm_type":"way","osm_id":1213776514}},{"type":"Feature","geometry":{"type":"MultiPolygon","coordinates":[[[[104.865124,22.479763],[104.865373,22.479562],[104.865505,22.47951],[104.865663,22.479694],[104.866167,22.479327],[104.866682,22.479842],[104.866151,22.480179],[104.86599,22.480435],[104.865556,22.480239],[104.865124,22.479763]]]]},"properties":{"group":"edu_health","tag":"amenity=school","name":"Trường Trung học phổ thông Tân Quang","levels":null,"lat":22.479868073702722,"lng":104.8659054986944,"osm_type":"way","osm_id":1213776516}},{"type":"Feature","geometry":{"type":"MultiPolygon","coordinates":[[[[104.586725,22.404833],[104.587524,22.403512],[104.588305,22.403953],[104.587481,22.405228],[104.586725,22.404833]]]]},"properties":{"group":"edu_health","tag":"amenity=school","name":"Trường Trung học phổ thông Quang Bình","levels":null,"lat":22.404375235726665,"lng":104.58751123953841,"osm_type":"way","osm_id":1213816622}},{"type":"Feature","geometry":{"type":"MultiPolygon","coordinates":[[[[104.587423,22.406404],[104.587709,22.405933],[104.587634,22.40588],[104.587701,22.405722],[104.587897,22.405675],[104.588777,22.406163],[104.588351,22.40685],[104.587423,22.406404]]]]},"properties":{"group":"edu_health","tag":"amenity=school","name":"Trường Phổ thông Dân tộc nội trú Trung học cơ sở & Trung học phổ thông Quang Bình","levels":null,"lat":22.40625369811643,"lng":104.58809065561506,"osm_type":"way","osm_id":1213816628}},{"type":"Feature","geometry":{"type":"MultiPolygon","coordinates":[[[[104.589988,22.404757],[104.590001,22.404715],[104.590345,22.404155],[104.591168,22.404611],[104.591187,22.404639],[104.591168,22.404705],[104.590862,22.405295],[104.590685,22.405196],[104.590629,22.405276],[104.590007,22.404799],[104.589988,22.404757]]]]},"properties":{"group":"edu_health","tag":"amenity=school","name":"Trường Trung học cơ sở Chu Văn An","levels":null,"lat":22.404737078338226,"lng":104.59058731726671,"osm_type":"way","osm_id":1213816634}},{"type":"Feature","geometry":{"type":"MultiPolygon","coordinates":[[[[104.666991,22.321393],[104.667857,22.320914],[104.66816,22.321306],[104.66771,22.321619],[104.667141,22.321775],[104.667098,22.321609],[104.666991,22.321393]]]]},"properties":{"group":"edu_health","tag":"amenity=school","name":"Trường Trung học phổ thông Xuân Giang","levels":null,"lat":22.321365247787192,"lng":104.66756921684464,"osm_type":"way","osm_id":1213816640}},{"type":"Feature","geometry":{"type":"MultiPolygon","coordinates":[[[[104.668101,22.321124],[104.668538,22.320841],[104.668678,22.320906],[104.668836,22.320871],[104.66922,22.320615],[104.669547,22.321094],[104.669386,22.321208],[104.669464,22.321367],[104.669118,22.321576],[104.668984,22.321399],[104.66852,22.32172],[104.668335,22.321375],[104.668101,22.321124]]]]},"properties":{"group":"edu_health","tag":"amenity=school","name":"Trường Tiểu học & Trung học cơ sở Xuân Giang","levels":null,"lat":22.321168115280255,"lng":104.66886503895387,"osm_type":"way","osm_id":1213816646}},{"type":"Feature","geometry":{"type":"MultiPolygon","coordinates":[[[[104.506309,22.514063],[104.507427,22.513649],[104.508607,22.513193],[104.508623,22.513267],[104.508535,22.513741],[104.508505,22.513812],[104.508409,22.513882],[104.506757,22.51494],[104.506309,22.514063]]]]},"properties":{"group":"edu_health","tag":"amenity=school","name":"Trường Trung học cơ sở & Trung học phổ thông Nà Chì","levels":null,"lat":22.514040167645426,"lng":104.5074444768965,"osm_type":"way","osm_id":1213816663}},{"type":"Feature","geometry":{"type":"MultiPolygon","coordinates":[[[[104.464037,22.680226],[104.464203,22.680156],[104.464439,22.680107],[104.464605,22.680092],[104.464745,22.679968],[104.464766,22.679657],[104.465034,22.679503],[104.465142,22.679647],[104.465222,22.679988],[104.465324,22.68033],[104.465276,22.680741],[104.464433,22.681013],[104.464208,22.681052],[104.464219,22.680854],[104.464074,22.680533],[104.464037,22.680226]]]]},"properties":{"group":"edu_health","tag":"amenity=school","name":"Trường Trung học phổ thông Xín Mần","levels":null,"lat":22.680376124185948,"lng":104.46473258429694,"osm_type":"way","osm_id":1213816679}},{"type":"Feature","geometry":{"type":"MultiPolygon","coordinates":[[[[104.463285,22.680463],[104.464037,22.680226],[104.464074,22.680533],[104.464219,22.680854],[104.464208,22.681052],[104.463693,22.681216],[104.463602,22.680944],[104.463285,22.680463]]]]},"properties":{"group":"edu_health","tag":"amenity=school","name":"Trung tâm Giáo dục nghề nghiệp-Giáo dục thường xuyên huyện Xín Mần","levels":null,"lat":22.68071372172221,"lng":104.46381218041216,"osm_type":"way","osm_id":1213816680}},{"type":"Feature","geometry":{"type":"MultiPolygon","coordinates":[[[[104.463066,22.680139],[104.463615,22.679842],[104.463593,22.679776],[104.463568,22.679689],[104.463586,22.679595],[104.464047,22.679474],[104.464337,22.679365],[104.464718,22.679216],[104.465034,22.679503],[104.464766,22.679657],[104.464745,22.679968],[104.464514,22.679988],[104.463945,22.680147],[104.463227,22.680389],[104.463066,22.680139]]]]},"properties":{"group":"edu_health","tag":"amenity=school","name":"Trường Phổ thông Dân tộc nội trú Trung học cơ sở & Trung học phổ thông Xín Mần","levels":null,"lat":22.679798149169404,"lng":104.4640903892052,"osm_type":"way","osm_id":1213816681}},{"type":"Feature","geometry":{"type":"MultiPolygon","coordinates":[[[[104.495864,22.737588],[104.496116,22.737576],[104.496532,22.737351],[104.496709,22.737299],[104.496942,22.737534],[104.497052,22.737774],[104.497014,22.737922],[104.496725,22.738202],[104.496596,22.738281],[104.496567,22.738217],[104.49633,22.738303],[104.496218,22.738328],[104.496175,22.738313],[104.495976,22.738061],[104.496065,22.738024],[104.495864,22.737588]]]]},"properties":{"group":"edu_health","tag":"amenity=school","name":"Trường Trung học cơ sở & Trung học phổ thông Xín Mần","levels":null,"lat":22.737822128926034,"lng":104.49648355085135,"osm_type":"way","osm_id":1213816693}},{"type":"Feature","geometry":{"type":"MultiPolygon","coordinates":[[[[105.201628,21.827288],[105.20173,21.827058],[105.202022,21.826663],[105.20243,21.826277],[105.203109,21.825674],[105.204021,21.82669],[105.203964,21.826862],[105.203846,21.827161],[105.203677,21.827417],[105.203471,21.827703],[105.203377,21.827985],[105.20302,21.827995],[105.202948,21.828114],[105.202661,21.827997],[105.202449,21.827711],[105.201894,21.827915],[105.201628,21.827288]]]]},"properties":{"group":"edu_health","tag":"amenity=hospital","name":"Bệnh viện Đa khoa tỉnh Tuyên Quang","levels":null,"lat":21.826996743507852,"lng":105.20285825038688,"osm_type":"way","osm_id":1219178677}},{"type":"Feature","geometry":{"type":"MultiPolygon","coordinates":[[[[105.204015,21.830487],[105.204095,21.830166],[105.204211,21.830084],[105.204417,21.830051],[105.204669,21.830026],[105.20468,21.830099],[105.204841,21.830094],[105.204795,21.830801],[105.204787,21.83096],[105.204269,21.83095],[105.204028,21.830721],[105.204015,21.830487]]]]},"properties":{"group":"edu_health","tag":"amenity=hospital","name":"Bệnh viện Y dược cổ truyền tỉnh Tuyên Quang","levels":null,"lat":21.83049920842221,"lng":105.20444522413834,"osm_type":"way","osm_id":1219178678}},{"type":"Feature","geometry":{"type":"MultiPolygon","coordinates":[[[[105.126305,21.768876],[105.126364,21.768749],[105.12634,21.768507],[105.126415,21.768238],[105.126571,21.768198],[105.126895,21.7683],[105.126587,21.768978],[105.126305,21.768876]]]]},"properties":{"group":"edu_health","tag":"amenity=hospital","name":"Bệnh viện Suối khoáng Mỹ Lâm","levels":null,"lat":21.76855156388357,"lng":105.12656578225825,"osm_type":"way","osm_id":1219178679}},{"type":"Feature","geometry":{"type":"MultiPolygon","coordinates":[[[[105.203177,21.825125],[105.203241,21.824627],[105.203915,21.82469],[105.203952,21.824834],[105.20355,21.82516],[105.203177,21.825125]]]]},"properties":{"group":"edu_health","tag":"amenity=hospital","name":"Bệnh viện Phục hồi chức năng Hương Sen","levels":null,"lat":21.8248795093048,"lng":105.20351924830527,"osm_type":"way","osm_id":1219178680}},{"type":"Feature","geometry":{"type":"MultiPolygon","coordinates":[[[[105.201854,21.780426],[105.20311,21.778468],[105.204574,21.779305],[105.203314,21.781263],[105.201854,21.780426]]]]},"properties":{"group":"edu_health","tag":"amenity=hospital","name":"Bệnh viện Phổi tỉnh Tuyên Quang","levels":null,"lat":21.779865439940355,"lng":105.2032134737422,"osm_type":"way","osm_id":1219178681}},{"type":"Feature","geometry":{"type":"MultiPolygon","coordinates":[[[[105.432862,21.876166],[105.432948,21.875021],[105.43341,21.875056],[105.433973,21.874941],[105.434322,21.875061],[105.433866,21.877186],[105.433662,21.877087],[105.433163,21.876559],[105.432862,21.876166]]]]},"properties":{"group":"edu_health","tag":"amenity=hospital","name":"Bệnh viện Đa khoa khu vực ATK","levels":null,"lat":21.875879603132635,"lng":105.43357048087682,"osm_type":"way","osm_id":1219178682}},{"type":"Feature","geometry":{"type":"MultiPolygon","coordinates":[[[[105.220143,21.784833],[105.220337,21.784389],[105.220796,21.784309],[105.221112,21.784374],[105.221147,21.784342],[105.221233,21.784389],[105.221166,21.784534],[105.221171,21.784584],[105.221083,21.784745],[105.22086,21.785029],[105.220699,21.784989],[105.220686,21.785022],[105.220623,21.785026],[105.220361,21.784924],[105.220143,21.784833]]]]},"properties":{"group":"edu_health","tag":"amenity=hospital","name":"Trung tâm Y tế khu vực Yên Sơn","levels":null,"lat":21.784651983171862,"lng":105.22068786700547,"osm_type":"way","osm_id":1219275895}},{"type":"Feature","geometry":{"type":"MultiPolygon","coordinates":[[[[105.040748,22.037091],[105.040764,22.036957],[105.040848,22.03686],[105.041078,22.036654],[105.041229,22.036601],[105.041532,22.036696],[105.041749,22.036915],[105.042119,22.037081],[105.041542,22.038133],[105.041282,22.038071],[105.040893,22.037855],[105.040786,22.037623],[105.040748,22.037091]]]]},"properties":{"group":"edu_health","tag":"amenity=hospital","name":"Trung tâm Y tế khu vực Hàm Yên","levels":null,"lat":22.037336871764794,"lng":105.04134320619426,"osm_type":"way","osm_id":1219275902}},{"type":"Feature","geometry":{"type":"MultiPolygon","coordinates":[[[[105.394809,21.694652],[105.395099,21.69385],[105.396547,21.694283],[105.396268,21.695086],[105.394809,21.694652]]]]},"properties":{"group":"edu_health","tag":"amenity=hospital","name":"Trung tâm Y tế khu vực Sơn Dương","levels":null,"lat":21.694468115142488,"lng":105.3956803314466,"osm_type":"way","osm_id":1219275905}},{"type":"Feature","geometry":{"type":"MultiPolygon","coordinates":[[[[105.277911,21.55885],[105.278359,21.558478],[105.278949,21.558179],[105.279163,21.558483],[105.278916,21.558608],[105.278938,21.558717],[105.278863,21.559007],[105.278407,21.559324],[105.278238,21.559329],[105.277911,21.55885]]]]},"properties":{"group":"edu_health","tag":"amenity=hospital","name":"Bệnh viện Đa khoa khu vực Kim Xuyên","levels":null,"lat":21.55877525455861,"lng":105.27853234207238,"osm_type":"way","osm_id":1219275906}},{"type":"Feature","geometry":{"type":"MultiPolygon","coordinates":[[[[105.270114,22.145699],[105.270218,22.145511],[105.271128,22.145001],[105.271195,22.14487],[105.271562,22.145046],[105.271538,22.145138],[105.271474,22.145493],[105.271509,22.145498],[105.271471,22.145619],[105.271777,22.145816],[105.271782,22.14594],[105.271361,22.146504],[105.271122,22.146603],[105.27105,22.146698],[105.27097,22.146695],[105.270967,22.146519],[105.270919,22.146365],[105.270701,22.146261],[105.270583,22.146276],[105.270465,22.146214],[105.270342,22.145963],[105.27013,22.145789],[105.270114,22.145699]]]]},"properties":{"group":"edu_health","tag":"amenity=hospital","name":"Trung tâm Y tế khu vực Chiêm Hóa","levels":null,"lat":22.14576943953082,"lng":105.27100828467397,"osm_type":"way","osm_id":1219275907}},{"type":"Feature","geometry":{"type":"MultiPolygon","coordinates":[[[[105.378368,22.347025],[105.379087,22.346352],[105.379366,22.346568],[105.379966,22.346856],[105.379736,22.347307],[105.379398,22.347799],[105.378368,22.347025]]]]},"properties":{"group":"edu_health","tag":"amenity=hospital","name":"Trung tâm Y tế khu vực Na Hang","levels":null,"lat":22.3470460280415,"lng":105.37920486670211,"osm_type":"way","osm_id":1219275908}},{"type":"Feature","geometry":{"type":"MultiPolygon","coordinates":[[[[105.478378,22.513091],[105.478452,22.512578],[105.478916,22.512271],[105.479568,22.512345],[105.479493,22.512843],[105.479495,22.512972],[105.479544,22.513088],[105.479662,22.513195],[105.479578,22.513235],[105.478378,22.513091]]]]},"properties":{"group":"edu_health","tag":"amenity=hospital","name":"Bệnh viện Đa khoa khu vực Yên Hoa","levels":null,"lat":22.512762930450187,"lng":105.47901940372628,"osm_type":"way","osm_id":1219275909}},{"type":"Feature","geometry":{"type":"MultiPolygon","coordinates":[[[[105.215194,22.465871],[105.215505,22.46546],[105.215886,22.465217],[105.216642,22.464766],[105.217023,22.464701],[105.217248,22.464741],[105.217597,22.465331],[105.21668,22.465886],[105.216744,22.46599],[105.216213,22.466377],[105.215644,22.466476],[105.215194,22.465871]]]]},"properties":{"group":"edu_health","tag":"amenity=hospital","name":"Trung tâm Y tế khu vực Lâm Bình","levels":null,"lat":22.465566367208638,"lng":105.21635994698447,"osm_type":"way","osm_id":1219275910}},{"type":"Feature","geometry":{"type":"MultiPolygon","coordinates":[[[[105.216572,21.817444],[105.216873,21.817312],[105.216926,21.817399],[105.217229,21.817249],[105.217302,21.817379],[105.216712,21.81768],[105.216572,21.817444]]]]},"properties":{"group":"edu_health","tag":"amenity=hospital","name":"Trung tâm Y tế khu vực Tuyên Quang","levels":null,"lat":21.81745460891407,"lng":105.21690884251402,"osm_type":"way","osm_id":1219276688}},{"type":"Feature","geometry":{"type":"MultiPolygon","coordinates":[[[[105.2306,23.064333],[105.230662,23.063911],[105.231941,23.063874],[105.231944,23.064027],[105.231356,23.064298],[105.23104,23.064355],[105.2306,23.064333]]]]},"properties":{"group":"edu_health","tag":"amenity=school","name":"Trường Trung học phổ thông Mậu Duệ","levels":null,"lat":23.06409195263851,"lng":105.23120184643437,"osm_type":"way","osm_id":1230874034}},{"type":"Feature","geometry":{"type":"MultiPolygon","coordinates":[[[[104.986665,23.07276],[104.987225,23.072528],[104.987424,23.073106],[104.986764,23.073323],[104.986665,23.07276]]]]},"properties":{"group":"edu_health","tag":"amenity=school","name":"Trung tâm Giáo dục nghề nghiệp-Giáo dục thường xuyên huyện Quản Bạ","levels":null,"lat":23.072934555132314,"lng":104.98702545068623,"osm_type":"way","osm_id":1230874035}},{"type":"Feature","geometry":{"type":"MultiPolygon","coordinates":[[[[104.987225,23.072528],[104.987751,23.072259],[104.987796,23.072381],[104.98799,23.072912],[104.987829,23.072963],[104.987856,23.073123],[104.987486,23.073246],[104.987424,23.073106],[104.987225,23.072528]]]]},"properties":{"group":"edu_health","tag":"amenity=school","name":"Trường Trung học cơ sở Thị trấn Tam Sơn","levels":null,"lat":23.072757469158965,"lng":104.9876099414243,"osm_type":"way","osm_id":1230874036}},{"type":"Feature","geometry":{"type":"MultiPolygon","coordinates":[[[[104.987796,23.072381],[104.988456,23.072175],[104.988601,23.072578],[104.988711,23.072723],[104.988674,23.072839],[104.988411,23.072918],[104.98836,23.072773],[104.98799,23.072912],[104.987796,23.072381]]]]},"properties":{"group":"edu_health","tag":"amenity=school","name":"Trường Trung học phổ thông Quản Bạ","levels":null,"lat":23.072567447797784,"lng":104.98825660477412,"osm_type":"way","osm_id":1230874037}},{"type":"Feature","geometry":{"type":"MultiPolygon","coordinates":[[[[104.957759,23.020161],[104.957974,23.019657],[104.958192,23.019164],[104.958991,23.019378],[104.958462,23.020354],[104.957759,23.020161]]]]},"properties":{"group":"edu_health","tag":"amenity=school","name":"Trường Trung học phổ thông Quyết Tiến","levels":null,"lat":23.019754082434037,"lng":104.95835536692304,"osm_type":"way","osm_id":1234833025}},{"type":"Feature","geometry":{"type":"MultiPolygon","coordinates":[[[[104.986973,22.813464],[104.988139,22.812652],[104.9892,22.813617],[104.988715,22.814024],[104.988354,22.814233],[104.988373,22.814332],[104.988004,22.814416],[104.987538,22.814023],[104.987363,22.81411],[104.987103,22.81394],[104.986973,22.813649],[104.986973,22.813464]]]]},"properties":{"group":"edu_health","tag":"amenity=school","name":"Trường Phổ thông dân tộc nội trú Trung học phổ thông tỉnh Hà Giang","levels":null,"lat":22.813577996681403,"lng":104.98803737744551,"osm_type":"way","osm_id":1252414199}},{"type":"Feature","geometry":{"type":"MultiPolygon","coordinates":[[[[105.033283,22.392144],[105.033763,22.392067],[105.034292,22.391821],[105.034686,22.392454],[105.034235,22.392575],[105.033626,22.392652],[105.033331,22.392273],[105.033283,22.392144]]]]},"properties":{"group":"edu_health","tag":"amenity=school","name":"Trường Trung học cơ sở & Trung học phổ thông Liên Hiệp","levels":null,"lat":22.39228635508674,"lng":105.03399799574893,"osm_type":"way","osm_id":1255453812}},{"type":"Feature","geometry":{"type":"MultiPolygon","coordinates":[[[[104.674554,22.736056],[104.674723,22.735959],[104.675709,22.735502],[104.675802,22.73559],[104.675814,22.735723],[104.675672,22.735993],[104.675509,22.736149],[104.675071,22.736368],[104.674733,22.736454],[104.674554,22.736056]]]]},"properties":{"group":"edu_health","tag":"amenity=school","name":"Trường Trung học phổ thông Hoàng Su Phì","levels":null,"lat":22.735998086635014,"lng":104.67520181662461,"osm_type":"way","osm_id":1255453815}},{"type":"Feature","geometry":{"type":"MultiPolygon","coordinates":[[[[104.67597,22.734658],[104.676103,22.734233],[104.676304,22.734305],[104.676363,22.734161],[104.676895,22.734389],[104.67671,22.734735],[104.676551,22.734824],[104.676497,22.735134],[104.676,22.734981],[104.67597,22.734658]]]]},"properties":{"group":"edu_health","tag":"amenity=school","name":"Trường Trung học cơ sở Vinh Quang","levels":null,"lat":22.73462530365261,"lng":104.67637086017935,"osm_type":"way","osm_id":1255453822}},{"type":"Feature","geometry":{"type":"MultiPolygon","coordinates":[[[[104.676363,22.734161],[104.676649,22.733856],[104.676774,22.733509],[104.676796,22.733217],[104.676903,22.733005],[104.677024,22.73289],[104.677378,22.732836],[104.67793,22.73271],[104.677984,22.732987],[104.678317,22.73318],[104.678201,22.733492],[104.678113,22.733616],[104.677871,22.733675],[104.677531,22.734049],[104.67711,22.734239],[104.676989,22.734417],[104.676895,22.734389],[104.676363,22.734161]]]]},"properties":{"group":"edu_health","tag":"amenity=school","name":"Trường Phổ thông Dân tộc Nội trú Trung học cơ sở & Trung học phổ thông Hoàng Su Phì","levels":null,"lat":22.733517683226246,"lng":104.67734697817124,"osm_type":"way","osm_id":1255453826}},{"type":"Feature","geometry":{"type":"MultiPolygon","coordinates":[[[[104.739206,22.564024],[104.739551,22.563632],[104.740257,22.564135],[104.740383,22.564332],[104.740291,22.564447],[104.740191,22.564577],[104.740072,22.564724],[104.739456,22.564252],[104.739431,22.564212],[104.739441,22.564169],[104.739206,22.564024]]]]},"properties":{"group":"edu_health","tag":"amenity=school","name":"Trường Trung học cơ sở & Trung học phổ thông Thông Nguyên","levels":null,"lat":22.564170841479527,"lng":104.7398178369113,"osm_type":"way","osm_id":1262957412}},{"type":"Feature","geometry":{"type":"MultiPolygon","coordinates":[[[[104.961028,22.625726],[104.961073,22.625607],[104.961119,22.625525],[104.961599,22.625166],[104.962247,22.625815],[104.961591,22.626444],[104.961113,22.62606],[104.96106,22.625892],[104.961028,22.625726]]]]},"properties":{"group":"edu_health","tag":"amenity=school","name":"Trường Trung học phổ thông Việt Lâm","levels":null,"lat":22.62580304369969,"lng":104.96158048673229,"osm_type":"way","osm_id":1262957420}},{"type":"Feature","geometry":{"type":"MultiPolygon","coordinates":[[[[105.052439,22.705934],[105.05255,22.705672],[105.052875,22.704652],[105.053174,22.704735],[105.053229,22.704783],[105.053475,22.705345],[105.05342,22.705581],[105.053222,22.706139],[105.052886,22.706087],[105.052439,22.705934]]]]},"properties":{"group":"edu_health","tag":"amenity=school","name":"Trường Trung học cơ sở & Trung học phổ thông Linh Hồ","levels":null,"lat":22.705459015864193,"lng":105.05300028703631,"osm_type":"way","osm_id":1262957427}},{"type":"Feature","geometry":{"type":"MultiPolygon","coordinates":[[[[104.921624,22.860868],[104.922223,22.860273],[104.922639,22.860596],[104.922559,22.860709],[104.922768,22.860872],[104.922099,22.861559],[104.921862,22.861423],[104.921624,22.860868]]]]},"properties":{"group":"edu_health","tag":"amenity=school","name":"Trường Trung học cơ sở & Trung học phổ thông Phương Tiến","levels":null,"lat":22.860913820073932,"lng":104.92216868955673,"osm_type":"way","osm_id":1262957437}},{"type":"Feature","geometry":{"type":"MultiPolygon","coordinates":[[[[105.08026,22.876233],[105.080691,22.875518],[105.080839,22.875529],[105.081354,22.875771],[105.080918,22.876535],[105.08026,22.876233]]]]},"properties":{"group":"edu_health","tag":"amenity=school","name":"Trường Trung học cơ sở & Trung học phổ thông Tùng Bá","levels":null,"lat":22.876007561880552,"lng":105.08081120326496,"osm_type":"way","osm_id":1262957438}},{"type":"Feature","geometry":{"type":"MultiPolygon","coordinates":[[[[104.976669,22.666445],[104.976721,22.666283],[104.977433,22.666303],[104.977649,22.666306],[104.978163,22.66663],[104.978212,22.666983],[104.978034,22.667227],[104.97788,22.66748],[104.977593,22.667224],[104.976721,22.666613],[104.976669,22.666445]]]]},"properties":{"group":"edu_health","tag":"amenity=school","name":"Trường Phô thông dân tộc nội trú Trung học cơ sở & Trung học phổ thông huyện Vị Xuyên","levels":null,"lat":22.66674786521596,"lng":104.97751922557465,"osm_type":"way","osm_id":1262957460}},{"type":"Feature","geometry":{"type":"MultiPolygon","coordinates":[[[[105.423182,21.670317],[105.423257,21.670233],[105.423328,21.670297],[105.423251,21.670369],[105.423182,21.670317]]]]},"properties":{"group":"public","tag":"amenity=community_centre","name":"nhà văn hóa thôn Hội Trường","levels":null,"lat":21.67030294901435,"lng":105.42325497693574,"osm_type":"way","osm_id":1266721708}},{"type":"Feature","geometry":{"type":"MultiPolygon","coordinates":[[[[105.428801,21.671362],[105.42895,21.671329],[105.428957,21.671395],[105.428827,21.671429],[105.428801,21.671362]]]]},"properties":{"group":"public","tag":"amenity=community_centre","name":"Nhà văn hóa thôn trung tâm","levels":null,"lat":21.67137844213091,"lng":105.42888264519898,"osm_type":"way","osm_id":1268769457}},{"type":"Feature","geometry":{"type":"MultiPolygon","coordinates":[[[[105.422723,21.66804],[105.422798,21.668024],[105.422814,21.668089],[105.422743,21.668101],[105.422723,21.66804]]]]},"properties":{"group":"public","tag":"amenity=community_centre","name":"Nhà văn hóa thôn Bãi Cát","levels":null,"lat":21.668063171206217,"lng":105.42276958009559,"osm_type":"way","osm_id":1268769458}},{"type":"Feature","geometry":{"type":"MultiPolygon","coordinates":[[[[105.427006,21.668805],[105.427088,21.668639],[105.427172,21.668663],[105.427088,21.668836],[105.427006,21.668805]]]]},"properties":{"group":"public","tag":"amenity=community_centre","name":"nhà văn hóa xã Kháng Nhật","levels":null,"lat":21.668736090430425,"lng":105.42708836666667,"osm_type":"way","osm_id":1268882608}},{"type":"Feature","geometry":{"type":"MultiPolygon","coordinates":[[[[105.168355,22.772837],[105.168835,22.772752],[105.169079,22.773717],[105.168731,22.773823],[105.168605,22.773791],[105.168355,22.772837]]]]},"properties":{"group":"edu_health","tag":"amenity=school","name":"Trường Trung học cơ sở & Trung học phổ thông Minh Ngọc","levels":null,"lat":22.773285553523984,"lng":105.16872081477852,"osm_type":"way","osm_id":1270301074}},{"type":"Feature","geometry":{"type":"MultiPolygon","coordinates":[[[[105.167798,22.77369],[105.167819,22.773525],[105.168445,22.773371],[105.168541,22.773814],[105.168435,22.773828],[105.16845,22.773928],[105.167996,22.774045],[105.167973,22.773972],[105.16784,22.774001],[105.167812,22.773838],[105.167798,22.77369]]]]},"properties":{"group":"edu_health","tag":"amenity=school","name":"Trường Tiểu học Minh Ngọc","levels":null,"lat":22.773713304540344,"lng":105.16815789880955,"osm_type":"way","osm_id":1270301079}},{"type":"Feature","geometry":{"type":"MultiPolygon","coordinates":[[[[104.996124,23.067509],[104.996381,23.06728],[104.99637,23.067266],[104.996579,23.06706],[104.996708,23.067182],[104.996904,23.067034],[104.997473,23.067511],[104.997407,23.067629],[104.996876,23.068024],[104.996732,23.06803],[104.996647,23.067874],[104.996606,23.067894],[104.996569,23.067868],[104.996503,23.06789],[104.996124,23.067509]]]]},"properties":{"group":"edu_health","tag":"amenity=school","name":"Trường Phổ thông dân tộc nội trú Trung học cơ sở & Trung học phổ thông Quản Bạ","levels":null,"lat":23.06752896631684,"lng":104.99680055867816,"osm_type":"way","osm_id":1270301085}},{"type":"Feature","geometry":{"type":"MultiPolygon","coordinates":[[[[105.453587,21.662652],[105.453766,21.662561],[105.453889,21.662715],[105.453729,21.662818],[105.453587,21.662652]]]]},"properties":{"group":"public","tag":"amenity=community_centre","name":"Nhà văn hóa thôn Lẹm","levels":null,"lat":21.66268675646424,"lng":105.45374108865926,"osm_type":"way","osm_id":1270635219}},{"type":"Feature","geometry":{"type":"MultiPolygon","coordinates":[[[[105.42963,21.67359],[105.429693,21.673436],[105.429774,21.673464],[105.429726,21.673617],[105.42963,21.67359]]]]},"properties":{"group":"public","tag":"amenity=community_centre","name":"nhà văn hóa thôn Đoàn Kết","levels":null,"lat":21.673528346606616,"lng":105.42970496042658,"osm_type":"way","osm_id":1270639753}},{"type":"Feature","geometry":{"type":"MultiPolygon","coordinates":[[[[105.437773,21.675427],[105.437794,21.675295],[105.437879,21.675303],[105.437865,21.675437],[105.437773,21.675427]]]]},"properties":{"group":"public","tag":"amenity=community_centre","name":"Nhà văn hóa thôn Gốc Mít","levels":null,"lat":21.675366368187444,"lng":105.43782774477734,"osm_type":"way","osm_id":1270641589}},{"type":"Feature","geometry":{"type":"MultiPolygon","coordinates":[[[[105.442443,21.677789],[105.442512,21.677693],[105.442606,21.677757],[105.442545,21.677844],[105.442443,21.677789]]]]},"properties":{"group":"public","tag":"amenity=community_centre","name":"nhà vă hóa thôn Bờ Hồ","levels":null,"lat":21.67777063945049,"lng":105.44252549829748,"osm_type":"way","osm_id":1270643445}},{"type":"Feature","geometry":{"type":"MultiPolygon","coordinates":[[[[105.420992,21.664045],[105.421066,21.663867],[105.421147,21.663893],[105.421074,21.664075],[105.420992,21.664045]]]]},"properties":{"group":"public","tag":"amenity=community_centre","name":"nhà văn hóa thôn Miền Tây","levels":null,"lat":21.66397024339453,"lng":105.42106967378002,"osm_type":"way","osm_id":1270647301}},{"type":"Feature","geometry":{"type":"MultiPolygon","coordinates":[[[[105.403666,21.66732],[105.403682,21.66724],[105.403839,21.667266],[105.403817,21.667346],[105.403666,21.66732]]]]},"properties":{"group":"public","tag":"amenity=community_centre","name":"nhà văn hóa thôn Ba Khe","levels":null,"lat":21.667292767896637,"lng":105.40375116974953,"osm_type":"way","osm_id":1270650369}},{"type":"Feature","geometry":{"type":"MultiPolygon","coordinates":[[[[105.388343,21.660943],[105.388502,21.66091],[105.388537,21.661012],[105.388371,21.661045],[105.388343,21.660943]]]]},"properties":{"group":"public","tag":"amenity=community_centre","name":"nhà văn hóa thôn đèo mon","levels":null,"lat":21.660977512113313,"lng":105.38843841358336,"osm_type":"way","osm_id":1270664305}},{"type":"Feature","geometry":{"type":"MultiPolygon","coordinates":[[[[105.387618,22.354439],[105.38804,22.353569],[105.389058,22.354465],[105.389517,22.35489],[105.389304,22.355148],[105.388478,22.354812],[105.387618,22.354439]]]]},"properties":{"group":"edu_health","tag":"amenity=school","name":"Trường Phổ thông Dân tộc nội trú Trung học cơ sở và Trung học phổ thông huyện Na Hang","levels":null,"lat":22.35442817830792,"lng":105.38849649785506,"osm_type":"way","osm_id":1290446444}},{"type":"Feature","geometry":{"type":"MultiPolygon","coordinates":[[[[105.410536,23.172127],[105.411046,23.171976],[105.411309,23.171899],[105.411615,23.172896],[105.410844,23.173109],[105.410683,23.172594],[105.410536,23.172127]]]]},"properties":{"group":"edu_health","tag":"amenity=hospital","name":"Bệnh viện Đa khoa khu vực Mèo Vạc","levels":null,"lat":23.17250658826926,"lng":105.41107680780887,"osm_type":"way","osm_id":1327813923}},{"type":"Feature","geometry":{"type":"MultiPolygon","coordinates":[[[[105.410274,23.171502],[105.410305,23.171465],[105.410439,23.171426],[105.410591,23.171395],[105.410808,23.171376],[105.411046,23.171976],[105.410536,23.172127],[105.410406,23.171819],[105.410274,23.171502]]]]},"properties":{"group":"edu_health","tag":"amenity=school","name":"Trường Trung học cơ sở Thị trấn Mèo Vạc","levels":null,"lat":23.171733021059588,"lng":105.41065719636235,"osm_type":"way","osm_id":1327813944}},{"type":"Feature","geometry":{"type":"MultiPolygon","coordinates":[[[[105.404768,23.164981],[105.404921,23.164846],[105.405112,23.164748],[105.405381,23.164966],[105.405459,23.16505],[105.405492,23.165122],[105.405534,23.165217],[105.405664,23.16551],[105.405245,23.165746],[105.405168,23.165533],[105.405038,23.165372],[105.4048,23.165192],[105.404868,23.165084],[105.404768,23.164981]]]]},"properties":{"group":"edu_health","tag":"amenity=school","name":"Trường Phổ thông Dân tộc nội trú Trung học cơ sở và Trung học phổ thông huyện Mèo Vạc","levels":null,"lat":23.16522444958329,"lng":105.40522039671944,"osm_type":"way","osm_id":1327813955}},{"type":"Feature","geometry":{"type":"MultiPolygon","coordinates":[[[[105.40551,23.164434],[105.40555,23.164318],[105.405682,23.164141],[105.405824,23.164059],[105.405908,23.163933],[105.405939,23.163887],[105.406027,23.163871],[105.406338,23.164085],[105.406368,23.164106],[105.405885,23.164789],[105.405684,23.164868],[105.405628,23.164609],[105.405566,23.164609],[105.40551,23.164434]]]]},"properties":{"group":"edu_health","tag":"amenity=school","name":"Trường Trung học phổ thông Mèo Vạc","levels":null,"lat":23.164339764341552,"lng":105.40590184883224,"osm_type":"way","osm_id":1327813959}},{"type":"Feature","geometry":{"type":"MultiPolygon","coordinates":[[[[105.406027,23.163871],[105.406255,23.163589],[105.40619,23.163532],[105.406518,23.163225],[105.406585,23.163168],[105.406803,23.163402],[105.406847,23.163448],[105.406686,23.163669],[105.406368,23.164106],[105.406338,23.164085],[105.406027,23.163871]]]]},"properties":{"group":"edu_health","tag":"amenity=school","name":"Trường Tiểu học Thị trấn Mèo Vạc","levels":null,"lat":23.16363696274613,"lng":105.40644403252173,"osm_type":"way","osm_id":1327813969}},{"type":"Feature","geometry":{"type":"MultiPolygon","coordinates":[[[[105.420015,21.621],[105.420296,21.620883],[105.420353,21.620993],[105.420174,21.621063],[105.420068,21.621098],[105.420015,21.621]]]]},"properties":{"group":"public","tag":"amenity=community_centre","name":"Nhà văn hóa thôn Tân Quang, xã Tân Thanh","levels":null,"lat":21.620993409923425,"lng":105.42018554414899,"osm_type":"way","osm_id":1448367514}},{"type":"Feature","geometry":{"type":"MultiPolygon","coordinates":[[[[105.188353,21.833462],[105.190589,21.831658],[105.191742,21.832989],[105.189562,21.834723],[105.188353,21.833462]]]]},"properties":{"group":"edu_health","tag":"amenity=school","name":"Trường Trung học phổ thông chuyên Tuyên Quang","levels":null,"lat":21.833203041084143,"lng":105.19006057710247,"osm_type":"way","osm_id":1454895023}},{"type":"Feature","geometry":{"type":"MultiPolygon","coordinates":[[[[105.243184,21.700028],[105.243187,21.699963],[105.243192,21.699945],[105.243199,21.699927],[105.243209,21.699914],[105.243223,21.6999],[105.243245,21.699891],[105.243268,21.699886],[105.243364,21.699882],[105.243481,21.69988],[105.243536,21.699878],[105.243593,21.699878],[105.243643,21.69988],[105.243688,21.699882],[105.243786,21.699888],[105.244083,21.699911],[105.24411,21.699915],[105.244136,21.699921],[105.244157,21.699934],[105.244173,21.699952],[105.244182,21.699973],[105.244188,21.699997],[105.244186,21.700021],[105.24415,21.700281],[105.244143,21.700298],[105.244135,21.700316],[105.244124,21.700327],[105.244109,21.700337],[105.24409,21.700345],[105.244066,21.700351],[105.244039,21.700354],[105.243288,21.700405],[105.243257,21.700402],[105.243236,21.700396],[105.243215,21.700384],[105.243201,21.700369],[105.243189,21.700349],[105.243184,21.700329],[105.243184,21.700309],[105.243184,21.700028]]]]},"properties":{"group":"public","tag":"leisure=park","name":null,"levels":null,"lat":21.700132859196717,"lng":105.24366075828422,"osm_type":"way","osm_id":1484053919}},{"type":"Feature","geometry":{"type":"MultiPolygon","coordinates":[[[[105.24167,21.699673],[105.241699,21.699379],[105.241706,21.699327],[105.241714,21.699282],[105.241725,21.699243],[105.241739,21.699211],[105.241763,21.699181],[105.241788,21.699156],[105.241821,21.699136],[105.241865,21.699122],[105.241916,21.699118],[105.241977,21.699114],[105.242351,21.699106],[105.242601,21.699104],[105.242595,21.699666],[105.242594,21.699821],[105.242053,21.699838],[105.241989,21.699838],[105.241928,21.699836],[105.24188,21.699832],[105.241837,21.699826],[105.241795,21.699815],[105.241761,21.699804],[105.241732,21.69979],[105.24171,21.699775],[105.241693,21.699756],[105.241677,21.69973],[105.241671,21.699703],[105.24167,21.699673]]]]},"properties":{"group":"public","tag":"leisure=park","name":null,"levels":null,"lat":21.699474872396856,"lng":105.2421538334501,"osm_type":"way","osm_id":1484053920}},{"type":"Feature","geometry":{"type":"MultiPolygon","coordinates":[[[[105.240645,21.699163],[105.241291,21.699141],[105.241324,21.699142],[105.241354,21.699146],[105.241382,21.699152],[105.241408,21.699161],[105.241434,21.699175],[105.241458,21.69919],[105.241473,21.699206],[105.241488,21.699223],[105.241498,21.699243],[105.241508,21.699269],[105.241515,21.699296],[105.241518,21.699329],[105.241518,21.699357],[105.241517,21.699645],[105.24152,21.699877],[105.241464,21.699876],[105.240645,21.699163]]]]},"properties":{"group":"public","tag":"leisure=park","name":null,"levels":null,"lat":21.69941077344986,"lng":105.24121959482457,"osm_type":"way","osm_id":1484053921}},{"type":"Feature","geometry":{"type":"MultiPolygon","coordinates":[[[[105.245712,21.699218],[105.245718,21.699174],[105.24573,21.699141],[105.245747,21.69911],[105.245767,21.699083],[105.24578,21.699072],[105.245793,21.699061],[105.245808,21.699052],[105.245823,21.699043],[105.245842,21.699034],[105.245861,21.699026],[105.245889,21.699019],[105.245919,21.699013],[105.245944,21.69901],[105.24597,21.699009],[105.245995,21.69901],[105.246021,21.699014],[105.246055,21.699025],[105.246091,21.699038],[105.246669,21.699311],[105.24663,21.699636],[105.246485,21.699641],[105.246479,21.699814],[105.245787,21.699894],[105.245713,21.699293],[105.245713,21.699255],[105.245712,21.699218]]]]},"properties":{"group":"public","tag":"leisure=park","name":null,"levels":null,"lat":21.699459262172894,"lng":105.24613778723969,"osm_type":"way","osm_id":1484053937}},{"type":"Feature","geometry":{"type":"MultiPolygon","coordinates":[[[[105.205054,21.818755],[105.205615,21.818464],[105.205813,21.818826],[105.205282,21.819106],[105.205054,21.818755]]]]},"properties":{"group":"mall","tag":"shop=mall","name":"Vincom Plaza Tuyên Quang","levels":null,"lat":21.81878639632658,"lng":105.20543966629796,"osm_type":"way","osm_id":1526739702}},{"type":"Feature","geometry":{"type":"Point","coordinates":[105.142746,23.118192]},"properties":{"group":"edu_health","tag":"amenity=school","name":"Trường mầm non Hoa hồng","levels":null,"lat":23.1181919,"lng":105.1427458,"osm_type":"node","osm_id":4518954210}},{"type":"Feature","geometry":{"type":"Point","coordinates":[104.582413,22.784998]},"properties":{"group":"edu_health","tag":"amenity=hospital","name":"Trạm y tế xã Bản Phùng","levels":null,"lat":22.7849984,"lng":104.5824129,"osm_type":"node","osm_id":4739879024}},{"type":"Feature","geometry":{"type":"Point","coordinates":[104.73509,22.598321]},"properties":{"group":"public","tag":"amenity=community_centre","name":"Panhou","levels":null,"lat":22.5983206,"lng":104.73509,"osm_type":"node","osm_id":5294733027}},{"type":"Feature","geometry":{"type":"Point","coordinates":[105.016937,23.042856]},"properties":{"group":"public","tag":"amenity=community_centre","name":"Nam Dam","levels":null,"lat":23.0428557,"lng":105.0169372,"osm_type":"node","osm_id":5294733029}},{"type":"Feature","geometry":{"type":"Point","coordinates":[104.919317,23.066608]},"properties":{"group":"public","tag":"amenity=community_centre","name":"Tung Vai","levels":null,"lat":23.066608,"lng":104.9193169,"osm_type":"node","osm_id":5294733031}},{"type":"Feature","geometry":{"type":"Point","coordinates":[104.986631,22.832535]},"properties":{"group":"mall","tag":"shop=department_store","name":"Ovocny trh","levels":null,"lat":22.8325345,"lng":104.9866311,"osm_type":"node","osm_id":5562043950}},{"type":"Feature","geometry":{"type":"Point","coordinates":[105.202713,23.226046]},"properties":{"group":"public","tag":"amenity=community_centre","name":null,"levels":null,"lat":23.2260458,"lng":105.202713,"osm_type":"node","osm_id":7041620085}},{"type":"Feature","geometry":{"type":"Point","coordinates":[105.202748,23.225997]},"properties":{"group":"public","tag":"amenity=community_centre","name":null,"levels":null,"lat":23.2259968,"lng":105.2027484,"osm_type":"node","osm_id":7041620185}},{"type":"Feature","geometry":{"type":"Point","coordinates":[105.493839,21.543774]},"properties":{"group":"edu_health","tag":"amenity=school","name":"Trường Trung học cơ sở Ninh Lai","levels":null,"lat":21.5437738,"lng":105.4938394,"osm_type":"node","osm_id":7125277956}},{"type":"Feature","geometry":{"type":"Point","coordinates":[105.489518,21.546443]},"properties":{"group":"public","tag":"leisure=playground","name":null,"levels":null,"lat":21.5464432,"lng":105.4895183,"osm_type":"node","osm_id":7211803822}},{"type":"Feature","geometry":{"type":"Point","coordinates":[104.794591,22.596983]},"properties":{"group":"public","tag":"leisure=park","name":"Khu Du lịch Dược liệu Tả Phìn Hồ","levels":null,"lat":22.5969832,"lng":104.7945913,"osm_type":"node","osm_id":7950442490}},{"type":"Feature","geometry":{"type":"Point","coordinates":[104.988608,22.834254]},"properties":{"group":"public","tag":"amenity=community_centre","name":"Trung tâm Văn hóa Tỉnh Hà Giang","levels":null,"lat":22.8342539,"lng":104.9886078,"osm_type":"node","osm_id":7959468439}},{"type":"Feature","geometry":{"type":"Point","coordinates":[105.211226,21.828299]},"properties":{"group":"mall","tag":"shop=department_store","name":"Lại Tiến Thành","levels":null,"lat":21.8282992,"lng":105.2112262,"osm_type":"node","osm_id":8869224318}},{"type":"Feature","geometry":{"type":"Point","coordinates":[105.25639,22.14657]},"properties":{"group":"edu_health","tag":"amenity=school","name":null,"levels":null,"lat":22.14657,"lng":105.2563899,"osm_type":"node","osm_id":10720879505}},{"type":"Feature","geometry":{"type":"Point","coordinates":[105.425789,21.66928]},"properties":{"group":"edu_health","tag":"amenity=school","name":"trường Trung học cơ sở & Trung học phổ thông Kháng Nhật","levels":null,"lat":21.6692804,"lng":105.425789,"osm_type":"node","osm_id":11050219522}},{"type":"Feature","geometry":{"type":"Point","coordinates":[105.441183,21.667462]},"properties":{"group":"public","tag":"amenity=community_centre","name":"nhà văn hóa thôn Khuôn Phầy","levels":null,"lat":21.6674624,"lng":105.4411835,"osm_type":"node","osm_id":11051516154}},{"type":"Feature","geometry":{"type":"Point","coordinates":[105.427161,21.668229]},"properties":{"group":"edu_health","tag":"amenity=school","name":"trường TH Kháng Nhật","levels":null,"lat":21.6682288,"lng":105.4271613,"osm_type":"node","osm_id":11051516160}},{"type":"Feature","geometry":{"type":"Point","coordinates":[105.476686,21.7765]},"properties":{"group":"public","tag":"amenity=community_centre","name":"Nhà văn hóa thôn Tân Lập","levels":null,"lat":21.7765002,"lng":105.4766861,"osm_type":"node","osm_id":11089284874}},{"type":"Feature","geometry":{"type":"Point","coordinates":[105.22479,22.931087]},"properties":{"group":"public","tag":"leisure=playground","name":null,"levels":null,"lat":22.931087,"lng":105.2247903,"osm_type":"node","osm_id":11174391239}},{"type":"Feature","geometry":{"type":"Point","coordinates":[105.224614,22.932316]},"properties":{"group":"edu_health","tag":"amenity=school","name":null,"levels":null,"lat":22.9323163,"lng":105.2246139,"osm_type":"node","osm_id":11174391837}},{"type":"Feature","geometry":{"type":"Point","coordinates":[105.423317,21.670346]},"properties":{"group":"public","tag":"amenity=community_centre","name":"nhà văn hóa thôn hội trường","levels":null,"lat":21.6703457,"lng":105.4233174,"osm_type":"node","osm_id":11799764374}},{"type":"Feature","geometry":{"type":"Point","coordinates":[105.403564,21.604702]},"properties":{"group":"public","tag":"amenity=community_centre","name":"Nhà văn hóa thôn Bẫu","levels":null,"lat":21.6047024,"lng":105.4035639,"osm_type":"node","osm_id":13308761619}},{"type":"Feature","geometry":{"type":"Point","coordinates":[105.409433,21.615614]},"properties":{"group":"public","tag":"amenity=community_centre","name":"Nhà văn hóa thôn Tân Tiến","levels":null,"lat":21.6156144,"lng":105.4094332,"osm_type":"node","osm_id":13308762149}}]}