{"type":"FeatureCollection","features":[{"type":"Feature","properties":{"kind":"boundary","province_code":"80","name":"Tỉnh Tây Ninh","source":"VNSDI","valid_from":"16/6/2025","simplify_tolerance_deg":0.0005},"geometry":{"type":"Polygon","coordinates":[[[106.00186,10.53227],[105.90916,10.5391],[105.83525,10.63733],[105.81121,10.65098],[105.80714,10.65516],[105.80154,10.65505],[105.78111,10.65863],[105.77986,10.65942],[105.59888,10.82804],[105.59711,10.83153],[105.6114,10.83265],[105.6023,10.85211],[105.60374,10.85574],[105.59643,10.87016],[105.59289,10.8735],[105.58215,10.89255],[105.51632,10.92188],[105.51696,10.92626],[105.51159,10.93055],[105.50152,10.94978],[105.50151,10.95159],[105.50587,10.94972],[105.51231,10.94933],[105.53851,10.95252],[105.5524,10.95954],[105.57595,10.96316],[105.64029,10.98099],[105.66357,10.98626],[105.6676,10.98747],[105.67795,10.99332],[105.68794,10.99768],[105.69687,11.00377],[105.70396,11.01163],[105.72016,11.02184],[105.72821,11.0248],[105.73688,11.02681],[105.7454,11.02689],[105.75263,11.0254],[105.76284,11.029],[105.77676,11.03226],[105.77904,11.03198],[105.78975,11.0087],[105.79965,10.99143],[105.80881,10.97237],[105.84353,10.92988],[105.86356,10.90128],[105.86269,10.8961],[105.84867,10.86723],[105.84876,10.86433],[105.84985,10.86265],[105.89888,10.84453],[105.9355,10.8385],[105.93656,10.84058],[105.93656,10.84539],[105.93602,10.84682],[105.93244,10.84816],[105.93051,10.85078],[105.92958,10.85779],[105.93026,10.86248],[105.93255,10.86596],[105.93873,10.87024],[105.94625,10.8735],[105.94858,10.87528],[105.95641,10.88444],[105.95578,10.88569],[105.95065,10.88902],[105.95237,10.89164],[105.95229,10.89508],[105.95125,10.89813],[105.94565,10.90681],[105.94425,10.9109],[105.94516,10.91747],[105.97386,10.8923],[106.01096,10.85388],[106.07096,10.81172],[106.09599,10.80767],[106.16455,10.81165],[106.19009,10.79002],[106.18826,10.83797],[106.1619,10.88799],[106.13825,10.91472],[106.15162,10.94137],[106.15026,10.94538],[106.14712,10.95014],[106.14617,10.95378],[106.14671,10.9652],[106.14438,10.97673],[106.1465,10.97952],[106.15047,10.98019],[106.15466,10.98375],[106.15999,10.97988],[106.16886,10.98015],[106.17158,10.9795],[106.18005,10.97444],[106.18534,10.97443],[106.19012,10.97278],[106.19298,10.97265],[106.20568,10.97598],[106.20572,10.97786],[106.20426,10.98119],[106.19697,10.99222],[106.19326,11.0103],[106.18768,11.05048],[106.1713,11.07863],[106.15401,11.10169],[106.1454,11.10075],[106.13602,11.09429],[106.12568,11.08958],[106.12143,11.08668],[106.11562,11.08116],[106.10889,11.07221],[106.10532,11.07111],[106.10288,11.07185],[106.09981,11.07619],[106.09924,11.07971],[106.09992,11.08595],[106.09934,11.08724],[106.08965,11.09883],[106.08627,11.1007],[106.08001,11.09737],[106.07623,11.09782],[106.0741,11.09959],[106.06997,11.10765],[106.05843,11.11936],[106.04568,11.12871],[106.03022,11.13599],[106.0205,11.14606],[106.01822,11.15152],[106.01411,11.19065],[105.99643,11.19091],[105.98448,11.19469],[105.97501,11.19884],[105.96645,11.19544],[105.94231,11.20557],[105.933,11.2145],[105.92967,11.21667],[105.92778,11.21697],[105.91108,11.24029],[105.9077,11.25379],[105.90816,11.25718],[105.91064,11.26227],[105.91202,11.26798],[105.9079,11.2751],[105.90854,11.28429],[105.90417,11.28368],[105.89674,11.28482],[105.89126,11.28717],[105.87824,11.28733],[105.87192,11.28292],[105.86804,11.2812],[105.86571,11.28229],[105.86376,11.28513],[105.86291,11.28769],[105.86333,11.29042],[105.87051,11.3046],[105.87047,11.30842],[105.86759,11.31761],[105.87439,11.32833],[105.87854,11.34859],[105.8828,11.35893],[105.8827,11.36862],[105.88194,11.37136],[105.87525,11.37405],[105.87389,11.37595],[105.87407,11.38229],[105.87861,11.38928],[105.87858,11.39191],[105.87495,11.3987],[105.87424,11.40258],[105.87481,11.40528],[105.88187,11.40828],[105.88685,11.41322],[105.88968,11.41947],[105.89012,11.4236],[105.89108,11.42475],[105.89876,11.42697],[105.9008,11.43011],[105.90328,11.44218],[105.90244,11.44599],[105.89774,11.45066],[105.89453,11.45165],[105.88808,11.45167],[105.88346,11.45373],[105.87697,11.45877],[105.87548,11.46089],[105.87859,11.48011],[105.87944,11.48208],[105.88313,11.48492],[105.88454,11.48924],[105.8837,11.4934],[105.88164,11.49496],[105.88001,11.49789],[105.87903,11.50111],[105.87905,11.50578],[105.87938,11.50966],[105.88475,11.51854],[105.88538,11.52092],[105.88433,11.53089],[105.87739,11.54917],[105.87345,11.55163],[105.86406,11.56225],[105.85987,11.56419],[105.84135,11.56391],[105.82858,11.56485],[105.81863,11.56864],[105.81664,11.57126],[105.81609,11.57365],[105.81545,11.5847],[105.80944,11.59952],[105.81121,11.60605],[105.8137,11.60693],[105.8209,11.61236],[105.83213,11.62355],[105.8342,11.62738],[105.83695,11.63682],[105.84708,11.65093],[105.85279,11.66177],[105.86314,11.66802],[105.8732,11.67094],[105.87872,11.67559],[105.88251,11.67708],[105.88571,11.67747],[105.89018,11.67575],[105.90652,11.66195],[105.92605,11.64939],[105.95042,11.64003],[105.95424,11.63994],[105.95524,11.64391],[105.95976,11.64729],[105.96113,11.64978],[105.96825,11.65479],[105.97403,11.66326],[105.979,11.66527],[105.98091,11.66706],[105.98229,11.67282],[105.9819,11.67762],[105.98048,11.68163],[105.98064,11.68724],[105.99016,11.69767],[105.9978,11.69861],[106.00128,11.7013],[106.00659,11.71102],[106.00841,11.71702],[106.01525,11.72628],[106.01593,11.73132],[106.01525,11.73628],[106.01009,11.75101],[106.01608,11.76781],[106.0207,11.77245],[106.0236,11.77413],[106.04704,11.77844],[106.05437,11.78167],[106.06063,11.78288],[106.06874,11.78137],[106.07871,11.77565],[106.08011,11.77402],[106.08125,11.7671],[106.09726,11.75592],[106.10482,11.74697],[106.11141,11.74351],[106.11613,11.74254],[106.12227,11.74491],[106.13385,11.74482],[106.14332,11.74127],[106.15434,11.73572],[106.15788,11.73688],[106.16405,11.74482],[106.17085,11.74901],[106.17299,11.74856],[106.17609,11.74605],[106.18148,11.7456],[106.18323,11.74602],[106.18434,11.74967],[106.18704,11.75024],[106.19053,11.74915],[106.19416,11.74684],[106.19541,11.74103],[106.21073,11.73023],[106.21568,11.72788],[106.2271,11.73097],[106.22971,11.73054],[106.2401,11.72583],[106.24957,11.72679],[106.25481,11.72591],[106.25844,11.72345],[106.26061,11.72043],[106.26467,11.71711],[106.26537,11.71008],[106.27131,11.70388],[106.28002,11.6981],[106.28744,11.69548],[106.29519,11.68714],[106.29955,11.68466],[106.29808,11.68082],[106.30007,11.67994],[106.31008,11.67858],[106.31576,11.67899],[106.32627,11.68439],[106.32918,11.68424],[106.33558,11.68148],[106.34315,11.68216],[106.34855,11.68501],[106.35409,11.69067],[106.3644,11.69496],[106.37322,11.69709],[106.38298,11.69762],[106.38939,11.6963],[106.4,11.69208],[106.40885,11.6863],[106.41364,11.67833],[106.41558,11.67713],[106.41855,11.67663],[106.42595,11.67767],[106.42747,11.67725],[106.43024,11.67299],[106.4369,11.67008],[106.45248,11.67111],[106.4497,11.6632],[106.45134,11.6603],[106.45532,11.65755],[106.4541,11.65448],[106.45493,11.65082],[106.46384,11.63823],[106.46556,11.63139],[106.46629,11.62181],[106.47278,11.61358],[106.4806,11.60867],[106.48435,11.60437],[106.48494,11.60095],[106.48438,11.59463],[106.48961,11.57606],[106.48871,11.56812],[106.48686,11.56351],[106.48199,11.55867],[106.48128,11.55705],[106.47968,11.54649],[106.47846,11.54664],[106.47489,11.54948],[106.47343,11.54921],[106.46503,11.54261],[106.45419,11.54215],[106.44904,11.54444],[106.44569,11.5475],[106.44336,11.54728],[106.43902,11.54376],[106.43514,11.53805],[106.43027,11.53464],[106.42963,11.5334],[106.42998,11.52616],[106.42815,11.51991],[106.42847,11.51417],[106.42751,11.5123],[106.42477,11.51023],[106.42229,11.50335],[106.42345,11.495],[106.40603,11.47017],[106.38415,11.46011],[106.37381,11.45328],[106.36741,11.44584],[106.3615,11.41417],[106.34843,11.38923],[106.3426,11.37013],[106.33081,11.35326],[106.32968,11.34997],[106.32997,11.34535],[106.33432,11.3365],[106.33988,11.32843],[106.34478,11.32446],[106.34413,11.31964],[106.33712,11.30133],[106.33768,11.29919],[106.33973,11.29809],[106.34297,11.29408],[106.34083,11.28627],[106.342,11.28468],[106.3436,11.28459],[106.34524,11.28784],[106.34702,11.28955],[106.35424,11.28851],[106.35603,11.28625],[106.35405,11.27328],[106.35349,11.26362],[106.35455,11.25539],[106.35281,11.24911],[106.35755,11.24311],[106.35905,11.23982],[106.36094,11.23857],[106.36378,11.23913],[106.36725,11.24272],[106.37115,11.24429],[106.37978,11.23218],[106.38117,11.22802],[106.38175,11.22287],[106.38032,11.21931],[106.38083,11.21753],[106.38921,11.21268],[106.38903,11.21053],[106.38443,11.19955],[106.38395,11.19346],[106.38457,11.19107],[106.3884,11.18582],[106.3984,11.1823],[106.40218,11.18239],[106.40547,11.18494],[106.40811,11.1841],[106.40952,11.18263],[106.41018,11.17546],[106.41224,11.17361],[106.4188,11.17331],[106.42531,11.17047],[106.42698,11.17098],[106.42936,11.17434],[106.43158,11.17333],[106.43284,11.17059],[106.43272,11.16593],[106.43614,11.16099],[106.43692,11.15711],[106.43023,11.14847],[106.43552,11.14173],[106.44134,11.13717],[106.44457,11.13592],[106.44789,11.13585],[106.44714,11.12975],[106.44472,11.12648],[106.44242,11.11559],[106.43736,11.11145],[106.42942,11.09138],[106.42825,11.09139],[106.42789,11.0823],[106.4289,11.08108],[106.42767,11.0654],[106.42572,11.06656],[106.42279,11.06603],[106.42017,11.06335],[106.42155,11.06188],[106.42334,11.0454],[106.42217,11.04146],[106.41939,11.03631],[106.41202,11.03022],[106.4086,11.02084],[106.40908,11.01478],[106.41315,11.00761],[106.39613,11.00103],[106.3909,10.99989],[106.37978,10.999],[106.37627,11.0],[106.36771,10.99862],[106.36135,10.99561],[106.35898,10.9919],[106.35731,10.99076],[106.37393,10.97042],[106.41213,10.97482],[106.45391,10.94223],[106.49607,10.92126],[106.53195,10.90227],[106.53292,10.90049],[106.53268,10.89907],[106.51355,10.82622],[106.50473,10.78906],[106.46363,10.75652],[106.47208,10.74572],[106.4739,10.74601],[106.48715,10.72982],[106.48944,10.73096],[106.49973,10.72498],[106.50179,10.72634],[106.50933,10.71707],[106.52015,10.72365],[106.52937,10.71765],[106.52723,10.7092],[106.5289,10.70238],[106.53443,10.68731],[106.53555,10.68566],[106.54715,10.68705],[106.55071,10.68508],[106.5536,10.67355],[106.55314,10.6653],[106.55039,10.65769],[106.55535,10.6559],[106.55579,10.65131],[106.56268,10.65187],[106.56329,10.65795],[106.56871,10.6558],[106.57184,10.6497],[106.57305,10.64906],[106.57915,10.6492],[106.57979,10.65058],[106.5783,10.65323],[106.57959,10.65563],[106.58087,10.65631],[106.59138,10.65118],[106.59542,10.6532],[106.60012,10.65106],[106.60395,10.65649],[106.60691,10.65768],[106.61715,10.65231],[106.62288,10.64802],[106.62359,10.6443],[106.62615,10.64063],[106.62838,10.64066],[106.62972,10.63979],[106.62922,10.62582],[106.63958,10.62329],[106.64066,10.6233],[106.6453,10.63202],[106.64843,10.63284],[106.65319,10.63623],[106.6564,10.64342],[106.66268,10.63938],[106.66926,10.6391],[106.67328,10.64062],[106.68592,10.65132],[106.68623,10.65616],[106.68804,10.6552],[106.68996,10.65137],[106.69204,10.64949],[106.69523,10.64989],[106.69995,10.65294],[106.70213,10.65303],[106.71121,10.65017],[106.71686,10.64726],[106.72873,10.63692],[106.73155,10.63553],[106.73287,10.62834],[106.73161,10.62259],[106.7294,10.61848],[106.72924,10.61605],[106.73023,10.61324],[106.73157,10.61214],[106.72811,10.60927],[106.72558,10.61058],[106.7235,10.61011],[106.71966,10.60425],[106.72369,10.59151],[106.72372,10.58798],[106.72865,10.58035],[106.73039,10.57972],[106.73226,10.58012],[106.73445,10.58323],[106.73528,10.58599],[106.73724,10.58623],[106.73903,10.58485],[106.74424,10.575],[106.74388,10.55111],[106.74746,10.53402],[106.7474,10.52424],[106.74343,10.51243],[106.73461,10.497],[106.71172,10.47885],[106.7058,10.47259],[106.70021,10.46491],[106.68941,10.44631],[106.6864,10.44269],[106.68211,10.44006],[106.67433,10.43781],[106.67033,10.43806],[106.6636,10.44206],[106.66154,10.4471],[106.66074,10.45239],[106.66063,10.46905],[106.65951,10.47646],[106.65673,10.48038],[106.65163,10.48327],[106.64728,10.48376],[106.64249,10.48231],[106.63853,10.47875],[106.63171,10.45662],[106.6273,10.45211],[106.61297,10.44568],[106.60249,10.43928],[106.59626,10.43657],[106.59111,10.43664],[106.588,10.43801],[106.58638,10.43653],[106.58436,10.43331],[106.58435,10.43164],[106.58811,10.42169],[106.58746,10.41878],[106.58514,10.41725],[106.57531,10.41412],[106.56726,10.41451],[106.55938,10.41285],[106.55815,10.41538],[106.55892,10.42168],[106.55846,10.42412],[106.54852,10.42828],[106.54519,10.42894],[106.54298,10.42784],[106.53882,10.42213],[106.53615,10.42372],[106.53175,10.43111],[106.52927,10.4326],[106.52754,10.43248],[106.52519,10.43154],[106.51934,10.42522],[106.51291,10.42882],[106.5097,10.42772],[106.50766,10.42305],[106.4865,10.40849],[106.4859,10.40682],[106.48663,10.40487],[106.48568,10.40345],[106.47357,10.39868],[106.46185,10.39966],[106.45872,10.39589],[106.45617,10.39496],[106.44784,10.39842],[106.44688,10.40228],[106.44775,10.40408],[106.45575,10.40247],[106.45706,10.40478],[106.45741,10.40764],[106.45408,10.41122],[106.45175,10.41234],[106.42843,10.41181],[106.4259,10.41311],[106.42354,10.41632],[106.41767,10.42694],[106.42116,10.43404],[106.4296,10.43721],[106.44204,10.4455],[106.45183,10.45045],[106.45355,10.45055],[106.44273,10.4578],[106.43949,10.46631],[106.4342,10.46925],[106.4306,10.4735],[106.41976,10.48114],[106.41716,10.48416],[106.41682,10.48729],[106.41288,10.48955],[106.40362,10.49329],[106.40059,10.48532],[106.3961,10.48677],[106.39379,10.47843],[106.38957,10.47664],[106.38752,10.47715],[106.37344,10.48634],[106.37147,10.48912],[106.37449,10.49421],[106.36937,10.49898],[106.37099,10.50136],[106.37178,10.50637],[106.36854,10.5094],[106.36787,10.51406],[106.36912,10.51708],[106.36864,10.51873],[106.3641,10.52189],[106.35541,10.5226],[106.35189,10.5241],[106.34952,10.52931],[106.34812,10.54265],[106.34686,10.54408],[106.33886,10.54871],[106.32034,10.56979],[106.31913,10.57025],[106.31669,10.56953],[106.31041,10.56542],[106.29554,10.57767],[106.28653,10.58657],[106.26828,10.58611],[106.20548,10.58083],[106.18565,10.58048],[106.104,10.576],[106.10464,10.54362],[106.10341,10.52644],[106.09694,10.52268],[106.00186,10.53227]]]}},{"type":"Feature","properties":{"kind":"buffer","province_code":"80","buffer_m":5000,"source":"derived","simplify_tolerance_deg":0.0005},"geometry":{"type":"Polygon","coordinates":[[[105.4784,10.89656],[105.46087,10.92901],[105.45708,10.93896],[105.45576,10.94952],[105.45654,10.95998],[105.45899,10.96832],[105.46301,10.97605],[105.46846,10.98287],[105.47512,10.98853],[105.48275,10.99284],[105.49108,10.99562],[105.4998,10.99678],[105.50857,10.99627],[105.5137,10.99497],[105.52481,10.99627],[105.53101,10.99951],[105.54159,11.00348],[105.56686,11.00758],[105.62829,11.02462],[105.6495,11.02934],[105.66549,11.03736],[105.67277,11.04471],[105.69246,11.05844],[105.70915,11.06609],[105.71896,11.06917],[105.73265,11.07183],[105.74886,11.07198],[105.76632,11.07629],[105.77428,11.07741],[105.78233,11.07714],[105.79263,11.07516],[105.80021,11.07207],[105.80712,11.06769],[105.81312,11.06216],[105.81802,11.05567],[105.82258,11.04762],[105.83091,11.02866],[105.841,11.01082],[105.84823,10.99576],[105.8813,10.95541],[105.90047,10.92801],[105.90339,10.93639],[105.90807,10.94421],[105.91423,10.95096],[105.92163,10.95635],[105.92998,10.96017],[105.93893,10.96227],[105.94738,10.96263],[105.95553,10.96151],[105.96335,10.95896],[105.97058,10.95507],[105.97701,10.95044],[106.00545,10.92503],[106.04178,10.88768],[106.08815,10.85476],[106.09843,10.8531],[106.12785,10.85481],[106.12389,10.86225],[106.10379,10.88496],[106.09858,10.89217],[106.09489,10.90026],[106.09286,10.9089],[106.09259,10.91777],[106.09407,10.92651],[106.1016,10.94349],[106.10053,10.95382],[106.10076,10.96198],[106.09932,10.96888],[106.09863,10.97775],[106.09972,10.98659],[106.10254,10.99504],[106.10698,11.00278],[106.11304,11.01036],[106.11913,11.01576],[106.1358,11.02495],[106.14453,11.02784],[106.14346,11.03584],[106.14105,11.04004],[106.13493,11.03503],[106.12662,11.03047],[106.11944,11.02779],[106.11192,11.02633],[106.09873,11.02634],[106.09013,11.02816],[106.08096,11.03216],[106.06998,11.04036],[106.065,11.04582],[106.0589,11.05611],[106.05335,11.05865],[106.04453,11.06508],[106.03732,11.07269],[106.03215,11.08157],[106.0285,11.08509],[106.02138,11.09027],[106.00392,11.09898],[105.9971,11.10479],[105.98738,11.11486],[105.98214,11.1214],[105.97821,11.12877],[105.97593,11.13423],[105.97213,11.15076],[105.966,11.15022],[105.9571,11.15117],[105.94857,11.15382],[105.92443,11.16394],[105.91309,11.17076],[105.90502,11.1779],[105.8963,11.18415],[105.89035,11.19096],[105.87321,11.21491],[105.86826,11.22433],[105.86504,11.23608],[105.85528,11.23757],[105.84686,11.24068],[105.83922,11.24537],[105.83241,11.25127],[105.82781,11.25694],[105.82152,11.26772],[105.81773,11.28047],[105.81764,11.29488],[105.81923,11.30251],[105.82243,11.31082],[105.82182,11.31759],[105.82252,11.32547],[105.8246,11.33311],[105.83072,11.34477],[105.83317,11.35563],[105.8294,11.36538],[105.82818,11.37381],[105.82823,11.38391],[105.82959,11.39242],[105.82848,11.40324],[105.82946,11.41195],[105.8325,11.42252],[105.83637,11.42981],[105.83934,11.43355],[105.83587,11.43818],[105.83213,11.44639],[105.83031,11.45361],[105.82971,11.46103],[105.83066,11.47192],[105.83457,11.49091],[105.83373,11.49465],[105.83329,11.50601],[105.8348,11.51887],[105.82035,11.52036],[105.8125,11.52237],[105.7997,11.52737],[105.78922,11.534],[105.77886,11.54574],[105.77453,11.55356],[105.772,11.56131],[105.77046,11.57394],[105.76469,11.59006],[105.76372,11.59744],[105.76411,11.60616],[105.76715,11.61829],[105.77029,11.62629],[105.7749,11.63357],[105.78082,11.63985],[105.79269,11.64849],[105.7982,11.66088],[105.80779,11.67433],[105.81668,11.68954],[105.82197,11.69519],[105.8318,11.70246],[105.83955,11.70689],[105.85185,11.71198],[105.8618,11.7176],[105.88009,11.72235],[105.88889,11.72258],[105.8994,11.72066],[105.9072,11.71782],[105.91582,11.7132],[105.93608,11.69691],[105.93897,11.70591],[105.94459,11.71509],[105.9585,11.73046],[105.96661,11.73645],[105.96443,11.748],[105.96468,11.75662],[105.96658,11.76503],[105.97367,11.7848],[105.97669,11.79083],[105.98232,11.79845],[105.99029,11.80624],[106.00046,11.81314],[106.0137,11.81839],[106.03324,11.82178],[106.04578,11.82622],[106.05566,11.82783],[106.0705,11.82734],[106.08091,11.82507],[106.09048,11.82116],[106.10844,11.81002],[106.11497,11.80331],[106.12021,11.79548],[106.12674,11.79032],[106.13816,11.78983],[106.14731,11.78794],[106.15979,11.79289],[106.18205,11.79538],[106.19032,11.79534],[106.20429,11.79228],[106.21894,11.78485],[106.22877,11.77611],[106.24026,11.77455],[106.24829,11.77189],[106.26251,11.77048],[106.27199,11.76782],[106.28066,11.76322],[106.29053,11.75569],[106.30088,11.74477],[106.30591,11.7366],[106.31142,11.73399],[106.31814,11.72888],[106.33093,11.72943],[106.33632,11.73234],[106.35355,11.73889],[106.37073,11.74224],[106.38049,11.74277],[106.39235,11.74188],[106.40645,11.73825],[106.41706,11.73404],[106.42524,11.7298],[106.43729,11.72137],[106.45026,11.71626],[106.45932,11.71582],[106.46823,11.71356],[106.4765,11.7096],[106.4838,11.70408],[106.48984,11.69722],[106.49437,11.68931],[106.49721,11.68067],[106.498,11.67376],[106.50013,11.66598],[106.50459,11.65882],[106.5099,11.64287],[106.51917,11.63372],[106.52459,11.62591],[106.52824,11.61716],[106.53058,11.60469],[106.53046,11.60076],[106.53314,11.59189],[106.53493,11.58239],[106.53526,11.57288],[106.53456,11.56523],[106.53126,11.55149],[106.52488,11.53856],[106.52089,11.52681],[106.51544,11.51829],[106.50891,11.5117],[106.50116,11.50657],[106.49251,11.50309],[106.48325,11.50142],[106.47905,11.49957],[106.4709,11.49792],[106.46898,11.49313],[106.46836,11.4863],[106.46556,11.47729],[106.46093,11.46905],[106.44227,11.44256],[106.43553,11.4356],[106.42744,11.43021],[106.40911,11.42156],[106.40502,11.40017],[106.39105,11.37219],[106.386,11.35579],[106.38292,11.34943],[106.3868,11.34239],[106.38937,11.33465],[106.3905,11.32657],[106.38989,11.3166],[106.3952,11.30967],[106.39955,11.30023],[106.40158,11.29071],[106.40133,11.27799],[106.40487,11.27486],[106.41844,11.25636],[106.42321,11.24642],[106.42499,11.24053],[106.42813,11.23646],[106.43209,11.22849],[106.43399,11.22138],[106.43739,11.21865],[106.4413,11.21809],[106.44939,11.21531],[106.45681,11.21108],[106.46325,11.20596],[106.46831,11.20031],[106.47351,11.19195],[106.48074,11.17171],[106.4817,11.16597],[106.48483,11.16255],[106.48959,11.15449],[106.49257,11.14563],[106.49369,11.13333],[106.49231,11.12181],[106.48502,11.09906],[106.48076,11.09089],[106.47646,11.08564],[106.47447,11.08078],[106.4733,11.0619],[106.47164,11.05285],[106.46888,11.04609],[106.46892,11.0414],[106.4661,11.02879],[106.46349,11.02189],[106.45849,11.01279],[106.45885,11.00521],[106.45757,10.997],[106.47791,10.98112],[106.55455,10.94172],[106.56474,10.93382],[106.57243,10.92352],[106.57682,10.91328],[106.57843,10.90522],[106.57858,10.89744],[106.57764,10.89058],[106.55798,10.81535],[106.54918,10.77832],[106.546,10.76952],[106.54203,10.76313],[106.5594,10.75178],[106.56543,10.7455],[106.57014,10.7382],[106.57336,10.73014],[106.57449,10.72413],[106.58103,10.7193],[106.5853,10.71492],[106.59096,10.70666],[106.59356,10.70085],[106.5961,10.70176],[106.60701,10.7029],[106.61828,10.70148],[106.62837,10.69762],[106.64611,10.68736],[106.65429,10.6885],[106.66095,10.69386],[106.6689,10.69801],[106.67752,10.70056],[106.68648,10.70138],[106.6959,10.7005],[106.70402,10.69807],[106.71441,10.69659],[106.72664,10.69274],[106.73799,10.68737],[106.74929,10.67974],[106.75583,10.67355],[106.76044,10.6706],[106.76739,10.66365],[106.77268,10.65537],[106.77732,10.64093],[106.77863,10.62896],[106.7771,10.61631],[106.77713,10.6099],[106.78476,10.59636],[106.7893,10.58289],[106.78993,10.5725],[106.78959,10.55596],[106.79227,10.54319],[106.79322,10.53377],[106.79256,10.51689],[106.79083,10.50997],[106.78686,10.49816],[106.78327,10.49018],[106.77446,10.47476],[106.76823,10.46632],[106.74236,10.44497],[106.73867,10.44031],[106.72851,10.42262],[106.72312,10.41548],[106.71312,10.40598],[106.70407,10.40038],[106.69492,10.39644],[106.68631,10.394],[106.6674,10.39294],[106.65868,10.39433],[106.6504,10.39736],[106.64547,10.39971],[106.63565,10.40632],[106.63044,10.40331],[106.6263,10.39486],[106.6203,10.38729],[106.61389,10.38165],[106.60584,10.37692],[106.59368,10.37202],[106.57718,10.36894],[106.57181,10.36914],[106.561,10.36765],[106.5521,10.36821],[106.54439,10.37013],[106.53713,10.37334],[106.53035,10.3779],[106.52452,10.37918],[106.51802,10.37124],[106.51148,10.3661],[106.49795,10.35921],[106.48685,10.35541],[106.47459,10.35348],[106.4631,10.35026],[106.45387,10.3498],[106.44274,10.35168],[106.42832,10.35752],[106.42053,10.36213],[106.41293,10.36936],[106.40476,10.37301],[106.39602,10.37886],[106.38888,10.38654],[106.38439,10.3929],[106.37906,10.40161],[106.37412,10.41291],[106.37209,10.42282],[106.37273,10.4345],[106.36326,10.4388],[106.34789,10.44883],[106.34139,10.45407],[106.33596,10.46039],[106.3297,10.47065],[106.32692,10.47878],[106.32534,10.48728],[106.31795,10.49376],[106.31221,10.50158],[106.3052,10.51804],[106.30208,10.52121],[106.29789,10.52193],[106.28895,10.52548],[106.28097,10.5308],[106.2688,10.54075],[106.2092,10.53576],[106.1883,10.53533],[106.14975,10.53282],[106.14759,10.51463],[106.14446,10.50645],[106.1398,10.49902],[106.13377,10.49261],[106.12014,10.48371],[106.11184,10.47993],[106.10294,10.47785],[106.08704,10.47806],[106.00086,10.48697],[105.90739,10.49362],[105.89785,10.49528],[105.88823,10.49888],[105.87967,10.50452],[105.8726,10.5119],[105.8038,10.60331],[105.78953,10.61121],[105.77273,10.61417],[105.76424,10.6166],[105.75512,10.62138],[105.74789,10.62707],[105.56283,10.80018],[105.55796,10.80778],[105.55299,10.81952],[105.55146,10.82822],[105.55168,10.83705],[105.55491,10.84851],[105.54954,10.85747],[105.49752,10.88065],[105.49018,10.88476],[105.48374,10.89012],[105.4784,10.89656]]]}}]}