{"type":"FeatureCollection","features":[{"type":"Feature","geometry":{"type":"LineString","coordinates":[[105.85301,21.2106],[105.85256,21.21136],[105.85367,21.21131],[105.85481,21.2112],[105.85597,21.21108],[105.85881,21.2108],[105.86126,21.21063],[105.86346,21.21066],[105.8647,21.2108],[105.86594,21.211],[105.86708,21.21126],[105.8674,21.21134],[105.86779,21.21145],[105.86816,21.21156],[105.8684,21.21164],[105.869,21.21185],[105.86921,21.21193],[105.86967,21.21213],[105.87078,21.21262],[105.87271,21.21362],[105.87463,21.21466],[105.87599,21.21526],[105.87714,21.21566],[105.87855,21.21608],[105.87924,21.21624],[105.88005,21.2164],[105.88069,21.21649],[105.8815,21.2166],[105.88247,21.21666],[105.88279,21.21668],[105.88383,21.2167],[105.88427,21.21667],[105.88542,21.2166],[105.88566,21.21658],[105.88637,21.2165],[105.88706,21.2164],[105.88907,21.21595],[105.88935,21.21588],[105.89204,21.21521],[105.90046,21.21293],[105.90251,21.21249],[105.90399,21.21226],[105.90468,21.21218],[105.90547,21.21212],[105.9066,21.21206],[105.90731,21.21205],[105.90763,21.21205],[105.91158,21.21219],[105.9142,21.21216],[105.91425,21.21216],[105.91681,21.2121],[105.91982,21.21199],[105.92174,21.21192],[105.92367,21.21189],[105.92532,21.21178],[105.92618,21.21169],[105.92709,21.21157],[105.92754,21.21149],[105.92783,21.21144],[105.92859,21.2113],[105.92937,21.21111],[105.93033,21.21087],[105.93161,21.21049],[105.93188,21.2104],[105.93731,21.2087],[105.938,21.20848],[105.93841,21.20836],[105.94202,21.20722],[105.94509,21.20631],[105.94991,21.20501],[105.95088,21.20476],[105.95223,21.20441],[105.95365,21.20405],[105.95466,21.20378],[105.95672,21.20324],[105.95778,21.20291],[105.95832,21.20274],[105.95845,21.2027],[105.95854,21.20266],[105.95862,21.20262],[105.95872,21.20257],[105.9588,21.20251],[105.95886,21.20245],[105.9589,21.2024],[105.95893,21.20235],[105.95897,21.20229],[105.959,21.20224],[105.95902,21.20217],[105.95903,21.20211],[105.95904,21.20205],[105.95904,21.20198],[105.95903,21.20193],[105.95901,21.20186],[105.95899,21.20179],[105.95895,21.20171],[105.95886,21.20156],[105.95827,21.20078],[105.95819,21.20069],[105.95812,21.20064],[105.95801,21.20056],[105.95791,21.2005],[105.95782,21.20045],[105.95772,21.20042],[105.95763,21.2004],[105.95753,21.2004],[105.95739,21.20041],[105.95724,21.20043],[105.9572,21.20045],[105.95713,21.20047],[105.95701,21.20051],[105.95689,21.20059],[105.95682,21.20064],[105.95674,21.20069],[105.95668,21.20075],[105.95649,21.20089],[105.95641,21.20078],[105.95638,21.20073],[105.95633,21.20066],[105.9554,21.19954],[105.95507,21.19915],[105.95459,21.19854],[105.95429,21.19819],[105.9538,21.19849],[105.95317,21.19883],[105.95305,21.19891],[105.95207,21.19953],[105.95207,21.19954],[105.95206,21.19958],[105.95205,21.19961],[105.95203,21.19964],[105.952,21.19967],[105.95198,21.1997],[105.95194,21.19972],[105.9519,21.19974],[105.95209,21.20018],[105.95214,21.20032],[105.95216,21.2004],[105.95217,21.20048],[105.95213,21.20063],[105.95196,21.20166],[105.95181,21.20252],[105.95175,21.20273],[105.95173,21.20282],[105.95167,21.20291],[105.95144,21.2033],[105.95152,21.20335],[105.95173,21.20301],[105.95188,21.2031]]},"properties":{"h3_r8":"88415cae43fffff","detour_ratio":6.97,"dist_station_network_m":13088,"dist_station_euclid_m":1876,"population":1104,"commune_name":"Xã Sóc Sơn","kind":"network","station_name":"TTTM Huy Hùng"}},{"type":"Feature","geometry":{"type":"LineString","coordinates":[[105.85301,21.2106],[105.871,21.21197]]},"properties":{"h3_r8":"88415cae43fffff","detour_ratio":6.97,"dist_station_network_m":13088,"dist_station_euclid_m":1876,"population":1104,"commune_name":"Xã Sóc Sơn","kind":"euclid","station_name":"Nhượng quyền Lê Văn Ngân"}},{"type":"Feature","geometry":{"type":"LineString","coordinates":[[105.69733,20.74736],[105.69767,20.7475],[105.69768,20.74704],[105.69776,20.7463],[105.69778,20.74583],[105.69783,20.7458],[105.69843,20.74602],[105.69926,20.74642],[105.69945,20.74652],[105.69965,20.74662],[105.69954,20.74679],[105.69965,20.74687],[105.69996,20.74707],[105.70017,20.74722],[105.70037,20.74731],[105.70046,20.74735],[105.70062,20.7474],[105.70077,20.74747],[105.7009,20.74761],[105.70112,20.74787],[105.70114,20.74789],[105.70118,20.74791],[105.70128,20.748],[105.70165,20.74845],[105.70179,20.74863],[105.70199,20.74891],[105.70217,20.74916],[105.7024,20.74945],[105.70255,20.74964],[105.70261,20.74974],[105.70285,20.75018],[105.70313,20.75072],[105.70325,20.75102],[105.70357,20.75102],[105.7038,20.75097],[105.70438,20.75088],[105.70491,20.75082],[105.70528,20.75082],[105.70588,20.75094],[105.70618,20.751],[105.70641,20.75108],[105.70671,20.75124],[105.70699,20.75138],[105.70713,20.7514],[105.70731,20.75138],[105.70767,20.7513],[105.70784,20.75131],[105.70801,20.75136],[105.70826,20.75151],[105.70848,20.75178],[105.70863,20.75207],[105.70876,20.75229],[105.709,20.75249],[105.70937,20.75264],[105.70959,20.75272],[105.71011,20.7529],[105.7111,20.75325],[105.7119,20.75362],[105.71298,20.75427],[105.71387,20.75472],[105.7142,20.75488],[105.71424,20.75491],[105.71462,20.75514],[105.71498,20.75536],[105.71524,20.75553],[105.71556,20.75575],[105.71572,20.75588],[105.71589,20.75603],[105.71613,20.75623],[105.7162,20.75633],[105.71622,20.75639],[105.71622,20.75645],[105.71627,20.75666],[105.71632,20.75679],[105.71641,20.75693],[105.71673,20.75725],[105.717,20.75748],[105.71744,20.75791],[105.71762,20.75807],[105.71777,20.75827],[105.71795,20.75846],[105.71821,20.75875],[105.71843,20.75902],[105.71861,20.75927],[105.71867,20.7594],[105.71882,20.75965],[105.7189,20.75984],[105.71904,20.76003],[105.71918,20.7602],[105.71983,20.76112],[105.72019,20.76166],[105.72026,20.76171],[105.7204,20.76178],[105.72133,20.76231],[105.72154,20.7625],[105.72189,20.76295],[105.72238,20.76371],[105.7231,20.76493],[105.72345,20.76569],[105.72365,20.76596],[105.72379,20.76615],[105.72397,20.76647],[105.72405,20.76696],[105.72413,20.76707],[105.72452,20.76739],[105.72519,20.76784],[105.7256,20.76821],[105.72585,20.76855],[105.72613,20.76903],[105.72627,20.76924],[105.72659,20.76974],[105.72706,20.77054],[105.72713,20.77086],[105.72719,20.77163],[105.72727,20.77271],[105.72729,20.77333],[105.72732,20.77345],[105.72735,20.77356],[105.72764,20.77464],[105.72795,20.77573],[105.72796,20.77585],[105.72798,20.77609],[105.72797,20.77621],[105.72792,20.77671],[105.72764,20.77657],[105.72488,20.77531],[105.72462,20.7752],[105.72393,20.77512],[105.72384,20.77512],[105.72366,20.7751],[105.72332,20.77509],[105.72285,20.77503],[105.72258,20.77504],[105.72249,20.77506],[105.72182,20.77497],[105.72103,20.775],[105.72067,20.77502],[105.72014,20.77502],[105.71973,20.775],[105.71872,20.77486],[105.717,20.77463],[105.71654,20.77455],[105.716,20.77441],[105.71552,20.7742],[105.71485,20.77375],[105.71387,20.77312],[105.71339,20.77296],[105.71297,20.77291],[105.71276,20.77292],[105.71242,20.77296],[105.71225,20.773],[105.71211,20.77308],[105.71188,20.77318],[105.71171,20.77328]]},"properties":{"h3_r8":"884143625dfffff","detour_ratio":3.86,"dist_station_network_m":7080,"dist_station_euclid_m":1835,"population":5214,"commune_name":"Xã Vân Đình","kind":"network","station_name":"HỘ KINH DOANH TRẠM XUYÊN BỘT"}},{"type":"Feature","geometry":{"type":"LineString","coordinates":[[105.69733,20.74736],[105.70118,20.76356]]},"properties":{"h3_r8":"884143625dfffff","detour_ratio":3.86,"dist_station_network_m":7080,"dist_station_euclid_m":1835,"population":5214,"commune_name":"Xã Vân Đình","kind":"euclid","station_name":"NQ-Công ty TNHH Thương mai Tổng hợp Huy Anh"}},{"type":"Feature","geometry":{"type":"LineString","coordinates":[[105.76166,20.9432],[105.76184,20.94323],[105.76227,20.9431],[105.7624,20.94339],[105.76256,20.94377],[105.76257,20.94378],[105.76258,20.94379],[105.76264,20.94377],[105.76269,20.94394],[105.7627,20.94396],[105.76281,20.94426],[105.76285,20.94449],[105.76292,20.94449],[105.76299,20.94484],[105.76303,20.94495],[105.7631,20.94516],[105.76316,20.94532],[105.76319,20.94541],[105.76337,20.94582],[105.76343,20.9459],[105.76354,20.94613],[105.76377,20.9466],[105.76369,20.94664],[105.76345,20.94676],[105.76313,20.94688],[105.76283,20.94698],[105.76245,20.9471],[105.7625,20.94742],[105.76178,20.94752],[105.76174,20.9477],[105.7616,20.9478],[105.76061,20.94837],[105.76033,20.94854],[105.76028,20.94863],[105.76018,20.94889],[105.7598,20.94899],[105.75866,20.94932],[105.75792,20.94949],[105.75706,20.94969],[105.75709,20.95026],[105.7571,20.95028],[105.75711,20.95059],[105.75713,20.95086],[105.75714,20.95107],[105.75714,20.95116],[105.75716,20.95144],[105.75718,20.95179],[105.75719,20.95194],[105.75719,20.95208],[105.7572,20.95231],[105.75721,20.95247],[105.75724,20.95288],[105.75729,20.95368],[105.75729,20.95374],[105.75729,20.95387],[105.75731,20.9542],[105.75732,20.95438],[105.75733,20.95452],[105.75734,20.9546],[105.75736,20.95493],[105.75737,20.9551],[105.75738,20.95534],[105.75739,20.95543],[105.7574,20.95564],[105.75742,20.95587],[105.75742,20.95591],[105.75743,20.95604],[105.75741,20.95642],[105.75741,20.95666],[105.75698,20.95629],[105.75697,20.95628],[105.75666,20.95655],[105.75653,20.95661],[105.75604,20.95676],[105.75625,20.95671]]},"properties":{"h3_r8":"8841436a2dfffff","detour_ratio":2.22,"dist_station_network_m":2297,"dist_station_euclid_m":1033,"population":13723,"commune_name":"Phường Phú Lương","kind":"network","station_name":"Chung cư Vinaconex 21"}},{"type":"Feature","geometry":{"type":"LineString","coordinates":[[105.76166,20.9432],[105.76442,20.95217]]},"properties":{"h3_r8":"8841436a2dfffff","detour_ratio":2.22,"dist_station_network_m":2297,"dist_station_euclid_m":1033,"population":13723,"commune_name":"Phường Phú Lương","kind":"euclid","station_name":"Tư Nhân Trần Anh Tuấn, Số17 Khu Đô Thị Mới Phú Lương,  Phú La, Hà Đông, Hà Nội"}}]}