{"type":"FeatureCollection","features":[{"type":"Feature","properties":{"kind":"boundary","province_code":"12","name":"Tỉnh Lai Châu","source":"VNSDI","valid_from":"16/6/2025","simplify_tolerance_deg":0.0005},"geometry":{"type":"Polygon","coordinates":[[[103.33171,22.15258],[103.32759,22.14759],[103.32187,22.14405],[103.30999,22.12646],[103.30593,22.11641],[103.30291,22.11417],[103.29232,22.11216],[103.28985,22.11098],[103.28617,22.10726],[103.28487,22.10314],[103.28363,22.09333],[103.281,22.08667],[103.27557,22.07861],[103.27359,22.07417],[103.27351,22.07133],[103.27627,22.06683],[103.28691,22.05515],[103.29036,22.05003],[103.29029,22.04634],[103.28865,22.04169],[103.28484,22.03976],[103.28056,22.03908],[103.27332,22.04079],[103.24249,22.0512],[103.23487,22.05565],[103.22791,22.06157],[103.21995,22.06623],[103.21304,22.06878],[103.19678,22.06913],[103.18897,22.07083],[103.17954,22.07515],[103.17378,22.07982],[103.17061,22.08105],[103.16836,22.08018],[103.16617,22.07511],[103.15556,22.07499],[103.14614,22.06983],[103.14253,22.06979],[103.13663,22.07203],[103.13069,22.07765],[103.12032,22.09396],[103.11598,22.09749],[103.10804,22.09992],[103.10217,22.1005],[103.10128,22.09879],[103.09962,22.08803],[103.09456,22.07808],[103.09057,22.07298],[103.09106,22.06982],[103.09569,22.06104],[103.09527,22.05893],[103.09167,22.05783],[103.07338,22.05846],[103.06273,22.06191],[103.06048,22.06125],[103.05426,22.05339],[103.04845,22.04974],[103.04125,22.04776],[103.03628,22.04833],[103.02786,22.05286],[103.01834,22.0557],[103.00687,22.05303],[103.00193,22.0515],[102.99835,22.04914],[102.99613,22.04637],[102.99402,22.03561],[102.99117,22.0301],[102.98714,22.02752],[102.98507,22.0272],[102.97562,22.03071],[102.96654,22.03232],[102.96402,22.03461],[102.96372,22.03987],[102.96136,22.04721],[102.95859,22.05138],[102.94834,22.0582],[102.94144,22.06717],[102.93058,22.06829],[102.92849,22.07248],[102.9293,22.07923],[102.93414,22.0875],[102.93407,22.09234],[102.93287,22.09738],[102.93031,22.10261],[102.92824,22.10532],[102.92596,22.10589],[102.9235,22.10505],[102.92637,22.09435],[102.92528,22.09139],[102.92077,22.09091],[102.91245,22.08849],[102.90439,22.08417],[102.89862,22.07778],[102.8921,22.0758],[102.88826,22.07575],[102.87918,22.08058],[102.86837,22.0776],[102.8646,22.07292],[102.86253,22.06089],[102.86074,22.05961],[102.85871,22.05979],[102.85411,22.06541],[102.84371,22.06612],[102.83493,22.06453],[102.82523,22.0644],[102.81112,22.07221],[102.77881,22.0882],[102.77606,22.09132],[102.7769,22.09491],[102.77957,22.09789],[102.77884,22.10125],[102.77353,22.10834],[102.76892,22.11417],[102.76527,22.11685],[102.75982,22.11888],[102.75591,22.12325],[102.74218,22.13506],[102.74025,22.1424],[102.74026,22.15609],[102.73692,22.16699],[102.73685,22.1712],[102.745,22.17636],[102.74598,22.17856],[102.75053,22.19181],[102.75214,22.20425],[102.75137,22.21034],[102.74857,22.21536],[102.73408,22.23136],[102.7263,22.23736],[102.70748,22.24152],[102.69109,22.24886],[102.67663,22.26192],[102.67347,22.26208],[102.66741,22.25926],[102.66407,22.25627],[102.66525,22.25312],[102.67009,22.24793],[102.68285,22.24117],[102.68562,22.23784],[102.68682,22.23322],[102.69313,22.22068],[102.69739,22.20917],[102.69614,22.20241],[102.69351,22.19753],[102.68994,22.1937],[102.68408,22.17993],[102.67837,22.17037],[102.67502,22.1678],[102.66958,22.16898],[102.66092,22.17412],[102.65412,22.1755],[102.64712,22.17498],[102.64145,22.17658],[102.63219,22.18755],[102.61963,22.19794],[102.61755,22.20086],[102.61741,22.22233],[102.61906,22.23161],[102.61765,22.23475],[102.61422,22.23744],[102.60172,22.24188],[102.58062,22.25946],[102.57517,22.26107],[102.57065,22.26142],[102.56187,22.25918],[102.559,22.25556],[102.55574,22.24794],[102.55083,22.24428],[102.54362,22.24312],[102.53681,22.24491],[102.53065,22.24861],[102.51896,22.25769],[102.51343,22.26371],[102.51014,22.27103],[102.5089,22.27711],[102.50494,22.28379],[102.49596,22.29312],[102.49068,22.29746],[102.48876,22.30374],[102.48161,22.31184],[102.46743,22.33309],[102.45779,22.34094],[102.45397,22.35245],[102.45171,22.3558],[102.44606,22.36218],[102.44221,22.3649],[102.42879,22.3691],[102.42489,22.37199],[102.42127,22.38456],[102.41872,22.38768],[102.41352,22.38759],[102.41033,22.38881],[102.40552,22.39231],[102.39974,22.39895],[102.39265,22.40304],[102.38827,22.4076],[102.38685,22.41095],[102.39062,22.4148],[102.39397,22.41696],[102.39574,22.41909],[102.39681,22.42247],[102.39625,22.42836],[102.39315,22.43652],[102.39035,22.44152],[102.39198,22.45081],[102.3921,22.4567],[102.39111,22.46111],[102.38811,22.46443],[102.38214,22.46875],[102.36345,22.47581],[102.36091,22.47851],[102.35925,22.48507],[102.35566,22.49067],[102.3489,22.49136],[102.34751,22.49302],[102.34662,22.50111],[102.34564,22.50488],[102.3414,22.51354],[102.33887,22.5275],[102.31997,22.5477],[102.32192,22.55237],[102.32249,22.55806],[102.33706,22.56051],[102.34918,22.5643],[102.35429,22.56678],[102.35526,22.56786],[102.35208,22.5737],[102.34736,22.58004],[102.34629,22.58474],[102.34766,22.58821],[102.35624,22.59152],[102.36915,22.5937],[102.37874,22.60108],[102.38889,22.61513],[102.39753,22.62559],[102.40465,22.63244],[102.40812,22.63359],[102.4129,22.63392],[102.41554,22.63553],[102.41704,22.63778],[102.41702,22.63908],[102.41471,22.64192],[102.40768,22.6419],[102.40518,22.64069],[102.40167,22.64337],[102.39838,22.65221],[102.38899,22.66424],[102.38554,22.67318],[102.38405,22.68041],[102.38667,22.68499],[102.39296,22.68838],[102.39671,22.68854],[102.40603,22.6856],[102.41215,22.68725],[102.41778,22.69227],[102.42379,22.69382],[102.4355,22.70271],[102.43767,22.70932],[102.44129,22.71653],[102.44233,22.72216],[102.44483,22.72771],[102.45104,22.72965],[102.45547,22.73262],[102.45597,22.73379],[102.45243,22.73934],[102.45089,22.74376],[102.45146,22.75078],[102.45457,22.75872],[102.45934,22.76566],[102.46543,22.76904],[102.47479,22.77006],[102.478,22.77118],[102.47982,22.77401],[102.48059,22.77731],[102.48411,22.77911],[102.49325,22.78041],[102.49878,22.78011],[102.50687,22.77695],[102.51924,22.76699],[102.53314,22.75927],[102.5424,22.74858],[102.54732,22.74721],[102.54795,22.74274],[102.55193,22.73413],[102.5621,22.72451],[102.56427,22.72],[102.56634,22.71462],[102.56681,22.70553],[102.57151,22.70493],[102.57952,22.70582],[102.58397,22.70763],[102.5854,22.7092],[102.58664,22.7216],[102.59011,22.72571],[102.59914,22.73359],[102.60518,22.73387],[102.63448,22.70868],[102.64733,22.70055],[102.65623,22.69139],[102.67124,22.69732],[102.67799,22.69839],[102.68748,22.70404],[102.68966,22.70436],[102.70753,22.69504],[102.70946,22.69178],[102.70971,22.68308],[102.71286,22.68128],[102.7182,22.67981],[102.72194,22.68045],[102.72425,22.67922],[102.7312,22.66849],[102.7356,22.6671],[102.74756,22.66804],[102.75166,22.66588],[102.75471,22.6577],[102.76256,22.64852],[102.78165,22.64656],[102.78533,22.64487],[102.7867,22.64334],[102.78633,22.64082],[102.78318,22.63604],[102.78311,22.63362],[102.78794,22.62656],[102.79312,22.62612],[102.79868,22.62387],[102.80804,22.62478],[102.81284,22.62387],[102.81621,22.62169],[102.8229,22.62633],[102.82561,22.62647],[102.84019,22.6195],[102.84262,22.61702],[102.84311,22.61268],[102.84677,22.61137],[102.86043,22.61059],[102.86273,22.60936],[102.86349,22.60792],[102.86219,22.60442],[102.86507,22.60001],[102.87043,22.59631],[102.8744,22.59568],[102.87716,22.59185],[102.87744,22.58769],[102.87182,22.58037],[102.87116,22.57591],[102.87161,22.57417],[102.87864,22.5704],[102.88096,22.5682],[102.88089,22.56607],[102.87797,22.55936],[102.87957,22.55677],[102.89388,22.54709],[102.89477,22.54314],[102.89004,22.53959],[102.88882,22.53716],[102.90345,22.52652],[102.90806,22.52474],[102.90949,22.51934],[102.90961,22.5116],[102.91088,22.50978],[102.92069,22.50826],[102.92228,22.50616],[102.92372,22.50047],[102.9231,22.49282],[102.926,22.48695],[102.92885,22.4839],[102.9385,22.48576],[102.94142,22.48531],[102.94718,22.48278],[102.94967,22.48281],[102.95432,22.48548],[102.95859,22.48466],[102.96305,22.47891],[102.96794,22.47849],[102.97603,22.48024],[102.98362,22.48033],[102.98624,22.4795],[102.99217,22.47212],[102.99187,22.46428],[102.99356,22.46198],[102.99834,22.46272],[103.00761,22.46148],[103.01376,22.45343],[103.01711,22.45173],[103.02034,22.45148],[103.02804,22.44383],[103.03024,22.44299],[103.03997,22.4463],[103.04736,22.44571],[103.05182,22.44683],[103.05683,22.4526],[103.06271,22.44919],[103.06751,22.44779],[103.07447,22.44855],[103.07859,22.45151],[103.07979,22.455],[103.08052,22.46236],[103.07813,22.46959],[103.07234,22.47416],[103.07064,22.47714],[103.07427,22.48522],[103.07171,22.49022],[103.0727,22.49361],[103.07682,22.49676],[103.0792,22.5053],[103.08401,22.51126],[103.09384,22.51466],[103.10142,22.51611],[103.10974,22.5164],[103.11648,22.51812],[103.11884,22.52076],[103.13059,22.52932],[103.13876,22.54112],[103.14319,22.54194],[103.1479,22.54432],[103.15025,22.54338],[103.15247,22.54123],[103.1556,22.54034],[103.15835,22.54076],[103.16064,22.54424],[103.18191,22.5574],[103.18152,22.55986],[103.16222,22.58396],[103.15893,22.59277],[103.15862,22.59603],[103.16619,22.61057],[103.16833,22.61645],[103.17703,22.6287],[103.18163,22.63195],[103.18514,22.64303],[103.18748,22.64635],[103.19331,22.6498],[103.19953,22.6502],[103.20729,22.64791],[103.21222,22.64732],[103.22283,22.64848],[103.22632,22.65002],[103.23354,22.65754],[103.24502,22.66595],[103.25605,22.67197],[103.27097,22.67592],[103.28131,22.68277],[103.28303,22.68474],[103.28225,22.69809],[103.28289,22.70108],[103.28742,22.71094],[103.28859,22.71759],[103.28595,22.72893],[103.28653,22.73736],[103.29188,22.74499],[103.30956,22.76413],[103.31463,22.7764],[103.31796,22.78233],[103.31854,22.79097],[103.31634,22.80316],[103.31748,22.80696],[103.32311,22.80919],[103.3252,22.80922],[103.32747,22.81137],[103.32935,22.8112],[103.33125,22.80889],[103.33692,22.80586],[103.34736,22.80519],[103.35948,22.80299],[103.37329,22.79927],[103.38534,22.78565],[103.39289,22.78224],[103.39853,22.78114],[103.41256,22.77644],[103.41665,22.76545],[103.42064,22.76259],[103.43133,22.75844],[103.4372,22.75559],[103.43961,22.7536],[103.44171,22.74838],[103.44106,22.7418],[103.43879,22.73965],[103.43007,22.73618],[103.42853,22.73393],[103.43018,22.72611],[103.42971,22.72224],[103.42809,22.71826],[103.42831,22.71652],[103.43295,22.71202],[103.43318,22.71018],[103.43128,22.70349],[103.43939,22.69554],[103.45062,22.68897],[103.45293,22.68715],[103.45442,22.68455],[103.45778,22.68207],[103.45916,22.67938],[103.45686,22.66165],[103.45856,22.65886],[103.46287,22.65522],[103.46608,22.64781],[103.46934,22.64455],[103.475,22.6417],[103.47627,22.63978],[103.47812,22.63292],[103.48573,22.62698],[103.48847,22.61967],[103.49914,22.61561],[103.50647,22.61181],[103.50826,22.6097],[103.50717,22.60456],[103.50834,22.60234],[103.52874,22.59553],[103.53229,22.58651],[103.53841,22.58614],[103.54429,22.58725],[103.552,22.58721],[103.55939,22.58454],[103.57215,22.57792],[103.57183,22.57602],[103.5687,22.57157],[103.56761,22.56756],[103.56889,22.56378],[103.5798,22.54977],[103.57951,22.54461],[103.58256,22.53453],[103.58531,22.53129],[103.59338,22.5283],[103.59522,22.52621],[103.59442,22.52357],[103.58819,22.51573],[103.58481,22.50254],[103.5779,22.49195],[103.56845,22.48576],[103.5578,22.47534],[103.55547,22.47132],[103.55551,22.46764],[103.55701,22.4647],[103.56556,22.45878],[103.56971,22.45187],[103.57804,22.44467],[103.58104,22.43965],[103.58797,22.43644],[103.58925,22.4333],[103.58939,22.43056],[103.60188,22.42656],[103.60315,22.42394],[103.60346,22.41636],[103.60452,22.41132],[103.60738,22.40839],[103.61934,22.40049],[103.62457,22.39801],[103.63249,22.3985],[103.64556,22.40377],[103.67917,22.40436],[103.69215,22.40784],[103.7063,22.40753],[103.71093,22.40894],[103.71598,22.41319],[103.72885,22.41656],[103.73214,22.41574],[103.74419,22.40973],[103.75972,22.39468],[103.76602,22.38557],[103.76718,22.382],[103.76625,22.37283],[103.76704,22.35978],[103.76809,22.35589],[103.7714,22.35308],[103.77855,22.35018],[103.7805,22.34746],[103.78065,22.34325],[103.78238,22.33863],[103.78195,22.3362],[103.77224,22.33423],[103.77,22.33243],[103.77186,22.32591],[103.77121,22.32264],[103.76718,22.31766],[103.76303,22.31447],[103.76281,22.313],[103.76611,22.31071],[103.77144,22.30917],[103.77567,22.30414],[103.78893,22.30098],[103.79337,22.29785],[103.82001,22.27657],[103.82948,22.26537],[103.8318,22.25875],[103.84073,22.24481],[103.84316,22.23799],[103.84281,22.2264],[103.84396,22.22409],[103.85317,22.21657],[103.8564,22.20817],[103.85812,22.20618],[103.86775,22.20215],[103.8706,22.20016],[103.87231,22.19744],[103.87282,22.19028],[103.86689,22.18266],[103.86816,22.1794],[103.87066,22.17774],[103.88605,22.175],[103.88934,22.17323],[103.90042,22.15835],[103.90894,22.1523],[103.91543,22.14529],[103.91985,22.1429],[103.93579,22.14142],[103.93749,22.14028],[103.93853,22.13828],[103.93928,22.1287],[103.93729,22.12216],[103.93765,22.11901],[103.94234,22.11156],[103.94384,22.10746],[103.94376,22.10262],[103.93913,22.08753],[103.93871,22.08405],[103.94145,22.07933],[103.94931,22.06959],[103.95276,22.06182],[103.95599,22.05152],[103.95732,22.03994],[103.95313,22.02696],[103.95485,22.02339],[103.95984,22.01974],[103.96314,22.01608],[103.9643,22.01177],[103.96153,22.00511],[103.95586,22.00044],[103.96891,21.98552],[103.97604,21.97561],[103.98522,21.96715],[103.97924,21.96254],[103.97049,21.95791],[103.96164,21.94501],[103.96169,21.9373],[103.94446,21.91888],[103.94154,21.91774],[103.93758,21.91884],[103.92794,21.92481],[103.92443,21.92935],[103.92116,21.93029],[103.91755,21.92899],[103.90678,21.92153],[103.90266,21.92038],[103.89553,21.92077],[103.89269,21.91903],[103.88983,21.91162],[103.88735,21.89828],[103.88811,21.86729],[103.8895,21.86457],[103.90836,21.84896],[103.91789,21.83923],[103.91911,21.8365],[103.91848,21.82944],[103.92056,21.8272],[103.93212,21.82101],[103.93854,21.81254],[103.94978,21.80234],[103.95187,21.79882],[103.95332,21.78855],[103.96218,21.77464],[103.96634,21.77001],[103.9667,21.76728],[103.96554,21.76069],[103.96436,21.75827],[103.9582,21.75502],[103.95494,21.75484],[103.95254,21.75322],[103.95347,21.74359],[103.9528,21.74166],[103.94616,21.74377],[103.93821,21.74076],[103.93543,21.74476],[103.93354,21.74475],[103.92549,21.74181],[103.91763,21.7363],[103.91679,21.73404],[103.91754,21.72554],[103.91607,21.72099],[103.91318,21.7172],[103.91371,21.71543],[103.91907,21.70969],[103.92159,21.70553],[103.9234,21.70027],[103.91705,21.69749],[103.90777,21.69552],[103.89181,21.70172],[103.88258,21.7094],[103.88069,21.70689],[103.88116,21.69629],[103.88032,21.68867],[103.87818,21.68651],[103.87436,21.68613],[103.86286,21.69141],[103.8535,21.6917],[103.8497,21.69751],[103.84585,21.70105],[103.84086,21.7034],[103.83738,21.70933],[103.83435,21.72181],[103.83352,21.72978],[103.83387,21.73372],[103.83613,21.73814],[103.83509,21.74099],[103.83265,21.74288],[103.83075,21.74191],[103.82727,21.73615],[103.81498,21.73846],[103.80811,21.73853],[103.80465,21.74018],[103.80243,21.7451],[103.7986,21.75102],[103.79666,21.75226],[103.79393,21.75796],[103.79086,21.76032],[103.78433,21.76349],[103.78214,21.76621],[103.77875,21.77595],[103.77605,21.77867],[103.75921,21.78116],[103.75512,21.78303],[103.75394,21.78672],[103.75428,21.79136],[103.75776,21.80211],[103.75822,21.80723],[103.75655,21.80936],[103.75348,21.81029],[103.74127,21.8099],[103.7298,21.80844],[103.72317,21.80863],[103.71882,21.8105],[103.71676,21.81287],[103.71468,21.81809],[103.7116,21.82057],[103.70814,21.82268],[103.70022,21.82393],[103.69677,21.82593],[103.69584,21.82937],[103.69602,21.83795],[103.70552,21.84421],[103.70725,21.8509],[103.71051,21.85664],[103.71715,21.86461],[103.72232,21.87566],[103.72229,21.87888],[103.71103,21.8843],[103.70566,21.88517],[103.70411,21.8879],[103.70554,21.89863],[103.70448,21.90338],[103.70034,21.9099],[103.6897,21.91601],[103.68367,21.92048],[103.68301,21.92238],[103.68903,21.93291],[103.68861,21.93767],[103.68703,21.94278],[103.68433,21.94525],[103.67258,21.94683],[103.66656,21.95023],[103.66475,21.95284],[103.66056,21.96352],[103.6585,21.97981],[103.65244,21.98667],[103.65228,21.99012],[103.65084,21.99321],[103.64751,21.99449],[103.6442,21.99434],[103.63798,21.99096],[103.63416,21.99057],[103.63019,21.99208],[103.61423,22.00119],[103.60506,22.01071],[103.60152,22.01215],[103.57003,22.01949],[103.55412,22.02566],[103.54751,22.02906],[103.54157,22.02987],[103.52596,22.0248],[103.51777,22.01928],[103.51356,22.01431],[103.51229,22.0118],[103.51358,22.0029],[103.51246,21.99867],[103.51313,21.99079],[103.51015,21.98677],[103.50222,21.98215],[103.50029,21.98014],[103.49677,21.97103],[103.49185,21.9744],[103.47636,21.97939],[103.47188,21.98333],[103.46719,21.992],[103.4554,22.00597],[103.45378,22.00985],[103.45442,22.01365],[103.45742,22.01778],[103.46758,22.02788],[103.46766,22.03093],[103.45467,22.05282],[103.44944,22.05645],[103.44356,22.05692],[103.43855,22.05552],[103.43612,22.05591],[103.43396,22.05736],[103.42639,22.06824],[103.42331,22.07137],[103.41962,22.07859],[103.40187,22.13075],[103.39233,22.1454],[103.39041,22.15517],[103.38407,22.15637],[103.34933,22.15234],[103.33428,22.15366],[103.33171,22.15258]]]}},{"type":"Feature","properties":{"kind":"buffer","province_code":"12","buffer_m":5000,"source":"derived","simplify_tolerance_deg":0.0005},"geometry":{"type":"Polygon","coordinates":[[[102.27201,22.55476],[102.27613,22.57149],[102.28012,22.58014],[102.28595,22.58784],[102.29336,22.59424],[102.29978,22.59781],[102.30474,22.6094],[102.31023,22.61701],[102.31588,22.62239],[102.32459,22.62806],[102.33387,22.63214],[102.34491,22.63527],[102.34836,22.64004],[102.3433,22.64894],[102.33985,22.65788],[102.33637,22.67187],[102.33553,22.68205],[102.33716,22.69215],[102.34119,22.70164],[102.34876,22.71324],[102.35501,22.71927],[102.36864,22.72752],[102.37931,22.73178],[102.39568,22.73366],[102.39756,22.73965],[102.40267,22.74963],[102.40585,22.76626],[102.40895,22.7742],[102.41367,22.78309],[102.41844,22.79003],[102.42554,22.79812],[102.44053,22.80787],[102.44867,22.81137],[102.46073,22.81874],[102.4685,22.82193],[102.48591,22.82511],[102.50161,22.82525],[102.50975,22.82416],[102.51758,22.8218],[102.52567,22.81864],[102.5364,22.81284],[102.54873,22.80326],[102.56402,22.79416],[102.57362,22.78495],[102.57944,22.78111],[102.58407,22.77639],[102.59669,22.77875],[102.6122,22.77861],[102.62141,22.77649],[102.62999,22.77274],[102.63763,22.76751],[102.665,22.74403],[102.67176,22.74682],[102.67989,22.7487],[102.69065,22.74957],[102.69919,22.7487],[102.70744,22.74644],[102.73754,22.73059],[102.74454,22.72431],[102.74934,22.71783],[102.75733,22.71211],[102.76266,22.71102],[102.77563,22.7052],[102.7828,22.70056],[102.78897,22.69481],[102.79213,22.69055],[102.80684,22.68541],[102.81531,22.68044],[102.8245,22.67157],[102.83154,22.67134],[102.83987,22.66969],[102.86234,22.65975],[102.87056,22.65467],[102.87669,22.65319],[102.88679,22.64864],[102.89469,22.6434],[102.90132,22.6368],[102.90598,22.62977],[102.90874,22.62765],[102.91746,22.61707],[102.9216,22.61007],[102.92435,22.6025],[102.92563,22.5946],[102.92568,22.58558],[102.92785,22.57909],[102.93027,22.57702],[102.93618,22.56929],[102.94113,22.55776],[102.94767,22.55089],[102.95278,22.54203],[102.96039,22.53428],[102.96341,22.52984],[102.97913,22.5255],[102.99132,22.52498],[103.00204,22.52225],[103.01144,22.51814],[103.01969,22.51227],[103.02586,22.5055],[103.02945,22.51417],[103.03338,22.51981],[103.03573,22.52545],[103.04519,22.53843],[103.05175,22.54506],[103.0596,22.55035],[103.06841,22.55408],[103.08411,22.55896],[103.09474,22.56075],[103.10274,22.57144],[103.11277,22.57908],[103.11087,22.58634],[103.11009,22.59454],[103.11078,22.60372],[103.11344,22.61258],[103.12751,22.64093],[103.13922,22.6568],[103.14485,22.66836],[103.15429,22.67934],[103.16726,22.68795],[103.17438,22.69143],[103.18201,22.69377],[103.19618,22.69531],[103.20609,22.69488],[103.22049,22.70497],[103.23623,22.71286],[103.23849,22.71942],[103.2375,22.7318],[103.23807,22.74023],[103.23931,22.74789],[103.24193,22.75524],[103.25121,22.7697],[103.26751,22.78826],[103.2691,22.79211],[103.26786,22.80554],[103.27071,22.81908],[103.27378,22.82665],[103.27825,22.8336],[103.28398,22.83969],[103.29078,22.84472],[103.30691,22.85233],[103.31506,22.85508],[103.3236,22.85644],[103.33414,22.85619],[103.34382,22.85436],[103.35424,22.84987],[103.37278,22.84648],[103.38735,22.84255],[103.39632,22.83908],[103.40436,22.83401],[103.41431,22.82391],[103.43081,22.81846],[103.44256,22.812],[103.44999,22.80524],[103.45525,22.79782],[103.46941,22.78943],[103.47964,22.77919],[103.48718,22.76423],[103.48944,22.75667],[103.49026,22.74886],[103.48906,22.73443],[103.48432,22.72163],[103.49574,22.71027],[103.50158,22.70159],[103.50623,22.69048],[103.50765,22.68163],[103.50732,22.67524],[103.5113,22.67173],[103.51635,22.66541],[103.52049,22.65828],[103.52401,22.65447],[103.53793,22.64625],[103.54654,22.63746],[103.55289,22.63476],[103.55712,22.63199],[103.56956,22.62937],[103.58142,22.62484],[103.59247,22.61956],[103.60067,22.61459],[103.60981,22.60645],[103.61537,22.59852],[103.61902,22.58969],[103.62063,22.58035],[103.62033,22.57482],[103.6259,22.56395],[103.62661,22.5611],[103.63282,22.55482],[103.63853,22.54665],[103.64223,22.53753],[103.64374,22.52788],[103.64299,22.51816],[103.64092,22.51058],[103.63732,22.5024],[103.63343,22.49694],[103.6308,22.48803],[103.62638,22.47918],[103.62033,22.46989],[103.63302,22.46126],[103.64055,22.45391],[103.64371,22.44897],[103.67067,22.44927],[103.68753,22.45285],[103.69322,22.45305],[103.70285,22.45672],[103.71573,22.46009],[103.72421,22.46157],[103.73285,22.46162],[103.74464,22.45943],[103.75507,22.4556],[103.77319,22.44599],[103.77862,22.44161],[103.79497,22.42578],[103.8021,22.41735],[103.8083,22.4078],[103.81248,22.3987],[103.81544,22.38695],[103.81559,22.37904],[103.82091,22.37252],[103.82517,22.36518],[103.8279,22.35723],[103.83089,22.3405],[103.8297,22.32827],[103.85278,22.30993],[103.86821,22.29265],[103.87252,22.2863],[103.87614,22.27796],[103.88303,22.26701],[103.88682,22.25904],[103.89124,22.24428],[103.89488,22.23935],[103.89969,22.23636],[103.9068,22.2303],[103.91419,22.22032],[103.91805,22.2126],[103.91913,22.20864],[103.92198,22.20671],[103.92887,22.19949],[103.9359,22.18992],[103.94054,22.18648],[103.95407,22.18332],[103.96425,22.17806],[103.97203,22.17206],[103.97717,22.16634],[103.98123,22.1599],[103.9852,22.15073],[103.9874,22.13803],[103.98761,22.12751],[103.9918,22.11452],[103.99231,22.10195],[103.99102,22.09231],[103.99764,22.07907],[104.00259,22.06422],[104.00427,22.05632],[104.00569,22.03761],[104.01023,22.02707],[104.01272,22.01508],[104.01234,22.00595],[104.02514,21.99289],[104.02955,21.98558],[104.03244,21.97765],[104.03371,21.96935],[104.03331,21.96098],[104.03127,21.95282],[104.02764,21.94516],[104.02255,21.93824],[104.00884,21.92686],[104.00555,21.9179],[104.00097,21.91071],[103.98559,21.89345],[103.97171,21.88146],[103.96038,21.87606],[103.95016,21.87338],[103.95882,21.86355],[103.96314,21.85564],[103.98549,21.83298],[103.99228,21.8242],[103.99817,21.81242],[104.00013,21.8037],[104.00882,21.7919],[104.01251,21.78399],[104.01488,21.77284],[104.01462,21.75999],[104.01346,21.7534],[104.00971,21.7419],[104.00338,21.73136],[103.99826,21.72616],[103.99516,21.71957],[103.98971,21.71228],[103.98284,21.70613],[103.9717,21.70022],[103.9717,21.69565],[103.96967,21.68656],[103.96569,21.67804],[103.95992,21.67047],[103.95261,21.66414],[103.94407,21.65935],[103.9256,21.65264],[103.91682,21.65096],[103.90765,21.65062],[103.89996,21.6461],[103.89189,21.64313],[103.87956,21.64117],[103.87043,21.64106],[103.86143,21.64254],[103.85035,21.64674],[103.83916,21.6485],[103.83106,21.65161],[103.82369,21.65602],[103.81729,21.66159],[103.81357,21.66625],[103.80378,21.67422],[103.79479,21.68761],[103.7912,21.69647],[103.78257,21.69991],[103.77362,21.7054],[103.76619,21.71259],[103.75741,21.7262],[103.75289,21.72903],[103.74388,21.73836],[103.7337,21.74246],[103.72524,21.7474],[103.71804,21.75384],[103.71241,21.76153],[103.71087,21.76499],[103.69846,21.76945],[103.68901,21.77481],[103.68038,21.78286],[103.67118,21.78749],[103.66375,21.79277],[103.65754,21.79928],[103.65278,21.80677],[103.64874,21.81842],[103.64729,21.82899],[103.6474,21.83903],[103.64925,21.85009],[103.65256,21.8581],[103.65743,21.86538],[103.66046,21.86844],[103.6575,21.87522],[103.65591,21.88326],[103.6466,21.89127],[103.64121,21.89854],[103.63744,21.90666],[103.63505,21.91612],[103.63273,21.91779],[103.62398,21.92827],[103.61913,21.93735],[103.61463,21.94915],[103.60554,21.95312],[103.59336,21.95981],[103.58668,21.96396],[103.57815,21.97075],[103.55874,21.97564],[103.55311,21.96515],[103.54455,21.95486],[103.54041,21.95163],[103.53401,21.94202],[103.52751,21.93603],[103.51992,21.93128],[103.5115,21.92794],[103.50257,21.92614],[103.49343,21.92592],[103.48441,21.9273],[103.47582,21.93024],[103.46994,21.93352],[103.45896,21.93698],[103.44873,21.94221],[103.43857,21.95043],[103.43004,21.96038],[103.42474,21.96948],[103.41362,21.98294],[103.40853,21.99345],[103.40616,22.00105],[103.40524,22.00892],[103.40636,22.02014],[103.39825,22.02673],[103.38305,22.04609],[103.37947,22.05194],[103.37343,22.06464],[103.3636,22.09224],[103.35903,22.10783],[103.35445,22.10738],[103.34876,22.0951],[103.34324,22.08747],[103.33619,22.08104],[103.32965,22.07679],[103.33567,22.06627],[103.33817,22.0579],[103.3389,22.04924],[103.33817,22.03882],[103.33479,22.0276],[103.33113,22.01979],[103.32596,22.01275],[103.31947,22.00675],[103.31188,22.00198],[103.30073,21.99703],[103.28868,21.9945],[103.2786,21.9939],[103.26861,21.99525],[103.2569,21.99824],[103.22539,22.00888],[103.20909,22.01733],[103.20067,22.0235],[103.18571,22.0251],[103.1686,22.0299],[103.16335,22.02754],[103.15518,22.0254],[103.14674,22.02461],[103.13345,22.02537],[103.12903,22.02659],[103.11981,22.01991],[103.10675,22.01485],[103.09814,22.01301],[103.07706,22.01317],[103.06913,22.00883],[103.06221,22.00638],[103.04524,22.00269],[103.03035,22.00345],[103.02514,21.99779],[103.01866,21.99283],[103.00533,21.9856],[102.9931,21.9826],[102.98218,21.98206],[102.9714,21.98381],[102.95344,21.98878],[102.94587,21.99141],[102.93887,21.99516],[102.93012,22.00224],[102.92427,22.00864],[102.9198,22.01594],[102.91682,22.02408],[102.90234,22.03172],[102.89901,22.03111],[102.89223,22.02512],[102.88271,22.01928],[102.87419,22.01616],[102.8652,22.01458],[102.85401,22.01478],[102.84404,22.01668],[102.8372,22.01947],[102.81791,22.0197],[102.81009,22.02144],[102.80269,22.02435],[102.75636,22.04811],[102.74823,22.05308],[102.74133,22.05946],[102.73363,22.06933],[102.73007,22.0768],[102.72803,22.08472],[102.70761,22.10331],[102.70207,22.10957],[102.69782,22.11666],[102.69443,22.12656],[102.6904,22.12491],[102.68172,22.12301],[102.6728,22.12263],[102.66396,22.12377],[102.65075,22.12731],[102.64528,22.12998],[102.64193,22.13002],[102.62736,22.13331],[102.61816,22.1369],[102.60994,22.14217],[102.59765,22.15543],[102.58583,22.16548],[102.5792,22.1729],[102.57276,22.1834],[102.57002,22.19161],[102.56896,22.20247],[102.55911,22.19973],[102.5411,22.19796],[102.52362,22.2014],[102.51686,22.20369],[102.50437,22.21058],[102.48785,22.22298],[102.48207,22.22829],[102.4721,22.23999],[102.46536,22.25354],[102.4636,22.25899],[102.45225,22.26983],[102.44734,22.27709],[102.44544,22.28162],[102.43033,22.30273],[102.42103,22.3114],[102.41489,22.31978],[102.41192,22.32681],[102.40559,22.32938],[102.39468,22.33659],[102.3878,22.34281],[102.38116,22.35278],[102.35648,22.37288],[102.34696,22.38384],[102.34169,22.39432],[102.33917,22.40239],[102.33829,22.41075],[102.33909,22.41912],[102.34154,22.42721],[102.34334,22.43058],[102.34258,22.43497],[102.33382,22.43999],[102.32697,22.44597],[102.31929,22.45568],[102.3106,22.46356],[102.30373,22.47346],[102.30026,22.4826],[102.29915,22.49085],[102.2931,22.50733],[102.28285,22.51856],[102.27704,22.52657],[102.2732,22.53556],[102.2715,22.5451],[102.27201,22.55476]]]}}]}