{"type":"FeatureCollection","features":[{"type":"Feature","geometry":{"type":"MultiPolygon","coordinates":[[[[103.291299,22.5453],[103.291332,22.545275],[103.291927,22.545265],[103.291973,22.545302],[103.291981,22.545982],[103.291939,22.546014],[103.291325,22.546023],[103.291301,22.546],[103.291299,22.5453]]]]},"properties":{"group":"public","tag":"leisure=park","name":null,"levels":null,"lat":22.54564524679783,"lng":103.29163803125971,"osm_type":"way","osm_id":530008037}},{"type":"Feature","geometry":{"type":"MultiPolygon","coordinates":[[[[103.284595,22.53746],[103.284847,22.537137],[103.285009,22.537086],[103.285156,22.537054],[103.285308,22.537026],[103.285718,22.537206],[103.286234,22.537662],[103.286169,22.537779],[103.286387,22.537999],[103.286454,22.538235],[103.286596,22.538368],[103.286363,22.53871],[103.286194,22.538715],[103.285912,22.538663],[103.285885,22.538537],[103.285845,22.538435],[103.285759,22.538307],[103.284595,22.53746]]]]},"properties":{"group":"edu_health","tag":"amenity=school","name":"Trường Phổ Thông Dân Tộc Nội Trú Phong Thổ","levels":null,"lat":22.537803403645977,"lng":103.28566162313973,"osm_type":"way","osm_id":530008041}},{"type":"Feature","geometry":{"type":"MultiPolygon","coordinates":[[[[103.280188,22.536295],[103.280196,22.536206],[103.280239,22.536116],[103.280408,22.53595],[103.280615,22.53577],[103.280655,22.535799],[103.281835,22.536966],[103.281875,22.53711],[103.281559,22.537373],[103.281414,22.537719],[103.281363,22.537747],[103.281229,22.537705],[103.280344,22.536922],[103.280207,22.53661],[103.280188,22.536295]]]]},"properties":{"group":"edu_health","tag":"amenity=hospital","name":"Bệnh viện Đa khoa Phong Thổ","levels":null,"lat":22.53677152477984,"lng":103.2809562955101,"osm_type":"way","osm_id":530008047}},{"type":"Feature","geometry":{"type":"MultiPolygon","coordinates":[[[[103.287582,22.545104],[103.287616,22.545048],[103.28772,22.545032],[103.288503,22.544959],[103.289124,22.544902],[103.289824,22.544858],[103.290055,22.544864],[103.291113,22.544911],[103.292133,22.544942],[103.292491,22.544944],[103.293614,22.544927],[103.295003,22.544939],[103.295174,22.544948],[103.295399,22.545019],[103.295679,22.54514],[103.295896,22.54527],[103.295902,22.545311],[103.295817,22.545375],[103.295757,22.545395],[103.295721,22.545388],[103.295337,22.545208],[103.295265,22.545174],[103.295143,22.545171],[103.293618,22.545176],[103.292061,22.545176],[103.29039,22.545188],[103.288734,22.545188],[103.287609,22.545198],[103.28759,22.545177],[103.287582,22.545104]]]]},"properties":{"group":"public","tag":"leisure=park","name":null,"levels":null,"lat":22.545061416410228,"lng":103.29164492578703,"osm_type":"way","osm_id":530008049}},{"type":"Feature","geometry":{"type":"MultiPolygon","coordinates":[[[[103.290944,22.541646],[103.29141,22.541465],[103.291571,22.541259],[103.29162,22.541923],[103.291636,22.542396],[103.291032,22.542406],[103.290997,22.542052],[103.290944,22.541646]]]]},"properties":{"group":"edu_health","tag":"amenity=school","name":"Trường Tiểu học thị trấn Phong Thổ","levels":null,"lat":22.541939746914558,"lng":103.29131958076184,"osm_type":"way","osm_id":530008071}},{"type":"Feature","geometry":{"type":"MultiPolygon","coordinates":[[[[103.291571,22.541259],[103.291904,22.541128],[103.292325,22.541111],[103.292459,22.542414],[103.291636,22.542396],[103.29162,22.541923],[103.291571,22.541259]]]]},"properties":{"group":"edu_health","tag":"amenity=school","name":"Trường Trung học cơ sở Thị trấn Phong Thổ","levels":null,"lat":22.541785282249606,"lng":103.29200824606693,"osm_type":"way","osm_id":530008075}},{"type":"Feature","geometry":{"type":"MultiPolygon","coordinates":[[[[103.473058,22.389431],[103.473073,22.389401],[103.474074,22.388739],[103.474144,22.388718],[103.474199,22.38872],[103.474272,22.388766],[103.474435,22.388992],[103.474293,22.389067],[103.474074,22.389046],[103.473402,22.389471],[103.473332,22.389705],[103.473291,22.389735],[103.473082,22.389468],[103.473058,22.389431]]]]},"properties":{"group":"public","tag":"leisure=park","name":null,"levels":null,"lat":22.389154767534404,"lng":103.47372362098828,"osm_type":"way","osm_id":571557110}},{"type":"Feature","geometry":{"type":"MultiPolygon","coordinates":[[[[102.935715,22.210504],[102.935736,22.207723],[102.937421,22.207703],[102.937539,22.206879],[102.939306,22.206996],[102.940291,22.207246],[102.941192,22.206367],[102.941364,22.20647],[102.940347,22.207621],[102.940213,22.207711],[102.939918,22.207851],[102.939828,22.207918],[102.939765,22.207991],[102.939732,22.208097],[102.939745,22.208219],[102.93987,22.2085],[102.939884,22.208628],[102.939804,22.209066],[102.939829,22.209214],[102.940065,22.209603],[102.940079,22.209737],[102.940051,22.209843],[102.939974,22.209931],[102.939749,22.210022],[102.939653,22.210109],[102.939638,22.210207],[102.939681,22.21032],[102.939819,22.210465],[102.940031,22.210593],[102.940411,22.210793],[102.94053,22.210921],[102.940589,22.211087],[102.940586,22.211233],[102.940386,22.211606],[102.940374,22.211746],[102.94043,22.211881],[102.940532,22.211997],[102.940071,22.212163],[102.939888,22.211617],[102.940178,22.211001],[102.938837,22.209958],[102.936906,22.209958],[102.936841,22.210475],[102.935715,22.210504]]]]},"properties":{"group":"apartment","tag":"residential=apartments","name":null,"levels":null,"lat":22.20879989794932,"lng":102.93813056540696,"osm_type":"way","osm_id":685017385}},{"type":"Feature","geometry":{"type":"MultiPolygon","coordinates":[[[[102.934073,22.222115],[102.934449,22.221609],[102.934792,22.221887],[102.934588,22.222632],[102.934889,22.223039],[102.936122,22.223069],[102.937292,22.224241],[102.938021,22.224052],[102.938526,22.224727],[102.939684,22.224847],[102.940231,22.226048],[102.940865,22.226098],[102.94139,22.226734],[102.941133,22.227469],[102.93829,22.228581],[102.937335,22.228511],[102.936176,22.226883],[102.935189,22.224668],[102.934202,22.224092],[102.934449,22.223446],[102.934127,22.22284],[102.934073,22.222115]]]]},"properties":{"group":"apartment","tag":"residential=apartments","name":null,"levels":null,"lat":22.22579370229384,"lng":102.93764363020041,"osm_type":"way","osm_id":685017386}},{"type":"Feature","geometry":{"type":"MultiPolygon","coordinates":[[[[102.933344,22.238333],[102.933837,22.237936],[102.934427,22.237976],[102.934395,22.23734],[102.934846,22.236893],[102.936959,22.236933],[102.937142,22.237598],[102.937453,22.237708],[102.937517,22.237886],[102.936916,22.238145],[102.936916,22.238869],[102.936391,22.239078],[102.933397,22.23873],[102.933344,22.238333]]]]},"properties":{"group":"apartment","tag":"residential=apartments","name":null,"levels":null,"lat":22.237998697312236,"lng":102.93554134474819,"osm_type":"way","osm_id":685017387}},{"type":"Feature","geometry":{"type":"MultiPolygon","coordinates":[[[[102.921199,22.22731],[102.921392,22.227101],[102.921445,22.226227],[102.921821,22.22586],[102.921724,22.225522],[102.922314,22.223794],[102.92328,22.224112],[102.922947,22.225045],[102.922872,22.226217],[102.923216,22.226823],[102.922851,22.227488],[102.922239,22.227915],[102.921445,22.227727],[102.921199,22.22731]]]]},"properties":{"group":"apartment","tag":"residential=apartments","name":null,"levels":null,"lat":22.226052602973596,"lng":102.92231211897072,"osm_type":"way","osm_id":685017388}},{"type":"Feature","geometry":{"type":"MultiPolygon","coordinates":[[[[102.810603,22.387681],[102.810949,22.387444],[102.811479,22.387072],[102.811937,22.387592],[102.811139,22.388261],[102.810603,22.387681]]]]},"properties":{"group":"edu_health","tag":"amenity=school","name":"Trường PT DTNT Huyện Mường Tè","levels":null,"lat":22.387658191616392,"lng":102.81128064662828,"osm_type":"way","osm_id":686432557}},{"type":"Feature","geometry":{"type":"MultiPolygon","coordinates":[[[[103.145974,22.070914],[103.146036,22.070839],[103.146088,22.070779],[103.14615,22.070759],[103.146235,22.07079],[103.146307,22.070816],[103.146405,22.070888],[103.146825,22.071224],[103.14655,22.071506],[103.146318,22.071337],[103.146209,22.07123],[103.146143,22.071126],[103.146099,22.071033],[103.146038,22.071005],[103.145987,22.070968],[103.145974,22.070914]]]]},"properties":{"group":"edu_health","tag":"amenity=school","name":"Điểm trường tiểu học bản Chiềng Lè","levels":null,"lat":22.071118089619453,"lng":103.14638936623525,"osm_type":"way","osm_id":692586009}},{"type":"Feature","geometry":{"type":"MultiPolygon","coordinates":[[[[103.025292,22.141681],[103.025322,22.141292],[103.025294,22.140806],[103.025317,22.140756],[103.026038,22.140393],[103.026726,22.141344],[103.025917,22.141769],[103.025292,22.141681]]]]},"properties":{"group":"edu_health","tag":"amenity=school","name":"Trường Trung học cơ sở Thị trấn Nậm Nhùn","levels":null,"lat":22.141147389296073,"lng":103.02589550605124,"osm_type":"way","osm_id":692759662}},{"type":"Feature","geometry":{"type":"MultiPolygon","coordinates":[[[[103.004244,22.151281],[103.00434,22.150942],[103.004505,22.150899],[103.004591,22.15086],[103.004698,22.150865],[103.005082,22.150965],[103.004944,22.151486],[103.004488,22.151394],[103.004299,22.15133],[103.004244,22.151281]]]]},"properties":{"group":"edu_health","tag":"amenity=school","name":"Trường Tiểu học Thị trấn Nậm Nhùn","levels":null,"lat":22.1511581814033,"lng":103.00467204746656,"osm_type":"way","osm_id":692770505}},{"type":"Feature","geometry":{"type":"MultiPolygon","coordinates":[[[[103.025641,22.139026],[103.027028,22.138422],[103.02709,22.138445],[103.027124,22.138514],[103.027401,22.139066],[103.027368,22.139163],[103.026164,22.139846],[103.025641,22.139026]]]]},"properties":{"group":"edu_health","tag":"amenity=school","name":"Trường Trung học phổ thông Nậm Nhùn","levels":null,"lat":22.1391074015613,"lng":103.0265522113891,"osm_type":"way","osm_id":692770533}},{"type":"Feature","geometry":{"type":"MultiPolygon","coordinates":[[[[103.047831,22.146309],[103.048107,22.145946],[103.048579,22.146278],[103.048433,22.146668],[103.048182,22.146556],[103.047831,22.146309]]]]},"properties":{"group":"edu_health","tag":"amenity=school","name":"Trường PTDTNT Tiểu học số 1 Nậm Hàng","levels":null,"lat":22.146311634527567,"lng":103.04822614124515,"osm_type":"way","osm_id":693320851}},{"type":"Feature","geometry":{"type":"MultiPolygon","coordinates":[[[[103.047423,22.145302],[103.047716,22.144833],[103.048039,22.144531],[103.048201,22.144708],[103.048256,22.144863],[103.04831,22.144977],[103.04833,22.145037],[103.04814,22.145274],[103.048451,22.145524],[103.048455,22.145572],[103.048687,22.145781],[103.048703,22.14584],[103.048695,22.145908],[103.048608,22.146167],[103.048291,22.145965],[103.047815,22.145607],[103.047423,22.145302]]]]},"properties":{"group":"edu_health","tag":"amenity=school","name":"Trường PTDTNT Trung học cơ sở Nậm Hàng","levels":null,"lat":22.145346974510574,"lng":103.04806737081594,"osm_type":"way","osm_id":693320876}},{"type":"Feature","geometry":{"type":"MultiPolygon","coordinates":[[[[102.476045,22.725626],[102.47605,22.725443],[102.476135,22.725439],[102.476366,22.725482],[102.476292,22.725614],[102.476045,22.725626]]]]},"properties":{"group":"edu_health","tag":"amenity=school","name":"Điểm trường Ló Na","levels":null,"lat":22.725533492612414,"lng":102.47618229526047,"osm_type":"way","osm_id":694013205}},{"type":"Feature","geometry":{"type":"MultiPolygon","coordinates":[[[[103.224333,22.608508],[103.224704,22.608504],[103.224909,22.608462],[103.225055,22.608441],[103.225167,22.608453],[103.225315,22.608498],[103.225481,22.608597],[103.225871,22.608903],[103.225919,22.608951],[103.225918,22.608988],[103.225794,22.609209],[103.225758,22.609226],[103.22566,22.609198],[103.225348,22.609071],[103.225083,22.608996],[103.224939,22.608946],[103.224834,22.608912],[103.22476,22.608842],[103.224621,22.608763],[103.224333,22.608508]]]]},"properties":{"group":"edu_health","tag":"amenity=school","name":"Trường Trung học cơ sở Ma Ly Pho","levels":null,"lat":22.60878775665122,"lng":103.22521469188824,"osm_type":"way","osm_id":694051907}},{"type":"Feature","geometry":{"type":"MultiPolygon","coordinates":[[[[103.290274,22.543467],[103.29203,22.543494],[103.292838,22.543496],[103.293168,22.543504],[103.295888,22.544051],[103.295818,22.54449],[103.294847,22.544304],[103.294536,22.544207],[103.294335,22.544108],[103.294176,22.544081],[103.294002,22.544022],[103.293828,22.544031],[103.293494,22.544047],[103.293191,22.544009],[103.292852,22.543951],[103.292479,22.543944],[103.29209,22.54395],[103.290298,22.544065],[103.290274,22.543467]]]]},"properties":{"group":"public","tag":"leisure=park","name":null,"levels":null,"lat":22.543853204156797,"lng":103.29293822843522,"osm_type":"way","osm_id":694259648}},{"type":"Feature","geometry":{"type":"MultiPolygon","coordinates":[[[[103.296014,22.542582],[103.296116,22.541884],[103.29729,22.542103],[103.296999,22.542789],[103.296014,22.542582]]]]},"properties":{"group":"edu_health","tag":"amenity=school","name":"Trường Trung học phổ thông Phong Thổ","levels":null,"lat":22.54233040169538,"lng":103.29661076031236,"osm_type":"way","osm_id":694259650}},{"type":"Feature","geometry":{"type":"MultiPolygon","coordinates":[[[[103.457278,22.396743],[103.457289,22.396679],[103.457892,22.396316],[103.45815,22.396684],[103.458426,22.396497],[103.458898,22.397065],[103.458386,22.397375],[103.45775,22.397359],[103.457278,22.396743]]]]},"properties":{"group":"edu_health","tag":"amenity=school","name":"Trường Trung học cơ sở Đoàn Kết","levels":null,"lat":22.396912496870204,"lng":103.45805780599366,"osm_type":"way","osm_id":705445519}},{"type":"Feature","geometry":{"type":"MultiPolygon","coordinates":[[[[103.459173,22.394004],[103.459185,22.393965],[103.459962,22.393456],[103.460008,22.393488],[103.460064,22.393558],[103.460129,22.393649],[103.460142,22.393692],[103.460143,22.393723],[103.460132,22.393798],[103.459973,22.394353],[103.45994,22.394391],[103.459593,22.394624],[103.459173,22.394004]]]]},"properties":{"group":"edu_health","tag":"amenity=school","name":"Trường Tiểu học số 1","levels":null,"lat":22.394028597949898,"lng":103.45971094326288,"osm_type":"way","osm_id":705445525}},{"type":"Feature","geometry":{"type":"MultiPolygon","coordinates":[[[[103.463363,22.393524],[103.46407,22.39302],[103.464472,22.393426],[103.463851,22.394077],[103.46349,22.393591],[103.463411,22.393634],[103.463363,22.393524]]]]},"properties":{"group":"edu_health","tag":"amenity=school","name":"Trường Tiểu học số 2","levels":null,"lat":22.393519334572375,"lng":103.46393348763513,"osm_type":"way","osm_id":705445529}},{"type":"Feature","geometry":{"type":"MultiPolygon","coordinates":[[[[103.471655,22.379494],[103.472511,22.379018],[103.473077,22.379881],[103.472258,22.380355],[103.471655,22.379494]]]]},"properties":{"group":"edu_health","tag":"amenity=school","name":"Trường Tiểu học Tân Phong","levels":null,"lat":22.379685014785164,"lng":103.47237234748494,"osm_type":"way","osm_id":705445547}},{"type":"Feature","geometry":{"type":"MultiPolygon","coordinates":[[[[103.475479,22.390003],[103.475503,22.389968],[103.475533,22.389935],[103.47556,22.389897],[103.47559,22.389826],[103.475612,22.389745],[103.475617,22.389665],[103.475617,22.389598],[103.475609,22.389561],[103.475599,22.389527],[103.475694,22.389473],[103.475704,22.389467],[103.475864,22.389377],[103.476098,22.389659],[103.476117,22.389693],[103.476103,22.389706],[103.475524,22.390072],[103.475479,22.390003]]]]},"properties":{"group":"public","tag":"leisure=garden","name":null,"levels":null,"lat":22.38970089252596,"lng":103.47578709487215,"osm_type":"way","osm_id":705445589}},{"type":"Feature","geometry":{"type":"MultiPolygon","coordinates":[[[[103.475418,22.389246],[103.475491,22.389199],[103.475501,22.389193],[103.475648,22.389098],[103.475798,22.389298],[103.475651,22.389392],[103.475641,22.389398],[103.475568,22.389446],[103.475418,22.389246]]]]},"properties":{"group":"public","tag":"leisure=garden","name":null,"levels":null,"lat":22.38927182716908,"lng":103.47560811562361,"osm_type":"way","osm_id":705445590}},{"type":"Feature","geometry":{"type":"MultiPolygon","coordinates":[[[[103.474754,22.389088],[103.474782,22.389047],[103.475362,22.38868],[103.4756,22.389024],[103.47545,22.389117],[103.475439,22.389123],[103.475324,22.389194],[103.475258,22.389163],[103.475171,22.389125],[103.475117,22.389113],[103.475047,22.389105],[103.474949,22.389116],[103.474876,22.389136],[103.474813,22.38917],[103.474754,22.389088]]]]},"properties":{"group":"public","tag":"leisure=garden","name":null,"levels":null,"lat":22.388975467982206,"lng":103.47522132668213,"osm_type":"way","osm_id":705445591}},{"type":"Feature","geometry":{"type":"MultiPolygon","coordinates":[[[[103.455064,22.397596],[103.455073,22.397542],[103.455114,22.39752],[103.455882,22.397576],[103.455951,22.397554],[103.456416,22.397258],[103.456601,22.397519],[103.455992,22.397863],[103.455857,22.397847],[103.455145,22.397804],[103.455094,22.397756],[103.455064,22.397596]]]]},"properties":{"group":"public","tag":"leisure=park","name":null,"levels":null,"lat":22.397629107534424,"lng":103.45583970717347,"osm_type":"way","osm_id":705782630}},{"type":"Feature","geometry":{"type":"MultiPolygon","coordinates":[[[[103.472511,22.379018],[103.473101,22.378733],[103.473126,22.378775],[103.473712,22.378457],[103.474175,22.379227],[103.473077,22.379881],[103.472511,22.379018]]]]},"properties":{"group":"edu_health","tag":"amenity=school","name":"Trường Trung học cơ sở Tân Phong","levels":null,"lat":22.379155268125444,"lng":103.473353671457,"osm_type":"way","osm_id":705956734}},{"type":"Feature","geometry":{"type":"MultiPolygon","coordinates":[[[[103.489678,22.387734],[103.489755,22.387031],[103.490053,22.386832],[103.490275,22.386662],[103.490555,22.386335],[103.490761,22.386492],[103.490899,22.386326],[103.492676,22.387746],[103.492695,22.38792],[103.49237,22.38813],[103.491427,22.389101],[103.489678,22.387734]]]]},"properties":{"group":"edu_health","tag":"amenity=school","name":"Trường Trung học phổ thông Chuyên Lê Quý Đôn","levels":null,"lat":22.387659269201443,"lng":103.4910925410531,"osm_type":"way","osm_id":705956751}},{"type":"Feature","geometry":{"type":"MultiPolygon","coordinates":[[[[103.489229,22.385982],[103.489237,22.385936],[103.489551,22.385345],[103.489588,22.385342],[103.490559,22.385936],[103.490568,22.385961],[103.490196,22.386488],[103.490158,22.386493],[103.489229,22.385982]]]]},"properties":{"group":"edu_health","tag":"amenity=school","name":"Trường Tiểu học Kim Đồng","levels":null,"lat":22.385931033143784,"lng":103.48988074399915,"osm_type":"way","osm_id":705956756}},{"type":"Feature","geometry":{"type":"MultiPolygon","coordinates":[[[[103.485416,22.380491],[103.485805,22.379393],[103.485884,22.379364],[103.486805,22.379646],[103.486875,22.379726],[103.486524,22.380787],[103.485416,22.380491]]]]},"properties":{"group":"edu_health","tag":"amenity=school","name":"Trường Trung học phổ thông Thành phố Lai Châu","levels":null,"lat":22.38007690848499,"lng":103.48615887232567,"osm_type":"way","osm_id":705956786}},{"type":"Feature","geometry":{"type":"MultiPolygon","coordinates":[[[[103.48157,22.381849],[103.481716,22.380985],[103.482097,22.378605],[103.484107,22.378943],[103.483316,22.382119],[103.483115,22.382237],[103.482167,22.382049],[103.481603,22.381937],[103.48157,22.381849]]]]},"properties":{"group":"edu_health","tag":"amenity=hospital","name":"Bệnh viện Đa khoa tỉnh Lai Châu","levels":null,"lat":22.38039134738716,"lng":103.48277165842363,"osm_type":"way","osm_id":705956797}},{"type":"Feature","geometry":{"type":"MultiPolygon","coordinates":[[[[103.439366,22.398576],[103.439507,22.398503],[103.439647,22.39843],[103.439722,22.398554],[103.439798,22.39868],[103.439657,22.398753],[103.439517,22.398826],[103.439444,22.398706],[103.439366,22.398576]]]]},"properties":{"group":"public","tag":"leisure=garden","name":null,"levels":null,"lat":22.39862795538224,"lng":103.43958174168719,"osm_type":"way","osm_id":705960706}},{"type":"Feature","geometry":{"type":"MultiPolygon","coordinates":[[[[103.439796,22.399317],[103.439937,22.399244],[103.440077,22.399172],[103.440152,22.399295],[103.440228,22.399421],[103.440087,22.399494],[103.439947,22.399567],[103.439872,22.399443],[103.439796,22.399317]]]]},"properties":{"group":"public","tag":"leisure=garden","name":null,"levels":null,"lat":22.399369134826557,"lng":103.44001175597582,"osm_type":"way","osm_id":705960712}},{"type":"Feature","geometry":{"type":"MultiPolygon","coordinates":[[[[103.449519,22.400589],[103.449556,22.400439],[103.449627,22.400269],[103.449712,22.40014],[103.449638,22.399948],[103.450103,22.399751],[103.450755,22.400978],[103.45075,22.401023],[103.450353,22.401318],[103.450288,22.40132],[103.450248,22.401293],[103.450138,22.401249],[103.450004,22.401201],[103.449881,22.401182],[103.44983,22.401125],[103.449768,22.401025],[103.449696,22.400914],[103.449631,22.400839],[103.44954,22.400691],[103.449519,22.400589]]]]},"properties":{"group":"edu_health","tag":"amenity=hospital","name":"Bệnh viện Y học cổ truyền tỉnh Lai Châu","levels":null,"lat":22.40060071908301,"lng":103.45009114722397,"osm_type":"way","osm_id":705960750}},{"type":"Feature","geometry":{"type":"MultiPolygon","coordinates":[[[[103.45222,22.39913],[103.452425,22.39891],[103.452292,22.398785],[103.452994,22.398117],[103.453396,22.398574],[103.452448,22.399375],[103.45222,22.39913]]]]},"properties":{"group":"edu_health","tag":"amenity=school","name":"Trường Trung học phổ thông Lê Quý Đôn","levels":null,"lat":22.398735505520996,"lng":103.45278137171232,"osm_type":"way","osm_id":705960765}},{"type":"Feature","geometry":{"type":"MultiPolygon","coordinates":[[[[103.454526,22.39689],[103.454529,22.396874],[103.45454,22.39686],[103.454572,22.396839],[103.455561,22.396195],[103.455592,22.39618],[103.455617,22.396175],[103.455644,22.396179],[103.455664,22.396197],[103.455854,22.396448],[103.455798,22.396482],[103.455594,22.396613],[103.455682,22.39673],[103.455648,22.396781],[103.455596,22.396781],[103.455596,22.396758],[103.455513,22.396758],[103.455479,22.396759],[103.455478,22.396809],[103.455421,22.396808],[103.455421,22.396775],[103.455369,22.396774],[103.45537,22.396752],[103.455324,22.396751],[103.45532,22.39688],[103.455274,22.39688],[103.455275,22.396842],[103.455229,22.39684],[103.455232,22.39674],[103.455178,22.396739],[103.455177,22.396763],[103.45512,22.396761],[103.455122,22.396727],[103.455057,22.396724],[103.455054,22.396784],[103.454982,22.396781],[103.454975,22.396925],[103.454974,22.396948],[103.454585,22.396913],[103.454551,22.396907],[103.454535,22.396903],[103.454526,22.39689]]]]},"properties":{"group":"public","tag":"leisure=park","name":null,"levels":null,"lat":22.396594139259985,"lng":103.45528039764939,"osm_type":"way","osm_id":705960771}},{"type":"Feature","geometry":{"type":"MultiPolygon","coordinates":[[[[103.474339,22.391168],[103.474399,22.391126],[103.474655,22.391148],[103.475319,22.390692],[103.475393,22.390459],[103.475492,22.390414],[103.475717,22.390706],[103.474582,22.391466],[103.474339,22.391168]]]]},"properties":{"group":"public","tag":"leisure=park","name":null,"levels":null,"lat":22.390969041440986,"lng":103.47506903923639,"osm_type":"way","osm_id":705960791}},{"type":"Feature","geometry":{"type":"MultiPolygon","coordinates":[[[[103.471739,22.38702],[103.471742,22.386984],[103.47175,22.386955],[103.471788,22.386875],[103.471817,22.386831],[103.471881,22.386774],[103.471937,22.386737],[103.472043,22.386689],[103.472146,22.386657],[103.472216,22.386642],[103.472284,22.386637],[103.472374,22.386633],[103.472459,22.386639],[103.472527,22.38667],[103.472557,22.386692],[103.472588,22.386722],[103.472611,22.386748],[103.472629,22.386775],[103.472653,22.38681],[103.472658,22.386853],[103.472663,22.386886],[103.472651,22.386947],[103.47263,22.387009],[103.472588,22.387051],[103.472557,22.387076],[103.472523,22.38709],[103.472475,22.387094],[103.472385,22.387096],[103.472366,22.387095],[103.472324,22.387098],[103.47225,22.387121],[103.472195,22.387155],[103.47216,22.387183],[103.472135,22.387207],[103.472107,22.387228],[103.472078,22.38725],[103.47206,22.387259],[103.472028,22.387265],[103.471974,22.387259],[103.471923,22.387239],[103.471872,22.387217],[103.471804,22.387163],[103.471762,22.387098],[103.471744,22.387056],[103.471739,22.38702]]]]},"properties":{"group":"public","tag":"leisure=park","name":null,"levels":null,"lat":22.386926274980794,"lng":103.47219216670214,"osm_type":"way","osm_id":705986947}},{"type":"Feature","geometry":{"type":"MultiPolygon","coordinates":[[[[103.4709,22.386561],[103.471006,22.386108],[103.47105,22.386043],[103.472311,22.385328],[103.473736,22.384542],[103.473802,22.384539],[103.474182,22.384984],[103.474163,22.384999],[103.474136,22.385007],[103.474084,22.385021],[103.473503,22.385097],[103.473416,22.385123],[103.472623,22.385502],[103.472124,22.385743],[103.471579,22.386043],[103.471372,22.386162],[103.471324,22.386198],[103.471288,22.386229],[103.471255,22.386273],[103.471231,22.386334],[103.471187,22.386456],[103.471167,22.386576],[103.47116,22.386654],[103.471183,22.386715],[103.471218,22.386766],[103.471569,22.387222],[103.471983,22.38773],[103.471927,22.387769],[103.472071,22.387972],[103.472143,22.387931],[103.472407,22.388309],[103.47246,22.388351],[103.472493,22.388365],[103.472528,22.388373],[103.472586,22.388373],[103.472728,22.388298],[103.472814,22.388224],[103.47289,22.388067],[103.472932,22.387949],[103.472983,22.387866],[103.473056,22.387818],[103.473113,22.387893],[103.473746,22.388714],[103.472988,22.389217],[103.472944,22.389218],[103.472855,22.389205],[103.472799,22.389185],[103.47227,22.388434],[103.472076,22.388131],[103.471561,22.387452],[103.471003,22.386781],[103.470929,22.386676],[103.470901,22.386629],[103.4709,22.386561]]]]},"properties":{"group":"public","tag":"leisure=park","name":null,"levels":null,"lat":22.38698016242584,"lng":103.472608069743,"osm_type":"way","osm_id":705986948}},{"type":"Feature","geometry":{"type":"MultiPolygon","coordinates":[[[[103.465049,22.386621],[103.46523,22.385748],[103.465261,22.385739],[103.466155,22.385883],[103.465049,22.386621]]]]},"properties":{"group":"public","tag":"leisure=park","name":null,"levels":null,"lat":22.386079443482327,"lng":103.46547884841131,"osm_type":"way","osm_id":705986952}},{"type":"Feature","geometry":{"type":"MultiPolygon","coordinates":[[[[103.466535,22.38875],[103.468081,22.387802],[103.468364,22.388184],[103.468336,22.388513],[103.468237,22.388782],[103.468169,22.388915],[103.468112,22.388998],[103.467956,22.389137],[103.46785,22.38921],[103.467713,22.389294],[103.467026,22.389509],[103.466535,22.38875]]]]},"properties":{"group":"public","tag":"amenity=community_centre","name":"Trung Tâm Hoạt Động Thanh Thiếu Nhi Lai Châu","levels":null,"lat":22.388703874398857,"lng":103.4675413163923,"osm_type":"way","osm_id":705986954}},{"type":"Feature","geometry":{"type":"MultiPolygon","coordinates":[[[[103.464328,22.390162],[103.46507,22.389631],[103.466535,22.38875],[103.467026,22.389509],[103.467713,22.389294],[103.46785,22.38921],[103.467956,22.389137],[103.468112,22.388998],[103.468169,22.388915],[103.468237,22.388782],[103.468336,22.388513],[103.468364,22.388184],[103.468081,22.387802],[103.469639,22.386839],[103.469728,22.386797],[103.469748,22.386793],[103.469906,22.386809],[103.470274,22.386881],[103.470366,22.386907],[103.470414,22.386928],[103.471436,22.388254],[103.471925,22.388938],[103.472362,22.389512],[103.47239,22.389562],[103.472382,22.389591],[103.472319,22.389625],[103.470612,22.390542],[103.469101,22.391348],[103.46903,22.391361],[103.468983,22.391323],[103.468957,22.391291],[103.46889,22.391268],[103.468836,22.391271],[103.468713,22.391263],[103.468658,22.391261],[103.468342,22.39123],[103.468263,22.391202],[103.468178,22.391157],[103.468112,22.391118],[103.468113,22.3911],[103.468155,22.391118],[103.46823,22.391154],[103.468328,22.391185],[103.468423,22.391195],[103.468499,22.39119],[103.468576,22.391176],[103.468622,22.391163],[103.468678,22.391133],[103.468845,22.391029],[103.469154,22.390843],[103.469499,22.390635],[103.470045,22.390308],[103.470172,22.390234],[103.470227,22.390193],[103.47026,22.39016],[103.470282,22.390134],[103.4703,22.390107],[103.470299,22.390086],[103.470298,22.390054],[103.470294,22.39002],[103.470259,22.389959],[103.470116,22.389761],[103.47006,22.389675],[103.47005,22.389648],[103.47005,22.389617],[103.470052,22.389589],[103.470066,22.389544],[103.47008,22.389519],[103.470137,22.389473],[103.470245,22.389422],[103.470277,22.389418],[103.470299,22.389421],[103.470339,22.38943],[103.470414,22.389478],[103.47048,22.389515],[103.470543,22.38956],[103.470626,22.389582],[103.470705,22.389593],[103.470801,22.389583],[103.471057,22.389448],[103.471348,22.389263],[103.471393,22.389228],[103.471424,22.389196],[103.471461,22.389113],[103.471499,22.388995],[103.471532,22.388874],[103.471529,22.388787],[103.471526,22.388721],[103.471519,22.388661],[103.471489,22.388593],[103.471426,22.388476],[103.471394,22.388486],[103.471364,22.388494],[103.471329,22.388491],[103.471298,22.388486],[103.471262,22.388463],[103.471239,22.388446],[103.471223,22.388406],[103.471216,22.388382],[103.471219,22.388345],[103.471235,22.3883],[103.471261,22.388256],[103.471018,22.387922],[103.470365,22.387075],[103.47033,22.387048],[103.470296,22.387034],[103.470184,22.387019],[103.470098,22.387016],[103.470003,22.387031],[103.469662,22.387233],[103.468908,22.387677],[103.46873,22.387786],[103.46867,22.387838],[103.468599,22.387916],[103.468545,22.38803],[103.468514,22.388126],[103.468489,22.388281],[103.468482,22.388435],[103.468537,22.388441],[103.468519,22.388572],[103.468469,22.388566],[103.468416,22.388692],[103.468322,22.38888],[103.46822,22.389068],[103.46811,22.389187],[103.46796,22.389313],[103.467856,22.389377],[103.46774,22.389428],[103.46762,22.389455],[103.46729,22.389558],[103.467008,22.389661],[103.466848,22.389752],[103.466732,22.389821],[103.466598,22.389933],[103.466454,22.390015],[103.466265,22.390074],[103.466087,22.390088],[103.465844,22.390077],[103.465617,22.390047],[103.465431,22.390027],[103.465306,22.390055],[103.465184,22.390104],[103.465039,22.390222],[103.465026,22.390251],[103.465004,22.390284],[103.46481,22.390234],[103.464591,22.390233],[103.464438,22.390213],[103.464328,22.390162]]]]},"properties":{"group":"public","tag":"leisure=park","name":"Công viên Hồ Thuỷ Sơn","levels":null,"lat":22.389389989207018,"lng":103.46889651210371,"osm_type":"way","osm_id":705986961}},{"type":"Feature","geometry":{"type":"MultiPolygon","coordinates":[[[[103.461732,22.392277],[103.461939,22.392149],[103.462429,22.392827],[103.462253,22.392979],[103.461732,22.392277]]]]},"properties":{"group":"public","tag":"leisure=park","name":null,"levels":null,"lat":22.392556218854377,"lng":103.46208574897898,"osm_type":"way","osm_id":705986969}},{"type":"Feature","geometry":{"type":"MultiPolygon","coordinates":[[[[103.462333,22.393058],[103.46247,22.392906],[103.462668,22.393157],[103.462509,22.39331],[103.462333,22.393058]]]]},"properties":{"group":"public","tag":"leisure=park","name":null,"levels":null,"lat":22.393109068918573,"lng":103.46249690099192,"osm_type":"way","osm_id":705986970}},{"type":"Feature","geometry":{"type":"MultiPolygon","coordinates":[[[[103.456523,22.395639],[103.456527,22.395609],[103.457463,22.395045],[103.457897,22.395684],[103.456969,22.396274],[103.456523,22.395639]]]]},"properties":{"group":"public","tag":"leisure=park","name":"Công viên 1-6","levels":null,"lat":22.395656799257484,"lng":103.45720648444215,"osm_type":"way","osm_id":705986971}},{"type":"Feature","geometry":{"type":"MultiPolygon","coordinates":[[[[103.424217,22.411304],[103.424596,22.410282],[103.42529,22.41057],[103.424931,22.411559],[103.424217,22.411304]]]]},"properties":{"group":"edu_health","tag":"amenity=school","name":"Trường Trung học phổ thông Quyết Thắng","levels":null,"lat":22.41092870106335,"lng":103.42475626592525,"osm_type":"way","osm_id":705986973}},{"type":"Feature","geometry":{"type":"MultiPolygon","coordinates":[[[[103.427414,22.408177],[103.427989,22.407448],[103.428748,22.408003],[103.428412,22.408351],[103.428461,22.408383],[103.428251,22.408693],[103.427414,22.408177]]],[[[103.428058,22.407255],[103.428603,22.406756],[103.429745,22.407607],[103.429595,22.407798],[103.429587,22.407877],[103.429336,22.408244],[103.428058,22.407255]]]]},"properties":{"group":"edu_health","tag":"amenity=school","name":"Trường PT DTNT Tỉnh Lai Châu","levels":null,"lat":22.4077299861251,"lng":103.42857196588902,"osm_type":"relation","osm_id":9818209}},{"type":"Feature","geometry":{"type":"MultiPolygon","coordinates":[[[[103.427016,22.406478],[103.427027,22.406374],[103.427751,22.40554],[103.428272,22.405905],[103.428715,22.40629],[103.427918,22.407199],[103.427016,22.406478]]]]},"properties":{"group":"edu_health","tag":"amenity=school","name":"Trường Trung học cơ sở Quyết Thắng","levels":null,"lat":22.406361760823646,"lng":103.42784650004567,"osm_type":"way","osm_id":705986994}},{"type":"Feature","geometry":{"type":"MultiPolygon","coordinates":[[[[103.431842,22.403753],[103.432458,22.4032],[103.432681,22.403408],[103.432692,22.403461],[103.43286,22.40364],[103.432332,22.404176],[103.431842,22.403753]]]]},"properties":{"group":"edu_health","tag":"amenity=school","name":"Trường Tiểu học Quyết Thắng","levels":null,"lat":22.403689800001708,"lng":103.4323674727764,"osm_type":"way","osm_id":705986999}},{"type":"Feature","geometry":{"type":"MultiPolygon","coordinates":[[[[103.441201,22.402146],[103.441209,22.402098],[103.442485,22.401459],[103.442918,22.402128],[103.442884,22.402228],[103.441726,22.4028],[103.441603,22.402702],[103.441201,22.402146]]]]},"properties":{"group":"edu_health","tag":"amenity=school","name":"Trường Tiểu học Quyết Tiến","levels":null,"lat":22.40214155201757,"lng":103.4420763531206,"osm_type":"way","osm_id":705987005}},{"type":"Feature","geometry":{"type":"MultiPolygon","coordinates":[[[[103.438155,22.399193],[103.43825,22.399142],[103.438271,22.399138],[103.438292,22.399149],[103.438318,22.399178],[103.438322,22.399218],[103.438337,22.399414],[103.438311,22.399426],[103.438155,22.399193]]]]},"properties":{"group":"public","tag":"leisure=garden","name":null,"levels":null,"lat":22.399259566866988,"lng":103.4382666545474,"osm_type":"way","osm_id":706102646}},{"type":"Feature","geometry":{"type":"MultiPolygon","coordinates":[[[[103.438609,22.399956],[103.438644,22.399939],[103.438696,22.399986],[103.438748,22.400019],[103.438793,22.400049],[103.438834,22.400071],[103.438851,22.40009],[103.438874,22.400133],[103.438868,22.40016],[103.438858,22.400172],[103.438761,22.400217],[103.438609,22.399956]]]]},"properties":{"group":"public","tag":"leisure=garden","name":null,"levels":null,"lat":22.400087259001353,"lng":103.43875036055844,"osm_type":"way","osm_id":706102647}},{"type":"Feature","geometry":{"type":"MultiPolygon","coordinates":[[[[103.438151,22.400083],[103.438352,22.39998],[103.438427,22.400103],[103.438226,22.400207],[103.438151,22.400083]]]]},"properties":{"group":"public","tag":"leisure=garden","name":null,"levels":null,"lat":22.400093398838337,"lng":103.43828926730819,"osm_type":"way","osm_id":706102648}},{"type":"Feature","geometry":{"type":"MultiPolygon","coordinates":[[[[103.437976,22.400195],[103.437977,22.400178],[103.437985,22.40017],[103.438131,22.400101],[103.438213,22.400237],[103.438586,22.400046],[103.438709,22.400247],[103.438209,22.400505],[103.438188,22.40051],[103.43817,22.400511],[103.438149,22.400498],[103.438137,22.400471],[103.437976,22.400195]]]]},"properties":{"group":"public","tag":"leisure=garden","name":null,"levels":null,"lat":22.400271848118802,"lng":103.43832900549484,"osm_type":"way","osm_id":706102649}},{"type":"Feature","geometry":{"type":"MultiPolygon","coordinates":[[[[103.437793,22.399877],[103.437888,22.399831],[103.43803,22.400084],[103.437935,22.40013],[103.437793,22.399877]]]]},"properties":{"group":"public","tag":"leisure=garden","name":null,"levels":null,"lat":22.399980399999997,"lng":103.43791124999998,"osm_type":"way","osm_id":706102650}},{"type":"Feature","geometry":{"type":"MultiPolygon","coordinates":[[[[103.437876,22.399606],[103.438072,22.399506],[103.438146,22.39963],[103.437949,22.39973],[103.437876,22.399606]]]]},"properties":{"group":"public","tag":"leisure=garden","name":null,"levels":null,"lat":22.399617732562188,"lng":103.43801049132456,"osm_type":"way","osm_id":706102651}},{"type":"Feature","geometry":{"type":"MultiPolygon","coordinates":[[[[103.437593,22.399511],[103.437607,22.399485],[103.437633,22.399462],[103.438101,22.399218],[103.438218,22.399402],[103.437838,22.399601],[103.437922,22.399745],[103.437763,22.399827],[103.437595,22.399531],[103.437593,22.399511]]]]},"properties":{"group":"public","tag":"leisure=garden","name":null,"levels":null,"lat":22.399498290090396,"lng":103.43787773862583,"osm_type":"way","osm_id":706102652}},{"type":"Feature","geometry":{"type":"MultiPolygon","coordinates":[[[[103.431398,22.406662],[103.432328,22.406127],[103.432928,22.406942],[103.432206,22.407484],[103.431675,22.407025],[103.431398,22.406662]]]]},"properties":{"group":"edu_health","tag":"amenity=college","name":"Trung tâm Giáo dục thường xuyên tỉnh Lai Châu","levels":null,"lat":22.40680595787647,"lng":103.43218507450442,"osm_type":"way","osm_id":706102677}},{"type":"Feature","geometry":{"type":"MultiPolygon","coordinates":[[[[103.426588,22.409419],[103.427414,22.408177],[103.428251,22.408693],[103.428461,22.408383],[103.429163,22.408842],[103.429276,22.408916],[103.428624,22.409757],[103.428396,22.409652],[103.427967,22.410247],[103.426588,22.409419]]]]},"properties":{"group":"edu_health","tag":"amenity=college","name":"Trường Cao đẳng Nghề Lai Châu","levels":null,"lat":22.409180696174804,"lng":103.42789079686817,"osm_type":"way","osm_id":706102683}},{"type":"Feature","geometry":{"type":"MultiPolygon","coordinates":[[[[103.419414,22.409565],[103.420932,22.407259],[103.421136,22.407371],[103.421551,22.406662],[103.423067,22.407319],[103.423348,22.406798],[103.423994,22.407125],[103.424357,22.407309],[103.423804,22.408199],[103.424105,22.40839],[103.423094,22.409952],[103.420999,22.409893],[103.420312,22.409801],[103.419896,22.409757],[103.419414,22.409565]]]]},"properties":{"group":"edu_health","tag":"amenity=college","name":"Trường Cao đẳng Cộng đồng Lai Châu","levels":null,"lat":22.4084844874144,"lng":103.42200938944464,"osm_type":"way","osm_id":706102696}},{"type":"Feature","geometry":{"type":"MultiPolygon","coordinates":[[[[102.784288,22.390467],[102.78437,22.390291],[102.784704,22.390418],[102.784808,22.390449],[102.784672,22.390766],[102.784606,22.390746],[102.784579,22.390724],[102.784537,22.390689],[102.784498,22.390654],[102.78443,22.390581],[102.784288,22.390467]]]]},"properties":{"group":"edu_health","tag":"amenity=school","name":"Trường PTDTBT Tiểu học Bum Tở - Điểm trường Pa Thoóng 2","levels":null,"lat":22.390512487318478,"lng":102.78455230548106,"osm_type":"way","osm_id":707998705}},{"type":"Feature","geometry":{"type":"MultiPolygon","coordinates":[[[[102.807642,22.381736],[102.808118,22.38156],[102.808188,22.381948],[102.808189,22.382005],[102.807824,22.382136],[102.807642,22.381736]]]]},"properties":{"group":"edu_health","tag":"amenity=school","name":"Trường Tiểu học số 1 Thị trấn Mường Tè","levels":null,"lat":22.381849665022862,"lng":102.80794280856286,"osm_type":"way","osm_id":708047688}},{"type":"Feature","geometry":{"type":"MultiPolygon","coordinates":[[[[102.82244,22.380304],[102.822557,22.380201],[102.82259,22.3802],[102.82298,22.380646],[102.822597,22.380893],[102.822452,22.380703],[102.822653,22.380549],[102.82244,22.380304]]]]},"properties":{"group":"edu_health","tag":"amenity=school","name":"Trường Tiểu học số 2 Thị trấn Mường Tè","levels":null,"lat":22.38056525881874,"lng":102.82267924805002,"osm_type":"way","osm_id":708047700}},{"type":"Feature","geometry":{"type":"MultiPolygon","coordinates":[[[[102.823525,22.377825],[102.824164,22.377592],[102.824138,22.377676],[102.824053,22.377789],[102.823993,22.377863],[102.823973,22.377887],[102.823669,22.378073],[102.823525,22.377825]]]]},"properties":{"group":"public","tag":"leisure=park","name":null,"levels":null,"lat":22.377830376752307,"lng":102.82382835149483,"osm_type":"way","osm_id":708047705}},{"type":"Feature","geometry":{"type":"MultiPolygon","coordinates":[[[[102.810348,22.386998],[102.810689,22.386766],[102.810756,22.386833],[102.811086,22.386643],[102.811477,22.387042],[102.810912,22.387452],[102.810788,22.387288],[102.81071,22.38736],[102.810482,22.387094],[102.810444,22.387118],[102.810348,22.386998]]]]},"properties":{"group":"edu_health","tag":"amenity=school","name":"Trường Trung học phổ thông Mường Tè","levels":null,"lat":22.38703595652923,"lng":102.81092462578405,"osm_type":"way","osm_id":708047725}},{"type":"Feature","geometry":{"type":"MultiPolygon","coordinates":[[[[102.846525,22.477244],[102.846716,22.476881],[102.847337,22.477087],[102.847383,22.477127],[102.847437,22.477201],[102.84752,22.477427],[102.84729,22.477491],[102.847147,22.477468],[102.846525,22.477244]]]]},"properties":{"group":"edu_health","tag":"amenity=school","name":"Trường Trung học cơ sở Bán trú Pa Vệ Sử","levels":null,"lat":22.477207856309494,"lng":102.84702700912665,"osm_type":"way","osm_id":708185538}},{"type":"Feature","geometry":{"type":"MultiPolygon","coordinates":[[[[103.549064,22.388853],[103.549071,22.388771],[103.549184,22.38872],[103.549294,22.388669],[103.549436,22.388626],[103.549636,22.389417],[103.549298,22.38954],[103.54925,22.389507],[103.549206,22.389463],[103.549106,22.389035],[103.549064,22.388853]]]]},"properties":{"group":"edu_health","tag":"amenity=school","name":"Trường Trung học cơ sở Giang Ma","levels":null,"lat":22.389092798766725,"lng":103.54933950740875,"osm_type":"way","osm_id":712602010}},{"type":"Feature","geometry":{"type":"MultiPolygon","coordinates":[[[[103.401105,22.275147],[103.401516,22.273872],[103.402721,22.274216],[103.402223,22.275518],[103.401105,22.275147]]]]},"properties":{"group":"edu_health","tag":"amenity=hospital","name":"Bệnh viện Đa khoa Pa Há","levels":null,"lat":22.274682964481258,"lng":103.40189722485133,"osm_type":"way","osm_id":713068054}},{"type":"Feature","geometry":{"type":"MultiPolygon","coordinates":[[[[103.398697,22.281918],[103.398844,22.281514],[103.399615,22.281762],[103.399471,22.282042],[103.399325,22.282003],[103.399179,22.28207],[103.398697,22.281918]]]]},"properties":{"group":"edu_health","tag":"amenity=school","name":"Trường Tiểu học Nậm Tăm","levels":null,"lat":22.281815813674907,"lng":103.39912962620623,"osm_type":"way","osm_id":713068072}},{"type":"Feature","geometry":{"type":"MultiPolygon","coordinates":[[[[103.399313,22.281588],[103.399516,22.281094],[103.399785,22.281194],[103.399923,22.280926],[103.400037,22.280922],[103.400419,22.281208],[103.400114,22.281837],[103.399313,22.281588]]]]},"properties":{"group":"edu_health","tag":"amenity=school","name":"Trường PTDTBT Trung học cơ sở Nậm Tăm","levels":null,"lat":22.281388361999507,"lng":103.39989111792599,"osm_type":"way","osm_id":713068077}},{"type":"Feature","geometry":{"type":"MultiPolygon","coordinates":[[[[103.399104,22.278139],[103.399123,22.278094],[103.399825,22.277638],[103.399925,22.277651],[103.400228,22.278074],[103.39951,22.278517],[103.399473,22.2785],[103.399104,22.278139]]]]},"properties":{"group":"edu_health","tag":"amenity=school","name":"Trường Trung học phổ thông Nậm Tăm","levels":null,"lat":22.278075221316904,"lng":103.39967265180074,"osm_type":"way","osm_id":713068086}},{"type":"Feature","geometry":{"type":"MultiPolygon","coordinates":[[[[103.887777,21.959117],[103.887959,21.959031],[103.887847,21.958848],[103.888674,21.958394],[103.888944,21.958822],[103.888172,21.959323],[103.888017,21.959108],[103.887823,21.959204],[103.887777,21.959117]]]]},"properties":{"group":"edu_health","tag":"amenity=school","name":"Trường Trung học cơ sở số 1 Than Uyên","levels":null,"lat":21.958862122448963,"lng":103.88837862895124,"osm_type":"way","osm_id":713387738}},{"type":"Feature","geometry":{"type":"MultiPolygon","coordinates":[[[[102.550875,22.629437],[102.551345,22.629293],[102.551731,22.629594],[102.551858,22.629984],[102.551268,22.630191],[102.551175,22.629963],[102.551048,22.629766],[102.550875,22.629437]]]]},"properties":{"group":"edu_health","tag":"amenity=school","name":null,"levels":null,"lat":22.6297262106132,"lng":102.55137994651757,"osm_type":"way","osm_id":713653758}},{"type":"Feature","geometry":{"type":"MultiPolygon","coordinates":[[[[103.632909,22.320986],[103.633018,22.32005],[103.633084,22.319709],[103.63443,22.319867],[103.634269,22.32112],[103.632909,22.320986]]]]},"properties":{"group":"edu_health","tag":"amenity=hospital","name":"Bệnh viện Đa khoa Tam Đường","levels":null,"lat":22.3204199858518,"lng":103.63366605558876,"osm_type":"way","osm_id":713668227}},{"type":"Feature","geometry":{"type":"MultiPolygon","coordinates":[[[[103.620036,22.319469],[103.620703,22.319117],[103.621043,22.319803],[103.620504,22.320058],[103.620036,22.319469]]]]},"properties":{"group":"edu_health","tag":"amenity=school","name":"Trường Tiểu học Thị trấn Tam Đường","levels":null,"lat":22.31959819836807,"lng":103.62056547756366,"osm_type":"way","osm_id":713668234}},{"type":"Feature","geometry":{"type":"MultiPolygon","coordinates":[[[[103.622156,22.320659],[103.622211,22.320294],[103.622907,22.320066],[103.623122,22.320552],[103.622333,22.320942],[103.622156,22.320659]]]]},"properties":{"group":"edu_health","tag":"amenity=school","name":"Trung tâm Giáo dục thường xuyên huyện Tam Đường","levels":null,"lat":22.320488485723455,"lng":103.6226027384713,"osm_type":"way","osm_id":713668273}},{"type":"Feature","geometry":{"type":"MultiPolygon","coordinates":[[[[103.619376,22.322009],[103.620595,22.321411],[103.621199,22.322391],[103.619854,22.323021],[103.619376,22.322009]]]]},"properties":{"group":"edu_health","tag":"amenity=school","name":"Trường Trung học phổ thông Tam Đường","levels":null,"lat":22.322214011803105,"lng":103.62026242145781,"osm_type":"way","osm_id":713668302}},{"type":"Feature","geometry":{"type":"MultiPolygon","coordinates":[[[[103.620595,22.321411],[103.621755,22.320878],[103.621852,22.321051],[103.621857,22.321094],[103.621821,22.321206],[103.621806,22.321273],[103.621804,22.321314],[103.621813,22.321339],[103.621923,22.32154],[103.622175,22.321613],[103.622258,22.321639],[103.622277,22.321649],[103.622366,22.321834],[103.621199,22.322391],[103.620595,22.321411]]]]},"properties":{"group":"edu_health","tag":"amenity=school","name":"Trường Trung học cơ sở Thị trấn Tam Đường","levels":null,"lat":22.321649201103767,"lng":103.62144367036987,"osm_type":"way","osm_id":713668312}},{"type":"Feature","geometry":{"type":"MultiPolygon","coordinates":[[[[103.620659,22.324274],[103.620673,22.324253],[103.621723,22.323748],[103.621766,22.323731],[103.621807,22.323747],[103.622153,22.324352],[103.622151,22.324386],[103.622139,22.324407],[103.622123,22.324422],[103.621065,22.324922],[103.62103,22.324924],[103.621011,22.324919],[103.620987,22.324901],[103.620694,22.324382],[103.620664,22.324318],[103.620659,22.324274]]]]},"properties":{"group":"public","tag":"leisure=park","name":"Công viên Tả Liên Sơn","levels":null,"lat":22.32433218244303,"lng":103.62140480312462,"osm_type":"way","osm_id":713668317}},{"type":"Feature","geometry":{"type":"MultiPolygon","coordinates":[[[[103.548758,22.388199],[103.548822,22.388088],[103.548869,22.388009],[103.548896,22.387975],[103.548929,22.387949],[103.549023,22.387888],[103.549105,22.387859],[103.549206,22.387822],[103.549399,22.387833],[103.549636,22.388269],[103.549659,22.388355],[103.549659,22.388435],[103.549651,22.388461],[103.549436,22.388626],[103.549184,22.38872],[103.548943,22.38839],[103.548758,22.388199]]]]},"properties":{"group":"edu_health","tag":"amenity=school","name":"Trường PT DTNT Tiểu học Giang Ma","levels":null,"lat":22.38824637995351,"lng":103.54923645493541,"osm_type":"way","osm_id":714396685}},{"type":"Feature","geometry":{"type":"MultiPolygon","coordinates":[[[[103.571778,22.368846],[103.571983,22.368424],[103.572082,22.36836],[103.572495,22.368248],[103.572739,22.367958],[103.573042,22.368097],[103.573327,22.368355],[103.573021,22.368623],[103.57271,22.36862],[103.572482,22.369119],[103.57229,22.369042],[103.571778,22.368846]]]]},"properties":{"group":"edu_health","tag":"amenity=school","name":"Trường PT DT BT xã Hồ Thầu","levels":null,"lat":22.3685323574779,"lng":103.57252234189437,"osm_type":"way","osm_id":714745638}},{"type":"Feature","geometry":{"type":"MultiPolygon","coordinates":[[[[103.57139,22.369635],[103.571582,22.369227],[103.571856,22.369298],[103.571825,22.369382],[103.572097,22.369492],[103.571843,22.36982],[103.57139,22.369635]]]]},"properties":{"group":"edu_health","tag":"amenity=school","name":"Trường Trung học cơ sở Hồ Thầu","levels":null,"lat":22.369528927871755,"lng":103.57172493612765,"osm_type":"way","osm_id":714745643}},{"type":"Feature","geometry":{"type":"MultiPolygon","coordinates":[[[[103.357047,22.528295],[103.357055,22.528231],[103.35709,22.528179],[103.357184,22.528097],[103.357318,22.528035],[103.357637,22.528042],[103.358085,22.528082],[103.358391,22.528991],[103.357814,22.529291],[103.357213,22.528736],[103.357079,22.528486],[103.357052,22.528397],[103.357047,22.528295]]]]},"properties":{"group":"edu_health","tag":"amenity=school","name":"Trường Trung học phổ thông Mường So","levels":null,"lat":22.528589336613088,"lng":103.35772247243763,"osm_type":"way","osm_id":714979095}},{"type":"Feature","geometry":{"type":"MultiPolygon","coordinates":[[[[103.355855,22.531225],[103.356164,22.530807],[103.356395,22.531009],[103.356419,22.531039],[103.356645,22.530823],[103.356953,22.531059],[103.356324,22.531632],[103.355855,22.531225]]]]},"properties":{"group":"edu_health","tag":"amenity=school","name":"Trường Trung học cơ sở Mường So","levels":null,"lat":22.53118525573228,"lng":103.35637451938918,"osm_type":"way","osm_id":714979136}},{"type":"Feature","geometry":{"type":"MultiPolygon","coordinates":[[[[103.358448,22.532184],[103.35857,22.531709],[103.359123,22.531902],[103.359064,22.532068],[103.359029,22.532133],[103.358841,22.532283],[103.358781,22.532411],[103.358459,22.532374],[103.358522,22.532208],[103.358448,22.532184]]]]},"properties":{"group":"edu_health","tag":"amenity=school","name":"Trường Tiểu học Mường So","levels":null,"lat":22.5320638274202,"lng":103.35874348862734,"osm_type":"way","osm_id":714979137}},{"type":"Feature","geometry":{"type":"MultiPolygon","coordinates":[[[[103.352189,22.541795],[103.352216,22.541423],[103.352227,22.541283],[103.352622,22.54147],[103.352395,22.541868],[103.352189,22.541795]]]]},"properties":{"group":"edu_health","tag":"amenity=school","name":"Trường Tiểu học Khổng Lào","levels":null,"lat":22.54157800026154,"lng":103.352363992937,"osm_type":"way","osm_id":714984800}},{"type":"Feature","geometry":{"type":"MultiPolygon","coordinates":[[[[103.354676,22.537831],[103.355014,22.537516],[103.355121,22.537463],[103.355309,22.537395],[103.355437,22.537407],[103.355822,22.537768],[103.354939,22.538193],[103.354676,22.537831]]]]},"properties":{"group":"edu_health","tag":"amenity=school","name":"Trường Trung học cơ sở Khổng Lào","levels":null,"lat":22.53776964463033,"lng":103.35521131444398,"osm_type":"way","osm_id":714984802}},{"type":"Feature","geometry":{"type":"MultiPolygon","coordinates":[[[[103.329095,22.556021],[103.329436,22.555581],[103.329821,22.555865],[103.329511,22.556273],[103.329095,22.556021]]]]},"properties":{"group":"edu_health","tag":"amenity=school","name":null,"levels":null,"lat":22.555933717157988,"lng":103.32946301975333,"osm_type":"way","osm_id":715041328}},{"type":"Feature","geometry":{"type":"MultiPolygon","coordinates":[[[[103.328044,22.556337],[103.328805,22.555681],[103.329015,22.555903],[103.328593,22.556301],[103.328371,22.556473],[103.328232,22.55654],[103.328044,22.556337]]]]},"properties":{"group":"edu_health","tag":"amenity=school","name":"Trường Trung học cơ sở Hoang Thèn","levels":null,"lat":22.556123938132977,"lng":103.32853397728532,"osm_type":"way","osm_id":715041332}},{"type":"Feature","geometry":{"type":"MultiPolygon","coordinates":[[[[103.196173,22.551735],[103.197209,22.551441],[103.197383,22.551835],[103.197455,22.552087],[103.197455,22.552256],[103.197455,22.552367],[103.197458,22.552491],[103.196594,22.552721],[103.196173,22.551735]]]]},"properties":{"group":"edu_health","tag":"amenity=school","name":"Trường Trung học cơ sở Huổi Luông","levels":null,"lat":22.552075650217105,"lng":103.19688075202534,"osm_type":"way","osm_id":715404570}},{"type":"Feature","geometry":{"type":"MultiPolygon","coordinates":[[[[103.274199,22.646424],[103.274742,22.646303],[103.274813,22.646871],[103.274667,22.646849],[103.274447,22.64687],[103.274244,22.646931],[103.274199,22.646424]]]]},"properties":{"group":"edu_health","tag":"amenity=school","name":"Trường PTDTBT Trung học cơ sở Mù Sang","levels":null,"lat":22.646619416793364,"lng":103.27450343440621,"osm_type":"way","osm_id":717134978}},{"type":"Feature","geometry":{"type":"MultiPolygon","coordinates":[[[[102.520306,22.569149],[102.520664,22.568905],[102.520641,22.568867],[102.520962,22.568653],[102.521284,22.56846],[102.521482,22.568827],[102.521566,22.569054],[102.521536,22.569129],[102.521477,22.569198],[102.521429,22.569228],[102.521378,22.56925],[102.521257,22.569302],[102.521046,22.569411],[102.520849,22.569513],[102.520694,22.569378],[102.520557,22.569478],[102.520306,22.569149]]]]},"properties":{"group":"edu_health","tag":"amenity=school","name":"Trường PTDTBT Tiểu học Pắc Ma","levels":null,"lat":22.569037773791234,"lng":102.52099232005433,"osm_type":"way","osm_id":772407621}},{"type":"Feature","geometry":{"type":"MultiPolygon","coordinates":[[[[102.6543,22.377222],[102.654512,22.377094],[102.654372,22.376747],[102.65463,22.376674],[102.654875,22.376616],[102.655034,22.376937],[102.654972,22.376966],[102.655002,22.377042],[102.654901,22.377087],[102.654997,22.377323],[102.654959,22.377367],[102.654997,22.377486],[102.654953,22.377559],[102.654893,22.377639],[102.654769,22.377664],[102.654717,22.377669],[102.654657,22.377659],[102.654602,22.377635],[102.6543,22.377222]]]]},"properties":{"group":"edu_health","tag":"amenity=school","name":"Trường PTDTBT Tiểu học số 1 Tà Tổng","levels":null,"lat":22.377143279727296,"lng":102.65470294588648,"osm_type":"way","osm_id":839015407}},{"type":"Feature","geometry":{"type":"MultiPolygon","coordinates":[[[[102.626877,22.297668],[102.627467,22.296896],[102.6281,22.297294],[102.627502,22.298095],[102.626968,22.297862],[102.626877,22.297668]]]]},"properties":{"group":"edu_health","tag":"amenity=school","name":"Trường PTDTBT Trung học cơ sở Nậm Ngà","levels":null,"lat":22.29751062637089,"lng":102.62746791062517,"osm_type":"way","osm_id":839380645}},{"type":"Feature","geometry":{"type":"MultiPolygon","coordinates":[[[[102.969855,22.393832],[102.970042,22.393198],[102.970106,22.393176],[102.970829,22.393393],[102.970649,22.394074],[102.970449,22.394013],[102.97041,22.393952],[102.970338,22.393924],[102.97027,22.393961],[102.969855,22.393832]]]]},"properties":{"group":"edu_health","tag":"amenity=school","name":"Trường PTDTBT Trung học cơ sở Hua Bum","levels":null,"lat":22.393613704402775,"lng":102.97034649071938,"osm_type":"way","osm_id":846480758}},{"type":"Feature","geometry":{"type":"MultiPolygon","coordinates":[[[[102.977849,22.397763],[102.977884,22.397745],[102.978029,22.397699],[102.978045,22.397527],[102.978169,22.397578],[102.9783,22.397657],[102.978406,22.397752],[102.978446,22.397838],[102.978468,22.397927],[102.978477,22.398009],[102.978457,22.398053],[102.978426,22.398089],[102.978393,22.398123],[102.978104,22.398223],[102.977849,22.397763]]]]},"properties":{"group":"edu_health","tag":"amenity=school","name":"Trường PTDTBT Tiểu học Hua Bum","levels":null,"lat":22.397888795756003,"lng":102.97818489591538,"osm_type":"way","osm_id":846480768}},{"type":"Feature","geometry":{"type":"MultiPolygon","coordinates":[[[[103.197167,22.463651],[103.197325,22.463619],[103.19721,22.463293],[103.197762,22.463101],[103.198104,22.463859],[103.197292,22.464042],[103.197167,22.463651]]]]},"properties":{"group":"edu_health","tag":"amenity=school","name":"Trường PTDTBT Trung học cơ sở Pa Tần","levels":null,"lat":22.463601482811647,"lng":103.1976014306207,"osm_type":"way","osm_id":846613762}},{"type":"Feature","geometry":{"type":"MultiPolygon","coordinates":[[[[103.249824,22.362144],[103.250243,22.360921],[103.250573,22.360839],[103.251398,22.361231],[103.25088,22.362405],[103.249824,22.362144]]]]},"properties":{"group":"edu_health","tag":"amenity=hospital","name":"Bệnh viện Đa khoa Sìn Hồ","levels":null,"lat":22.36162261804172,"lng":103.25059777793643,"osm_type":"way","osm_id":850015272}},{"type":"Feature","geometry":{"type":"MultiPolygon","coordinates":[[[[103.251949,22.35737],[103.252067,22.356738],[103.252793,22.356824],[103.252663,22.357475],[103.252655,22.357516],[103.251949,22.35737]]]]},"properties":{"group":"edu_health","tag":"amenity=school","name":"Trường Trung học phổ thông Sìn Hồ","levels":null,"lat":22.357112244351267,"lng":103.25237150078819,"osm_type":"way","osm_id":850018302}},{"type":"Feature","geometry":{"type":"MultiPolygon","coordinates":[[[[103.250963,22.359215],[103.251289,22.358918],[103.251236,22.358845],[103.251442,22.358625],[103.25187,22.359148],[103.251244,22.359621],[103.250963,22.359215]]]]},"properties":{"group":"edu_health","tag":"amenity=school","name":"Trường PTDTNT huyện Sìn Hồ","levels":null,"lat":22.359142507204478,"lng":103.25140352060657,"osm_type":"way","osm_id":850046499}},{"type":"Feature","geometry":{"type":"MultiPolygon","coordinates":[[[[103.251865,22.357783],[103.251949,22.35737],[103.252655,22.357516],[103.252723,22.357547],[103.252462,22.358137],[103.251865,22.357783]]]]},"properties":{"group":"edu_health","tag":"amenity=school","name":"Trường Tiểu học Thị trấn Sìn Hồ","levels":null,"lat":22.357708820369588,"lng":103.25227905177785,"osm_type":"way","osm_id":850046500}},{"type":"Feature","geometry":{"type":"MultiPolygon","coordinates":[[[[103.252663,22.357475],[103.252793,22.356824],[103.252899,22.356759],[103.25347,22.356785],[103.253466,22.357425],[103.253034,22.357541],[103.252663,22.357475]]]]},"properties":{"group":"edu_health","tag":"amenity=school","name":"Trường Trung học cơ sở Thị trấn Sìn Hồ","levels":null,"lat":22.357146782662504,"lng":103.2530922361987,"osm_type":"way","osm_id":850046501}},{"type":"Feature","geometry":{"type":"MultiPolygon","coordinates":[[[[103.473747,22.387502],[103.473954,22.387545],[103.474367,22.387644],[103.474573,22.387703],[103.474643,22.387708],[103.475018,22.387607],[103.475123,22.387572],[103.475308,22.387473],[103.475525,22.387331],[103.475555,22.387284],[103.475584,22.387135],[103.475563,22.386912],[103.475547,22.386848],[103.475941,22.387371],[103.47593,22.387406],[103.474485,22.38829],[103.474369,22.38814],[103.47427,22.388197],[103.473758,22.387537],[103.473747,22.387502]]]]},"properties":{"group":"public","tag":"leisure=park","name":null,"levels":null,"lat":22.387720973918825,"lng":103.47484629274396,"osm_type":"way","osm_id":850468512}},{"type":"Feature","geometry":{"type":"MultiPolygon","coordinates":[[[[103.478008,22.392078],[103.478013,22.392063],[103.478031,22.392016],[103.478228,22.391893],[103.478248,22.391894],[103.478281,22.391907],[103.478425,22.39209],[103.478437,22.392115],[103.478434,22.392132],[103.478415,22.392159],[103.478222,22.392286],[103.478193,22.39229],[103.478161,22.392285],[103.478143,22.392274],[103.478009,22.392105],[103.478008,22.392078]]]]},"properties":{"group":"public","tag":"leisure=park","name":null,"levels":null,"lat":22.39209419103557,"lng":103.47821670737864,"osm_type":"way","osm_id":850468549}},{"type":"Feature","geometry":{"type":"MultiPolygon","coordinates":[[[[103.425851,22.408182],[103.426382,22.407359],[103.426481,22.407339],[103.426524,22.407344],[103.426605,22.407388],[103.42665,22.407307],[103.426626,22.407193],[103.426878,22.40694],[103.427015,22.406773],[103.427128,22.406761],[103.427822,22.407274],[103.427833,22.407364],[103.42679,22.408894],[103.425896,22.408229],[103.425851,22.408182]]]]},"properties":{"group":"edu_health","tag":"amenity=college","name":"Trường Quân sự tỉnh Lai Châu","levels":null,"lat":22.40779412154839,"lng":103.42685792320506,"osm_type":"way","osm_id":850468573}},{"type":"Feature","geometry":{"type":"MultiPolygon","coordinates":[[[[103.465364,22.40398],[103.465369,22.403952],[103.465698,22.403603],[103.465895,22.403406],[103.46628,22.403676],[103.466105,22.403856],[103.466183,22.403911],[103.465778,22.404327],[103.465493,22.404115],[103.465396,22.404037],[103.465372,22.404008],[103.465364,22.40398]]]]},"properties":{"group":"edu_health","tag":"amenity=school","name":"Trường Trung học cơ sở Sùng Phài","levels":null,"lat":22.40386682073262,"lng":103.46582110475347,"osm_type":"way","osm_id":850468592}},{"type":"Feature","geometry":{"type":"MultiPolygon","coordinates":[[[[103.465778,22.404327],[103.466183,22.403911],[103.466105,22.403856],[103.46628,22.403676],[103.466819,22.404142],[103.466296,22.404716],[103.465778,22.404327]]]]},"properties":{"group":"edu_health","tag":"amenity=school","name":"Trường PTDTBT Tiểu học Sùng Phài","levels":null,"lat":22.40421209158296,"lng":103.46630354956477,"osm_type":"way","osm_id":850468595}},{"type":"Feature","geometry":{"type":"MultiPolygon","coordinates":[[[[103.622429,22.320961],[103.623605,22.320433],[103.624052,22.321156],[103.624029,22.321232],[103.622963,22.32174],[103.622844,22.321719],[103.622429,22.320961]]]]},"properties":{"group":"public","tag":"leisure=park","name":"Công viên Pu Ta Leng","levels":null,"lat":22.321097354196347,"lng":103.62324687529491,"osm_type":"way","osm_id":1055051249}},{"type":"Feature","geometry":{"type":"MultiPolygon","coordinates":[[[[103.462937,22.395366],[103.463329,22.39491],[103.463361,22.394875],[103.463413,22.394864],[103.463491,22.394871],[103.463567,22.394907],[103.465871,22.397824],[103.465881,22.397853],[103.465877,22.397884],[103.465855,22.397917],[103.46484,22.398535],[103.464799,22.398533],[103.464757,22.39852],[103.464715,22.398493],[103.464675,22.398454],[103.464453,22.398153],[103.464344,22.397972],[103.464111,22.397549],[103.463898,22.397314],[103.463785,22.397178],[103.463624,22.396929],[103.463538,22.39678],[103.463455,22.396598],[103.463386,22.396396],[103.463336,22.396256],[103.462937,22.395366]]]]},"properties":{"group":"public","tag":"leisure=park","name":"Công viên Ao cá Bác Hồ","levels":null,"lat":22.396801459808408,"lng":103.46432868679682,"osm_type":"way","osm_id":1055051250}},{"type":"Feature","geometry":{"type":"MultiPolygon","coordinates":[[[[102.447987,22.629227],[102.448201,22.62916],[102.448392,22.629163],[102.448893,22.628901],[102.448976,22.628992],[102.4492,22.629042],[102.449277,22.62926],[102.449164,22.629298],[102.449127,22.629254],[102.44859,22.629497],[102.448408,22.629228],[102.448347,22.629205],[102.448297,22.629223],[102.448387,22.629492],[102.448323,22.629533],[102.448257,22.629576],[102.448119,22.62953],[102.447995,22.629333],[102.447987,22.629227]]]]},"properties":{"group":"edu_health","tag":"amenity=school","name":null,"levels":null,"lat":22.62923874362343,"lng":102.44863464008084,"osm_type":"way","osm_id":1156626184}},{"type":"Feature","geometry":{"type":"MultiPolygon","coordinates":[[[[102.457995,22.698925],[102.458042,22.698846],[102.458324,22.698742],[102.458347,22.69881],[102.458413,22.698782],[102.458443,22.698772],[102.458441,22.698699],[102.458618,22.698656],[102.458782,22.698687],[102.458928,22.698782],[102.458954,22.698867],[102.458961,22.698944],[102.458962,22.698968],[102.458972,22.699051],[102.458959,22.699115],[102.458718,22.699179],[102.458677,22.699222],[102.458577,22.699252],[102.458438,22.69929],[102.458415,22.699222],[102.458246,22.699282],[102.457995,22.698925]]]]},"properties":{"group":"edu_health","tag":"amenity=school","name":null,"levels":null,"lat":22.698970457220423,"lng":102.45851519865931,"osm_type":"way","osm_id":1159821891}},{"type":"Feature","geometry":{"type":"MultiPolygon","coordinates":[[[[102.440625,22.632154],[102.440722,22.631934],[102.440689,22.631874],[102.440643,22.631786],[102.440737,22.631744],[102.44085,22.63169],[102.440916,22.631658],[102.440953,22.631723],[102.440995,22.631796],[102.441047,22.631885],[102.441089,22.631952],[102.441008,22.631999],[102.440805,22.632116],[102.440625,22.632154]]]]},"properties":{"group":"edu_health","tag":"amenity=hospital","name":null,"levels":null,"lat":22.631907612313913,"lng":102.44084287943129,"osm_type":"way","osm_id":1160235484}},{"type":"Feature","geometry":{"type":"MultiPolygon","coordinates":[[[[103.47999,22.379298],[103.480119,22.379311],[103.480141,22.37913],[103.481731,22.379289],[103.481801,22.379323],[103.481669,22.380102],[103.481428,22.380107],[103.480106,22.379936],[103.47999,22.379298]]]]},"properties":{"group":"edu_health","tag":"amenity=hospital","name":"Bệnh viện Phổi tỉnh Lai Châu","levels":null,"lat":22.379616251243686,"lng":103.48090599918613,"osm_type":"way","osm_id":1203520360}},{"type":"Feature","geometry":{"type":"MultiPolygon","coordinates":[[[[103.750046,22.171102],[103.750166,22.170161],[103.750193,22.169795],[103.751502,22.169937],[103.751346,22.171179],[103.750046,22.171102]]]]},"properties":{"group":"edu_health","tag":"amenity=hospital","name":"Bệnh viện Đa khoa Tân Uyên","levels":null,"lat":22.17050246661269,"lng":103.75077013949159,"osm_type":"way","osm_id":1203520372}},{"type":"Feature","geometry":{"type":"MultiPolygon","coordinates":[[[[103.879115,21.951278],[103.880507,21.950882],[103.880614,21.950947],[103.881073,21.952163],[103.880528,21.952331],[103.880399,21.952309],[103.879953,21.951761],[103.879734,21.951713],[103.879632,21.951693],[103.879437,21.951686],[103.879265,21.951636],[103.879201,21.951579],[103.879144,21.951442],[103.879115,21.951278]]]]},"properties":{"group":"edu_health","tag":"amenity=hospital","name":"Bệnh viện Đa khoa Than Uyên","levels":null,"lat":21.951566589764198,"lng":103.88020861957175,"osm_type":"way","osm_id":1203520382}},{"type":"Feature","geometry":{"type":"MultiPolygon","coordinates":[[[[102.790562,22.386096],[102.79068,22.386051],[102.790712,22.385992],[102.791152,22.385888],[102.791203,22.385657],[102.791496,22.385555],[102.791713,22.385568],[102.791989,22.385597],[102.792445,22.385702],[102.792579,22.386292],[102.790793,22.386781],[102.790645,22.386381],[102.790562,22.386096]]]]},"properties":{"group":"edu_health","tag":"amenity=hospital","name":"Bệnh viện Đa khoa Mường Tè","levels":null,"lat":22.386128303813237,"lng":102.79156448692338,"osm_type":"way","osm_id":1203520383}},{"type":"Feature","geometry":{"type":"MultiPolygon","coordinates":[[[[102.998437,22.147441],[102.998442,22.1471],[102.998504,22.146909],[102.998665,22.146703],[102.999046,22.146541],[102.999319,22.146638],[103.000137,22.147277],[103.000255,22.147242],[103.000434,22.147287],[103.001012,22.147247],[103.001232,22.147354],[103.001222,22.147456],[103.001137,22.147537],[103.000925,22.147644],[103.000271,22.148531],[103.000111,22.148675],[102.998437,22.147441]]]]},"properties":{"group":"edu_health","tag":"amenity=hospital","name":"Bệnh viện Đa khoa Nậm Nhùn","levels":null,"lat":22.14754430647547,"lng":102.99968622333036,"osm_type":"way","osm_id":1203520393}},{"type":"Feature","geometry":{"type":"MultiPolygon","coordinates":[[[[103.47144,22.390319],[103.471475,22.390277],[103.472468,22.389757],[103.472521,22.389755],[103.472562,22.389789],[103.472652,22.389937],[103.472688,22.389995],[103.47268,22.390053],[103.472663,22.390118],[103.472666,22.390213],[103.472684,22.390277],[103.472722,22.390353],[103.472767,22.390449],[103.47282,22.390525],[103.472803,22.390545],[103.471941,22.391047],[103.471461,22.390365],[103.47144,22.390319]]]]},"properties":{"group":"public","tag":"leisure=park","name":null,"levels":null,"lat":22.390389486954138,"lng":103.47216479559218,"osm_type":"way","osm_id":1287942858}},{"type":"Feature","geometry":{"type":"MultiPolygon","coordinates":[[[[103.873337,21.891143],[103.873394,21.890058],[103.873777,21.890061],[103.873769,21.891166],[103.873337,21.891143]]]]},"properties":{"group":"edu_health","tag":"amenity=school","name":null,"levels":null,"lat":21.890618102071702,"lng":103.87356945043906,"osm_type":"way","osm_id":1383488967}},{"type":"Feature","geometry":{"type":"MultiPolygon","coordinates":[[[[103.470009,22.386217],[103.470016,22.386143],[103.470051,22.386075],[103.470108,22.386022],[103.470182,22.385991],[103.470233,22.385984],[103.470313,22.385994],[103.470384,22.386029],[103.470439,22.386085],[103.470473,22.386183],[103.470466,22.386257],[103.470431,22.386325],[103.470373,22.386377],[103.470299,22.386408],[103.470246,22.386415],[103.470167,22.386403],[103.470096,22.386367],[103.470042,22.386311],[103.470009,22.386217]],[[103.470081,22.38625],[103.470204,22.386252],[103.470244,22.386358],[103.470282,22.386251],[103.470402,22.386251],[103.470305,22.386176],[103.470337,22.386071],[103.470246,22.386134],[103.470146,22.386071],[103.470172,22.386178],[103.470081,22.38625]]]]},"properties":{"group":"public","tag":"leisure=garden","name":null,"levels":null,"lat":22.386199215908853,"lng":103.47024142969981,"osm_type":"relation","osm_id":19522067}},{"type":"Feature","geometry":{"type":"Point","coordinates":[102.758571,22.391713]},"properties":{"group":"edu_health","tag":"amenity=school","name":"Điểm trường Bản Nậm Xả","levels":null,"lat":22.3917132,"lng":102.7585711,"osm_type":"node","osm_id":6652847126}},{"type":"Feature","geometry":{"type":"Point","coordinates":[103.915676,22.038281]},"properties":{"group":"edu_health","tag":"amenity=school","name":null,"levels":null,"lat":22.0382813,"lng":103.9156759,"osm_type":"node","osm_id":12756645552}},{"type":"Feature","geometry":{"type":"Point","coordinates":[103.883379,22.065426]},"properties":{"group":"edu_health","tag":"amenity=school","name":null,"levels":null,"lat":22.0654259,"lng":103.8833786,"osm_type":"node","osm_id":12756653617}},{"type":"Feature","geometry":{"type":"Point","coordinates":[103.665994,22.320123]},"properties":{"group":"edu_health","tag":"amenity=school","name":null,"levels":null,"lat":22.3201229,"lng":103.6659937,"osm_type":"node","osm_id":12756732779}}]}