{"type":"FeatureCollection","features":[{"type":"Feature","properties":{"kind":"boundary","province_code":"96","name":"Tỉnh Cà Mau","source":"VNSDI","valid_from":"16/6/2025","simplify_tolerance_deg":0.0005},"geometry":{"type":"MultiPolygon","coordinates":[[[[103.70628,8.05457],[103.7176,8.05956],[103.72694,8.06098],[103.73538,8.05925],[103.74233,8.05522],[103.74603,8.054],[103.77445,8.05367],[103.78627,8.05238],[103.78906,8.05061],[103.79005,8.04783],[103.78695,8.04539],[103.78091,8.04402],[103.7349,8.04451],[103.7223,8.04555],[103.70427,8.04473],[103.69825,8.04364],[103.69451,8.04205],[103.69284,8.04009],[103.6923,8.03622],[103.68992,8.03489],[103.68796,8.03546],[103.68355,8.04024],[103.67883,8.04319],[103.65568,8.04341],[103.65564,8.05418],[103.67316,8.06003],[103.68133,8.06127],[103.68785,8.06119],[103.69192,8.0596],[103.69763,8.05456],[103.70206,8.05387],[103.70628,8.05457]]],[[[104.87775,8.38083],[104.87852,8.38166],[104.88006,8.38181],[104.87889,8.38054],[104.87775,8.38083]]],[[[104.84868,8.41346],[104.84805,8.41552],[104.84843,8.41829],[104.8516,8.42126],[104.85718,8.41883],[104.85318,8.41375],[104.85038,8.41264],[104.84868,8.41346]]],[[[104.86069,8.42093],[104.86155,8.4215],[104.86276,8.42149],[104.86167,8.4202],[104.86069,8.42093]]],[[[104.83845,8.43904],[104.83686,8.43649],[104.83717,8.4329],[104.83935,8.42768],[104.83862,8.42616],[104.83012,8.42196],[104.8244,8.42144],[104.81924,8.4265],[104.84175,8.45213],[104.84207,8.44997],[104.84515,8.44709],[104.84518,8.44249],[104.84144,8.43894],[104.83845,8.43904]]],[[[104.84242,8.45369],[104.84346,8.45484],[104.84463,8.45491],[104.84309,8.45321],[104.84242,8.45369]]],[[[104.70547,8.62808],[104.70485,8.62918],[104.70387,8.62879],[104.70259,8.62579],[104.70255,8.62305],[104.70352,8.61905],[104.70657,8.61281],[104.70557,8.61088],[104.70551,8.60772],[104.70999,8.59951],[104.70888,8.59773],[104.70757,8.59748],[104.7041,8.59885],[104.69932,8.60387],[104.69641,8.60851],[104.68987,8.6251],[104.6891,8.63285],[104.6896,8.63521],[104.6961,8.64347],[104.69821,8.64506],[104.70329,8.64565],[104.70498,8.64469],[104.70686,8.63665],[104.70729,8.63059],[104.7068,8.62799],[104.70547,8.62808]]],[[[104.84653,8.56974],[104.83997,8.56485],[104.83059,8.56269],[104.82432,8.56391],[104.81364,8.56793],[104.80657,8.5723],[104.80556,8.57345],[104.80505,8.57783],[104.80404,8.57848],[104.79194,8.58259],[104.74612,8.59408],[104.72474,8.602],[104.71855,8.60568],[104.7175,8.60781],[104.71525,8.62358],[104.7124,8.63435],[104.71393,8.64201],[104.71691,8.64862],[104.72624,8.65428],[104.72979,8.65533],[104.73595,8.65562],[104.74095,8.65467],[104.74673,8.6518],[104.75308,8.64625],[104.75568,8.64578],[104.76847,8.64894],[104.77559,8.64856],[104.77894,8.64691],[104.78071,8.64879],[104.78131,8.65176],[104.78604,8.65392],[104.79253,8.65522],[104.79628,8.65773],[104.79648,8.6593],[104.79173,8.65952],[104.78834,8.66096],[104.78747,8.66548],[104.78798,8.66756],[104.79403,8.67289],[104.78855,8.6779],[104.78559,8.68221],[104.78223,8.69474],[104.78795,8.7105],[104.79199,8.71833],[104.79797,8.7245],[104.80108,8.72494],[104.80365,8.72368],[104.80918,8.72734],[104.80917,8.72926],[104.81365,8.73252],[104.81644,8.73223],[104.81757,8.72897],[104.82026,8.72947],[104.82004,8.73323],[104.81715,8.74351],[104.81728,8.74479],[104.81985,8.74658],[104.81187,8.7719],[104.80461,8.77553],[104.79855,8.78305],[104.79237,8.78902],[104.78792,8.79511],[104.78186,8.80658],[104.78089,8.81856],[104.78225,8.83064],[104.78526,8.84423],[104.79085,8.86004],[104.79392,8.86339],[104.7944,8.86495],[104.79428,8.8665],[104.79175,8.86818],[104.79162,8.87153],[104.79532,8.88305],[104.79806,8.89529],[104.79952,8.89828],[104.79917,8.90262],[104.80445,8.94094],[104.80602,8.97992],[104.80353,9.01271],[104.80676,9.04209],[104.81141,9.10383],[104.81249,9.12936],[104.81249,9.14725],[104.8111,9.1561],[104.81025,9.17214],[104.80889,9.17773],[104.81799,9.22102],[104.82174,9.24733],[104.82354,9.26893],[104.82503,9.2986],[104.82553,9.34115],[104.82775,9.3733],[104.82935,9.37551],[104.82838,9.39979],[104.82996,9.41829],[104.83124,9.45716],[104.83548,9.53261],[104.84372,9.53008],[104.8466,9.5282],[104.85006,9.523],[104.85611,9.51614],[104.8752,9.50058],[104.88125,9.49409],[104.91632,9.56127],[104.94585,9.5324],[104.96275,9.55545],[104.96924,9.54894],[104.97785,9.54324],[104.98347,9.54117],[104.99142,9.53955],[104.99949,9.5469],[105.00251,9.55616],[105.0041,9.55798],[105.04979,9.52999],[105.05946,9.5232],[105.1506,9.46953],[105.25939,9.40011],[105.27326,9.39546],[105.27721,9.3979],[105.28086,9.39686],[105.29475,9.38817],[105.30002,9.39062],[105.30103,9.39043],[105.30736,9.38797],[105.31175,9.38439],[105.31451,9.38336],[105.31933,9.38324],[105.30884,9.41454],[105.30259,9.42424],[105.29529,9.43264],[105.29206,9.45155],[105.29048,9.45622],[105.29736,9.50219],[105.29945,9.50634],[105.30219,9.50699],[105.30899,9.50668],[105.31982,9.51246],[105.32278,9.51533],[105.32931,9.52646],[105.32898,9.52974],[105.3252,9.53538],[105.32246,9.54571],[105.32248,9.54897],[105.3244,9.55634],[105.32397,9.5587],[105.32181,9.55952],[105.31826,9.55937],[105.31063,9.55578],[105.30911,9.55578],[105.30782,9.55719],[105.30715,9.56084],[105.30822,9.56503],[105.31072,9.57014],[105.31072,9.57211],[105.30891,9.57441],[105.30122,9.57983],[105.29404,9.58739],[105.2897,9.59669],[105.28649,9.61672],[105.2871,9.62619],[105.29065,9.63334],[105.29533,9.63662],[105.29582,9.63328],[105.29748,9.63051],[105.30262,9.62926],[105.3041,9.62773],[105.30365,9.62157],[105.30442,9.61769],[105.30796,9.61063],[105.31042,9.60842],[105.31467,9.60655],[105.32408,9.6046],[105.33077,9.60471],[105.33511,9.6073],[105.34012,9.61236],[105.34224,9.61241],[105.34313,9.6117],[105.34733,9.60068],[105.34917,9.59807],[105.35304,9.59497],[105.35702,9.59322],[105.36647,9.59267],[105.37034,9.59492],[105.37134,9.59679],[105.37242,9.59716],[105.37693,9.59208],[105.37821,9.5863],[105.3796,9.58555],[105.385,9.5864],[105.38976,9.59016],[105.39139,9.59018],[105.39316,9.58887],[105.39462,9.58944],[105.39643,9.59085],[105.40139,9.59771],[105.4101,9.59755],[105.4129,9.59895],[105.41518,9.60148],[105.41689,9.6013],[105.41796,9.60003],[105.41818,9.59877],[105.41656,9.59494],[105.41665,9.59371],[105.41793,9.59273],[105.42943,9.5953],[105.43005,9.59709],[105.42943,9.60005],[105.43019,9.60065],[105.43618,9.59784],[105.44104,9.59449],[105.44283,9.59488],[105.44501,9.59662],[105.44721,9.59626],[105.44883,9.59282],[105.44905,9.58681],[105.45127,9.58697],[105.45839,9.59004],[105.46087,9.58912],[105.46438,9.58926],[105.47113,9.59296],[105.47428,9.59332],[105.48027,9.58844],[105.48601,9.58549],[105.48979,9.5869],[105.49447,9.59101],[105.50343,9.59133],[105.50489,9.59037],[105.50598,9.58658],[105.50731,9.58509],[105.51202,9.58395],[105.51846,9.58692],[105.52085,9.58896],[105.52283,9.59267],[105.52496,9.59463],[105.52957,9.59512],[105.53324,9.59498],[105.53507,9.59396],[105.54333,9.58551],[105.54513,9.58523],[105.54623,9.58642],[105.55471,9.56925],[105.55542,9.55332],[105.54953,9.5164],[105.54394,9.45358],[105.58138,9.41199],[105.58763,9.42328],[105.5926,9.42104],[105.59814,9.42109],[105.60243,9.42013],[105.60271,9.41657],[105.6096,9.41232],[105.61402,9.40721],[105.61612,9.40667],[105.6168,9.40714],[105.61711,9.41104],[105.6187,9.41371],[105.62807,9.41923],[105.63108,9.41673],[105.63181,9.41283],[105.63724,9.40927],[105.64205,9.40201],[105.63669,9.39626],[105.64265,9.39401],[105.64691,9.39508],[105.64843,9.39438],[105.64997,9.39233],[105.64981,9.38746],[105.65389,9.3859],[105.67314,9.39076],[105.67844,9.38378],[105.68252,9.38438],[105.68537,9.37828],[105.69406,9.37966],[105.70187,9.37746],[105.70535,9.37782],[105.70804,9.39454],[105.71009,9.39676],[105.71109,9.39469],[105.71613,9.39132],[105.72257,9.39079],[105.72679,9.39331],[105.7327,9.39406],[105.73659,9.39544],[105.73749,9.39831],[105.7458,9.40278],[105.74642,9.40369],[105.74574,9.40592],[105.75085,9.41101],[105.76665,9.41079],[105.76847,9.40998],[105.7717,9.41126],[105.77815,9.40203],[105.78422,9.40294],[105.78533,9.40049],[105.77886,9.39563],[105.77775,9.39308],[105.78425,9.38551],[105.7855,9.38273],[105.79026,9.38387],[105.79028,9.38019],[105.79321,9.37739],[105.79853,9.37512],[105.80239,9.37518],[105.80763,9.37334],[105.81021,9.37096],[105.81508,9.37021],[105.81724,9.37044],[105.81796,9.37254],[105.81442,9.37465],[105.81359,9.37656],[105.81447,9.37777],[105.81856,9.37887],[105.82026,9.38137],[105.82156,9.38587],[105.82094,9.39379],[105.82509,9.39312],[105.82825,9.39045],[105.8307,9.39075],[105.8339,9.3927],[105.83507,9.39765],[105.83452,9.39912],[105.83123,9.39923],[105.83117,9.40099],[105.83279,9.40166],[105.83678,9.40125],[105.84201,9.40449],[105.84313,9.40362],[105.8482,9.39693],[105.84849,9.39293],[105.85088,9.38838],[105.85363,9.38768],[105.85689,9.38433],[105.85686,9.38209],[105.8533,9.38079],[105.85304,9.37912],[105.86029,9.36442],[105.85987,9.36168],[105.85894,9.35978],[105.85495,9.36003],[105.85109,9.35611],[105.84874,9.35484],[105.82887,9.348],[105.81215,9.33939],[105.82588,9.2767],[105.81889,9.27355],[105.82756,9.24546],[105.75352,9.21171],[105.75268,9.2103],[105.75298,9.20901],[105.75116,9.20648],[105.74466,9.20366],[105.72269,9.19615],[105.60973,9.15254],[105.60599,9.15069],[105.59872,9.14355],[105.58355,9.13748],[105.57635,9.13632],[105.56915,9.13385],[105.56864,9.13328],[105.56933,9.13173],[105.5687,9.13122],[105.55156,9.12416],[105.54159,9.12187],[105.53499,9.11766],[105.51162,9.10627],[105.51027,9.10537],[105.50785,9.10065],[105.49898,9.09607],[105.49139,9.09021],[105.48871,9.0888],[105.48571,9.08871],[105.47753,9.08233],[105.45819,9.06273],[105.42595,9.02484],[105.42309,9.02052],[105.42132,9.02014],[105.41844,9.02156],[105.41831,9.02765],[105.41741,9.02864],[105.41638,9.0282],[105.41448,9.02432],[105.41239,9.01657],[105.40715,9.01285],[105.39892,9.00169],[105.39317,8.99526],[105.38988,8.98088],[105.38389,8.96858],[105.38413,8.96468],[105.38575,8.96181],[105.38562,8.95738],[105.37983,8.94157],[105.37578,8.93655],[105.36822,8.92385],[105.36058,8.90515],[105.35971,8.90074],[105.35586,8.89069],[105.34926,8.87727],[105.33494,8.85162],[105.32992,8.84422],[105.32822,8.83938],[105.32639,8.83693],[105.31715,8.82886],[105.308,8.8254],[105.30577,8.82343],[105.29982,8.81591],[105.29836,8.80863],[105.29583,8.80591],[105.28939,8.80178],[105.27913,8.7871],[105.26686,8.77589],[105.26274,8.77346],[105.25468,8.77097],[105.24863,8.76719],[105.23231,8.76321],[105.22105,8.76161],[105.21302,8.75692],[105.21121,8.75716],[105.20373,8.75523],[105.19966,8.75234],[105.18159,8.74404],[105.17845,8.74188],[105.16657,8.72411],[105.15722,8.71301],[105.1523,8.70897],[105.14882,8.70725],[105.14383,8.70004],[105.13806,8.69672],[105.13614,8.6946],[105.13638,8.69351],[105.13006,8.68052],[105.1261,8.67788],[105.12324,8.67341],[105.12342,8.67057],[105.1269,8.66138],[105.11414,8.64984],[105.10642,8.64039],[105.10086,8.63772],[105.09569,8.63721],[105.06984,8.62803],[105.06261,8.62734],[105.05175,8.62408],[105.04297,8.6188],[105.02386,8.61159],[105.00363,8.60222],[104.99753,8.60239],[104.99085,8.60469],[104.98281,8.60462],[104.9739,8.60121],[104.9624,8.5927],[104.95428,8.58846],[104.94555,8.58857],[104.91426,8.58297],[104.89637,8.57822],[104.89269,8.57629],[104.88743,8.57592],[104.87769,8.57327],[104.85879,8.57189],[104.84653,8.56974]]],[[[104.56487,8.88256],[104.56069,8.88119],[104.55893,8.88211],[104.55988,8.88311],[104.56449,8.88314],[104.56487,8.88256]]],[[[104.56581,8.88278],[104.56927,8.88315],[104.56997,8.88251],[104.56682,8.88199],[104.56581,8.88278]]],[[[104.5239,8.94605],[104.52229,8.94907],[104.52421,8.95506],[104.52549,8.95554],[104.52974,8.94391],[104.52883,8.94288],[104.52743,8.94317],[104.5239,8.94605]]],[[[104.80352,9.17754],[104.79967,9.17868],[104.79911,9.17995],[104.80257,9.17935],[104.80352,9.17754]]]]}},{"type":"Feature","properties":{"kind":"buffer","province_code":"96","buffer_m":5000,"source":"derived","simplify_tolerance_deg":0.0005},"geometry":{"type":"MultiPolygon","coordinates":[[[[104.72157,8.5545],[104.71614,8.55307],[104.7074,8.55226],[104.69711,8.55344],[104.69026,8.55537],[104.68379,8.55833],[104.67094,8.56784],[104.66071,8.57995],[104.65475,8.59035],[104.65022,8.60054],[104.64637,8.61186],[104.64478,8.61914],[104.64364,8.63103],[104.64507,8.64447],[104.6473,8.65186],[104.65077,8.65877],[104.6616,8.67293],[104.67066,8.68104],[104.67919,8.68613],[104.68863,8.68926],[104.69839,8.69068],[104.70474,8.69413],[104.71679,8.69866],[104.72763,8.7005],[104.73721,8.7007],[104.73946,8.71016],[104.74747,8.73112],[104.7515,8.73895],[104.75868,8.74913],[104.76331,8.75404],[104.75557,8.76244],[104.75112,8.76853],[104.74092,8.78676],[104.73659,8.80111],[104.73543,8.81687],[104.73773,8.83992],[104.74102,8.85473],[104.74613,8.87047],[104.74633,8.87581],[104.74828,8.88527],[104.75381,8.90581],[104.75909,8.94498],[104.76051,8.97883],[104.75825,9.01704],[104.76138,9.04567],[104.76601,9.1067],[104.76707,9.14348],[104.76628,9.14829],[104.761,9.15468],[104.75635,9.16398],[104.7544,9.17104],[104.75357,9.17978],[104.75427,9.18772],[104.75641,9.19555],[104.76147,9.20534],[104.77042,9.21487],[104.77648,9.25255],[104.77952,9.2994],[104.78014,9.34417],[104.78237,9.37658],[104.78342,9.38284],[104.78296,9.40236],[104.78462,9.42241],[104.78921,9.52671],[104.79162,9.54459],[104.79489,9.55302],[104.79979,9.56064],[104.80611,9.56714],[104.81361,9.57225],[104.82198,9.57579],[104.83089,9.57759],[104.83998,9.5776],[104.84889,9.57581],[104.85714,9.57329],[104.86854,9.56795],[104.87597,9.58215],[104.88086,9.5896],[104.88713,9.59595],[104.89453,9.60096],[104.90277,9.60443],[104.91154,9.60623],[104.92049,9.60629],[104.92928,9.60461],[104.93756,9.60125],[104.94452,9.59668],[104.95541,9.60007],[104.96418,9.60064],[104.9729,9.59953],[104.98117,9.59679],[104.98413,9.59861],[104.99271,9.60176],[105.00175,9.60314],[105.01089,9.6027],[105.01975,9.60044],[105.02798,9.59647],[105.09538,9.55442],[105.16834,9.51179],[105.24548,9.46309],[105.25,9.49458],[105.25408,9.51614],[105.25878,9.52661],[105.26416,9.53488],[105.26699,9.53765],[105.26246,9.55039],[105.262,9.55525],[105.25373,9.56643],[105.25107,9.57149],[105.2452,9.5873],[105.24255,9.60068],[105.24094,9.61748],[105.24183,9.63065],[105.24433,9.64159],[105.24828,9.6508],[105.2541,9.66028],[105.26466,9.67067],[105.27063,9.67485],[105.27871,9.67871],[105.28761,9.68118],[105.29683,9.68182],[105.30598,9.68058],[105.3147,9.67754],[105.32262,9.6728],[105.33834,9.65748],[105.3419,9.65773],[105.35414,9.65605],[105.36261,9.65284],[105.37178,9.64698],[105.37659,9.64202],[105.38595,9.64013],[105.39697,9.64262],[105.40146,9.64459],[105.41129,9.64653],[105.41642,9.64669],[105.42579,9.64545],[105.43711,9.64535],[105.44608,9.64313],[105.44931,9.64159],[105.46094,9.63938],[105.46474,9.63774],[105.47434,9.63854],[105.48539,9.63717],[105.48872,9.63589],[105.50041,9.63668],[105.50731,9.63615],[105.51898,9.63945],[105.53598,9.64012],[105.54607,9.63836],[105.55551,9.63441],[105.57635,9.62031],[105.58239,9.61385],[105.58706,9.60635],[105.59555,9.58919],[105.59879,9.58045],[105.60016,9.57123],[105.60086,9.5553],[105.60035,9.54624],[105.5947,9.51086],[105.591,9.46922],[105.59197,9.46815],[105.6165,9.46291],[105.62463,9.46432],[105.6334,9.46414],[105.64196,9.46229],[105.65002,9.45884],[105.65725,9.45392],[105.66757,9.44373],[105.67401,9.43577],[105.6796,9.43552],[105.68489,9.43423],[105.69106,9.43783],[105.69961,9.44076],[105.70857,9.44195],[105.71707,9.4414],[105.72729,9.44969],[105.7366,9.45396],[105.7467,9.45633],[105.7641,9.45578],[105.77444,9.45639],[105.78406,9.45477],[105.79186,9.45186],[105.79872,9.44778],[105.80313,9.44398],[105.80938,9.44058],[105.81958,9.44494],[105.83698,9.44943],[105.84575,9.44955],[105.85439,9.448],[105.86257,9.44482],[105.87111,9.43928],[105.87945,9.43085],[105.88452,9.42416],[105.88851,9.4169],[105.89264,9.41233],[105.89716,9.40535],[105.90019,9.39823],[105.90256,9.38676],[105.90247,9.38119],[105.90439,9.37555],[105.90573,9.36801],[105.90571,9.35943],[105.9026,9.34614],[105.8953,9.3326],[105.88947,9.32626],[105.88255,9.32113],[105.86459,9.31253],[105.87033,9.28632],[105.87137,9.27761],[105.87069,9.26886],[105.86937,9.26416],[105.87284,9.24976],[105.87279,9.24062],[105.87089,9.23168],[105.86721,9.2233],[105.86192,9.21583],[105.85522,9.20956],[105.8474,9.20477],[105.78404,9.1754],[105.77653,9.16894],[105.7693,9.16501],[105.70403,9.14068],[105.63176,9.11242],[105.62396,9.10593],[105.6165,9.10193],[105.60356,9.09655],[105.59324,9.09329],[105.58765,9.09011],[105.57024,9.08292],[105.55905,9.07942],[105.54164,9.07055],[105.53727,9.06615],[105.53207,9.06237],[105.51272,9.05027],[105.50706,9.04769],[105.49211,9.03256],[105.45417,8.98749],[105.44745,8.98233],[105.43749,8.97766],[105.43539,8.97482],[105.43123,8.96194],[105.43106,8.95524],[105.42928,8.94468],[105.42225,8.92525],[105.41855,8.91784],[105.40947,8.90448],[105.39864,8.87499],[105.39013,8.8574],[105.3664,8.8148],[105.36168,8.8084],[105.3466,8.79438],[105.33926,8.7893],[105.33709,8.78491],[105.33178,8.77794],[105.32151,8.76858],[105.31058,8.75416],[105.30528,8.74906],[105.29013,8.73704],[105.26093,8.72366],[105.24894,8.72043],[105.23614,8.71807],[105.23004,8.71499],[105.22093,8.71251],[105.20987,8.7072],[105.20449,8.69913],[105.19463,8.68727],[105.18718,8.67898],[105.18118,8.67402],[105.17393,8.66639],[105.17225,8.66308],[105.17193,8.65497],[105.16916,8.64465],[105.16361,8.63467],[105.1581,8.62827],[105.14725,8.61878],[105.14054,8.61048],[105.13437,8.60471],[105.12723,8.60018],[105.11831,8.59593],[105.10582,8.59283],[105.08357,8.58492],[105.07077,8.58256],[105.05988,8.57682],[105.04279,8.57044],[105.02217,8.56093],[105.01248,8.55786],[105.00233,8.55702],[104.99142,8.55769],[104.98109,8.55131],[104.96754,8.5452],[104.95946,8.54352],[104.95124,8.5436],[104.92415,8.53877],[104.90659,8.53323],[104.88444,8.52855],[104.86425,8.52667],[104.85797,8.52332],[104.84076,8.51862],[104.83134,8.51748],[104.82188,8.51831],[104.80903,8.52125],[104.79023,8.52915],[104.77993,8.53565],[104.77482,8.54028],[104.75243,8.54552],[104.72157,8.5545]]],[[[104.83349,8.37089],[104.82872,8.37257],[104.823,8.37645],[104.81755,8.37674],[104.80803,8.37919],[104.79777,8.38455],[104.79308,8.38824],[104.78545,8.39623],[104.78026,8.40319],[104.7765,8.411],[104.77431,8.41939],[104.77377,8.42803],[104.7749,8.43662],[104.77765,8.44484],[104.78193,8.45238],[104.80936,8.48492],[104.81752,8.49199],[104.82906,8.49781],[104.83991,8.50014],[104.84723,8.50024],[104.86009,8.49754],[104.86879,8.49328],[104.87605,8.48761],[104.88213,8.48051],[104.88599,8.47374],[104.88862,8.46642],[104.89,8.45755],[104.8962,8.45214],[104.90182,8.44466],[104.90578,8.4362],[104.90791,8.42703],[104.90799,8.41745],[104.91462,8.41122],[104.91914,8.40496],[104.92253,8.39803],[104.92532,8.38669],[104.92547,8.37812],[104.924,8.3697],[104.91973,8.35935],[104.91248,8.34974],[104.90191,8.34154],[104.89521,8.33833],[104.88702,8.33598],[104.87463,8.33527],[104.86666,8.3366],[104.85921,8.33922],[104.85232,8.3431],[104.84393,8.35044],[104.83814,8.35847],[104.83349,8.37089]]],[[[104.49425,8.91176],[104.48614,8.92066],[104.4829,8.92585],[104.47788,8.93902],[104.47682,8.95071],[104.47835,8.96081],[104.48408,8.97636],[104.48859,8.98319],[104.49426,8.9891],[104.50091,8.9939],[104.5096,8.99791],[104.51806,9.00015],[104.52678,9.00074],[104.53546,8.99966],[104.54377,8.99694],[104.55141,8.9927],[104.55808,8.98708],[104.56355,8.9803],[104.56762,8.9726],[104.5741,8.95428],[104.57514,8.94096],[104.57332,8.93092],[104.57207,8.92803],[104.58312,8.92622],[104.59299,8.92188],[104.60118,8.9157],[104.60796,8.90755],[104.61254,8.8986],[104.61502,8.88887],[104.61534,8.87907],[104.61358,8.86963],[104.60977,8.86059],[104.60404,8.85247],[104.59667,8.84579],[104.58802,8.84086],[104.58141,8.83854],[104.56432,8.83612],[104.55542,8.83628],[104.54698,8.83802],[104.53552,8.84318],[104.52831,8.84852],[104.5223,8.85516],[104.51773,8.86285],[104.51476,8.87128],[104.51349,8.87983],[104.51391,8.88867],[104.51673,8.89921],[104.50501,8.90382],[104.49425,8.91176]]],[[[103.66196,7.99837],[103.6481,7.99883],[103.63933,8.00121],[103.63123,8.00528],[103.62409,8.01087],[103.61822,8.01776],[103.61384,8.02567],[103.61112,8.03428],[103.61015,8.05403],[103.61107,8.0632],[103.61383,8.07199],[103.61833,8.08005],[103.62439,8.08703],[103.63173,8.09265],[103.64008,8.09667],[103.66305,8.10412],[103.67423,8.10601],[103.68473,8.10663],[103.69578,8.10571],[103.70547,8.10314],[103.71863,8.10587],[103.73151,8.10597],[103.74668,8.10309],[103.75744,8.09896],[103.77804,8.09877],[103.79275,8.09716],[103.80541,8.09351],[103.8165,8.08686],[103.82239,8.08139],[103.82661,8.07619],[103.83278,8.06427],[103.83503,8.0551],[103.83549,8.04581],[103.83421,8.03689],[103.83179,8.02965],[103.82764,8.02204],[103.81889,8.01231],[103.81231,8.00763],[103.80222,8.00277],[103.79188,7.9999],[103.78211,7.99882],[103.7337,7.99931],[103.72018,8.00033],[103.71294,7.99555],[103.70602,7.99246],[103.6994,7.99063],[103.69133,7.9897],[103.6832,7.99011],[103.67653,7.99149],[103.66854,7.99452],[103.66196,7.99837]]]]}}]}