{"type":"FeatureCollection","features":[{"type":"Feature","geometry":{"type":"MultiPolygon","coordinates":[[[[105.719617,9.312437],[105.719648,9.312346],[105.719707,9.312269],[105.719788,9.312215],[105.719883,9.31219],[105.71998,9.312197],[105.72007,9.312235],[105.720143,9.312299],[105.720191,9.312383],[105.720209,9.312478],[105.720195,9.312574],[105.720149,9.31266],[105.720078,9.312727],[105.719988,9.312767],[105.71989,9.312777],[105.719794,9.312754],[105.719711,9.312701],[105.71965,9.312625],[105.719618,9.312534],[105.719617,9.312437]]]]},"properties":{"group":"public","tag":"leisure=park","name":null,"levels":null,"lat":9.312483151107667,"lng":105.71991107756087,"osm_type":"way","osm_id":225395565}},{"type":"Feature","geometry":{"type":"MultiPolygon","coordinates":[[[[105.715839,9.291434],[105.716073,9.29077],[105.716247,9.290275],[105.716944,9.290472],[105.717184,9.289865],[105.717625,9.290005],[105.718107,9.289534],[105.718601,9.289706],[105.717935,9.291706],[105.717856,9.291923],[105.717643,9.292459],[105.715858,9.291824],[105.71598,9.291499],[105.715839,9.291434]]]]},"properties":{"group":"public","tag":"leisure=park","name":"Công viên Trần Huỳnh","levels":null,"lat":9.291034728166908,"lng":105.71722241828452,"osm_type":"way","osm_id":225518604}},{"type":"Feature","geometry":{"type":"MultiPolygon","coordinates":[[[[105.731336,9.294645],[105.731339,9.294558],[105.731967,9.293712],[105.73254,9.294123],[105.733617,9.294892],[105.733624,9.294972],[105.733069,9.295735],[105.732995,9.29575],[105.731336,9.294645]]]]},"properties":{"group":"edu_health","tag":"amenity=school","name":"Trường Trung học phổ thông Bạc Liêu","levels":null,"lat":9.29475123803194,"lng":105.73248009480359,"osm_type":"way","osm_id":225518612}},{"type":"Feature","geometry":{"type":"MultiPolygon","coordinates":[[[[105.73051,9.295706],[105.7311,9.294905],[105.731168,9.294888],[105.732822,9.295988],[105.73283,9.296068],[105.73221,9.296941],[105.73053,9.295817],[105.73051,9.295706]]]]},"properties":{"group":"edu_health","tag":"amenity=college","name":"Trường Chính trị Châu Văn Đặng","levels":null,"lat":9.29590009552201,"lng":105.7316685669899,"osm_type":"way","osm_id":225519372}},{"type":"Feature","geometry":{"type":"MultiPolygon","coordinates":[[[[105.729248,9.297633],[105.72926,9.297536],[105.729609,9.297083],[105.729704,9.297023],[105.729756,9.297036],[105.730349,9.297472],[105.73039,9.297545],[105.730354,9.297629],[105.73002,9.298066],[105.729967,9.29811],[105.729878,9.298098],[105.729321,9.297689],[105.729248,9.297633]]]]},"properties":{"group":"edu_health","tag":"amenity=school","name":"Trường Trung học phổ thông chuyên Bạc Liêu","levels":null,"lat":9.297568903097822,"lng":105.72981794746802,"osm_type":"way","osm_id":225519373}},{"type":"Feature","geometry":{"type":"MultiPolygon","coordinates":[[[[105.728289,9.297006],[105.728796,9.296219],[105.729629,9.296684],[105.729272,9.297247],[105.729086,9.297285],[105.72899,9.297437],[105.728978,9.297453],[105.728289,9.297006]]]]},"properties":{"group":"edu_health","tag":"amenity=school","name":"Trường mầm non Bạc Liêu","levels":null,"lat":9.296841398465181,"lng":105.72894928528437,"osm_type":"way","osm_id":225519374}},{"type":"Feature","geometry":{"type":"MultiPolygon","coordinates":[[[[105.727512,9.296495],[105.72752,9.296337],[105.727878,9.295828],[105.727972,9.295883],[105.728045,9.295774],[105.728796,9.296219],[105.728289,9.297006],[105.727512,9.296495]]]]},"properties":{"group":"edu_health","tag":"amenity=university","name":"Trường Đại học Bạc Liêu (cơ sở 2)","levels":null,"lat":9.296361349768018,"lng":105.7281285218696,"osm_type":"way","osm_id":225519375}},{"type":"Feature","geometry":{"type":"MultiPolygon","coordinates":[[[[105.721112,9.286671],[105.721194,9.286577],[105.721222,9.286601],[105.721381,9.286418],[105.72179,9.286765],[105.721576,9.287011],[105.721343,9.286813],[105.721316,9.286845],[105.721112,9.286671]]]]},"properties":{"group":"mall","tag":"shop=mall","name":"Vincom Plaza Trần Phú - Bạc Liêu","levels":null,"lat":9.28671468159873,"lng":105.72145889389301,"osm_type":"way","osm_id":225519380}},{"type":"Feature","geometry":{"type":"MultiPolygon","coordinates":[[[[105.721667,9.284581],[105.721939,9.28372],[105.721968,9.283676],[105.721997,9.283649],[105.722026,9.283642],[105.722058,9.283647],[105.722106,9.283684],[105.722643,9.284211],[105.722658,9.284269],[105.722643,9.28432],[105.722046,9.284979],[105.721999,9.285025],[105.721949,9.285051],[105.721885,9.284999],[105.721672,9.28466],[105.721667,9.284581]]]]},"properties":{"group":"edu_health","tag":"amenity=school","name":"Trường Trung học cơ sở Võ Thị Sáu","levels":null,"lat":9.284345661345924,"lng":105.72210641016122,"osm_type":"way","osm_id":225519386}},{"type":"Feature","geometry":{"type":"MultiPolygon","coordinates":[[[[105.718241,9.283692],[105.718657,9.283234],[105.718503,9.28308],[105.719019,9.282542],[105.718818,9.282371],[105.719078,9.282001],[105.71935,9.281741],[105.720617,9.282819],[105.720625,9.28283],[105.72038,9.283108],[105.720969,9.283683],[105.719731,9.284982],[105.718241,9.283692]]]]},"properties":{"group":"edu_health","tag":"amenity=hospital","name":"Bệnh viện Đa khoa Bạc Liêu","levels":null,"lat":9.283404782823524,"lng":105.71959467986376,"osm_type":"way","osm_id":225533917}},{"type":"Feature","geometry":{"type":"MultiPolygon","coordinates":[[[[105.724746,9.300577],[105.724877,9.300039],[105.72664,9.300472],[105.7265,9.301032],[105.724746,9.300577]]]]},"properties":{"group":"edu_health","tag":"amenity=college","name":"Trường cao đẳng nghề Bạc Liêu","levels":null,"lat":9.300531576752201,"lng":105.72569692414257,"osm_type":"way","osm_id":225637797}},{"type":"Feature","geometry":{"type":"MultiPolygon","coordinates":[[[[105.7265,9.301032],[105.72664,9.300472],[105.727072,9.300573],[105.726927,9.301143],[105.7265,9.301032]]]]},"properties":{"group":"edu_health","tag":"amenity=school","name":"Trường Trung học cơ sở Lê Thị Cẩm Lệ","levels":null,"lat":9.300804914391968,"lng":105.72678525316852,"osm_type":"way","osm_id":225637798}},{"type":"Feature","geometry":{"type":"MultiPolygon","coordinates":[[[[105.150314,9.175138],[105.150396,9.175099],[105.151918,9.175241],[105.151884,9.175328],[105.15107,9.175878],[105.150795,9.175848],[105.150316,9.175224],[105.150314,9.175138]]]]},"properties":{"group":"public","tag":"leisure=park","name":"Công viên Hồng Bàng","levels":null,"lat":9.175433282548395,"lng":105.15104468357846,"osm_type":"way","osm_id":441106932}},{"type":"Feature","geometry":{"type":"MultiPolygon","coordinates":[[[[105.150948,9.176677],[105.150967,9.176632],[105.151005,9.176619],[105.151034,9.176619],[105.151077,9.176621],[105.152303,9.178252],[105.152308,9.178342],[105.152319,9.178395],[105.152282,9.178459],[105.152265,9.178533],[105.151048,9.179454],[105.150948,9.176677]]]]},"properties":{"group":"public","tag":"leisure=park","name":"Công viên Hùng Vương","levels":null,"lat":9.178108944300646,"lng":105.15146670903508,"osm_type":"way","osm_id":541656717}},{"type":"Feature","geometry":{"type":"MultiPolygon","coordinates":[[[[104.820567,9.128816],[104.820594,9.128392],[104.820758,9.128395],[104.820963,9.12842],[104.820962,9.128821],[104.820567,9.128816]]]]},"properties":{"group":"edu_health","tag":"amenity=school","name":"Trường Tiểu học Khánh Hải 3","levels":null,"lat":9.128611982560946,"lng":104.82076970444616,"osm_type":"way","osm_id":543432981}},{"type":"Feature","geometry":{"type":"MultiPolygon","coordinates":[[[[104.962011,9.071811],[104.962161,9.071307],[104.962217,9.071225],[104.962247,9.071146],[104.962271,9.071024],[104.962293,9.070963],[104.962335,9.070931],[104.962378,9.070939],[104.962429,9.070836],[104.963046,9.071003],[104.962765,9.072097],[104.962582,9.072052],[104.962601,9.071964],[104.962011,9.071811]]]]},"properties":{"group":"edu_health","tag":"amenity=school","name":"Trường Trung học phổ thông Huỳnh Phi Hùng","levels":null,"lat":9.071437609434048,"lng":104.96254735844566,"osm_type":"way","osm_id":546126801}},{"type":"Feature","geometry":{"type":"MultiPolygon","coordinates":[[[[104.96829,9.078726],[104.968392,9.078056],[104.96929,9.078157],[104.969218,9.078724],[104.969159,9.078901],[104.969116,9.078922],[104.968644,9.078872],[104.968655,9.078771],[104.96829,9.078726]]]]},"properties":{"group":"edu_health","tag":"amenity=school","name":"Trường Trung học phổ thông Trần Văn Thời","levels":null,"lat":9.078474994956848,"lng":104.96880209775547,"osm_type":"way","osm_id":546127235}},{"type":"Feature","geometry":{"type":"MultiPolygon","coordinates":[[[[104.961343,9.073813],[104.961445,9.073397],[104.961593,9.072812],[104.962537,9.073024],[104.962293,9.074094],[104.96181,9.074001],[104.961544,9.073937],[104.961386,9.073879],[104.961343,9.073813]]]]},"properties":{"group":"edu_health","tag":"amenity=school","name":"Trường Trung học cơ sở Thị trấn Trần Văn Thời","levels":null,"lat":9.073456377590073,"lng":104.96193689182483,"osm_type":"way","osm_id":546127240}},{"type":"Feature","geometry":{"type":"MultiPolygon","coordinates":[[[[104.862777,9.095282],[104.863013,9.094856],[104.863708,9.095232],[104.863469,9.095656],[104.862777,9.095282]]]]},"properties":{"group":"edu_health","tag":"amenity=school","name":"Trường Trung học cơ sở Khánh Hải 1","levels":null,"lat":9.095256189836913,"lng":104.86324193767425,"osm_type":"way","osm_id":548485388}},{"type":"Feature","geometry":{"type":"MultiPolygon","coordinates":[[[[104.85821,9.093108],[104.858236,9.092996],[104.858464,9.093049],[104.858437,9.093161],[104.85821,9.093108]]]]},"properties":{"group":"edu_health","tag":"amenity=hospital","name":"Trạm y tế","levels":null,"lat":9.093078499999999,"lng":104.8583368,"osm_type":"way","osm_id":548924386}},{"type":"Feature","geometry":{"type":"MultiPolygon","coordinates":[[[[104.857271,9.092507],[104.857491,9.092035],[104.858054,9.092313],[104.858065,9.092589],[104.857976,9.092766],[104.857821,9.092703],[104.857791,9.092764],[104.857271,9.092507]]]]},"properties":{"group":"edu_health","tag":"amenity=school","name":"Trường Tiểu học Khánh Hải 1","levels":null,"lat":9.092426412479899,"lng":104.85769674616823,"osm_type":"way","osm_id":548924449}},{"type":"Feature","geometry":{"type":"MultiPolygon","coordinates":[[[[104.753911,8.603181],[104.753944,8.602974],[104.753978,8.602766],[104.754043,8.60271],[104.754526,8.602766],[104.754417,8.603344],[104.754383,8.603364],[104.75398,8.603288],[104.753911,8.603181]]]]},"properties":{"group":"edu_health","tag":"amenity=hospital","name":"Bệnh viện Đa khoa khu vực Đất Mũi","levels":null,"lat":8.603025396602566,"lng":104.75421298958891,"osm_type":"way","osm_id":669955488}},{"type":"Feature","geometry":{"type":"MultiPolygon","coordinates":[[[[104.763022,8.599134],[104.763651,8.598489],[104.763763,8.598591],[104.763841,8.598662],[104.763644,8.598845],[104.764052,8.599298],[104.763664,8.599756],[104.763174,8.599282],[104.763022,8.599134]]]]},"properties":{"group":"edu_health","tag":"amenity=school","name":"Trường Tiểu học 1 Xã Đất Mũi","levels":null,"lat":8.599152801324697,"lng":104.76355947682131,"osm_type":"way","osm_id":669955496}},{"type":"Feature","geometry":{"type":"MultiPolygon","coordinates":[[[[104.728779,8.605027],[104.728867,8.60446],[104.729924,8.604775],[104.729685,8.605238],[104.72926,8.6051],[104.728779,8.605027]]]]},"properties":{"group":"edu_health","tag":"amenity=school","name":"Trường Tiểu học 3 Đất Mũi","levels":null,"lat":8.604856597450222,"lng":104.72930894906621,"osm_type":"way","osm_id":670132407}},{"type":"Feature","geometry":{"type":"MultiPolygon","coordinates":[[[[104.756662,8.596853],[104.757019,8.596706],[104.757229,8.597217],[104.757048,8.597269],[104.756795,8.597262],[104.756662,8.596853]]]]},"properties":{"group":"edu_health","tag":"amenity=school","name":"Trường Tiểu học 3 Xã Đất Mũi (điểm trường 680)","levels":null,"lat":8.597019327038007,"lng":104.75693826421073,"osm_type":"way","osm_id":670626847}},{"type":"Feature","geometry":{"type":"MultiPolygon","coordinates":[[[[104.764437,8.598444],[104.765185,8.598405],[104.765139,8.599122],[104.764483,8.599145],[104.76445,8.598645],[104.764437,8.598444]]]]},"properties":{"group":"edu_health","tag":"amenity=school","name":"Trường Trung học cơ sở Đất Mũi","levels":null,"lat":8.598771301038935,"lng":104.76481189398893,"osm_type":"way","osm_id":670627176}},{"type":"Feature","geometry":{"type":"MultiPolygon","coordinates":[[[[105.041804,8.643403],[105.042231,8.642457],[105.044003,8.643303],[105.043424,8.644626],[105.042917,8.644355],[105.041817,8.643486],[105.041804,8.643403]]]]},"properties":{"group":"edu_health","tag":"amenity=hospital","name":"Bệnh viện Đa khoa Ngọc Hiển","levels":null,"lat":8.643503006376429,"lng":105.04289319320884,"osm_type":"way","osm_id":670869968}},{"type":"Feature","geometry":{"type":"MultiPolygon","coordinates":[[[[105.044195,8.647091],[105.044959,8.646494],[105.045727,8.647455],[105.045429,8.647688],[105.044963,8.648052],[105.044195,8.647091]]]]},"properties":{"group":"edu_health","tag":"amenity=school","name":"Trường Trung học cơ sở Bông Văn Dĩa","levels":null,"lat":8.647273120378648,"lng":105.04496120330515,"osm_type":"way","osm_id":670869971}},{"type":"Feature","geometry":{"type":"MultiPolygon","coordinates":[[[[105.018587,8.62127],[105.018748,8.620645],[105.018934,8.620754],[105.019143,8.620837],[105.019271,8.620901],[105.019259,8.620961],[105.0193,8.620989],[105.019158,8.621428],[105.018587,8.62127]]]]},"properties":{"group":"edu_health","tag":"amenity=school","name":"Trường Tiểu học 2 Thị trấn Rạch Gốc","levels":null,"lat":8.621064850879476,"lng":105.01894190753985,"osm_type":"way","osm_id":670869977}},{"type":"Feature","geometry":{"type":"MultiPolygon","coordinates":[[[[104.760729,8.601771],[104.76077,8.601702],[104.760801,8.601624],[104.760824,8.601606],[104.761348,8.601603],[104.761473,8.601626],[104.761557,8.601674],[104.761588,8.601783],[104.761587,8.601909],[104.7615,8.603015],[104.760904,8.603013],[104.760869,8.602989],[104.760729,8.601771]]]]},"properties":{"group":"public","tag":"amenity=community_centre","name":"Trung tâm VH-TT & HTCĐ xã Đất Mũi","levels":null,"lat":8.602278947931525,"lng":104.7611718439254,"osm_type":"way","osm_id":856188295}},{"type":"Feature","geometry":{"type":"MultiPolygon","coordinates":[[[[105.619533,9.279884],[105.619666,9.279793],[105.619696,9.279797],[105.619859,9.279926],[105.620084,9.279654],[105.620264,9.279421],[105.620312,9.279423],[105.620361,9.27946],[105.620423,9.279433],[105.620564,9.279239],[105.620616,9.279261],[105.620757,9.279347],[105.620909,9.279436],[105.620852,9.279549],[105.620942,9.279605],[105.620558,9.280234],[105.620683,9.280326],[105.620538,9.280609],[105.61954,9.279912],[105.619533,9.279884]]]]},"properties":{"group":"edu_health","tag":"amenity=hospital","name":"Bệnh viện Đa khoa Hoà Bình","levels":null,"lat":9.279895249279742,"lng":105.62035716754579,"osm_type":"way","osm_id":995764013}},{"type":"Feature","geometry":{"type":"MultiPolygon","coordinates":[[[[105.706963,9.358687],[105.708077,9.357278],[105.708646,9.357692],[105.70753,9.359127],[105.707458,9.359139],[105.70697,9.35878],[105.706963,9.358687]]]]},"properties":{"group":"edu_health","tag":"amenity=hospital","name":"Bệnh viện Đa khoa Vĩnh Lợi","levels":null,"lat":9.358220813890872,"lng":105.70778489733793,"osm_type":"way","osm_id":995764014}},{"type":"Feature","geometry":{"type":"MultiPolygon","coordinates":[[[[105.445081,9.240072],[105.445196,9.239752],[105.445515,9.239646],[105.4458,9.239508],[105.447318,9.240019],[105.447074,9.241202],[105.445253,9.240729],[105.445081,9.240072]]]]},"properties":{"group":"edu_health","tag":"amenity=hospital","name":"Bệnh viện Đa khoa Giá Rai","levels":null,"lat":9.240328909352794,"lng":105.44620593484694,"osm_type":"way","osm_id":995764015}},{"type":"Feature","geometry":{"type":"MultiPolygon","coordinates":[[[[105.448262,9.561705],[105.449352,9.560344],[105.449443,9.560337],[105.449829,9.56115],[105.449816,9.561216],[105.448954,9.562291],[105.448867,9.562295],[105.44827,9.561802],[105.448262,9.561705]]]]},"properties":{"group":"edu_health","tag":"amenity=hospital","name":"Bệnh viện Đa khoa Hồng Dân","levels":null,"lat":9.561371475514367,"lng":105.44908664938164,"osm_type":"way","osm_id":995764016}},{"type":"Feature","geometry":{"type":"MultiPolygon","coordinates":[[[[105.460013,9.432003],[105.461383,9.430533],[105.461751,9.4305],[105.46235,9.431088],[105.462354,9.431161],[105.460803,9.432776],[105.460737,9.432778],[105.460013,9.432062],[105.460013,9.432003]]]]},"properties":{"group":"edu_health","tag":"amenity=hospital","name":"Bệnh viện Đa khoa Phước Long","levels":null,"lat":9.431584371688668,"lng":105.4611783064467,"osm_type":"way","osm_id":995764017}},{"type":"Feature","geometry":{"type":"MultiPolygon","coordinates":[[[[105.422019,9.03269],[105.422253,9.031877],[105.42225,9.031457],[105.422404,9.031444],[105.423392,9.031738],[105.423344,9.033095],[105.422019,9.03269]]]]},"properties":{"group":"edu_health","tag":"amenity=hospital","name":"Bệnh viện Đa khoa Đông Hải","levels":null,"lat":9.032258332445634,"lng":105.42277149283055,"osm_type":"way","osm_id":995764018}},{"type":"Feature","geometry":{"type":"MultiPolygon","coordinates":[[[[105.731923,9.273668],[105.73225,9.273678],[105.732244,9.274414],[105.731929,9.274414],[105.731923,9.273668]]]]},"properties":{"group":"edu_health","tag":"amenity=hospital","name":"Bệnh viện Đa khoa khu vực Bạc Liêu","levels":null,"lat":9.274041265525392,"lng":105.73208611676795,"osm_type":"way","osm_id":995764019}},{"type":"Feature","geometry":{"type":"MultiPolygon","coordinates":[[[[105.181111,9.191332],[105.181114,9.19132],[105.181515,9.190566],[105.18253,9.188657],[105.183924,9.189401],[105.185215,9.190089],[105.185224,9.190093],[105.18523,9.190098],[105.185237,9.190106],[105.185242,9.190114],[105.185245,9.190123],[105.185246,9.190133],[105.185245,9.190142],[105.185242,9.190151],[105.184571,9.191422],[105.183873,9.192743],[105.183865,9.192753],[105.183856,9.192759],[105.183845,9.192763],[105.183833,9.192765],[105.183822,9.192763],[105.183812,9.192761],[105.182164,9.191907],[105.181137,9.191375],[105.181128,9.19137],[105.18112,9.191363],[105.181115,9.191354],[105.181112,9.191343],[105.181111,9.191332]]]]},"properties":{"group":"public","tag":"leisure=park","name":"Công viên Đồi Chong Chóng","levels":null,"lat":9.190725756563669,"lng":105.18318184771864,"osm_type":"way","osm_id":1024328493}},{"type":"Feature","geometry":{"type":"MultiPolygon","coordinates":[[[[105.170894,9.189264],[105.171561,9.187954],[105.172625,9.18851],[105.171899,9.189785],[105.170894,9.189264]]]]},"properties":{"group":"edu_health","tag":"amenity=hospital","name":"Bệnh viện MEDIC Cà Mau","levels":null,"lat":9.188871843955008,"lng":105.1717481132556,"osm_type":"way","osm_id":1024350669}},{"type":"Feature","geometry":{"type":"MultiPolygon","coordinates":[[[[105.166556,9.186759],[105.167661,9.184948],[105.168417,9.185393],[105.167318,9.187212],[105.166556,9.186759]]]]},"properties":{"group":"public","tag":"leisure=park","name":"Quảng trường Thanh Niên","levels":null,"lat":9.186079727102555,"lng":105.16748715965355,"osm_type":"way","osm_id":1024350670}},{"type":"Feature","geometry":{"type":"MultiPolygon","coordinates":[[[[105.164896,9.183952],[105.165056,9.18217],[105.166322,9.182281],[105.166162,9.184063],[105.164896,9.183952]]]]},"properties":{"group":"edu_health","tag":"amenity=college","name":"Hermann Gmeiner School Ca Mau","levels":null,"lat":9.183116634777784,"lng":105.16560927032963,"osm_type":"way","osm_id":1024350672}},{"type":"Feature","geometry":{"type":"MultiPolygon","coordinates":[[[[105.164606,9.18808],[105.16551,9.186603],[105.167921,9.188022],[105.167943,9.188078],[105.16706,9.189539],[105.166985,9.189558],[105.164614,9.188152],[105.164606,9.18808]]]]},"properties":{"group":"public","tag":"leisure=park","name":"Cánh đồng cỏ tranh","levels":null,"lat":9.188091785062191,"lng":105.16627077408636,"osm_type":"way","osm_id":1024350674}},{"type":"Feature","geometry":{"type":"MultiPolygon","coordinates":[[[[105.154436,9.200211],[105.155684,9.199283],[105.156045,9.199756],[105.154797,9.200684],[105.154436,9.200211]]]]},"properties":{"group":"edu_health","tag":"amenity=college","name":"Trường Trung Học Cơ Sở Nguyễn Thị Minh Khai","levels":null,"lat":9.199983479671562,"lng":105.15524048730413,"osm_type":"way","osm_id":1024350684}},{"type":"Feature","geometry":{"type":"MultiPolygon","coordinates":[[[[105.146264,9.180261],[105.146985,9.17978],[105.147314,9.180319],[105.147265,9.180604],[105.146723,9.180969],[105.146264,9.180261]]]]},"properties":{"group":"edu_health","tag":"amenity=school","name":"Hồ Thị Kỷ High School","levels":null,"lat":9.180372903821452,"lng":105.14683350564039,"osm_type":"way","osm_id":1024373685}},{"type":"Feature","geometry":{"type":"MultiPolygon","coordinates":[[[[105.153892,9.174158],[105.154088,9.17401],[105.154293,9.174072],[105.154922,9.173649],[105.155127,9.173556],[105.155255,9.173533],[105.155361,9.173527],[105.15548,9.17361],[105.156296,9.174718],[105.155101,9.175649],[105.153892,9.174158]]]]},"properties":{"group":"edu_health","tag":"amenity=hospital","name":"Bệnh viện Sản - Nhi Cà Mau","levels":null,"lat":9.174511149404271,"lng":105.15514264319526,"osm_type":"way","osm_id":1024373688}},{"type":"Feature","geometry":{"type":"MultiPolygon","coordinates":[[[[105.152053,9.185988],[105.152639,9.185154],[105.152682,9.185141],[105.153281,9.185524],[105.153288,9.185548],[105.153101,9.185832],[105.152258,9.186138],[105.152053,9.185988]]]]},"properties":{"group":"public","tag":"leisure=park","name":null,"levels":null,"lat":9.18566692778883,"lng":105.15267259318752,"osm_type":"way","osm_id":1024376173}},{"type":"Feature","geometry":{"type":"MultiPolygon","coordinates":[[[[105.643624,9.28921],[105.643771,9.288273],[105.643976,9.288307],[105.64402,9.287689],[105.643839,9.287651],[105.643993,9.286453],[105.644068,9.286449],[105.644133,9.285767],[105.645314,9.285908],[105.646469,9.285989],[105.646349,9.28706],[105.645923,9.28948],[105.643624,9.28921]]]]},"properties":{"group":"public","tag":"leisure=park","name":"Nghĩa trang Liệt sĩ tỉnh Bạc Liêu","levels":null,"lat":9.287607436369793,"lng":105.64506663653223,"osm_type":"way","osm_id":1030368611}},{"type":"Feature","geometry":{"type":"MultiPolygon","coordinates":[[[[105.711425,9.291911],[105.711934,9.291244],[105.711851,9.291175],[105.712578,9.290323],[105.71306,9.290709],[105.713107,9.290747],[105.713156,9.290702],[105.713656,9.291202],[105.713721,9.291307],[105.712825,9.291992],[105.712425,9.292297],[105.712264,9.292096],[105.712176,9.29216],[105.712127,9.292099],[105.711814,9.29234],[105.711425,9.291911]]]]},"properties":{"group":"edu_health","tag":"amenity=university","name":"Trường Đại học Bạc Liêu","levels":null,"lat":9.291398097369898,"lng":105.7125425416243,"osm_type":"way","osm_id":1035896983}},{"type":"Feature","geometry":{"type":"MultiPolygon","coordinates":[[[[105.726128,9.282781],[105.726403,9.282404],[105.726915,9.28278],[105.726864,9.282844],[105.727001,9.282957],[105.726793,9.283227],[105.726128,9.282781]]]]},"properties":{"group":"edu_health","tag":"amenity=school","name":"Trường Trung học phổ thông Phan Ngọc Hiển","levels":null,"lat":9.282818553104104,"lng":105.72657481149338,"osm_type":"way","osm_id":1035943455}},{"type":"Feature","geometry":{"type":"MultiPolygon","coordinates":[[[[105.736593,9.228771],[105.736852,9.227822],[105.737427,9.22797],[105.737928,9.2281],[105.737973,9.22817],[105.737703,9.229164],[105.737646,9.22918],[105.736593,9.228771]]]]},"properties":{"group":"edu_health","tag":"amenity=school","name":"Trường Trung học phổ thông Hiệp Thành","levels":null,"lat":9.228480529856943,"lng":105.73729294871237,"osm_type":"way","osm_id":1035943459}},{"type":"Feature","geometry":{"type":"MultiPolygon","coordinates":[[[[105.15949,9.172079],[105.159833,9.169807],[105.162102,9.170178],[105.161668,9.172412],[105.15949,9.172079]]]]},"properties":{"group":"edu_health","tag":"amenity=hospital","name":"Bệnh viện Đa khoa Cà Mau","levels":null,"lat":9.17111061433292,"lng":105.16077277132166,"osm_type":"way","osm_id":1058233120}},{"type":"Feature","geometry":{"type":"MultiPolygon","coordinates":[[[[105.161858,9.172405],[105.162106,9.170892],[105.16215,9.170861],[105.163556,9.171081],[105.163596,9.1711],[105.163572,9.171251],[105.163486,9.171333],[105.163457,9.171412],[105.163422,9.171672],[105.163363,9.171669],[105.163355,9.171735],[105.163534,9.171759],[105.163459,9.172604],[105.163416,9.172636],[105.161904,9.17245],[105.161858,9.172405]]]]},"properties":{"group":"edu_health","tag":"amenity=hospital","name":"Bệnh viện Lao và Bệnh phổi Cà Mau","levels":null,"lat":9.171770824475338,"lng":105.16273113317209,"osm_type":"way","osm_id":1058233121}},{"type":"Feature","geometry":{"type":"MultiPolygon","coordinates":[[[[105.15034,9.176762],[105.150355,9.176725],[105.150474,9.176637],[105.150654,9.176529],[105.150818,9.17658],[105.150826,9.176853],[105.15082,9.176887],[105.150798,9.176908],[105.150766,9.176912],[105.15043,9.176844],[105.15038,9.176824],[105.150345,9.176794],[105.15034,9.176762]]]]},"properties":{"group":"public","tag":"leisure=park","name":null,"levels":null,"lat":9.176731741271817,"lng":105.15062377829575,"osm_type":"way","osm_id":1058235440}},{"type":"Feature","geometry":{"type":"MultiPolygon","coordinates":[[[[105.125981,9.191144],[105.126501,9.190519],[105.126807,9.190546],[105.128304,9.191674],[105.127392,9.192913],[105.126362,9.192092],[105.126598,9.191726],[105.125981,9.191144]]]]},"properties":{"group":"edu_health","tag":"amenity=hospital","name":"Bệnh viện Y Dược cổ truyền - Phục hồi chức năng tỉnh Cà Mau","levels":null,"lat":9.191647182668055,"lng":105.1271167371547,"osm_type":"way","osm_id":1058235452}},{"type":"Feature","geometry":{"type":"MultiPolygon","coordinates":[[[[105.127522,9.192999],[105.128455,9.191818],[105.129453,9.192533],[105.128487,9.193745],[105.127522,9.192999]]]]},"properties":{"group":"edu_health","tag":"amenity=school","name":"Trường Phổ thông Dân tộc Nội trú tỉnh Cà Mau","levels":null,"lat":9.192774988940474,"lng":105.12848199996742,"osm_type":"way","osm_id":1058235460}},{"type":"Feature","geometry":{"type":"MultiPolygon","coordinates":[[[[104.968547,9.077393],[104.968679,9.076499],[104.968743,9.075966],[104.968815,9.075966],[104.96973,9.076172],[104.969735,9.076556],[104.969797,9.076559],[104.969851,9.077067],[104.969569,9.077181],[104.969564,9.077308],[104.96925,9.077356],[104.96866,9.077372],[104.968654,9.077407],[104.968547,9.077393]]]]},"properties":{"group":"edu_health","tag":"amenity=hospital","name":"Bệnh viện Đa khoa Trần Văn Thời","levels":null,"lat":9.076717866994244,"lng":104.96917998091155,"osm_type":"way","osm_id":1058236269}},{"type":"Feature","geometry":{"type":"MultiPolygon","coordinates":[[[[104.995649,8.76856],[104.997424,8.768145],[104.997717,8.769468],[104.99596,8.769879],[104.995649,8.76856]]]]},"properties":{"group":"edu_health","tag":"amenity=hospital","name":"Bệnh viện Đa khoa Năm Căn","levels":null,"lat":8.769011781083284,"lng":104.99668753009148,"osm_type":"way","osm_id":1058236270}},{"type":"Feature","geometry":{"type":"MultiPolygon","coordinates":[[[[105.011777,8.946598],[105.012279,8.944693],[105.014266,8.945305],[105.014244,8.945517],[105.014121,8.945507],[105.013778,8.947149],[105.0122,8.946747],[105.011777,8.946598]]]]},"properties":{"group":"edu_health","tag":"amenity=hospital","name":"Bệnh viện Đa khoa Cái Nước","levels":null,"lat":8.945939004429922,"lng":105.01299798536841,"osm_type":"way","osm_id":1058236271}},{"type":"Feature","geometry":{"type":"MultiPolygon","coordinates":[[[[105.199964,8.992525],[105.199969,8.992321],[105.200248,8.992029],[105.200479,8.991961],[105.201109,8.991879],[105.201214,8.992162],[105.201592,8.993887],[105.201533,8.993945],[105.200388,8.99395],[105.200342,8.993889],[105.200392,8.993465],[105.200337,8.993063],[105.200117,8.992665],[105.200045,8.992702],[105.199964,8.992525]]]]},"properties":{"group":"edu_health","tag":"amenity=hospital","name":"Bệnh viện Đa khoa Đầm Dơi","levels":null,"lat":8.99294953503544,"lng":105.20080604481522,"osm_type":"way","osm_id":1058236272}},{"type":"Feature","geometry":{"type":"MultiPolygon","coordinates":[[[[105.09828,9.3557],[105.099224,9.354715],[105.100608,9.356155],[105.099793,9.35707],[105.09828,9.3557]]]]},"properties":{"group":"edu_health","tag":"amenity=hospital","name":"Bệnh viện Đa khoa Thới Bình","levels":null,"lat":9.355899196869,"lng":105.09946133219256,"osm_type":"way","osm_id":1058236273}},{"type":"Feature","geometry":{"type":"MultiPolygon","coordinates":[[[[105.099857,9.357118],[105.100672,9.356208],[105.101536,9.35707],[105.101075,9.357716],[105.100871,9.357547],[105.100592,9.357843],[105.099862,9.35716],[105.099857,9.357118]]]]},"properties":{"group":"edu_health","tag":"amenity=school","name":"Trường Trung học phổ thông Thới Bình","levels":null,"lat":9.35706960243726,"lng":105.10069850659228,"osm_type":"way","osm_id":1058236274}},{"type":"Feature","geometry":{"type":"MultiPolygon","coordinates":[[[[104.81909,8.85481],[104.819103,8.854394],[104.819208,8.854328],[104.819211,8.854084],[104.819119,8.853993],[104.819189,8.852523],[104.820353,8.852592],[104.820367,8.852652],[104.820847,8.852682],[104.820844,8.854539],[104.820616,8.854789],[104.819959,8.854842],[104.819648,8.854836],[104.819592,8.854757],[104.819466,8.854749],[104.819393,8.854828],[104.81909,8.85481]]]]},"properties":{"group":"edu_health","tag":"amenity=hospital","name":"Bệnh viện Đa khoa Phú Tân","levels":null,"lat":8.853698049231749,"lng":104.81997937303676,"osm_type":"way","osm_id":1058236275}},{"type":"Feature","geometry":{"type":"MultiPolygon","coordinates":[[[[104.964844,9.409992],[104.965005,9.40977],[104.965343,9.410067],[104.965745,9.409421],[104.966388,9.410438],[104.966465,9.410559],[104.966568,9.41072],[104.966582,9.410744],[104.965305,9.411511],[104.965005,9.410855],[104.964844,9.409992]]]]},"properties":{"group":"edu_health","tag":"amenity=hospital","name":"Bệnh viện Đa khoa U Minh","levels":null,"lat":9.410509444656617,"lng":104.96562721841735,"osm_type":"way","osm_id":1058236276}},{"type":"Feature","geometry":{"type":"MultiPolygon","coordinates":[[[[104.994383,8.762998],[104.994879,8.762839],[104.99513,8.763725],[104.994614,8.763893],[104.994383,8.762998]]]]},"properties":{"group":"edu_health","tag":"amenity=school","name":"Trường tiểu học 1 Thị trấn Nam Căn","levels":null,"lat":8.76336702884169,"lng":104.99475237793673,"osm_type":"way","osm_id":1059477718}},{"type":"Feature","geometry":{"type":"MultiPolygon","coordinates":[[[[104.994692,8.764099],[104.995294,8.763908],[104.995304,8.763955],[104.995326,8.764055],[104.995464,8.764674],[104.994856,8.764815],[104.994692,8.764099]]]]},"properties":{"group":"edu_health","tag":"amenity=school","name":"Trường Trung học cơ sở Phan Ngọc Hiển","levels":null,"lat":8.764372688464647,"lng":104.99507976993287,"osm_type":"way","osm_id":1059477722}},{"type":"Feature","geometry":{"type":"MultiPolygon","coordinates":[[[[105.132092,9.19608],[105.132868,9.195092],[105.133762,9.195776],[105.133756,9.197401],[105.132362,9.197396],[105.132365,9.196465],[105.132092,9.19608]]]]},"properties":{"group":"edu_health","tag":"amenity=school","name":"Trường Trung học phổ thông chuyên Phan Ngọc Hiển","levels":null,"lat":9.196391536437678,"lng":105.1330214668802,"osm_type":"way","osm_id":1060321231}},{"type":"Feature","geometry":{"type":"MultiPolygon","coordinates":[[[[105.725159,9.28798],[105.725658,9.287327],[105.725789,9.28738],[105.725784,9.287448],[105.726208,9.28761],[105.726202,9.287644],[105.726261,9.287681],[105.726237,9.287764],[105.726484,9.287893],[105.726059,9.288415],[105.726004,9.288483],[105.725162,9.288028],[105.725159,9.28798]]]]},"properties":{"group":"edu_health","tag":"amenity=school","name":"Trường Tiểu học Phùng Ngọc Liêm","levels":null,"lat":9.287915981464684,"lng":105.72581559234459,"osm_type":"way","osm_id":1061658124}},{"type":"Feature","geometry":{"type":"MultiPolygon","coordinates":[[[[105.72203,9.293981],[105.722049,9.293778],[105.722076,9.29368],[105.722104,9.293681],[105.722733,9.293696],[105.722561,9.294201],[105.72203,9.293981]]]]},"properties":{"group":"edu_health","tag":"amenity=school","name":"Trường Trung học cơ sở Trần Huỳnh","levels":null,"lat":9.29389045763893,"lng":105.72237530259879,"osm_type":"way","osm_id":1061658131}},{"type":"Feature","geometry":{"type":"MultiPolygon","coordinates":[[[[105.701307,9.295668],[105.701912,9.29566],[105.701916,9.29581],[105.701925,9.296005],[105.701931,9.296155],[105.701932,9.29622],[105.701943,9.296486],[105.701943,9.296517],[105.701423,9.296539],[105.701409,9.296324],[105.701348,9.296321],[105.701307,9.295668]]]]},"properties":{"group":"edu_health","tag":"amenity=school","name":"Trường Trung học cơ sở Trần Văn Ơn","levels":null,"lat":9.296085011674494,"lng":105.70163643678362,"osm_type":"way","osm_id":1061658135}},{"type":"Feature","geometry":{"type":"MultiPolygon","coordinates":[[[[105.707327,9.295952],[105.709355,9.294804],[105.709457,9.29564],[105.707348,9.295989],[105.707327,9.295952]]]]},"properties":{"group":"public","tag":"leisure=park","name":null,"levels":null,"lat":9.295483129889803,"lng":105.70868278933106,"osm_type":"way","osm_id":1061658143}},{"type":"Feature","geometry":{"type":"MultiPolygon","coordinates":[[[[105.723174,9.281915],[105.723389,9.281637],[105.723407,9.281616],[105.723489,9.281677],[105.723675,9.281817],[105.723611,9.281901],[105.723656,9.281936],[105.723718,9.281986],[105.723547,9.282192],[105.723517,9.282227],[105.723174,9.281915]]]]},"properties":{"group":"edu_health","tag":"amenity=school","name":"Trường Trung học cơ sở Bạc Liêu - Ninh Bình","levels":null,"lat":9.28191827708755,"lng":105.72345638509525,"osm_type":"way","osm_id":1061658144}},{"type":"Feature","geometry":{"type":"MultiPolygon","coordinates":[[[[105.162966,9.181231],[105.16299,9.180908],[105.163208,9.180916],[105.163267,9.180526],[105.165487,9.180715],[105.165464,9.181071],[105.165302,9.18105],[105.16523,9.181939],[105.164125,9.181855],[105.164076,9.181797],[105.164086,9.18143],[105.164053,9.181364],[105.164007,9.181331],[105.162966,9.181231]]]]},"properties":{"group":"edu_health","tag":"amenity=college","name":"Trường Cao đẳng Cộng đồng Cà Mau","levels":null,"lat":9.181154986656106,"lng":105.16435758029586,"osm_type":"way","osm_id":1085742998}},{"type":"Feature","geometry":{"type":"MultiPolygon","coordinates":[[[[105.207205,9.025466],[105.20741,9.02545],[105.20748,9.025445],[105.207549,9.025439],[105.207764,9.025423],[105.207768,9.025476],[105.207774,9.025548],[105.207808,9.025977],[105.207249,9.026021],[105.207212,9.025558],[105.207209,9.025522],[105.207205,9.025466]]]]},"properties":{"group":"edu_health","tag":"amenity=school","name":"Trường Trung học cơ sở Tạ An Khương Nam","levels":null,"lat":9.025721754234114,"lng":105.20750652930609,"osm_type":"way","osm_id":1102584603}},{"type":"Feature","geometry":{"type":"MultiPolygon","coordinates":[[[[105.208787,9.025835],[105.208792,9.025709],[105.208803,9.025432],[105.208803,9.025427],[105.208804,9.0254],[105.20935,9.025407],[105.209354,9.025554],[105.20936,9.025777],[105.209361,9.02584],[105.209247,9.025839],[105.208912,9.025836],[105.208787,9.025835]]]]},"properties":{"group":"edu_health","tag":"amenity=school","name":"Trường Tiểu học Tạ An Khương Nam","levels":null,"lat":9.025622134321328,"lng":105.20907537482725,"osm_type":"way","osm_id":1102584604}},{"type":"Feature","geometry":{"type":"MultiPolygon","coordinates":[[[[105.21108,9.02624],[105.211121,9.026006],[105.21114,9.025897],[105.211181,9.02566],[105.211477,9.025667],[105.211384,9.025956],[105.21135,9.026061],[105.211292,9.026244],[105.21108,9.02624]]]]},"properties":{"group":"edu_health","tag":"amenity=hospital","name":"Trạm y tế xã Tạ An Khương Nam","levels":null,"lat":9.025936813894337,"lng":105.2112613810191,"osm_type":"way","osm_id":1102740717}},{"type":"Feature","geometry":{"type":"MultiPolygon","coordinates":[[[[104.927938,8.997993],[104.928809,8.997593],[104.929619,8.999389],[104.930153,8.999178],[104.930151,8.999539],[104.930128,9.00016],[104.930006,9.000382],[104.92956,9.000619],[104.929273,9.001104],[104.929246,9.001075],[104.927938,8.997993]]]]},"properties":{"group":"public","tag":"leisure=park","name":null,"levels":null,"lat":8.999289505562796,"lng":104.92909409760769,"osm_type":"way","osm_id":1111945127}},{"type":"Feature","geometry":{"type":"MultiPolygon","coordinates":[[[[105.19911,8.986069],[105.20011,8.98571],[105.200751,8.987117],[105.199699,8.987447],[105.19911,8.986069]]]]},"properties":{"group":"edu_health","tag":"amenity=school","name":"Trường Tiểu học Phan Ngọc Hiển","levels":null,"lat":8.986588737017254,"lng":105.19992165494915,"osm_type":"way","osm_id":1159671728}},{"type":"Feature","geometry":{"type":"MultiPolygon","coordinates":[[[[105.69736,9.29643],[105.697403,9.296025],[105.697851,9.29603],[105.697886,9.295951],[105.698371,9.295959],[105.698355,9.2968],[105.697695,9.296824],[105.697685,9.296551],[105.697505,9.296546],[105.697486,9.296424],[105.69736,9.29643]]]]},"properties":{"group":"edu_health","tag":"amenity=hospital","name":"Bệnh viện Quân dân y Bạc Liêu","levels":null,"lat":9.29636627888507,"lng":105.69792990771505,"osm_type":"way","osm_id":1160399096}},{"type":"Feature","geometry":{"type":"MultiPolygon","coordinates":[[[[105.159929,9.178145],[105.159937,9.178035],[105.15995,9.177805],[105.160079,9.177813],[105.160193,9.17781],[105.160204,9.177579],[105.160209,9.177481],[105.160343,9.177487],[105.160783,9.177518],[105.160726,9.178223],[105.160426,9.178185],[105.159929,9.178145]]]]},"properties":{"group":"edu_health","tag":"amenity=hospital","name":"Bệnh viện Quân dân y Cà Mau","levels":null,"lat":9.177867543264629,"lng":105.1604020009522,"osm_type":"way","osm_id":1160399104}},{"type":"Feature","geometry":{"type":"MultiPolygon","coordinates":[[[[105.49124,9.106724],[105.491254,9.106576],[105.491662,9.105009],[105.492531,9.105271],[105.492069,9.10701],[105.49124,9.106724]]]]},"properties":{"group":"edu_health","tag":"amenity=school","name":"Trường Trung học phổ thông Điền Hải","levels":null,"lat":9.10599978089095,"lng":105.49187207812973,"osm_type":"way","osm_id":1171237269}},{"type":"Feature","geometry":{"type":"MultiPolygon","coordinates":[[[[105.640167,9.284878],[105.640312,9.283772],[105.641565,9.283941],[105.641396,9.285069],[105.640167,9.284878]]]]},"properties":{"group":"edu_health","tag":"amenity=school","name":"Trường Phổ thông Dân tộc nội trú tỉnh Bạc Liêu","levels":null,"lat":9.284414064582588,"lng":105.64086241050761,"osm_type":"way","osm_id":1171237276}},{"type":"Feature","geometry":{"type":"MultiPolygon","coordinates":[[[[105.638316,9.284158],[105.638478,9.283415],[105.639408,9.283584],[105.639276,9.284378],[105.63926,9.284474],[105.63887,9.284414],[105.638829,9.284408],[105.63878,9.284728],[105.638649,9.284712],[105.638665,9.28459],[105.638485,9.284569],[105.638547,9.284233],[105.638448,9.284183],[105.638316,9.284158]]]]},"properties":{"group":"edu_health","tag":"amenity=school","name":"Trường Trung học phổ thông Lê Thị Riêng","levels":null,"lat":9.283988967156759,"lng":105.63885595399066,"osm_type":"way","osm_id":1171237287}},{"type":"Feature","geometry":{"type":"MultiPolygon","coordinates":[[[[105.50925,9.486366],[105.510012,9.485478],[105.510962,9.486224],[105.510173,9.48706],[105.50925,9.486366]]]]},"properties":{"group":"edu_health","tag":"amenity=school","name":"Trường Trung học phổ thông Ninh Quới","levels":null,"lat":9.486277069876637,"lng":105.51010068982565,"osm_type":"way","osm_id":1171237295}},{"type":"Feature","geometry":{"type":"MultiPolygon","coordinates":[[[[105.7139,9.343098],[105.714026,9.342656],[105.714742,9.342861],[105.714619,9.343265],[105.714538,9.343241],[105.714511,9.343336],[105.713999,9.343189],[105.713959,9.343178],[105.7139,9.343098]]]]},"properties":{"group":"edu_health","tag":"amenity=school","name":"Trường Trung học phổ thông Lê Văn Đẩu","levels":null,"lat":9.343000480716968,"lng":105.71430753628505,"osm_type":"way","osm_id":1171237297}},{"type":"Feature","geometry":{"type":"MultiPolygon","coordinates":[[[[105.713896,9.343561],[105.713999,9.343189],[105.714511,9.343336],[105.714676,9.343384],[105.714628,9.343585],[105.71436,9.343514],[105.714338,9.343577],[105.714226,9.343543],[105.714196,9.343641],[105.713896,9.343561]]]]},"properties":{"group":"edu_health","tag":"amenity=school","name":"Truờng Trung học cơ sở Nguyễn Minh Nhựt","levels":null,"lat":9.343426638144354,"lng":105.71424806353835,"osm_type":"way","osm_id":1171237299}},{"type":"Feature","geometry":{"type":"MultiPolygon","coordinates":[[[[105.447735,9.237782],[105.447858,9.237085],[105.448238,9.237129],[105.448427,9.236352],[105.448727,9.236441],[105.448492,9.237368],[105.448783,9.237443],[105.44854,9.238302],[105.448105,9.238192],[105.448178,9.237893],[105.447735,9.237782]]]]},"properties":{"group":"edu_health","tag":"amenity=school","name":"Trường Trung học phổ thông Giá Rai","levels":null,"lat":9.237437556938502,"lng":105.44831188859463,"osm_type":"way","osm_id":1171237301}},{"type":"Feature","geometry":{"type":"MultiPolygon","coordinates":[[[[105.447858,9.237085],[105.447897,9.23676],[105.448003,9.236223],[105.448404,9.236313],[105.448427,9.236352],[105.448238,9.237129],[105.447858,9.237085]]]]},"properties":{"group":"edu_health","tag":"amenity=school","name":"Trường Trung học cơ sở Giá Rai B","levels":null,"lat":9.236679333067036,"lng":105.44812923466728,"osm_type":"way","osm_id":1171237310}},{"type":"Feature","geometry":{"type":"MultiPolygon","coordinates":[[[[105.459766,9.227181],[105.460056,9.226322],[105.460204,9.226351],[105.46026,9.226076],[105.461192,9.226269],[105.460789,9.227367],[105.459766,9.227181]]]]},"properties":{"group":"edu_health","tag":"amenity=school","name":"Trường Trung học phổ thông Nguyễn Trung Trực","levels":null,"lat":9.226730305660226,"lng":105.4604820269622,"osm_type":"way","osm_id":1171237314}},{"type":"Feature","geometry":{"type":"MultiPolygon","coordinates":[[[[105.197429,8.997334],[105.198586,8.997293],[105.198616,8.998269],[105.198593,8.998411],[105.197655,8.998417],[105.197429,8.997334]]]]},"properties":{"group":"edu_health","tag":"amenity=school","name":"Trường Trung học cơ sở Dương Thị Cẩm Vân","levels":null,"lat":8.997846011847729,"lng":105.19807232451902,"osm_type":"way","osm_id":1176141211}},{"type":"Feature","geometry":{"type":"MultiPolygon","coordinates":[[[[105.197213,8.996256],[105.198459,8.996215],[105.198545,8.99627],[105.198586,8.997293],[105.197429,8.997334],[105.197213,8.996256]]]]},"properties":{"group":"edu_health","tag":"amenity=school","name":"Trường Trung học phổ thông Đầm Dơi","levels":null,"lat":8.996762261749526,"lng":105.19793999238667,"osm_type":"way","osm_id":1176141212}},{"type":"Feature","geometry":{"type":"MultiPolygon","coordinates":[[[[105.19698,8.98702],[105.197808,8.98679],[105.197893,8.98717],[105.197056,8.987373],[105.19698,8.98702]]]]},"properties":{"group":"edu_health","tag":"amenity=school","name":"Trường Trung học cơ sở Phan Ngọc Hiển","levels":null,"lat":8.987086830394306,"lng":105.19743977929194,"osm_type":"way","osm_id":1176900000}},{"type":"Feature","geometry":{"type":"MultiPolygon","coordinates":[[[[105.197549,8.990722],[105.197609,8.990697],[105.197722,8.990893],[105.198164,8.991607],[105.198863,8.992516],[105.19885,8.992605],[105.198616,8.992868],[105.198527,8.992867],[105.198498,8.992485],[105.198337,8.992137],[105.198072,8.991647],[105.197549,8.990722]]]]},"properties":{"group":"public","tag":"leisure=park","name":"Công viên Đầm Dơi","levels":null,"lat":8.992055911393933,"lng":105.19837068820726,"osm_type":"way","osm_id":1176900004}},{"type":"Feature","geometry":{"type":"MultiPolygon","coordinates":[[[[105.195792,8.989994],[105.195943,8.989835],[105.19605,8.98978],[105.196085,8.989845],[105.196234,8.990115],[105.19605,8.990216],[105.195792,8.989994]]]]},"properties":{"group":"edu_health","tag":"amenity=school","name":"Trường Tiểu Học Ngô Bình An","levels":null,"lat":8.990007444394676,"lng":105.19602073344072,"osm_type":"way","osm_id":1176900005}},{"type":"Feature","geometry":{"type":"MultiPolygon","coordinates":[[[[105.051139,9.202891],[105.051149,9.20267],[105.051154,9.202536],[105.051416,9.202546],[105.051423,9.202383],[105.051429,9.202236],[105.051522,9.20224],[105.051571,9.202242],[105.051655,9.202246],[105.051744,9.202249],[105.051738,9.202391],[105.051721,9.202812],[105.051715,9.202953],[105.05142,9.202941],[105.051422,9.202902],[105.051233,9.202894],[105.051139,9.202891]]]]},"properties":{"group":"edu_health","tag":"amenity=school","name":"Trường Tiểu học Đặng Thuỳ Trâm","levels":null,"lat":9.20263063984898,"lng":105.05148530770661,"osm_type":"way","osm_id":1242095377}},{"type":"Feature","geometry":{"type":"MultiPolygon","coordinates":[[[[105.159912,9.173206],[105.160022,9.172546],[105.160408,9.172603],[105.160315,9.173201],[105.160259,9.17322],[105.160137,9.173209],[105.160107,9.17325],[105.159912,9.173206]]]]},"properties":{"group":"edu_health","tag":"amenity=hospital","name":"Bệnh viện Mắt - Da liễu tỉnh Cà Mau","levels":null,"lat":9.17289886445245,"lng":105.16015898255012,"osm_type":"way","osm_id":1279555956}},{"type":"Feature","geometry":{"type":"MultiPolygon","coordinates":[[[[105.145205,9.180419],[105.145582,9.18016],[105.145645,9.180116],[105.145668,9.180158],[105.145967,9.180581],[105.145776,9.180711],[105.145735,9.180652],[105.145489,9.180821],[105.145205,9.180419]]]]},"properties":{"group":"edu_health","tag":"amenity=hospital","name":"Bệnh viện Đa khoa khu vực Cà Mau","levels":null,"lat":9.180478780940987,"lng":105.14558237299839,"osm_type":"way","osm_id":1279650223}},{"type":"Feature","geometry":{"type":"MultiPolygon","coordinates":[[[[105.757911,9.296856],[105.758357,9.295798],[105.759018,9.296096],[105.758588,9.297158],[105.757911,9.296856]]]]},"properties":{"group":"edu_health","tag":"amenity=hospital","name":"Bệnh viện Chuyên khoa Tâm thần Cà Mau","levels":null,"lat":9.296478892810422,"lng":105.75846771491861,"osm_type":"way","osm_id":1279650271}},{"type":"Feature","geometry":{"type":"MultiPolygon","coordinates":[[[[105.758588,9.297158],[105.759018,9.296096],[105.75955,9.296317],[105.759588,9.296333],[105.759408,9.296775],[105.759518,9.296801],[105.759291,9.297474],[105.758588,9.297158]]]]},"properties":{"group":"edu_health","tag":"amenity=hospital","name":"Bệnh viện Lao và Bệnh phổi Bạc Liêu","levels":null,"lat":9.296793417740206,"lng":105.75911548657328,"osm_type":"way","osm_id":1279650272}},{"type":"Feature","geometry":{"type":"MultiPolygon","coordinates":[[[[104.990043,8.758084],[104.990082,8.756384],[104.990498,8.756282],[104.991272,8.756445],[104.990601,8.758339],[104.990202,8.758202],[104.990104,8.758141],[104.990043,8.758084]]]]},"properties":{"group":"public","tag":"leisure=park","name":null,"levels":null,"lat":8.757188941971075,"lng":104.99053283032093,"osm_type":"way","osm_id":1412608884}},{"type":"Feature","geometry":{"type":"MultiPolygon","coordinates":[[[[105.155596,9.186898],[105.155865,9.186481],[105.156448,9.186866],[105.156171,9.187288],[105.155596,9.186898]]]]},"properties":{"group":"public","tag":"leisure=park","name":"Công viên khu tái định cư phường 4","levels":null,"lat":9.186883795787406,"lng":105.15602103075862,"osm_type":"way","osm_id":1417127962}},{"type":"Feature","geometry":{"type":"MultiPolygon","coordinates":[[[[105.709687,9.360616],[105.709846,9.359509],[105.711306,9.359712],[105.711147,9.360819],[105.709687,9.360616]]]]},"properties":{"group":"edu_health","tag":"amenity=school","name":"Trường Trung học phổ thông Lê Văn Đẩu","levels":null,"lat":9.3601638666242,"lng":105.71049671674277,"osm_type":"way","osm_id":1455098414}},{"type":"Feature","geometry":{"type":"MultiPolygon","coordinates":[[[[105.713786,9.312426],[105.714164,9.311301],[105.714256,9.311029],[105.714306,9.311012],[105.714865,9.311189],[105.714841,9.311261],[105.715121,9.311353],[105.715267,9.311401],[105.715343,9.311349],[105.716175,9.311606],[105.715983,9.312179],[105.715902,9.312226],[105.71586,9.312361],[105.715908,9.312433],[105.71572,9.313028],[105.713786,9.312426]]]]},"properties":{"group":"edu_health","tag":"amenity=hospital","name":"Bệnh viện Đa khoa Thanh Vũ Medic Bạc Liêu","levels":null,"lat":9.312024036090763,"lng":105.7149772680549,"osm_type":"way","osm_id":1530094808}},{"type":"Feature","geometry":{"type":"MultiPolygon","coordinates":[[[[105.151091,9.174629],[105.151123,9.17431],[105.151275,9.174325],[105.151312,9.174369],[105.151289,9.174649],[105.151228,9.174642],[105.151108,9.174631],[105.151091,9.174629]]]]},"properties":{"group":"edu_health","tag":"amenity=hospital","name":"Bệnh viện Đa khoa Hoàn Mỹ Minh Hải","levels":null,"lat":9.174481826136814,"lng":105.15120326303749,"osm_type":"way","osm_id":1530094809}},{"type":"Feature","geometry":{"type":"MultiPolygon","coordinates":[[[[105.15273,9.181318],[105.152933,9.181073],[105.153479,9.181574],[105.15317,9.181897],[105.152805,9.181598],[105.152906,9.181481],[105.15273,9.181318]]]]},"properties":{"group":"edu_health","tag":"amenity=hospital","name":"Bệnh viện Công an tỉnh Cà Mau","levels":null,"lat":9.181497263244074,"lng":105.1530847650638,"osm_type":"way","osm_id":1530094810}},{"type":"Feature","geometry":{"type":"Point","coordinates":[105.732574,9.303506]},"properties":{"group":"public","tag":"leisure=park","name":"Khu vui chơi Hồ Nam","levels":null,"lat":9.3035061,"lng":105.7325735,"osm_type":"node","osm_id":2343949336}},{"type":"Feature","geometry":{"type":"Point","coordinates":[105.132562,9.191228]},"properties":{"group":"mall","tag":"shop=department_store","name":"Bách hóa Ngô Quyền","levels":null,"lat":9.1912277,"lng":105.1325623,"osm_type":"node","osm_id":4474363820}},{"type":"Feature","geometry":{"type":"Point","coordinates":[105.135662,9.193565]},"properties":{"group":"edu_health","tag":"amenity=school","name":"Trường Tiểu học P1","levels":null,"lat":9.1935648,"lng":105.1356623,"osm_type":"node","osm_id":4496769889}},{"type":"Feature","geometry":{"type":"Point","coordinates":[104.938453,8.916881]},"properties":{"group":"edu_health","tag":"amenity=hospital","name":"Trung tâm ý tế xã Phú Thuận","levels":null,"lat":8.9168807,"lng":104.9384527,"osm_type":"node","osm_id":5209770522}},{"type":"Feature","geometry":{"type":"Point","coordinates":[105.154545,9.177888]},"properties":{"group":"mall","tag":"shop=department_store","name":null,"levels":null,"lat":9.1778875,"lng":105.1545452,"osm_type":"node","osm_id":6170158987}},{"type":"Feature","geometry":{"type":"Point","coordinates":[104.832528,8.600457]},"properties":{"group":"edu_health","tag":"amenity=school","name":"Trường Trung học cơ sở Khai Long","levels":null,"lat":8.600457,"lng":104.832528,"osm_type":"node","osm_id":6277297956}},{"type":"Feature","geometry":{"type":"Point","coordinates":[104.838898,8.589721]},"properties":{"group":"edu_health","tag":"amenity=school","name":"Trường Tiểu học 2 Đất Mũi","levels":null,"lat":8.5897207,"lng":104.8388982,"osm_type":"node","osm_id":6277297957}},{"type":"Feature","geometry":{"type":"Point","coordinates":[105.154569,9.181123]},"properties":{"group":"edu_health","tag":"amenity=school","name":"Trường Tiểu Học Hùng Vương","levels":null,"lat":9.181123,"lng":105.1545691,"osm_type":"node","osm_id":9739940246}},{"type":"Feature","geometry":{"type":"Point","coordinates":[105.465715,9.442316]},"properties":{"group":"edu_health","tag":"amenity=school","name":"Trường THCS thị trấn Phước Long","levels":null,"lat":9.4423163,"lng":105.4657148,"osm_type":"node","osm_id":13347704701}},{"type":"Feature","geometry":{"type":"Point","coordinates":[105.287825,9.186507]},"properties":{"group":"edu_health","tag":"amenity=school","name":"Trường Tiểu học Tân Thạnh A","levels":null,"lat":9.1865075,"lng":105.2878246,"osm_type":"node","osm_id":13347718501}},{"type":"Feature","geometry":{"type":"Point","coordinates":[105.320801,9.299481]},"properties":{"group":"edu_health","tag":"amenity=school","name":"Trường THCS Phong Thạnh Tây","levels":null,"lat":9.299481,"lng":105.320801,"osm_type":"node","osm_id":13347946456}},{"type":"Feature","geometry":{"type":"Point","coordinates":[105.320882,9.298886]},"properties":{"group":"edu_health","tag":"amenity=school","name":"Trường Mầm non Phong Thạnh Tây","levels":null,"lat":9.2988864,"lng":105.3208817,"osm_type":"node","osm_id":13347946457}}]}