{"type":"FeatureCollection","features":[{"type":"Feature","properties":{"kind":"boundary","province_code":"46","name":"Thành phố Huế","source":"VNSDI","valid_from":"16/6/2025","simplify_tolerance_deg":0.0005},"geometry":{"type":"Polygon","coordinates":[[[107.44644,16.09102],[107.44603,16.08636],[107.44345,16.08289],[107.44019,16.08187],[107.43504,16.08285],[107.43143,16.07847],[107.43024,16.07892],[107.42754,16.0781],[107.42405,16.07947],[107.42144,16.07828],[107.41856,16.08013],[107.41835,16.0814],[107.41241,16.08454],[107.41126,16.08335],[107.40921,16.08412],[107.40353,16.07792],[107.40322,16.07552],[107.40397,16.07468],[107.40313,16.07143],[107.40073,16.06847],[107.40035,16.06494],[107.40122,16.06422],[107.39887,16.06219],[107.39315,16.06392],[107.38874,16.06258],[107.3848,16.06818],[107.38222,16.06957],[107.37791,16.07411],[107.37396,16.07121],[107.37004,16.06354],[107.36607,16.06119],[107.36299,16.06114],[107.35857,16.06358],[107.35197,16.06171],[107.34675,16.06232],[107.34423,16.06047],[107.34348,16.05815],[107.33898,16.05539],[107.33446,16.05496],[107.33421,16.0569],[107.33057,16.05907],[107.32997,16.06016],[107.32929,16.06513],[107.32979,16.06635],[107.32658,16.06854],[107.32651,16.06989],[107.31884,16.07037],[107.31476,16.07403],[107.31337,16.07662],[107.31418,16.07781],[107.31378,16.07864],[107.31255,16.07915],[107.31101,16.07843],[107.30761,16.08161],[107.30265,16.09029],[107.30268,16.09312],[107.29478,16.10022],[107.29401,16.1023],[107.2944,16.10362],[107.29127,16.10744],[107.29159,16.10921],[107.29015,16.1116],[107.28648,16.11391],[107.28425,16.11881],[107.28037,16.11737],[107.27879,16.11582],[107.27513,16.11669],[107.27242,16.11534],[107.27049,16.11841],[107.26818,16.1203],[107.26844,16.12198],[107.26537,16.12641],[107.26554,16.12945],[107.26288,16.13693],[107.25779,16.13702],[107.25601,16.13556],[107.25458,16.13571],[107.25176,16.13886],[107.25005,16.13916],[107.24725,16.14266],[107.24682,16.14549],[107.24385,16.14776],[107.24188,16.14681],[107.23904,16.14702],[107.23569,16.14602],[107.22582,16.14171],[107.22516,16.13782],[107.22442,16.13739],[107.22049,16.14122],[107.21771,16.14194],[107.21423,16.14117],[107.21304,16.14288],[107.21157,16.1431],[107.20731,16.14611],[107.19922,16.14383],[107.19714,16.14421],[107.19587,16.14535],[107.19437,16.14438],[107.19237,16.14786],[107.18805,16.1494],[107.18671,16.1523],[107.18384,16.15186],[107.17786,16.15731],[107.17596,16.15777],[107.17255,16.1644],[107.17081,16.1659],[107.16678,16.16602],[107.16252,16.16802],[107.16005,16.16793],[107.15936,16.16997],[107.15715,16.17154],[107.15783,16.17639],[107.15601,16.18018],[107.15604,16.18222],[107.14916,16.18961],[107.14858,16.1935],[107.14984,16.19457],[107.14994,16.19843],[107.1492,16.20057],[107.14713,16.20219],[107.14814,16.20923],[107.14726,16.21139],[107.14513,16.21148],[107.14447,16.21423],[107.14685,16.2213],[107.15192,16.22596],[107.15287,16.22865],[107.15529,16.2313],[107.15448,16.23359],[107.14959,16.23571],[107.14907,16.23723],[107.15015,16.23958],[107.15325,16.24161],[107.15489,16.24739],[107.15359,16.25257],[107.15438,16.25393],[107.15565,16.25392],[107.1569,16.25633],[107.15367,16.2588],[107.1519,16.26303],[107.14871,16.26453],[107.14636,16.26817],[107.14749,16.26971],[107.09193,16.30825],[107.09025,16.3085],[107.08837,16.31116],[107.08402,16.31254],[107.08137,16.31242],[107.08246,16.31744],[107.0812,16.32061],[107.06904,16.32788],[107.06346,16.33216],[107.06155,16.34801],[107.05433,16.34678],[107.04759,16.34888],[107.04124,16.3494],[107.03967,16.35566],[107.03787,16.35701],[107.03469,16.35717],[107.03437,16.35859],[107.03631,16.36726],[107.03789,16.36984],[107.04031,16.37165],[107.04527,16.37995],[107.04981,16.3822],[107.05432,16.38123],[107.05981,16.38524],[107.06003,16.38647],[107.05816,16.39196],[107.05789,16.40112],[107.05921,16.40793],[107.0615,16.41079],[107.06411,16.41078],[107.06851,16.40525],[107.07826,16.40083],[107.08297,16.4028],[107.08622,16.40269],[107.09351,16.39886],[107.09395,16.40207],[107.09611,16.40273],[107.10966,16.38671],[107.11194,16.38572],[107.11965,16.38548],[107.12942,16.38371],[107.13881,16.38906],[107.14062,16.38918],[107.14832,16.3865],[107.15286,16.38945],[107.15285,16.39079],[107.14255,16.40294],[107.14111,16.40632],[107.14129,16.40802],[107.14335,16.41112],[107.14148,16.41456],[107.14419,16.41952],[107.14513,16.42471],[107.14424,16.42812],[107.14603,16.43155],[107.14844,16.43366],[107.14849,16.4357],[107.14743,16.43756],[107.14345,16.43712],[107.13903,16.43944],[107.13784,16.44118],[107.13788,16.4426],[107.1359,16.44489],[107.13122,16.44811],[107.13121,16.44943],[107.13554,16.45521],[107.13547,16.45773],[107.13247,16.46714],[107.12563,16.48026],[107.12282,16.48402],[107.10573,16.4946],[107.10373,16.49505],[107.10166,16.49408],[107.09736,16.49518],[107.09446,16.50126],[107.08382,16.50416],[107.0658,16.51174],[107.05549,16.52423],[107.06041,16.53269],[107.06167,16.54362],[107.0639,16.54483],[107.07099,16.54402],[107.08591,16.546],[107.09523,16.55024],[107.10181,16.55159],[107.11239,16.55187],[107.12108,16.55353],[107.12258,16.55488],[107.12615,16.56307],[107.12885,16.56562],[107.1379,16.57026],[107.15104,16.57457],[107.17183,16.57844],[107.18657,16.57972],[107.20259,16.58307],[107.20797,16.57878],[107.21503,16.57827],[107.2303,16.58084],[107.24598,16.58663],[107.24703,16.58585],[107.24974,16.57917],[107.25368,16.57548],[107.27088,16.56555],[107.27995,16.57218],[107.29941,16.58424],[107.30385,16.58534],[107.31302,16.57932],[107.32524,16.58568],[107.32652,16.58703],[107.32378,16.59394],[107.32457,16.59744],[107.32689,16.59907],[107.3332,16.59835],[107.3344,16.59898],[107.33143,16.6023],[107.32864,16.60254],[107.32488,16.60497],[107.32833,16.60828],[107.3237,16.61379],[107.32111,16.61955],[107.31041,16.62521],[107.31581,16.63814],[107.31531,16.64061],[107.31321,16.64144],[107.31346,16.63713],[107.31164,16.63549],[107.30841,16.6367],[107.30653,16.6405],[107.31754,16.65188],[107.32136,16.65289],[107.32337,16.6516],[107.32504,16.64855],[107.32505,16.64449],[107.32611,16.64277],[107.32853,16.64232],[107.32932,16.64751],[107.32837,16.65061],[107.326,16.65362],[107.32232,16.65586],[107.31933,16.659],[107.31846,16.66215],[107.32357,16.66528],[107.32775,16.66476],[107.3305,16.66587],[107.33146,16.66789],[107.32823,16.66904],[107.32503,16.66828],[107.32398,16.67021],[107.33442,16.67583],[107.33739,16.68207],[107.3449,16.69159],[107.35102,16.69628],[107.35738,16.6986],[107.35732,16.70295],[107.35462,16.70567],[107.35479,16.70919],[107.35786,16.71255],[107.36979,16.73386],[107.38457,16.74025],[107.38778,16.74292],[107.40597,16.72939],[107.44865,16.69503],[107.46052,16.68664],[107.50183,16.6534],[107.54607,16.62084],[107.57422,16.60117],[107.59608,16.58747],[107.61334,16.57874],[107.63163,16.57119],[107.63684,16.56774],[107.65199,16.56042],[107.66004,16.55532],[107.66268,16.55537],[107.68338,16.54205],[107.68831,16.5397],[107.714,16.5216],[107.78171,16.46882],[107.80445,16.44957],[107.88703,16.37637],[107.8995,16.36679],[107.90221,16.36594],[107.90553,16.36695],[107.9214,16.35329],[107.92592,16.35092],[107.93346,16.34186],[107.93592,16.34065],[107.94152,16.33988],[107.94489,16.34146],[107.94527,16.34587],[107.94817,16.34593],[107.95199,16.34296],[107.95496,16.34438],[107.95472,16.33881],[107.95594,16.33638],[107.96398,16.327],[107.96976,16.32212],[107.97912,16.3167],[107.98655,16.31476],[108.00366,16.31224],[108.01285,16.31438],[108.01884,16.31759],[108.02189,16.32022],[108.02194,16.32982],[108.01707,16.33573],[108.01672,16.33894],[108.0187,16.34273],[108.02039,16.34384],[108.02282,16.34363],[108.02429,16.34065],[108.02707,16.33768],[108.03135,16.33581],[108.03398,16.33304],[108.04209,16.31593],[108.04145,16.31391],[108.03708,16.31197],[108.03762,16.30853],[108.05813,16.27459],[108.08748,16.23183],[108.1044,16.21969],[108.11117,16.218],[108.11893,16.21266],[108.12092,16.21302],[108.12508,16.21572],[108.12968,16.21613],[108.13309,16.21595],[108.14231,16.21344],[108.14384,16.21546],[108.14434,16.21772],[108.14642,16.22011],[108.14986,16.21991],[108.16991,16.20862],[108.18045,16.21249],[108.1839,16.21305],[108.18719,16.21269],[108.19398,16.21013],[108.18853,16.20808],[108.18091,16.20682],[108.17108,16.20303],[108.16155,16.20598],[108.15871,16.20614],[108.15611,16.20212],[108.14441,16.19891],[108.13918,16.19371],[108.12199,16.18223],[108.11486,16.18157],[108.11078,16.18283],[108.10533,16.18608],[108.1,16.18671],[108.0949,16.18356],[108.09375,16.18111],[108.09246,16.18037],[108.08686,16.1822],[108.08182,16.18283],[108.06964,16.18258],[108.06524,16.18399],[108.06371,16.18355],[108.06143,16.18055],[108.05521,16.18067],[108.04342,16.18771],[108.03249,16.19164],[108.02653,16.19318],[108.01331,16.19491],[108.00517,16.20451],[107.99835,16.20774],[107.98939,16.21369],[107.98776,16.21358],[107.9826,16.20952],[107.98002,16.20697],[107.97867,16.20235],[107.97406,16.19959],[107.968,16.19333],[107.96145,16.1917],[107.95568,16.18921],[107.95081,16.19026],[107.9421,16.19462],[107.9362,16.19524],[107.92935,16.19802],[107.91771,16.20859],[107.91415,16.21414],[107.91138,16.21545],[107.90919,16.215],[107.90236,16.2096],[107.8955,16.20569],[107.87667,16.19745],[107.87517,16.19633],[107.87515,16.19518],[107.87723,16.18908],[107.86743,16.18391],[107.86766,16.18195],[107.8723,16.17797],[107.87488,16.17174],[107.87586,16.16771],[107.8749,16.1609],[107.87313,16.15835],[107.86468,16.15631],[107.85913,16.15311],[107.85786,16.14358],[107.858,16.13771],[107.85986,16.13542],[107.85567,16.12617],[107.8558,16.11351],[107.83497,16.09816],[107.82697,16.08851],[107.82378,16.08296],[107.82284,16.07954],[107.82305,16.07366],[107.82176,16.06622],[107.81866,16.05741],[107.81571,16.05351],[107.81251,16.05286],[107.80709,16.05348],[107.79808,16.06185],[107.78844,16.06673],[107.78606,16.06702],[107.78264,16.0645],[107.77527,16.06413],[107.77363,16.05837],[107.77044,16.05342],[107.75974,16.04725],[107.75757,16.04337],[107.75265,16.04416],[107.74551,16.04228],[107.72661,16.03009],[107.72587,16.02685],[107.72819,16.0195],[107.72641,16.01237],[107.72404,16.00791],[107.71645,16.0017],[107.70729,15.99631],[107.69899,15.99513],[107.69237,15.99553],[107.67753,15.99899],[107.67503,16.00531],[107.6723,16.00935],[107.66439,16.01812],[107.66156,16.01912],[107.65158,16.01961],[107.63631,16.02916],[107.63072,16.03095],[107.62108,16.03203],[107.62,16.0345],[107.62003,16.03863],[107.62457,16.04566],[107.62587,16.04959],[107.62485,16.05562],[107.62129,16.06205],[107.61936,16.06393],[107.60111,16.05741],[107.58769,16.05661],[107.57584,16.05446],[107.57161,16.0552],[107.56292,16.05098],[107.55311,16.04422],[107.55263,16.04191],[107.55939,16.03167],[107.56018,16.02234],[107.55882,16.01958],[107.55462,16.01478],[107.54883,16.01091],[107.54347,16.01085],[107.52547,16.01634],[107.52208,16.01604],[107.51887,16.01454],[107.51199,16.01647],[107.50683,16.02131],[107.50464,16.02896],[107.502,16.03339],[107.49627,16.03896],[107.49091,16.04079],[107.48716,16.04026],[107.48526,16.03774],[107.48062,16.03529],[107.47555,16.03476],[107.46769,16.02536],[107.46576,16.02588],[107.46316,16.02853],[107.45966,16.02811],[107.45818,16.0292],[107.45765,16.03281],[107.45385,16.03694],[107.44807,16.03765],[107.44714,16.03853],[107.4468,16.04073],[107.44756,16.04362],[107.44604,16.05392],[107.44967,16.05837],[107.44876,16.06065],[107.44912,16.0618],[107.4499,16.06329],[107.45234,16.06296],[107.4542,16.06698],[107.46049,16.07119],[107.46125,16.07306],[107.45973,16.07481],[107.45983,16.07635],[107.45887,16.07702],[107.45935,16.07812],[107.4581,16.07919],[107.45699,16.08273],[107.4527,16.0855],[107.45305,16.08825],[107.45131,16.08834],[107.44953,16.08978],[107.44923,16.09132],[107.44786,16.09147],[107.44644,16.09102]]]}},{"type":"Feature","properties":{"kind":"buffer","province_code":"46","buffer_m":5000,"source":"derived","simplify_tolerance_deg":0.0005},"geometry":{"type":"Polygon","coordinates":[[[107.06995,16.26783],[107.05986,16.27226],[107.05234,16.27695],[107.04589,16.28293],[107.03938,16.29289],[107.03315,16.29771],[107.02676,16.3041],[107.02472,16.30717],[107.01631,16.31113],[107.0096,16.31604],[106.99666,16.33082],[106.99192,16.3388],[106.98864,16.34896],[106.98761,16.35649],[106.98838,16.36778],[106.99077,16.37816],[106.9935,16.38555],[106.99768,16.39297],[107.01223,16.4119],[107.01372,16.41861],[107.01704,16.42757],[107.02452,16.43851],[107.03034,16.44453],[107.03718,16.44943],[107.04484,16.45305],[107.05305,16.45526],[107.06795,16.45584],[107.07599,16.45451],[107.08456,16.45137],[107.0771,16.45442],[107.06961,16.45877],[107.06504,16.46271],[107.04797,16.46979],[107.03684,16.47622],[107.02379,16.48974],[107.01788,16.49732],[107.01315,16.50497],[107.01006,16.51336],[107.00874,16.52217],[107.00923,16.53106],[107.01151,16.53969],[107.01444,16.54558],[107.01596,16.55422],[107.01882,16.56182],[107.02298,16.56908],[107.02932,16.57632],[107.03548,16.58137],[107.04246,16.58531],[107.0514,16.58841],[107.06369,16.59005],[107.0718,16.58958],[107.08553,16.59448],[107.0941,16.59603],[107.10691,16.60556],[107.11596,16.6102],[107.13598,16.61739],[107.15987,16.62216],[107.17934,16.6245],[107.19439,16.62759],[107.20258,16.62829],[107.21078,16.62759],[107.21991,16.62525],[107.2268,16.62828],[107.236,16.63101],[107.2465,16.63185],[107.25454,16.63109],[107.26116,16.62932],[107.25973,16.63974],[107.26054,16.64894],[107.26328,16.65778],[107.26781,16.66591],[107.27267,16.6715],[107.2763,16.68177],[107.28751,16.69854],[107.29486,16.70561],[107.29944,16.70865],[107.30968,16.72121],[107.31366,16.73078],[107.31891,16.73802],[107.32862,16.75537],[107.33441,16.76346],[107.34188,16.77016],[107.35067,16.77513],[107.36056,16.77941],[107.36528,16.78256],[107.37426,16.78621],[107.38384,16.78797],[107.39358,16.78779],[107.40307,16.78565],[107.41246,16.78135],[107.43554,16.76444],[107.53109,16.6887],[107.574,16.65713],[107.60754,16.6339],[107.61811,16.6274],[107.63544,16.61879],[107.65001,16.61278],[107.66062,16.6068],[107.68738,16.59378],[107.71549,16.57651],[107.74144,16.55823],[107.81247,16.50291],[107.83617,16.48282],[107.91726,16.4109],[107.92786,16.40669],[107.93565,16.40156],[107.94823,16.39106],[107.95658,16.39041],[107.9664,16.38823],[107.97505,16.38522],[107.98292,16.38064],[107.98771,16.37643],[107.99208,16.37996],[108.00148,16.38521],[108.00857,16.3876],[108.01561,16.38883],[108.02971,16.38835],[108.03858,16.38621],[108.04685,16.38244],[108.0542,16.37718],[108.06583,16.36638],[108.07347,16.35732],[108.08592,16.33181],[108.08803,16.3246],[108.08866,16.31325],[108.09866,16.29735],[108.12159,16.26414],[108.1256,16.26121],[108.13957,16.26485],[108.15271,16.26505],[108.16234,16.26349],[108.17607,16.25763],[108.18906,16.25799],[108.20133,16.2558],[108.21616,16.24999],[108.22266,16.24586],[108.22958,16.23948],[108.23502,16.23188],[108.23874,16.22336],[108.24059,16.2143],[108.24049,16.20505],[108.23845,16.19602],[108.23456,16.18758],[108.22896,16.18009],[108.22166,16.17366],[108.21219,16.16835],[108.18985,16.16121],[108.17805,16.1583],[108.16772,16.15799],[108.15582,16.14937],[108.14619,16.14352],[108.13669,16.1393],[108.12645,16.13722],[108.11932,16.13656],[108.10644,16.13731],[108.09176,16.13515],[108.08245,16.13603],[108.07712,16.13756],[108.06964,16.13603],[108.06051,16.13534],[108.04568,16.1364],[108.0374,16.13885],[108.02358,16.1466],[108.01827,16.1485],[108.00657,16.1499],[107.99757,16.15232],[107.9923,16.15484],[107.98729,16.15213],[107.96855,16.14573],[107.95719,16.14402],[107.94655,16.14486],[107.94025,16.14621],[107.92089,16.15249],[107.91798,16.14323],[107.91415,16.1359],[107.90567,16.12618],[107.90292,16.11711],[107.90138,16.1032],[107.89759,16.09314],[107.8921,16.08497],[107.88494,16.07812],[107.86922,16.06636],[107.86606,16.05163],[107.86013,16.03646],[107.85409,16.02763],[107.84823,16.02099],[107.84116,16.01556],[107.83314,16.01155],[107.81963,16.00812],[107.8043,16.00814],[107.79544,16.00967],[107.79036,16.01139],[107.78572,16.00725],[107.77775,16.00257],[107.77157,16.00042],[107.76804,15.99171],[107.76174,15.98111],[107.75321,15.9722],[107.7438,15.96501],[107.73051,15.95705],[107.72256,15.95356],[107.70579,15.95039],[107.69604,15.95],[107.68312,15.95121],[107.6622,15.95626],[107.65388,15.95996],[107.64646,15.96516],[107.63973,15.97202],[107.63646,15.97707],[107.63216,15.97845],[107.62435,15.98256],[107.61851,15.98683],[107.61281,15.98725],[107.6025,15.99042],[107.59686,15.99355],[107.58881,15.9839],[107.57302,15.9722],[107.56655,15.96906],[107.55865,15.96669],[107.54165,15.96566],[107.53003,15.96753],[107.52279,15.96963],[107.51083,15.96999],[107.50227,15.97191],[107.49107,15.97602],[107.48127,15.98232],[107.47496,15.98069],[107.46522,15.98021],[107.45558,15.98168],[107.44295,15.98587],[107.43556,15.98935],[107.42884,15.99395],[107.42335,15.99925],[107.41672,16.00395],[107.40955,16.01158],[107.40594,16.01765],[107.39422,16.01719],[107.38009,16.01823],[107.37201,16.01621],[107.36132,16.01597],[107.35738,16.01381],[107.35014,16.01154],[107.33842,16.00976],[107.33166,16.00982],[107.32256,16.01122],[107.30997,16.01638],[107.30254,16.02178],[107.29277,16.03282],[107.28378,16.04013],[107.27171,16.05255],[107.26196,16.06788],[107.25807,16.07231],[107.24882,16.07629],[107.24061,16.08217],[107.23112,16.09268],[107.21817,16.09254],[107.20915,16.09458],[107.19914,16.09874],[107.18897,16.09944],[107.18022,16.10128],[107.16781,16.10715],[107.16298,16.1114],[107.15462,16.11638],[107.14311,16.12597],[107.13788,16.12804],[107.12943,16.13373],[107.12397,16.13912],[107.11761,16.14734],[107.11346,16.15533],[107.11116,16.16343],[107.10608,16.17193],[107.10307,16.18164],[107.1018,16.19295],[107.09811,16.20744],[107.09776,16.21712],[107.09898,16.22485],[107.10239,16.23505],[107.10293,16.24496],[107.06995,16.26783]]]}}]}