{"type":"FeatureCollection","features":[{"type":"Feature","properties":{"kind":"boundary","province_code":"44","name":"Tỉnh Quảng Trị","source":"VNSDI","valid_from":"16/6/2025","simplify_tolerance_deg":0.0005},"geometry":{"type":"MultiPolygon","coordinates":[[[[106.83077,16.54894],[106.82981,16.5463],[106.8306,16.54111],[106.82907,16.5382],[106.82947,16.53682],[106.82814,16.53647],[106.82439,16.53294],[106.82262,16.52949],[106.82295,16.52846],[106.82536,16.52711],[106.82552,16.52533],[106.82786,16.5238],[106.82849,16.52132],[106.82584,16.51467],[106.82339,16.51266],[106.82267,16.50846],[106.82075,16.50761],[106.82101,16.5064],[106.81914,16.50371],[106.81747,16.49673],[106.81491,16.49237],[106.81381,16.48659],[106.80548,16.47554],[106.80514,16.47054],[106.80304,16.46535],[106.80203,16.46358],[106.79243,16.47332],[106.78938,16.47371],[106.7843,16.47257],[106.78302,16.47099],[106.77362,16.46964],[106.77061,16.4674],[106.77076,16.46599],[106.77386,16.46333],[106.77546,16.45886],[106.77273,16.45251],[106.77344,16.44661],[106.77525,16.4435],[106.77211,16.43653],[106.77164,16.43161],[106.76329,16.42525],[106.75643,16.42374],[106.74574,16.42392],[106.74589,16.41666],[106.74043,16.41106],[106.73911,16.41077],[106.73813,16.4127],[106.73831,16.41793],[106.73592,16.42074],[106.73415,16.42529],[106.73628,16.43634],[106.73596,16.43822],[106.73486,16.43932],[106.73349,16.43987],[106.73167,16.43942],[106.72447,16.43544],[106.72429,16.43378],[106.72936,16.43018],[106.73021,16.4285],[106.72827,16.4257],[106.72604,16.42523],[106.71819,16.43176],[106.71556,16.43306],[106.70187,16.43574],[106.69584,16.43978],[106.68775,16.43889],[106.68647,16.44131],[106.68687,16.44441],[106.6879,16.44573],[106.69219,16.44761],[106.69309,16.44908],[106.6847,16.45761],[106.68272,16.45751],[106.67779,16.45144],[106.67561,16.45249],[106.67367,16.4614],[106.67464,16.47342],[106.674,16.47545],[106.67312,16.47639],[106.67089,16.47671],[106.66253,16.47236],[106.66057,16.47342],[106.66124,16.48178],[106.66401,16.48652],[106.66276,16.48882],[106.6598,16.49142],[106.65959,16.49257],[106.66336,16.49651],[106.6636,16.50111],[106.66529,16.50322],[106.66415,16.50503],[106.65905,16.50679],[106.65377,16.51035],[106.65225,16.51235],[106.6533,16.51734],[106.65272,16.51913],[106.64709,16.52227],[106.6481,16.5358],[106.64769,16.54095],[106.65475,16.54716],[106.65932,16.55346],[106.6621,16.55596],[106.66611,16.55811],[106.67133,16.55915],[106.67236,16.56029],[106.67178,16.56279],[106.66404,16.5701],[106.66219,16.57318],[106.66238,16.5771],[106.66327,16.57906],[106.66722,16.58394],[106.66368,16.58434],[106.65744,16.58128],[106.65647,16.58149],[106.65315,16.58454],[106.64895,16.59289],[106.6456,16.59391],[106.63953,16.59164],[106.6318,16.59112],[106.63059,16.58761],[106.63154,16.58367],[106.63053,16.58239],[106.62838,16.5821],[106.62554,16.58454],[106.62441,16.58797],[106.62403,16.59595],[106.62655,16.60095],[106.61547,16.60613],[106.60688,16.60715],[106.59813,16.60636],[106.58835,16.60112],[106.58672,16.60086],[106.58501,16.60197],[106.58219,16.60639],[106.58197,16.61015],[106.5844,16.61389],[106.59085,16.6169],[106.59077,16.62069],[106.5896,16.62189],[106.59003,16.62334],[106.58669,16.62713],[106.5806,16.63082],[106.57782,16.63134],[106.57668,16.63392],[106.57309,16.6368],[106.5727,16.63795],[106.5694,16.64031],[106.56753,16.64034],[106.56509,16.64161],[106.56373,16.64613],[106.56689,16.64966],[106.56664,16.65098],[106.5676,16.65266],[106.56618,16.65835],[106.56671,16.66137],[106.56514,16.66251],[106.56516,16.66577],[106.56125,16.66837],[106.55793,16.67408],[106.558,16.67681],[106.55683,16.67872],[106.55643,16.68174],[106.55724,16.68338],[106.5552,16.68589],[106.55202,16.69432],[106.55102,16.86784],[106.54803,16.86837],[106.5461,16.87026],[106.53998,16.87237],[106.53813,16.8738],[106.53129,16.88299],[106.52772,16.88578],[106.51855,16.88969],[106.51667,16.89701],[106.51871,16.90182],[106.52042,16.90197],[106.51883,16.90499],[106.51641,16.90665],[106.51729,16.9078],[106.51614,16.90995],[106.51647,16.91439],[106.51837,16.91622],[106.51993,16.9201],[106.51929,16.92178],[106.52121,16.92198],[106.52446,16.9207],[106.52549,16.92148],[106.52559,16.92234],[106.5233,16.92456],[106.52427,16.92557],[106.52505,16.92556],[106.52555,16.92422],[106.52657,16.92572],[106.52835,16.92478],[106.5311,16.92617],[106.53633,16.92419],[106.54319,16.92659],[106.54639,16.92671],[106.54753,16.92578],[106.54995,17.00787],[106.54792,17.00966],[106.54587,17.00892],[106.54326,16.99902],[106.54408,16.99755],[106.54354,16.99548],[106.53762,16.9936],[106.53636,16.99217],[106.53117,16.97832],[106.52913,16.97853],[106.52541,16.97597],[106.51479,16.97142],[106.50975,16.9733],[106.50556,16.97353],[106.50351,16.97726],[106.49813,16.98012],[106.49455,16.97778],[106.49162,16.98065],[106.48751,16.98293],[106.4808,16.98255],[106.47791,16.98139],[106.47684,16.98358],[106.4717,16.98299],[106.47021,16.98632],[106.46859,16.98582],[106.46714,16.98632],[106.46505,16.98938],[106.46317,16.98965],[106.46354,16.99052],[106.46231,16.99327],[106.46279,16.99879],[106.46048,17.00078],[106.45686,17.00064],[106.45572,16.99872],[106.45029,16.99796],[106.44764,16.99657],[106.44052,16.99485],[106.43812,16.99597],[106.43373,17.00331],[106.42746,17.00608],[106.42818,17.00975],[106.42686,17.01232],[106.42763,17.01828],[106.42344,17.03028],[106.42576,17.03201],[106.41878,17.03443],[106.40629,17.04633],[106.40229,17.05222],[106.40319,17.05629],[106.40629,17.06164],[106.4121,17.06678],[106.41322,17.06881],[106.41362,17.07557],[106.41745,17.0783],[106.40968,17.08153],[106.41021,17.08357],[106.40799,17.08621],[106.40756,17.08854],[106.39961,17.09387],[106.39841,17.09657],[106.39613,17.09689],[106.39403,17.09835],[106.39092,17.10367],[106.38415,17.10414],[106.3771,17.10781],[106.37328,17.111],[106.37273,17.1156],[106.37151,17.11795],[106.37165,17.12141],[106.36953,17.12521],[106.36565,17.1287],[106.36445,17.13092],[106.36178,17.13225],[106.3601,17.13209],[106.35658,17.13467],[106.35574,17.1429],[106.35333,17.14541],[106.3534,17.14681],[106.34746,17.14806],[106.35518,17.15585],[106.35626,17.15873],[106.34807,17.16209],[106.34712,17.16443],[106.34557,17.16458],[106.34327,17.16695],[106.33849,17.1677],[106.33141,17.1784],[106.32694,17.18121],[106.32725,17.18301],[106.32471,17.18653],[106.32545,17.1888],[106.32115,17.19192],[106.32557,17.19755],[106.32692,17.19805],[106.32804,17.19754],[106.32655,17.19913],[106.31767,17.20247],[106.31553,17.20465],[106.31349,17.20439],[106.3051,17.20689],[106.30275,17.20909],[106.30779,17.21395],[106.30851,17.21678],[106.30817,17.21786],[106.30702,17.21823],[106.31146,17.21708],[106.31437,17.21978],[106.32129,17.21811],[106.32383,17.21577],[106.32525,17.21602],[106.32625,17.2198],[106.32835,17.22146],[106.32809,17.22352],[106.33088,17.22626],[106.33394,17.22651],[106.33407,17.22983],[106.33283,17.23209],[106.33295,17.23276],[106.33471,17.2331],[106.33338,17.23547],[106.3296,17.23486],[106.32835,17.23636],[106.32691,17.23576],[106.32491,17.23637],[106.32412,17.23825],[106.32082,17.2377],[106.31679,17.23545],[106.31231,17.2395],[106.30796,17.23907],[106.30889,17.24061],[106.30814,17.24171],[106.30887,17.24248],[106.31254,17.24239],[106.31663,17.24389],[106.31805,17.24551],[106.31757,17.24706],[106.31841,17.24928],[106.31418,17.25345],[106.31131,17.25157],[106.30912,17.25236],[106.30864,17.25298],[106.30993,17.25397],[106.30879,17.25699],[106.30776,17.25736],[106.30595,17.25636],[106.30527,17.25725],[106.30714,17.25968],[106.30604,17.2639],[106.30652,17.26851],[106.30858,17.27088],[106.30736,17.27349],[106.30814,17.27727],[106.30701,17.27895],[106.30726,17.28386],[106.30539,17.28776],[106.30611,17.28979],[106.30387,17.29527],[106.30068,17.29355],[106.29712,17.29527],[106.29682,17.29617],[106.29413,17.29574],[106.29128,17.29694],[106.28832,17.29601],[106.28563,17.29661],[106.28014,17.29552],[106.2753,17.29591],[106.27568,17.28952],[106.27506,17.28607],[106.27844,17.27943],[106.28111,17.27659],[106.28008,17.27124],[106.27906,17.27023],[106.27925,17.26854],[106.27717,17.26367],[106.27551,17.2617],[106.26915,17.25998],[106.26221,17.25358],[106.25754,17.25341],[106.25615,17.25249],[106.25402,17.25312],[106.25102,17.25033],[106.25155,17.24564],[106.25133,17.24455],[106.25013,17.24411],[106.24813,17.24531],[106.24711,17.24863],[106.24537,17.24987],[106.2386,17.24972],[106.23218,17.2514],[106.22942,17.25543],[106.22595,17.25677],[106.22403,17.26083],[106.22103,17.26125],[106.2081,17.27093],[106.20277,17.27206],[106.19929,17.27418],[106.19755,17.2743],[106.19699,17.27595],[106.19531,17.27744],[106.18982,17.27947],[106.18809,17.28363],[106.17805,17.29354],[106.17528,17.29447],[106.17072,17.29818],[106.16681,17.29737],[106.16627,17.29845],[106.16353,17.29955],[106.16463,17.30255],[106.16325,17.30285],[106.16132,17.30472],[106.15761,17.30583],[106.15607,17.30768],[106.15252,17.30927],[106.15138,17.31073],[106.14857,17.31194],[106.14553,17.31169],[106.1449,17.31379],[106.14306,17.31541],[106.14569,17.31821],[106.14242,17.3213],[106.14469,17.325],[106.14293,17.32702],[106.14045,17.32551],[106.1403,17.32702],[106.13601,17.32903],[106.13538,17.33049],[106.13561,17.33387],[106.13454,17.33507],[106.131,17.33668],[106.13005,17.33823],[106.12822,17.3383],[106.12758,17.33988],[106.12402,17.33931],[106.11931,17.34549],[106.11318,17.34774],[106.11149,17.3491],[106.10981,17.35119],[106.1105,17.35335],[106.10948,17.3533],[106.10866,17.35186],[106.10735,17.35304],[106.10449,17.3525],[106.10066,17.35669],[106.09954,17.35634],[106.09776,17.35792],[106.09419,17.35861],[106.09342,17.36002],[106.09215,17.36019],[105.85833,17.62375],[105.85679,17.62267],[105.8564,17.6209],[105.85339,17.62],[105.8523,17.62221],[105.85225,17.62599],[105.85393,17.62928],[105.8551,17.63429],[105.85396,17.63498],[105.85,17.63428],[105.84645,17.63166],[105.84478,17.63142],[105.84066,17.6351],[105.83965,17.63206],[105.83605,17.62998],[105.83222,17.63402],[105.83144,17.63744],[105.83207,17.63982],[105.83046,17.64161],[105.83031,17.6429],[105.83104,17.64623],[105.82864,17.65104],[105.82925,17.65427],[105.82325,17.65322],[105.8189,17.64467],[105.81677,17.64428],[105.81199,17.64786],[105.81034,17.65095],[105.80598,17.65524],[105.80657,17.65735],[105.80488,17.66031],[105.80169,17.65768],[105.79891,17.65799],[105.79807,17.66114],[105.79376,17.66423],[105.79304,17.66793],[105.79208,17.66912],[105.79097,17.67014],[105.78408,17.67049],[105.78173,17.67334],[105.78161,17.67628],[105.77733,17.67431],[105.76869,17.67446],[105.766,17.67254],[105.76459,17.67012],[105.76385,17.67017],[105.76265,17.66706],[105.75664,17.66694],[105.75075,17.66832],[105.74689,17.7027],[105.74392,17.71519],[105.74346,17.72255],[105.74117,17.72088],[105.7359,17.71975],[105.73007,17.72159],[105.7287,17.72426],[105.72794,17.73155],[105.72833,17.73667],[105.73024,17.7409],[105.72997,17.74471],[105.72217,17.74981],[105.718,17.7564],[105.71499,17.75722],[105.71156,17.75601],[105.70829,17.75966],[105.70508,17.75883],[105.70118,17.76171],[105.69906,17.76446],[105.69816,17.76734],[105.69549,17.7681],[105.69316,17.77003],[105.68738,17.78586],[105.68124,17.7894],[105.6754,17.79521],[105.67534,17.79815],[105.67726,17.8049],[105.68074,17.81094],[105.67978,17.8133],[105.68262,17.81541],[105.68287,17.81788],[105.6843,17.81928],[105.68442,17.82232],[105.68315,17.82724],[105.68353,17.82928],[105.6828,17.83092],[105.68318,17.83437],[105.67742,17.83523],[105.67493,17.8403],[105.67431,17.84667],[105.67195,17.84733],[105.66907,17.84974],[105.66616,17.85092],[105.66184,17.85595],[105.65588,17.85466],[105.65188,17.855],[105.6443,17.85898],[105.64063,17.85781],[105.63929,17.85828],[105.63695,17.86119],[105.63709,17.86201],[105.63577,17.86274],[105.63633,17.86511],[105.63572,17.86615],[105.62862,17.87033],[105.62681,17.87626],[105.62381,17.87746],[105.62089,17.87746],[105.61856,17.8792],[105.6151,17.88025],[105.61082,17.88644],[105.61188,17.88903],[105.6089,17.89053],[105.6079,17.8954],[105.61158,17.90052],[105.61688,17.90414],[105.61909,17.91534],[105.62085,17.91667],[105.62188,17.919],[105.62318,17.9238],[105.62274,17.93101],[105.62433,17.94003],[105.62291,17.94204],[105.62479,17.94377],[105.62732,17.94425],[105.62884,17.95229],[105.63442,17.95682],[105.63545,17.95987],[105.63965,17.95908],[105.64237,17.96277],[105.643,17.96848],[105.64193,17.97173],[105.64378,17.97537],[105.64305,17.97978],[105.64358,17.99256],[105.65707,17.99329],[105.69669,17.99245],[105.70644,17.9929],[105.72173,18.00711],[105.72003,18.01947],[105.72173,18.02328],[105.7307,18.03405],[105.73842,18.03652],[105.75037,18.034],[105.75453,18.02794],[105.75838,18.0259],[105.76937,18.02383],[105.77703,18.01711],[105.77849,18.01732],[105.78786,18.0247],[105.81023,18.02627],[105.81063,18.02761],[105.80777,18.03193],[105.81773,18.0375],[105.82062,18.0342],[105.82514,18.03233],[105.82901,18.03196],[105.83454,18.039],[105.83487,18.04191],[105.83305,18.04527],[105.813,18.05297],[105.82743,18.0635],[105.83568,18.06581],[105.85361,18.06751],[105.86643,18.06641],[105.87161,18.06689],[105.88803,18.08454],[105.89576,18.08992],[105.90656,18.0889],[105.91051,18.08762],[105.91979,18.08161],[105.93173,18.08908],[105.93313,18.08885],[105.9346,18.08736],[105.93595,18.08337],[105.94783,18.0692],[105.95021,18.06475],[105.94975,18.05932],[105.95045,18.05843],[105.95169,18.05783],[105.95838,18.05943],[105.96273,18.05941],[105.96558,18.05657],[105.96785,18.05567],[105.9758,18.06298],[105.98085,18.06416],[105.98726,18.06261],[105.99367,18.05606],[105.9959,18.05135],[106.00731,18.04239],[106.01604,18.03412],[106.01694,18.02884],[106.02114,18.02513],[106.02697,18.02419],[106.04219,18.02604],[106.04639,18.02573],[106.05602,18.01115],[106.07752,17.98864],[106.06677,17.98175],[106.04785,17.96504],[106.04737,17.96362],[106.04911,17.96141],[106.04916,17.95838],[106.04585,17.94606],[106.06268,17.93907],[106.07952,17.9337],[106.09632,17.93119],[106.14204,17.91962],[106.16537,17.91622],[106.17465,17.91558],[106.18486,17.9219],[106.18962,17.92266],[106.19364,17.92125],[106.19666,17.91723],[106.19942,17.91644],[106.20713,17.92435],[106.2095,17.92568],[106.22467,17.92909],[106.24073,17.92793],[106.24421,17.92693],[106.25575,17.92],[106.26182,17.91337],[106.26518,17.91466],[106.26842,17.91829],[106.27212,17.91987],[106.27473,17.91975],[106.27949,17.91699],[106.28103,17.91754],[106.28454,17.92136],[106.28508,17.92411],[106.28415,17.92828],[106.28113,17.93139],[106.28079,17.93298],[106.28441,17.93955],[106.29364,17.94629],[106.3028,17.95931],[106.30778,17.96247],[106.31534,17.96341],[106.32218,17.96239],[106.32376,17.96302],[106.3289,17.97792],[106.33863,17.99104],[106.36069,17.98925],[106.38429,17.98463],[106.39389,17.98127],[106.41845,17.97481],[106.43551,17.97206],[106.44398,17.96843],[106.4444,17.95218],[106.44871,17.95033],[106.45147,17.95035],[106.45838,17.95393],[106.46688,17.95595],[106.47211,17.95596],[106.47991,17.95362],[106.49597,17.9606],[106.50486,17.96164],[106.51015,17.95993],[106.50434,17.95818],[106.50389,17.95522],[106.50477,17.95111],[106.50893,17.9427],[106.5132,17.94012],[106.50501,17.93288],[106.50337,17.93029],[106.50185,17.9241],[106.49568,17.9217],[106.48609,17.92283],[106.48269,17.92098],[106.47997,17.91449],[106.47285,17.90738],[106.46144,17.88347],[106.45964,17.88184],[106.45416,17.87986],[106.4513,17.8772],[106.45233,17.87323],[106.4457,17.854],[106.44422,17.8411],[106.44433,17.83194],[106.44824,17.80882],[106.45686,17.77856],[106.46221,17.76333],[106.46993,17.74528],[106.47836,17.72942],[106.4859,17.71762],[106.48871,17.71051],[106.495,17.70187],[106.49931,17.68678],[106.50545,17.6741],[106.52685,17.64066],[106.52533,17.63879],[106.52556,17.63743],[106.52783,17.63402],[106.53341,17.62848],[106.54002,17.62295],[106.5446,17.62179],[106.54642,17.61934],[106.56535,17.58168],[106.59213,17.5401],[106.61794,17.50525],[106.62331,17.4992],[106.62672,17.49329],[106.62773,17.48688],[106.63169,17.48374],[106.636,17.47623],[106.64675,17.46115],[106.65767,17.44761],[106.6954,17.40466],[106.70495,17.39422],[106.74823,17.35344],[106.75286,17.34592],[106.75786,17.34117],[106.76768,17.33571],[106.78261,17.32154],[106.81861,17.29292],[106.83166,17.28159],[106.88035,17.24678],[106.9261,17.21123],[106.9602,17.18637],[106.97192,17.17876],[107.01299,17.14822],[107.0482,17.12421],[107.07784,17.10745],[107.09504,17.09905],[107.10702,17.09082],[107.11352,17.08362],[107.11457,17.07921],[107.11185,17.06906],[107.1137,17.05162],[107.10944,17.03492],[107.11078,17.01807],[107.11294,17.01006],[107.12108,16.99432],[107.1475,16.95564],[107.15278,16.95073],[107.17281,16.92653],[107.18858,16.91231],[107.19059,16.90909],[107.19627,16.90392],[107.19856,16.90342],[107.20081,16.90178],[107.21902,16.87995],[107.23612,16.86425],[107.27961,16.82687],[107.29427,16.81304],[107.30852,16.80143],[107.34492,16.77255],[107.38778,16.74292],[107.38457,16.74025],[107.36979,16.73386],[107.35786,16.71255],[107.35479,16.70919],[107.35462,16.70567],[107.35732,16.70295],[107.35738,16.6986],[107.35102,16.69628],[107.3449,16.69159],[107.33739,16.68207],[107.33442,16.67583],[107.32398,16.67021],[107.32503,16.66828],[107.32823,16.66904],[107.33146,16.66789],[107.3305,16.66587],[107.32775,16.66476],[107.32357,16.66528],[107.31846,16.66215],[107.31933,16.659],[107.32232,16.65586],[107.326,16.65362],[107.32837,16.65061],[107.32932,16.64751],[107.32853,16.64232],[107.32611,16.64277],[107.32505,16.64449],[107.32504,16.64855],[107.32337,16.6516],[107.32136,16.65289],[107.31754,16.65188],[107.30653,16.6405],[107.30841,16.6367],[107.31164,16.63549],[107.31346,16.63713],[107.31321,16.64144],[107.31531,16.64061],[107.31581,16.63814],[107.31041,16.62521],[107.32111,16.61955],[107.3237,16.61379],[107.32833,16.60828],[107.32488,16.60497],[107.32864,16.60254],[107.33143,16.6023],[107.3344,16.59898],[107.3332,16.59835],[107.32689,16.59907],[107.32457,16.59744],[107.32378,16.59394],[107.32652,16.58703],[107.32524,16.58568],[107.31302,16.57932],[107.30385,16.58534],[107.29941,16.58424],[107.27995,16.57218],[107.27088,16.56555],[107.25368,16.57548],[107.24974,16.57917],[107.24703,16.58585],[107.24598,16.58663],[107.2303,16.58084],[107.21503,16.57827],[107.20797,16.57878],[107.20259,16.58307],[107.18657,16.57972],[107.17183,16.57844],[107.15104,16.57457],[107.1379,16.57026],[107.12885,16.56562],[107.12615,16.56307],[107.12258,16.55488],[107.12108,16.55353],[107.11239,16.55187],[107.10181,16.55159],[107.09523,16.55024],[107.08591,16.546],[107.07099,16.54402],[107.0639,16.54483],[107.06167,16.54362],[107.06041,16.53269],[107.05549,16.52423],[107.0658,16.51174],[107.08382,16.50416],[107.09446,16.50126],[107.09736,16.49518],[107.10166,16.49408],[107.10373,16.49505],[107.10573,16.4946],[107.12417,16.48272],[107.13247,16.46714],[107.13547,16.45773],[107.13554,16.45521],[107.13121,16.44943],[107.13122,16.44811],[107.1359,16.44489],[107.13788,16.4426],[107.13784,16.44118],[107.13903,16.43944],[107.14345,16.43712],[107.14743,16.43756],[107.14849,16.4357],[107.14844,16.43366],[107.14603,16.43155],[107.14424,16.42812],[107.14513,16.42471],[107.14419,16.41952],[107.14148,16.41456],[107.14335,16.41112],[107.14129,16.40802],[107.14111,16.40632],[107.14255,16.40294],[107.15285,16.39079],[107.15256,16.38902],[107.14832,16.3865],[107.14062,16.38918],[107.13881,16.38906],[107.12942,16.38371],[107.11965,16.38548],[107.11194,16.38572],[107.10966,16.38671],[107.09611,16.40273],[107.09395,16.40207],[107.09351,16.39886],[107.08622,16.40269],[107.08297,16.4028],[107.07826,16.40083],[107.06851,16.40525],[107.06411,16.41078],[107.0615,16.41079],[107.05921,16.40793],[107.05789,16.40112],[107.05816,16.39196],[107.06003,16.38647],[107.05981,16.38524],[107.05432,16.38123],[107.04981,16.3822],[107.04527,16.37995],[107.04031,16.37165],[107.03789,16.36984],[107.03631,16.36726],[107.03437,16.35859],[107.03469,16.35717],[107.03787,16.35701],[107.03967,16.35566],[107.04124,16.3494],[107.04759,16.34888],[107.05433,16.34678],[107.06155,16.34801],[107.06346,16.33216],[107.06904,16.32788],[107.0812,16.32061],[107.08246,16.31744],[107.08137,16.31242],[107.07469,16.30822],[107.07174,16.30376],[107.05227,16.30672],[107.05087,16.30546],[107.04797,16.29998],[107.04594,16.29953],[107.03665,16.30569],[107.03079,16.30854],[107.02791,16.31137],[107.02488,16.30983],[107.02336,16.30609],[107.02056,16.3028],[107.01511,16.30313],[107.01553,16.30826],[107.00736,16.31337],[107.00558,16.31343],[107.00018,16.31194],[106.99517,16.30757],[106.99055,16.30893],[106.98777,16.30629],[106.98528,16.3061],[106.98234,16.30432],[106.9773,16.30378],[106.97017,16.30163],[106.96921,16.3021],[106.96863,16.30422],[106.96655,16.30507],[106.96766,16.30969],[106.9666,16.31093],[106.96592,16.31476],[106.96632,16.31741],[106.9652,16.31895],[106.96734,16.32335],[106.96588,16.3271],[106.96786,16.33633],[106.96558,16.33747],[106.96613,16.33985],[106.96708,16.34021],[106.96748,16.34731],[106.96659,16.35179],[106.96378,16.35516],[106.96324,16.35858],[106.95661,16.35792],[106.95257,16.35843],[106.93826,16.36551],[106.93153,16.36583],[106.92805,16.37038],[106.92252,16.37016],[106.91987,16.37298],[106.91814,16.37364],[106.91576,16.37674],[106.91501,16.37986],[106.90789,16.38327],[106.90643,16.38551],[106.90431,16.3868],[106.90399,16.38833],[106.89956,16.39023],[106.89743,16.39254],[106.89631,16.39616],[106.89595,16.40197],[106.89175,16.40844],[106.89146,16.41001],[106.89251,16.4113],[106.89535,16.4124],[106.89631,16.42002],[106.89949,16.42233],[106.90019,16.42643],[106.89759,16.42545],[106.89177,16.42671],[106.88709,16.42134],[106.87882,16.42431],[106.8778,16.42536],[106.87377,16.42618],[106.87272,16.42842],[106.87179,16.42873],[106.8716,16.43595],[106.87335,16.43592],[106.87634,16.43932],[106.87935,16.4447],[106.88192,16.44707],[106.88705,16.44903],[106.88879,16.45197],[106.88704,16.45356],[106.88587,16.45553],[106.88647,16.45657],[106.8849,16.45797],[106.8851,16.46088],[106.8869,16.46229],[106.88582,16.46314],[106.88448,16.46762],[106.88107,16.46936],[106.8763,16.47013],[106.87657,16.47575],[106.87894,16.47777],[106.878,16.4829],[106.87941,16.48497],[106.88647,16.49059],[106.8859,16.49304],[106.88731,16.49465],[106.88692,16.49637],[106.88786,16.50041],[106.88959,16.50209],[106.88744,16.50429],[106.88706,16.50864],[106.88849,16.51061],[106.89076,16.51123],[106.88675,16.52169],[106.8831,16.52282],[106.88353,16.5246],[106.87873,16.52486],[106.87746,16.52869],[106.87498,16.53243],[106.86994,16.53396],[106.86833,16.53304],[106.86463,16.53619],[106.86287,16.53897],[106.863,16.5414],[106.85883,16.54029],[106.85378,16.54318],[106.85046,16.54358],[106.84505,16.54613],[106.84434,16.5474],[106.83077,16.54894]]],[[[106.49522,17.90769],[106.4955,17.90908],[106.49274,17.91234],[106.49479,17.91496],[106.49661,17.91285],[106.49722,17.9095],[106.49812,17.90904],[106.4963,17.90719],[106.49522,17.90769]]],[[[106.62549,17.52227],[106.62665,17.52271],[106.62711,17.52192],[106.62572,17.52117],[106.62549,17.52227]]],[[[106.67016,17.91166],[106.67155,17.91313],[106.67439,17.91318],[106.67251,17.91175],[106.67016,17.91166]]],[[[106.53469,17.93605],[106.53347,17.93169],[106.52982,17.93131],[106.52636,17.93257],[106.52726,17.93549],[106.52538,17.93706],[106.52668,17.93797],[106.52995,17.93737],[106.53179,17.93568],[106.53469,17.93605]]],[[[106.52282,17.93969],[106.52146,17.94099],[106.51885,17.93877],[106.5172,17.94061],[106.51725,17.94151],[106.52178,17.9439],[106.5236,17.94286],[106.52375,17.94073],[106.52282,17.93969]]],[[[107.34503,17.16344],[107.34791,17.15647],[107.34277,17.15002],[107.3364,17.15187],[107.33308,17.15595],[107.33181,17.15935],[107.33214,17.16282],[107.33521,17.16585],[107.33783,17.1665],[107.34188,17.16595],[107.34503,17.16344]]]]}},{"type":"Feature","properties":{"kind":"buffer","province_code":"44","buffer_m":5000,"source":"derived","simplify_tolerance_deg":0.0005},"geometry":{"type":"MultiPolygon","coordinates":[[[[105.56358,17.87846],[105.56104,17.89166],[105.5611,17.89981],[105.56268,17.90783],[105.56717,17.91822],[105.57422,17.92806],[105.5759,17.93296],[105.57616,17.94691],[105.57782,17.9549],[105.58095,17.96246],[105.58724,17.97338],[105.59221,17.98065],[105.59612,17.98449],[105.59642,17.99545],[105.59801,18.00381],[105.60209,18.01385],[105.60728,18.02131],[105.6139,18.02764],[105.62169,18.03258],[105.63034,18.03595],[105.63952,18.03761],[105.65516,18.03847],[105.67721,18.03831],[105.67975,18.04366],[105.68471,18.05117],[105.69672,18.06531],[105.70702,18.07314],[105.71914,18.07827],[105.72609,18.08016],[105.73912,18.08175],[105.7501,18.08062],[105.76011,18.07842],[105.77159,18.07427],[105.77699,18.08206],[105.78338,18.0881],[105.7941,18.0963],[105.80812,18.10473],[105.82123,18.10914],[105.82647,18.11015],[105.85079,18.11254],[105.86389,18.12397],[105.87245,18.12949],[105.87977,18.13247],[105.88848,18.13459],[105.90388,18.13477],[105.91866,18.13238],[105.92988,18.13426],[105.94106,18.13342],[105.95076,18.13077],[105.95964,18.1262],[105.96731,18.1199],[105.97389,18.11221],[105.97573,18.10891],[105.98074,18.10938],[105.98958,18.1086],[105.99861,18.1066],[106.00895,18.10274],[106.01564,18.09867],[106.02794,18.08702],[106.03257,18.08097],[106.04344,18.07127],[106.05707,18.06976],[106.06538,18.0671],[106.07302,18.063],[106.08119,18.05621],[106.08794,18.04794],[106.0943,18.03768],[106.11097,18.0209],[106.12004,18.00797],[106.12344,17.99841],[106.12455,17.98837],[106.12379,17.98016],[106.12118,17.97165],[106.15158,17.96396],[106.16388,17.96217],[106.16882,17.96441],[106.17716,17.96651],[106.19303,17.9676],[106.19774,17.96946],[106.21578,17.97349],[106.22758,17.97422],[106.24472,17.97298],[106.25161,17.97172],[106.25896,17.97774],[106.2698,17.99153],[106.28192,18.00023],[106.29085,18.00458],[106.30549,18.02312],[106.31194,18.02827],[106.31923,18.03223],[106.32714,18.03489],[106.33541,18.03615],[106.3466,18.03622],[106.36581,18.0342],[106.39367,18.02894],[106.42857,18.01903],[106.4433,18.01665],[106.45391,18.01367],[106.4691,18.00678],[106.47572,18.0018],[106.48494,18.00458],[106.50062,18.00672],[106.51537,18.00572],[106.52561,18.00263],[106.53442,17.99866],[106.54219,17.99303],[106.54859,17.98598],[106.5534,17.97762],[106.56276,17.97238],[106.57065,17.96519],[106.5779,17.95389],[106.58105,17.9439],[106.58176,17.93321],[106.58095,17.92672],[106.57789,17.91638],[106.57311,17.90735],[106.56753,17.90051],[106.56126,17.8952],[106.5541,17.89105],[106.53883,17.88668],[106.53541,17.88117],[106.53013,17.87542],[106.52104,17.86873],[106.51272,17.86482],[106.50286,17.86245],[106.49973,17.85722],[106.49385,17.85073],[106.49149,17.84342],[106.49132,17.83544],[106.49406,17.81905],[106.49912,17.80068],[106.50571,17.78061],[106.51275,17.76403],[106.51889,17.75239],[106.52705,17.73951],[106.53153,17.73023],[106.5373,17.72162],[106.54,17.71499],[106.54305,17.7035],[106.54684,17.6956],[106.56178,17.67319],[106.56906,17.66034],[106.57721,17.65437],[106.58571,17.64418],[106.60639,17.60379],[106.62207,17.58015],[106.62844,17.56919],[106.62944,17.56776],[106.64041,17.56595],[106.64977,17.56209],[106.65761,17.55685],[106.66418,17.55021],[106.66922,17.54243],[106.67297,17.53232],[106.67414,17.52191],[106.67341,17.51404],[106.67159,17.50739],[106.68477,17.4878],[106.69406,17.47628],[106.7393,17.42513],[106.78026,17.38656],[106.7886,17.37659],[106.79984,17.3687],[106.81148,17.35736],[106.84849,17.32784],[106.86116,17.31686],[106.90917,17.2825],[106.955,17.24691],[106.97581,17.23167],[106.99948,17.2154],[107.0123,17.20539],[107.06095,17.17067],[107.07413,17.16203],[107.1006,17.14705],[107.12239,17.13584],[107.14078,17.1223],[107.15068,17.11133],[107.15601,17.10299],[107.1604,17.08934],[107.1616,17.07947],[107.15975,17.06649],[107.1607,17.05309],[107.15986,17.04298],[107.15691,17.03137],[107.15757,17.02497],[107.16435,17.01303],[107.18356,16.9852],[107.19303,16.9749],[107.20646,16.95817],[107.22523,16.94055],[107.23341,16.93437],[107.25303,16.91123],[107.26813,16.89739],[107.31143,16.86016],[107.3263,16.84619],[107.33905,16.83584],[107.37387,16.80822],[107.41922,16.77655],[107.42522,16.77029],[107.42989,16.76306],[107.43307,16.75511],[107.43464,16.74673],[107.43456,16.73822],[107.43281,16.72987],[107.42947,16.72199],[107.42465,16.71485],[107.41853,16.7087],[107.40442,16.69935],[107.40259,16.68615],[107.39892,16.6774],[107.39344,16.66957],[107.38638,16.663],[107.37735,16.65766],[107.37593,16.65286],[107.3763,16.6437],[107.37508,16.63399],[107.3724,16.62594],[107.37691,16.61835],[107.38007,16.60977],[107.38134,16.60179],[107.38111,16.59372],[107.37939,16.58582],[107.37624,16.57834],[107.3692,16.56859],[107.36697,16.56396],[107.35997,16.55519],[107.34939,16.54688],[107.33978,16.54155],[107.32449,16.53547],[107.31496,16.53414],[107.30639,16.5347],[107.29108,16.52471],[107.28197,16.52161],[107.27239,16.52035],[107.26274,16.52101],[107.25344,16.52356],[107.23204,16.53491],[107.21137,16.53303],[107.20257,16.53376],[107.19576,16.53542],[107.18004,16.53375],[107.1619,16.53036],[107.15179,16.51945],[107.15852,16.5136],[107.16499,16.50517],[107.1773,16.4808],[107.18081,16.46938],[107.1884,16.46033],[107.19274,16.45111],[107.19544,16.43838],[107.19525,16.42922],[107.19339,16.42037],[107.19161,16.41616],[107.19575,16.40931],[107.19881,16.40035],[107.19988,16.39097],[107.19903,16.38085],[107.19641,16.3724],[107.19184,16.36416],[107.18536,16.35662],[107.17311,16.34807],[107.16498,16.34421],[107.15623,16.34192],[107.14589,16.34144],[107.13894,16.33942],[107.13061,16.3385],[107.12429,16.33889],[107.12833,16.3275],[107.12944,16.31534],[107.12764,16.30308],[107.12399,16.29331],[107.11683,16.28269],[107.09906,16.26696],[107.09056,16.26232],[107.08125,16.25948],[107.07227,16.25851],[107.0673,16.25889],[107.05903,16.25585],[107.04929,16.25431],[107.03948,16.25474],[107.02734,16.25814],[107.01218,16.258],[107.00332,16.25936],[106.99701,16.26157],[106.98166,16.25778],[106.96952,16.25642],[106.96155,16.25715],[106.95382,16.25917],[106.94219,16.26508],[106.93472,16.27136],[106.92791,16.27927],[106.92425,16.28532],[106.92041,16.29631],[106.91844,16.31412],[106.91838,16.32262],[106.9013,16.32981],[106.89467,16.33373],[106.8832,16.34338],[106.8801,16.34723],[106.86568,16.35874],[106.85889,16.36633],[106.85401,16.37517],[106.85026,16.38725],[106.84015,16.39457],[106.83172,16.40506],[106.82791,16.41246],[106.8251,16.42419],[106.81742,16.42088],[106.81543,16.41486],[106.81153,16.40765],[106.80575,16.40048],[106.80035,16.39561],[106.78272,16.38407],[106.77658,16.38209],[106.77084,16.37657],[106.76406,16.37196],[106.75442,16.36774],[106.74622,16.3659],[106.73807,16.36547],[106.72997,16.36641],[106.72198,16.36866],[106.71467,16.37214],[106.70806,16.37673],[106.70237,16.38235],[106.69736,16.38959],[106.69571,16.39081],[106.68606,16.3935],[106.67379,16.39571],[106.66573,16.39893],[106.65843,16.40353],[106.65214,16.40935],[106.64669,16.41672],[106.63958,16.42343],[106.633,16.43335],[106.6311,16.43791],[106.62432,16.44447],[106.61963,16.45109],[106.61648,16.4577],[106.61368,16.47005],[106.61406,16.48215],[106.61295,16.48753],[106.60578,16.50043],[106.60219,16.50864],[106.60034,16.51738],[106.60095,16.54562],[106.59792,16.54749],[106.58919,16.55589],[106.58221,16.55585],[106.57479,16.55712],[106.568,16.55938],[106.56153,16.5626],[106.55431,16.56772],[106.54828,16.57374],[106.5405,16.58521],[106.53845,16.58977],[106.53531,16.6015],[106.53494,16.60704],[106.52854,16.61316],[106.52398,16.61966],[106.52076,16.62648],[106.51818,16.63461],[106.51674,16.64416],[106.51724,16.65155],[106.51396,16.65804],[106.51032,16.67278],[106.50729,16.68036],[106.5056,16.68709],[106.505,16.69399],[106.50414,16.84278],[106.49906,16.84862],[106.49232,16.85215],[106.48561,16.85741],[106.48001,16.86377],[106.47572,16.871],[106.47289,16.87886],[106.46974,16.89415],[106.46911,16.91044],[106.46973,16.91943],[106.47239,16.93014],[106.475,16.93649],[106.46705,16.93739],[106.45866,16.93955],[106.44754,16.9442],[106.43989,16.94965],[106.42915,16.95085],[106.41865,16.95458],[106.40734,16.96185],[106.40114,16.96868],[106.39153,16.97691],[106.38625,16.9843],[106.38259,16.99255],[106.38025,17.00732],[106.36863,17.01925],[106.35992,17.0326],[106.35641,17.04231],[106.35526,17.05254],[106.35735,17.06678],[106.34898,17.07157],[106.34006,17.079],[106.33343,17.08698],[106.32933,17.09457],[106.32788,17.09911],[106.32452,17.10159],[106.31852,17.10811],[106.31336,17.11709],[106.30594,17.12682],[106.30222,17.13572],[106.30146,17.13996],[106.29646,17.14669],[106.28858,17.15506],[106.28108,17.16838],[106.27711,17.17053],[106.26793,17.17852],[106.2616,17.1872],[106.25833,17.19423],[106.25694,17.1995],[106.24809,17.19893],[106.23872,17.20016],[106.2103,17.21138],[106.20338,17.21566],[106.19222,17.22554],[106.18628,17.22971],[106.17636,17.23394],[106.16352,17.24198],[106.15395,17.25023],[106.1502,17.25531],[106.14589,17.25687],[106.13621,17.26258],[106.12815,17.26976],[106.11768,17.27525],[106.10949,17.28264],[106.10655,17.28651],[106.10224,17.29262],[106.09828,17.3018],[106.09435,17.30422],[106.08963,17.30863],[106.07001,17.31983],[106.05866,17.32844],[105.83768,17.5776],[105.82623,17.58308],[105.82135,17.58718],[105.81133,17.59151],[105.80417,17.59674],[105.79852,17.6028],[105.79376,17.60484],[105.78675,17.60947],[105.77607,17.61863],[105.77023,17.62246],[105.75883,17.62138],[105.74821,17.62245],[105.73696,17.62509],[105.72865,17.62841],[105.72114,17.63319],[105.71472,17.63926],[105.70962,17.6464],[105.70603,17.65434],[105.70408,17.66279],[105.70114,17.68611],[105.69386,17.69274],[105.68851,17.70026],[105.68346,17.71189],[105.68193,17.71975],[105.67328,17.72531],[105.65736,17.74068],[105.65167,17.74875],[105.64811,17.75735],[105.63863,17.76667],[105.63329,17.77509],[105.62965,17.78475],[105.62838,17.79496],[105.62915,17.80666],[105.63108,17.81364],[105.62304,17.81585],[105.61288,17.82087],[105.60428,17.8281],[105.59442,17.83971],[105.58386,17.84645],[105.57775,17.85278],[105.57174,17.86089],[105.56707,17.86987],[105.56358,17.87846]]],[[[107.38841,17.13348],[107.37913,17.12116],[107.37304,17.11533],[107.36594,17.11067],[107.35742,17.10705],[107.34865,17.10515],[107.33966,17.1049],[107.32851,17.10691],[107.31422,17.112],[107.30664,17.11686],[107.30018,17.12303],[107.29265,17.13271],[107.28879,17.14074],[107.28543,17.1519],[107.28479,17.15989],[107.28565,17.1698],[107.28801,17.17844],[107.29125,17.18515],[107.29636,17.19219],[107.30512,17.2006],[107.31295,17.20568],[107.32634,17.21035],[107.34053,17.21169],[107.35283,17.20997],[107.36204,17.20681],[107.36878,17.20305],[107.37702,17.19659],[107.38264,17.19058],[107.38933,17.17942],[107.3938,17.16718],[107.39504,17.1582],[107.39439,17.14916],[107.39189,17.14043],[107.38841,17.13348]]],[[[106.63356,17.88327],[106.62905,17.88971],[106.62575,17.8968],[106.62376,17.90432],[106.62314,17.91221],[106.62426,17.92162],[106.62748,17.93078],[106.63441,17.94126],[106.64272,17.94893],[106.6514,17.95399],[106.66058,17.95712],[106.67006,17.95865],[106.68283,17.95794],[106.69098,17.95572],[106.69831,17.95228],[106.70491,17.94768],[106.71058,17.94205],[106.71531,17.93547],[106.7186,17.92859],[106.72071,17.92098],[106.72147,17.91352],[106.7209,17.90585],[106.71889,17.89799],[106.71535,17.89042],[106.70964,17.88266],[106.70237,17.87621],[106.69368,17.8713],[106.68078,17.86714],[106.67104,17.86625],[106.66118,17.86714],[106.65266,17.86962],[106.64543,17.87315],[106.63911,17.87768],[106.63356,17.88327]]]]}}]}