{"type":"FeatureCollection","features":[{"type":"Feature","geometry":{"type":"MultiPolygon","coordinates":[[[[106.625906,17.46557],[106.626099,17.465175],[106.626651,17.465421],[106.626459,17.465815],[106.625906,17.46557]]]]},"properties":{"group":"mall","tag":"shop=mall","name":"Vincom Plaza Đồng Hới","levels":null,"lat":17.4654952470139,"lng":106.62627888165147,"osm_type":"way","osm_id":87200677}},{"type":"Feature","geometry":{"type":"MultiPolygon","coordinates":[[[[107.099891,16.823113],[107.101725,16.821388],[107.102386,16.821993],[107.10145,16.822841],[107.101066,16.823195],[107.100624,16.823511],[107.100539,16.823513],[107.100457,16.823548],[107.100392,16.823547],[107.100343,16.82353],[107.100301,16.823497],[107.099891,16.823113]]]]},"properties":{"group":"public","tag":"leisure=park","name":"Công viên Lê Duẩn","levels":null,"lat":16.822519605342137,"lng":107.10114734106462,"osm_type":"way","osm_id":150456654}},{"type":"Feature","geometry":{"type":"MultiPolygon","coordinates":[[[[107.194537,16.709998],[107.195249,16.707162],[107.195628,16.707251],[107.19493,16.710086],[107.194537,16.709998]]]]},"properties":{"group":"public","tag":"leisure=park","name":"Công trường Mân Côi","levels":null,"lat":16.708632482853492,"lng":107.19508370782623,"osm_type":"way","osm_id":305408029}},{"type":"Feature","geometry":{"type":"MultiPolygon","coordinates":[[[[107.183378,16.741105],[107.183384,16.741096],[107.183394,16.741088],[107.1839,16.740996],[107.183929,16.740993],[107.183937,16.741],[107.183937,16.741009],[107.183929,16.741022],[107.183488,16.741343],[107.183462,16.741347],[107.183449,16.741337],[107.183442,16.741321],[107.183382,16.741127],[107.183378,16.741105]]]]},"properties":{"group":"public","tag":"leisure=park","name":null,"levels":null,"lat":16.741146592204625,"lng":107.18360263763498,"osm_type":"way","osm_id":314831853}},{"type":"Feature","geometry":{"type":"MultiPolygon","coordinates":[[[[107.095374,16.829365],[107.09539,16.829328],[107.09586,16.828785],[107.09604,16.828936],[107.096098,16.828996],[107.096142,16.829083],[107.096152,16.829141],[107.096144,16.829165],[107.096109,16.829189],[107.096052,16.829208],[107.095951,16.82924],[107.095494,16.829435],[107.095432,16.829439],[107.095401,16.829421],[107.095374,16.829393],[107.095374,16.829365]]]]},"properties":{"group":"public","tag":"leisure=park","name":null,"levels":null,"lat":16.829135974684945,"lng":107.09578286027063,"osm_type":"way","osm_id":318552974}},{"type":"Feature","geometry":{"type":"MultiPolygon","coordinates":[[[[107.1003,16.816105],[107.10057,16.815484],[107.101345,16.81579],[107.100949,16.81645],[107.1003,16.816105]]]]},"properties":{"group":"edu_health","tag":"amenity=school","name":"Trường Tiểu học Hùng Vương","levels":null,"lat":16.815954339845195,"lng":107.10080157436667,"osm_type":"way","osm_id":318553036}},{"type":"Feature","geometry":{"type":"MultiPolygon","coordinates":[[[[107.097288,16.82032],[107.097817,16.820169],[107.097707,16.820262],[107.09763,16.82037],[107.0975,16.820496],[107.097398,16.820583],[107.097373,16.820532],[107.097288,16.82032]]]]},"properties":{"group":"public","tag":"leisure=park","name":null,"levels":null,"lat":16.82036264837629,"lng":107.09749854934155,"osm_type":"way","osm_id":318667454}},{"type":"Feature","geometry":{"type":"MultiPolygon","coordinates":[[[[107.108119,16.81099],[107.109547,16.809428],[107.109634,16.809379],[107.109715,16.809367],[107.110551,16.810136],[107.110228,16.810504],[107.109095,16.811854],[107.108119,16.81099]]]]},"properties":{"group":"edu_health","tag":"amenity=hospital","name":"Trung tâm Y tế khu vực Đông Hà","levels":null,"lat":16.81058303030805,"lng":107.10934282620431,"osm_type":"way","osm_id":318667456}},{"type":"Feature","geometry":{"type":"MultiPolygon","coordinates":[[[[107.10628,16.823117],[107.106302,16.822023],[107.107438,16.82267],[107.107223,16.823154],[107.10628,16.823117]]]]},"properties":{"group":"edu_health","tag":"amenity=school","name":"Trường Trung học cơ sở Nguyễn Tri Phương","levels":null,"lat":16.82270498413753,"lng":107.10675604338803,"osm_type":"way","osm_id":318667463}},{"type":"Feature","geometry":{"type":"MultiPolygon","coordinates":[[[[107.109889,16.809105],[107.110612,16.808361],[107.111281,16.808819],[107.111115,16.809043],[107.111669,16.809504],[107.11104,16.810244],[107.110404,16.809748],[107.110511,16.809645],[107.109889,16.809105]]]]},"properties":{"group":"edu_health","tag":"amenity=school","name":"Trường Trung học phổ thông số 1 Lê Lợi","levels":null,"lat":16.809287105131382,"lng":107.11079629498562,"osm_type":"way","osm_id":318667464}},{"type":"Feature","geometry":{"type":"MultiPolygon","coordinates":[[[[107.094449,16.81439],[107.09598,16.814022],[107.09616,16.814827],[107.095689,16.814909],[107.095679,16.814844],[107.094622,16.815078],[107.094449,16.81439]]]]},"properties":{"group":"edu_health","tag":"amenity=school","name":"Trường Trung học phổ thông Đông Hà","levels":null,"lat":16.814564404807342,"lng":107.09532240639909,"osm_type":"way","osm_id":318667465}},{"type":"Feature","geometry":{"type":"MultiPolygon","coordinates":[[[[107.099477,16.817718],[107.099486,16.817683],[107.09968,16.817252],[107.099739,16.817231],[107.099782,16.817238],[107.100007,16.817342],[107.100031,16.817374],[107.100027,16.817396],[107.099807,16.817876],[107.099792,16.817885],[107.099764,16.817884],[107.099575,16.817804],[107.099524,16.817774],[107.099487,16.817749],[107.099477,16.817718]]]]},"properties":{"group":"public","tag":"leisure=park","name":null,"levels":null,"lat":16.81755310855921,"lng":107.09975099614013,"osm_type":"way","osm_id":318667953}},{"type":"Feature","geometry":{"type":"MultiPolygon","coordinates":[[[[107.115418,16.812378],[107.115794,16.811886],[107.116572,16.81229],[107.116221,16.812752],[107.116053,16.812704],[107.115926,16.812689],[107.115418,16.812378]]]]},"properties":{"group":"edu_health","tag":"amenity=school","name":"Trường Tiểu học Đông Lễ","levels":null,"lat":16.812338552875545,"lng":107.11598888803577,"osm_type":"way","osm_id":318667955}},{"type":"Feature","geometry":{"type":"MultiPolygon","coordinates":[[[[106.64117,17.404342],[106.641779,17.404031],[106.642058,17.404622],[106.641438,17.40485],[106.64117,17.404342]]]]},"properties":{"group":"public","tag":"leisure=park","name":null,"levels":null,"lat":17.40445657233797,"lng":106.64161699117727,"osm_type":"way","osm_id":367074115}},{"type":"Feature","geometry":{"type":"MultiPolygon","coordinates":[[[[106.622693,17.472673],[106.62315,17.471553],[106.62323,17.471512],[106.623933,17.471723],[106.623972,17.471752],[106.623918,17.471998],[106.623727,17.472647],[106.623601,17.472895],[106.623553,17.472897],[106.622717,17.472706],[106.622693,17.472673]]]]},"properties":{"group":"edu_health","tag":"amenity=school","name":"Trường Trung học phổ thông Đào Duy Từ","levels":null,"lat":17.47222412382279,"lng":106.62336286223912,"osm_type":"way","osm_id":367076352}},{"type":"Feature","geometry":{"type":"MultiPolygon","coordinates":[[[[106.571084,17.450146],[106.571271,17.449915],[106.571395,17.449858],[106.572361,17.449717],[106.573229,17.449582],[106.573292,17.449601],[106.573294,17.449645],[106.573279,17.449669],[106.573247,17.449679],[106.572795,17.449805],[106.57193,17.449976],[106.571523,17.450069],[106.571168,17.450151],[106.571087,17.450162],[106.571084,17.450146]]]]},"properties":{"group":"public","tag":"leisure=park","name":null,"levels":null,"lat":17.449853002565032,"lng":106.57210044141017,"osm_type":"way","osm_id":367227181}},{"type":"Feature","geometry":{"type":"MultiPolygon","coordinates":[[[[106.969102,17.175286],[106.969228,17.17524],[106.969275,17.175355],[106.969349,17.175535],[106.969234,17.175583],[106.969159,17.175427],[106.969102,17.175286]]]]},"properties":{"group":"edu_health","tag":"amenity=hospital","name":"Trạm y tế Ngư Thủ nam","levels":null,"lat":17.175409958372395,"lng":106.96922600068933,"osm_type":"way","osm_id":688106149}},{"type":"Feature","geometry":{"type":"MultiPolygon","coordinates":[[[[107.171898,16.854861],[107.171956,16.854634],[107.172231,16.854699],[107.172173,16.854925],[107.171898,16.854861]]]]},"properties":{"group":"public","tag":"amenity=community_centre","name":"Hội Trường Cao Hy","levels":null,"lat":16.854779899999997,"lng":107.1720647,"osm_type":"way","osm_id":833213413}},{"type":"Feature","geometry":{"type":"MultiPolygon","coordinates":[[[[107.167745,16.853714],[107.167878,16.853192],[107.169146,16.853632],[107.16889,16.85429],[107.168261,16.854049],[107.168184,16.854233],[107.167855,16.854092],[107.167914,16.853908],[107.167841,16.853878],[107.167745,16.853714]]]]},"properties":{"group":"edu_health","tag":"amenity=school","name":"Trường Trung học cơ sở Triệu Phước","levels":null,"lat":16.853761054989874,"lng":107.1683940120027,"osm_type":"way","osm_id":833214756}},{"type":"Feature","geometry":{"type":"MultiPolygon","coordinates":[[[[106.584774,16.742849],[106.585635,16.742663],[106.585893,16.743506],[106.585407,16.743616],[106.585026,16.743749],[106.584774,16.742849]]]]},"properties":{"group":"edu_health","tag":"amenity=school","name":"Trường PTDTBT Trung học cơ sở Hướng Phùng","levels":null,"lat":16.74318848647233,"lng":106.58532668510693,"osm_type":"way","osm_id":860365747}},{"type":"Feature","geometry":{"type":"MultiPolygon","coordinates":[[[[106.582057,16.742581],[106.582623,16.74257],[106.58264,16.742616],[106.58289,16.743281],[106.583114,16.743878],[106.582269,16.743752],[106.582057,16.742581]]]]},"properties":{"group":"edu_health","tag":"amenity=school","name":"Trường Trung học phổ thông Hướng Phùng","levels":null,"lat":16.743231772495854,"lng":106.58253157692779,"osm_type":"way","osm_id":860365748}},{"type":"Feature","geometry":{"type":"MultiPolygon","coordinates":[[[[106.717163,16.469076],[106.717679,16.468891],[106.717988,16.469683],[106.717783,16.469757],[106.717437,16.46983],[106.717327,16.469497],[106.717163,16.469076]]]]},"properties":{"group":"edu_health","tag":"amenity=school","name":"Trường Trung học cơ sở A Túc","levels":null,"lat":16.4693749236342,"lng":106.71757427632804,"osm_type":"way","osm_id":866268909}},{"type":"Feature","geometry":{"type":"MultiPolygon","coordinates":[[[[106.716555,16.47178],[106.716644,16.47085],[106.717135,16.470893],[106.717046,16.471823],[106.716555,16.47178]]]]},"properties":{"group":"edu_health","tag":"amenity=school","name":"Trường Trung học phổ thông A Túc","levels":null,"lat":16.4713366,"lng":106.71684485,"osm_type":"way","osm_id":866268914}},{"type":"Feature","geometry":{"type":"MultiPolygon","coordinates":[[[[106.717157,16.471846],[106.717224,16.470987],[106.717621,16.47099],[106.717607,16.47112],[106.717471,16.471874],[106.717157,16.471846]]]]},"properties":{"group":"edu_health","tag":"amenity=school","name":"Trường Tiểu học A Túc","levels":null,"lat":16.471407332591834,"lng":106.71737360165014,"osm_type":"way","osm_id":866268918}},{"type":"Feature","geometry":{"type":"MultiPolygon","coordinates":[[[[106.731287,16.62473],[106.731288,16.624287],[106.731291,16.624247],[106.731294,16.624213],[106.731459,16.623803],[106.731562,16.623529],[106.732529,16.623986],[106.732183,16.624689],[106.731996,16.625034],[106.731617,16.624881],[106.731499,16.624826],[106.731287,16.62473]]]]},"properties":{"group":"edu_health","tag":"amenity=hospital","name":"Bệnh viện Đa khoa khu vực Hướng Hóa","levels":null,"lat":16.624285112325598,"lng":106.73182682557034,"osm_type":"way","osm_id":866849180}},{"type":"Feature","geometry":{"type":"MultiPolygon","coordinates":[[[[106.739805,16.633058],[106.739827,16.632539],[106.739861,16.632521],[106.73988,16.632514],[106.739911,16.632453],[106.740459,16.632411],[106.740481,16.632613],[106.740515,16.632834],[106.740306,16.632859],[106.740337,16.63301],[106.740121,16.633029],[106.739805,16.633058]]]]},"properties":{"group":"edu_health","tag":"amenity=school","name":"Trường Tiểu học số 2 Khe Sanh","levels":null,"lat":16.63272460825642,"lng":106.74013617902689,"osm_type":"way","osm_id":866849190}},{"type":"Feature","geometry":{"type":"MultiPolygon","coordinates":[[[[106.734731,16.621526],[106.734785,16.621295],[106.734898,16.620964],[106.734981,16.620723],[106.736347,16.621013],[106.736169,16.621987],[106.735616,16.621845],[106.735305,16.621773],[106.735241,16.621742],[106.735127,16.621721],[106.734851,16.621725],[106.734753,16.621709],[106.734731,16.621526]]]]},"properties":{"group":"edu_health","tag":"amenity=school","name":"Trường PTDTNT Hướng Hóa","levels":null,"lat":16.621345235681094,"lng":106.73554441843147,"osm_type":"way","osm_id":866849210}},{"type":"Feature","geometry":{"type":"MultiPolygon","coordinates":[[[[106.735072,16.622447],[106.735354,16.621861],[106.736158,16.622084],[106.736149,16.622983],[106.736125,16.623065],[106.736096,16.623102],[106.73606,16.62313],[106.736003,16.623143],[106.735142,16.623117],[106.735233,16.622494],[106.735072,16.622447]]]]},"properties":{"group":"edu_health","tag":"amenity=school","name":"Trường Trung học phổ thông Hướng Hóa","levels":null,"lat":16.622551479021254,"lng":106.73565600006413,"osm_type":"way","osm_id":866849220}},{"type":"Feature","geometry":{"type":"MultiPolygon","coordinates":[[[[106.734824,16.623822],[106.734905,16.62363],[106.734969,16.623252],[106.735615,16.623261],[106.735752,16.623256],[106.735808,16.623455],[106.735754,16.623795],[106.735576,16.623939],[106.73551,16.624088],[106.734824,16.623822]]]]},"properties":{"group":"edu_health","tag":"amenity=school","name":"Trường Trung học cơ sở Khe Sanh","levels":null,"lat":16.623613246105112,"lng":106.73534248016858,"osm_type":"way","osm_id":866849224}},{"type":"Feature","geometry":{"type":"MultiPolygon","coordinates":[[[[106.741377,16.635245],[106.741382,16.635221],[106.741435,16.635103],[106.741446,16.635087],[106.74146,16.63508],[106.74148,16.63508],[106.741504,16.635098],[106.741529,16.635128],[106.741562,16.635208],[106.741566,16.635231],[106.741562,16.63524],[106.741547,16.635245],[106.741403,16.63526],[106.741386,16.635256],[106.741377,16.635245]]]]},"properties":{"group":"public","tag":"leisure=park","name":null,"levels":null,"lat":16.635182966346978,"lng":106.7414723336662,"osm_type":"way","osm_id":867317093}},{"type":"Feature","geometry":{"type":"MultiPolygon","coordinates":[[[[106.735151,16.627179],[106.735253,16.62677],[106.736003,16.627104],[106.73587,16.627519],[106.73552,16.627356],[106.735407,16.627564],[106.735329,16.627525],[106.735425,16.627332],[106.735217,16.627252],[106.735213,16.627215],[106.735151,16.627179]]]]},"properties":{"group":"edu_health","tag":"amenity=school","name":"Trung tâm Bồi dưỡng chính trị huyện Hướng Hóa","levels":null,"lat":16.627163183121993,"lng":106.73555849631516,"osm_type":"way","osm_id":867317100}},{"type":"Feature","geometry":{"type":"MultiPolygon","coordinates":[[[[106.73491,16.627752],[106.735055,16.627453],[106.735548,16.627673],[106.735402,16.627972],[106.73491,16.627752]]]]},"properties":{"group":"edu_health","tag":"amenity=school","name":"Trường Mầm non Bình Minh","levels":null,"lat":16.62771236793688,"lng":106.73522888969607,"osm_type":"way","osm_id":867317101}},{"type":"Feature","geometry":{"type":"MultiPolygon","coordinates":[[[[106.735395,16.628323],[106.735682,16.627757],[106.736109,16.627938],[106.735836,16.628404],[106.735792,16.628431],[106.735749,16.628439],[106.735722,16.628443],[106.735608,16.628434],[106.735395,16.628323]]]]},"properties":{"group":"edu_health","tag":"amenity=school","name":"Trường Tiểu học số 1 Khe Sanh","levels":null,"lat":16.62812063550039,"lng":106.73574285636273,"osm_type":"way","osm_id":867317103}},{"type":"Feature","geometry":{"type":"MultiPolygon","coordinates":[[[[106.707986,16.620518],[106.708109,16.620434],[106.7086,16.620386],[106.708538,16.621009],[106.708931,16.621027],[106.708959,16.621401],[106.708031,16.621414],[106.707998,16.620978],[106.707986,16.620518]]]]},"properties":{"group":"edu_health","tag":"amenity=school","name":"Trường Tiểu học Tân Liên","levels":null,"lat":16.62097010414279,"lng":106.70838521120281,"osm_type":"way","osm_id":868661265}},{"type":"Feature","geometry":{"type":"MultiPolygon","coordinates":[[[[106.708901,16.620182],[106.708912,16.619922],[106.709046,16.619911],[106.709068,16.619496],[106.70959,16.619534],[106.709636,16.62022],[106.708903,16.620246],[106.708901,16.620182]]]]},"properties":{"group":"edu_health","tag":"amenity=school","name":"Trường Trung học cơ sở Tân Liên","levels":null,"lat":16.61990102026513,"lng":106.70929266742174,"osm_type":"way","osm_id":868661269}},{"type":"Feature","geometry":{"type":"MultiPolygon","coordinates":[[[[106.597193,17.454697],[106.59815,17.453596],[106.600225,17.452869],[106.600793,17.453403],[106.600653,17.453655],[106.600814,17.453881],[106.601038,17.454134],[106.601258,17.454417],[106.601472,17.454824],[106.601545,17.455113],[106.601532,17.455293],[106.601506,17.455432],[106.601407,17.455591],[106.601245,17.455726],[106.600471,17.456233],[106.599859,17.45665],[106.59962,17.456332],[106.600085,17.455958],[106.599462,17.455627],[106.59929,17.455637],[106.599092,17.455496],[106.598713,17.455791],[106.598358,17.455502],[106.598235,17.455536],[106.597193,17.454697]]]]},"properties":{"group":"edu_health","tag":"amenity=college","name":"Trường Cao đẳng Kỹ thuật Công - Nông nghiệp Quảng Trị","levels":null,"lat":17.45463014670954,"lng":106.59958839754074,"osm_type":"way","osm_id":880782265}},{"type":"Feature","geometry":{"type":"MultiPolygon","coordinates":[[[[106.58464,17.467363],[106.585495,17.466174],[106.586222,17.465137],[106.587954,17.465816],[106.587241,17.467095],[106.586867,17.467811],[106.586093,17.468177],[106.58464,17.467363]]]]},"properties":{"group":"edu_health","tag":"amenity=college","name":"Trường Trung cấp nghề Quảng Trị","levels":null,"lat":17.466681267580835,"lng":106.5863242420243,"osm_type":"way","osm_id":880797450}},{"type":"Feature","geometry":{"type":"MultiPolygon","coordinates":[[[[106.496793,17.946994],[106.496891,17.946788],[106.49763,17.947108],[106.497532,17.947314],[106.496793,17.946994]]]]},"properties":{"group":"public","tag":"leisure=park","name":null,"levels":null,"lat":17.947051010571393,"lng":106.49721173891582,"osm_type":"way","osm_id":884168608}},{"type":"Feature","geometry":{"type":"MultiPolygon","coordinates":[[[[106.606569,17.476258],[106.606716,17.474291],[106.606872,17.474304],[106.607727,17.474361],[106.607591,17.476324],[106.606569,17.476258]]]]},"properties":{"group":"edu_health","tag":"amenity=school","name":"Trường Trung học phổ thông chuyên Võ Nguyên Giáp","levels":null,"lat":17.475310548917857,"lng":106.60715017852017,"osm_type":"way","osm_id":941166729}},{"type":"Feature","geometry":{"type":"MultiPolygon","coordinates":[[[[106.599075,17.474261],[106.599108,17.474145],[106.599638,17.4737],[106.599912,17.473509],[106.600089,17.473345],[106.600281,17.473306],[106.602138,17.473327],[106.60232,17.473549],[106.602314,17.474142],[106.602309,17.474687],[106.601781,17.475375],[106.599088,17.475318],[106.599075,17.474261]]]]},"properties":{"group":"edu_health","tag":"amenity=hospital","name":"Bệnh viện Hữu nghị Việt Nam - Cuba Đồng Hới","levels":null,"lat":17.474366684948258,"lng":106.60075058604424,"osm_type":"way","osm_id":941166733}},{"type":"Feature","geometry":{"type":"MultiPolygon","coordinates":[[[[106.622458,17.459886],[106.623448,17.459551],[106.6239,17.460841],[106.622925,17.461183],[106.622458,17.459886]]]]},"properties":{"group":"edu_health","tag":"amenity=school","name":"Trường Trung học cơ sở Hải Đình","levels":null,"lat":17.46036457591474,"lng":106.62318169857431,"osm_type":"way","osm_id":941172724}},{"type":"Feature","geometry":{"type":"MultiPolygon","coordinates":[[[[106.623218,17.463697],[106.62341,17.463589],[106.623442,17.463615],[106.623461,17.463635],[106.623452,17.463732],[106.623424,17.463862],[106.623218,17.463697]]]]},"properties":{"group":"public","tag":"leisure=park","name":null,"levels":null,"lat":17.463712431352107,"lng":106.62336888880957,"osm_type":"way","osm_id":941172729}},{"type":"Feature","geometry":{"type":"MultiPolygon","coordinates":[[[[106.620865,17.453147],[106.621869,17.453079],[106.621914,17.454064],[106.620917,17.454125],[106.620865,17.453147]]]]},"properties":{"group":"edu_health","tag":"amenity=hospital","name":"Bệnh viện Đa khoa khu vực Đồng Hới","levels":null,"lat":17.453603021554503,"lng":106.6213918245863,"osm_type":"way","osm_id":941174076}},{"type":"Feature","geometry":{"type":"MultiPolygon","coordinates":[[[[106.619627,17.452261],[106.61999,17.452202],[106.620146,17.45236],[106.620273,17.452497],[106.620442,17.452714],[106.620496,17.45286],[106.620287,17.452894],[106.620349,17.453245],[106.619817,17.453331],[106.619627,17.452261]]]]},"properties":{"group":"edu_health","tag":"amenity=school","name":"Trường Trung học cơ sở Đức Ninh Đông","levels":null,"lat":17.452765353435392,"lng":106.62001802667567,"osm_type":"way","osm_id":941372417}},{"type":"Feature","geometry":{"type":"MultiPolygon","coordinates":[[[[106.624494,17.459259],[106.624504,17.459256],[106.62483,17.459374],[106.62484,17.459385],[106.624838,17.459396],[106.624583,17.459473],[106.624572,17.459456],[106.624497,17.459275],[106.624494,17.459259]]]]},"properties":{"group":"public","tag":"leisure=playground","name":null,"levels":null,"lat":17.45937063290325,"lng":106.62464288367667,"osm_type":"way","osm_id":941372426}},{"type":"Feature","geometry":{"type":"MultiPolygon","coordinates":[[[[106.621503,17.457794],[106.621544,17.45773],[106.622071,17.457539],[106.622119,17.457561],[106.623051,17.457185],[106.623067,17.457137],[106.623276,17.457053],[106.623489,17.456937],[106.623694,17.456782],[106.623848,17.456629],[106.623898,17.456575],[106.624055,17.456336],[106.62417,17.456045],[106.624203,17.455885],[106.624235,17.455669],[106.624233,17.455494],[106.624218,17.455331],[106.6242,17.455236],[106.624183,17.455221],[106.624175,17.455141],[106.624082,17.454867],[106.62411,17.454827],[106.623875,17.45409],[106.623826,17.454072],[106.623667,17.453609],[106.623956,17.453525],[106.624077,17.45403],[106.624188,17.45444],[106.624292,17.45483],[106.624372,17.455177],[106.624407,17.455296],[106.62442,17.455362],[106.624426,17.455487],[106.624428,17.455746],[106.62438,17.456009],[106.62429,17.456277],[106.624194,17.456463],[106.624091,17.456627],[106.623901,17.456846],[106.623492,17.457198],[106.623244,17.457293],[106.622688,17.4575],[106.621546,17.457918],[106.621503,17.457794]]]]},"properties":{"group":"public","tag":"leisure=park","name":null,"levels":null,"lat":17.455992252694976,"lng":106.6235838691961,"osm_type":"way","osm_id":941372430}},{"type":"Feature","geometry":{"type":"MultiPolygon","coordinates":[[[[106.622847,17.455068],[106.622865,17.454996],[106.622933,17.454879],[106.623003,17.454803],[106.623068,17.45476],[106.623216,17.454597],[106.623251,17.454519],[106.623379,17.454909],[106.623377,17.454933],[106.622864,17.455124],[106.622847,17.455068]]]]},"properties":{"group":"public","tag":"leisure=playground","name":null,"levels":null,"lat":17.45486946297136,"lng":106.6231302594828,"osm_type":"way","osm_id":941372431}},{"type":"Feature","geometry":{"type":"MultiPolygon","coordinates":[[[[106.606456,17.465534],[106.606532,17.46535],[106.606655,17.465193],[106.606872,17.465009],[106.60711,17.46482],[106.607379,17.464607],[106.607439,17.464621],[106.607652,17.464932],[106.607633,17.465317],[106.607675,17.465645],[106.607757,17.46586],[106.607729,17.465965],[106.607681,17.466041],[106.606474,17.465592],[106.606456,17.465534]]]]},"properties":{"group":"public","tag":"leisure=park","name":null,"levels":null,"lat":17.46536088011616,"lng":106.60720028644279,"osm_type":"way","osm_id":966725513}},{"type":"Feature","geometry":{"type":"MultiPolygon","coordinates":[[[[106.605619,17.470234],[106.605625,17.469828],[106.606266,17.469472],[106.606532,17.469906],[106.605816,17.470305],[106.605774,17.470236],[106.605619,17.470234]]]]},"properties":{"group":"mall","tag":"shop=mall","name":"Rio Plaza Đồng Hới","levels":null,"lat":17.469899670618823,"lng":106.60603075128641,"osm_type":"way","osm_id":966725515}},{"type":"Feature","geometry":{"type":"MultiPolygon","coordinates":[[[[106.674435,17.365609],[106.674446,17.365582],[106.675065,17.364932],[106.675861,17.365532],[106.675448,17.366214],[106.67461,17.365717],[106.674435,17.365609]]]]},"properties":{"group":"edu_health","tag":"amenity=hospital","name":"Bệnh viện Đa khoa khu vực Quảng Ninh","levels":null,"lat":17.365573535676248,"lng":106.67518155980854,"osm_type":"way","osm_id":969759032}},{"type":"Feature","geometry":{"type":"MultiPolygon","coordinates":[[[[106.571945,17.47664],[106.572978,17.47567],[106.573382,17.475972],[106.573713,17.475665],[106.574009,17.47593],[106.572663,17.477247],[106.571945,17.47664]]]]},"properties":{"group":"edu_health","tag":"amenity=school","name":"Kho Dự trữ Quảng Bình","levels":null,"lat":17.476390603131414,"lng":106.57292610196629,"osm_type":"way","osm_id":970128267}},{"type":"Feature","geometry":{"type":"MultiPolygon","coordinates":[[[[106.569191,17.481806],[106.569843,17.481124],[106.569979,17.481135],[106.57088,17.480223],[106.570878,17.480085],[106.57177,17.479193],[106.57184,17.4792],[106.57367,17.481042],[106.573679,17.481124],[106.572978,17.482419],[106.572899,17.48245],[106.572894,17.482462],[106.572844,17.482603],[106.572887,17.482654],[106.57285,17.482923],[106.572849,17.483179],[106.5729,17.483632],[106.5729,17.483793],[106.571579,17.483974],[106.571072,17.483514],[106.569191,17.481806]]]]},"properties":{"group":"edu_health","tag":"amenity=university","name":"Trường Đại học Luật Thành phố Hồ Chí Minh - Phân hiệu Quảng Trị","levels":null,"lat":17.481707748664554,"lng":106.57163725267998,"osm_type":"way","osm_id":970128268}},{"type":"Feature","geometry":{"type":"MultiPolygon","coordinates":[[[[106.597073,17.46518],[106.597079,17.464331],[106.598621,17.464467],[106.598429,17.465324],[106.597859,17.465306],[106.597073,17.46518]]]]},"properties":{"group":"edu_health","tag":"amenity=school","name":"Trường Trung học phổ thông Phan Đình Phùng","levels":null,"lat":17.464827406631436,"lng":106.59780480153734,"osm_type":"way","osm_id":970361434}},{"type":"Feature","geometry":{"type":"MultiPolygon","coordinates":[[[[106.598331,17.473484],[106.598518,17.472925],[106.599862,17.473003],[106.599852,17.473443],[106.599647,17.473587],[106.598594,17.473549],[106.598331,17.473484]]]]},"properties":{"group":"edu_health","tag":"amenity=school","name":"Trường Trung học cơ sở Số 2 Nam Lý","levels":null,"lat":17.47326424690283,"lng":106.59912283469247,"osm_type":"way","osm_id":970361436}},{"type":"Feature","geometry":{"type":"MultiPolygon","coordinates":[[[[106.590593,17.472098],[106.590603,17.471937],[106.59088,17.471534],[106.591724,17.47221],[106.591229,17.472708],[106.590593,17.472098]]]]},"properties":{"group":"edu_health","tag":"amenity=school","name":"Trường Trung học cơ sở số 1 Bắc Lý","levels":null,"lat":17.47212649159774,"lng":106.59110846557361,"osm_type":"way","osm_id":970361438}},{"type":"Feature","geometry":{"type":"MultiPolygon","coordinates":[[[[106.574416,17.449451],[106.575682,17.449155],[106.575926,17.451286],[106.574534,17.451422],[106.574416,17.449451]]]]},"properties":{"group":"edu_health","tag":"amenity=school","name":"Trường Trung học phổ thông Đồng Hới","levels":null,"lat":17.450341107558117,"lng":106.5751499515027,"osm_type":"way","osm_id":974512838}},{"type":"Feature","geometry":{"type":"MultiPolygon","coordinates":[[[[106.616798,17.47481],[106.617571,17.474698],[106.61773,17.475399],[106.617864,17.475987],[106.617068,17.476142],[106.616798,17.47481]]]]},"properties":{"group":"edu_health","tag":"amenity=school","name":"Trường Trung học cơ sở Đồng Phú","levels":null,"lat":17.475413817648835,"lng":106.61732443806409,"osm_type":"way","osm_id":975257975}},{"type":"Feature","geometry":{"type":"MultiPolygon","coordinates":[[[[106.60895,17.470755],[106.608982,17.469644],[106.609667,17.469662],[106.609635,17.470733],[106.609581,17.470772],[106.60895,17.470755]]]]},"properties":{"group":"edu_health","tag":"amenity=school","name":"Trường Trung cấp Du Lịch - Công Nghệ số 9","levels":null,"lat":17.470207430483224,"lng":106.6093078229168,"osm_type":"way","osm_id":975348809}},{"type":"Feature","geometry":{"type":"MultiPolygon","coordinates":[[[[106.628748,17.451831],[106.629579,17.449342],[106.6307,17.449605],[106.630338,17.45125],[106.629754,17.452297],[106.628748,17.451831]]]]},"properties":{"group":"edu_health","tag":"amenity=school","name":"Trường Trung học cơ sở-Trung học phổ thông Chu Văn An","levels":null,"lat":17.45078786078174,"lng":106.62975368587608,"osm_type":"way","osm_id":979747665}},{"type":"Feature","geometry":{"type":"MultiPolygon","coordinates":[[[[106.596144,17.483808],[106.596261,17.482851],[106.596847,17.482879],[106.596972,17.483388],[106.597185,17.483394],[106.597068,17.483909],[106.596144,17.483808]]]]},"properties":{"group":"edu_health","tag":"amenity=school","name":"Trường Trung học cơ sở số 2 Bắc Lý","levels":null,"lat":17.48340998100279,"lng":106.59662209596067,"osm_type":"way","osm_id":994105228}},{"type":"Feature","geometry":{"type":"MultiPolygon","coordinates":[[[[106.604815,17.475134],[106.605469,17.475166],[106.605413,17.47613],[106.604851,17.476091],[106.604826,17.476056],[106.604815,17.475134]]]]},"properties":{"group":"edu_health","tag":"amenity=hospital","name":"Bệnh viện Y học cổ truyền và Phục hồi chức năng Bắc Quảng Trị","levels":null,"lat":17.475620934992804,"lng":106.60513173174391,"osm_type":"way","osm_id":1023580841}},{"type":"Feature","geometry":{"type":"MultiPolygon","coordinates":[[[[106.604815,17.475134],[106.604837,17.474771],[106.605483,17.4748],[106.605469,17.475166],[106.604815,17.475134]]]]},"properties":{"group":"edu_health","tag":"amenity=hospital","name":"Bệnh viện Mắt Bắc Quảng Trị","levels":null,"lat":17.474968292467263,"lng":106.60515128155474,"osm_type":"way","osm_id":1023580842}},{"type":"Feature","geometry":{"type":"MultiPolygon","coordinates":[[[[106.615202,17.46271],[106.615256,17.462493],[106.615305,17.462327],[106.615348,17.462203],[106.615412,17.462063],[106.615461,17.462004],[106.615511,17.462007],[106.616146,17.46267],[106.615617,17.463137],[106.615202,17.46271]]]]},"properties":{"group":"public","tag":"leisure=park","name":null,"levels":null,"lat":17.462588394391787,"lng":106.61561643482578,"osm_type":"way","osm_id":1051314842}},{"type":"Feature","geometry":{"type":"MultiPolygon","coordinates":[[[[106.614906,17.463483],[106.61492,17.463451],[106.61498,17.463348],[106.615079,17.463159],[106.615128,17.463011],[106.615167,17.462821],[106.615253,17.4629],[106.615139,17.463171],[106.615305,17.46323],[106.61544,17.463303],[106.615109,17.463625],[106.615065,17.46366],[106.614906,17.463483]]]]},"properties":{"group":"public","tag":"leisure=park","name":null,"levels":null,"lat":17.463328813927134,"lng":106.61514735271908,"osm_type":"way","osm_id":1051314843}},{"type":"Feature","geometry":{"type":"MultiPolygon","coordinates":[[[[106.607807,17.476297],[106.607809,17.475948],[106.607889,17.474571],[106.60799,17.471089],[106.608002,17.470783],[106.609713,17.470819],[106.609565,17.470992],[106.609481,17.471119],[106.609363,17.471295],[106.609169,17.47162],[106.609039,17.471999],[106.608945,17.472404],[106.60894,17.472879],[106.608981,17.473191],[106.609072,17.473492],[106.609223,17.473854],[106.60941,17.474172],[106.609631,17.474462],[106.609952,17.474836],[106.610243,17.475191],[106.610479,17.475562],[106.610567,17.475803],[106.610588,17.476173],[106.61058,17.476475],[106.60982,17.476412],[106.609424,17.476386],[106.608597,17.47634],[106.607807,17.476297]]]]},"properties":{"group":"public","tag":"leisure=park","name":"Công viên Trung Tâm Thành Phố","levels":null,"lat":17.474088193634667,"lng":106.60884830797487,"osm_type":"way","osm_id":1056249325}},{"type":"Feature","geometry":{"type":"MultiPolygon","coordinates":[[[[107.095617,16.790272],[107.095649,16.789301],[107.095665,16.789214],[107.09573,16.786354],[107.095821,16.786153],[107.099356,16.786312],[107.099394,16.786369],[107.099308,16.787982],[107.098744,16.790313],[107.098653,16.790401],[107.09757,16.790385],[107.097516,16.790329],[107.097044,16.790318],[107.096996,16.790375],[107.095724,16.790334],[107.095617,16.790272]]]]},"properties":{"group":"edu_health","tag":"amenity=university","name":"Phân hiệu Đại học Huế tại Quảng Trị","levels":null,"lat":16.788240338985496,"lng":107.09741907718357,"osm_type":"way","osm_id":1078527258}},{"type":"Feature","geometry":{"type":"MultiPolygon","coordinates":[[[[106.539938,17.485067],[106.540111,17.485048],[106.540392,17.485014],[106.540845,17.484914],[106.541203,17.484789],[106.541642,17.484585],[106.541683,17.484603],[106.541705,17.484635],[106.541712,17.484998],[106.541732,17.485175],[106.541774,17.485346],[106.539944,17.485081],[106.539938,17.485067]]]]},"properties":{"group":"public","tag":"leisure=park","name":null,"levels":null,"lat":17.485021948435385,"lng":106.54117297208013,"osm_type":"way","osm_id":1079053670}},{"type":"Feature","geometry":{"type":"MultiPolygon","coordinates":[[[[107.074783,16.810918],[107.075688,16.810491],[107.076105,16.811141],[107.076557,16.810913],[107.07687,16.811302],[107.076855,16.811394],[107.076869,16.811493],[107.076916,16.811657],[107.076924,16.81175],[107.076894,16.811853],[107.076814,16.811958],[107.07649,16.812295],[107.076839,16.812676],[107.07614,16.813343],[107.075863,16.813394],[107.075665,16.812985],[107.075898,16.812721],[107.075045,16.81166],[107.074783,16.810918]]]]},"properties":{"group":"edu_health","tag":"amenity=college","name":"Trường Cao đẳng Sư phạm Quảng Trị","levels":null,"lat":16.81181049848005,"lng":107.07594822124531,"osm_type":"way","osm_id":1084960040}},{"type":"Feature","geometry":{"type":"MultiPolygon","coordinates":[[[[106.567937,17.483157],[106.568164,17.48284],[106.568517,17.482458],[106.569191,17.481806],[106.571072,17.483514],[106.570431,17.484077],[106.570316,17.484133],[106.570198,17.484161],[106.569479,17.484293],[106.569329,17.484302],[106.569194,17.484291],[106.567937,17.483157]]]]},"properties":{"group":"edu_health","tag":"amenity=school","name":"Trường Cao Đẳng Y Tế Quảng Trị Cơ Sở 2","levels":null,"lat":17.483212163914654,"lng":106.56944656428911,"osm_type":"way","osm_id":1085506312}},{"type":"Feature","geometry":{"type":"MultiPolygon","coordinates":[[[[107.187347,16.771964],[107.188291,16.771934],[107.188327,16.772904],[107.187403,16.772961],[107.187352,16.772352],[107.187347,16.771964]]]]},"properties":{"group":"edu_health","tag":"amenity=school","name":"Trường Trung học cơ sở Triệu Thành","levels":null,"lat":16.772439101667477,"lng":107.18783568316321,"osm_type":"way","osm_id":1091537235}},{"type":"Feature","geometry":{"type":"MultiPolygon","coordinates":[[[[107.189248,16.769027],[107.190069,16.768699],[107.190101,16.768958],[107.190179,16.768958],[107.190189,16.769582],[107.189304,16.769626],[107.189248,16.769027]]]]},"properties":{"group":"edu_health","tag":"amenity=school","name":"Trường Tiểu học Triệu Thành","levels":null,"lat":16.769227469120327,"lng":107.18974520585411,"osm_type":"way","osm_id":1091537238}},{"type":"Feature","geometry":{"type":"MultiPolygon","coordinates":[[[[106.728108,17.367437],[106.728773,17.366792],[106.729234,17.367225],[106.729453,17.367431],[106.728789,17.368076],[106.728108,17.367437]]]]},"properties":{"group":"edu_health","tag":"amenity=school","name":"Trường Tiểu học Hải Ninh","levels":null,"lat":17.36743402620539,"lng":106.72878074277081,"osm_type":"way","osm_id":1114773644}},{"type":"Feature","geometry":{"type":"MultiPolygon","coordinates":[[[[106.730818,17.365863],[106.731137,17.365363],[106.731188,17.365368],[106.731816,17.365728],[106.73163,17.366023],[106.731493,17.366187],[106.731388,17.366195],[106.730818,17.365863]]]]},"properties":{"group":"edu_health","tag":"amenity=school","name":"Trường Trung học cơ sở Hải Ninh","levels":null,"lat":17.36579198865968,"lng":106.73131462081562,"osm_type":"way","osm_id":1114773645}},{"type":"Feature","geometry":{"type":"MultiPolygon","coordinates":[[[[106.729334,17.367714],[106.729562,17.367493],[106.729924,17.367834],[106.729695,17.368055],[106.729334,17.367714]]]]},"properties":{"group":"edu_health","tag":"amenity=hospital","name":"Trạm Y tế xã Hải Ninh","levels":null,"lat":17.36777408418116,"lng":106.7296287041526,"osm_type":"way","osm_id":1114773647}},{"type":"Feature","geometry":{"type":"MultiPolygon","coordinates":[[[[106.73013,17.365604],[106.730277,17.365392],[106.730632,17.364863],[106.730917,17.365081],[106.730793,17.365255],[106.73094,17.365352],[106.730613,17.365805],[106.730403,17.365666],[106.730355,17.365732],[106.73013,17.365604]]]]},"properties":{"group":"edu_health","tag":"amenity=school","name":"Trường Mầm non Hải Ninh","levels":null,"lat":17.365369852232465,"lng":106.73057325986225,"osm_type":"way","osm_id":1114773649}},{"type":"Feature","geometry":{"type":"MultiPolygon","coordinates":[[[[106.724067,17.372961],[106.724148,17.372871],[106.724315,17.373008],[106.724234,17.373098],[106.724067,17.372961]]]]},"properties":{"group":"public","tag":"amenity=community_centre","name":null,"levels":1.0,"lat":17.372984600000002,"lng":106.72419084999997,"osm_type":"way","osm_id":1114773653}},{"type":"Feature","geometry":{"type":"MultiPolygon","coordinates":[[[[106.733653,17.363103],[106.733959,17.3627],[106.734269,17.362917],[106.733992,17.363303],[106.733653,17.363103]]]]},"properties":{"group":"public","tag":"amenity=community_centre","name":"Nhà văn hóa thôn Xuân Hải","levels":null,"lat":17.36300577253091,"lng":106.73396592774588,"osm_type":"way","osm_id":1114773657}},{"type":"Feature","geometry":{"type":"MultiPolygon","coordinates":[[[[106.724056,17.373706],[106.724188,17.373507],[106.724334,17.373595],[106.724383,17.373522],[106.724506,17.373597],[106.724459,17.373667],[106.724516,17.373702],[106.724415,17.373854],[106.724359,17.37382],[106.724327,17.373869],[106.724056,17.373706]]]]},"properties":{"group":"public","tag":"leisure=garden","name":null,"levels":null,"lat":17.373685182351114,"lng":106.72429920026663,"osm_type":"way","osm_id":1116495183}},{"type":"Feature","geometry":{"type":"MultiPolygon","coordinates":[[[[106.724205,17.373493],[106.724345,17.373297],[106.724403,17.373334],[106.724263,17.37353],[106.724205,17.373493]]]]},"properties":{"group":"public","tag":"leisure=playground","name":null,"levels":null,"lat":17.373413589814586,"lng":106.724303941924,"osm_type":"way","osm_id":1120026812}},{"type":"Feature","geometry":{"type":"MultiPolygon","coordinates":[[[[106.605018,17.468916],[106.605058,17.468274],[106.605076,17.468255],[106.605118,17.468246],[106.605169,17.468246],[106.60551,17.468366],[106.605637,17.468416],[106.605693,17.468449],[106.605717,17.468471],[106.605727,17.4685],[106.605732,17.468523],[106.605722,17.468546],[106.605332,17.4688],[106.605194,17.468876],[106.605104,17.468917],[106.605056,17.468932],[106.605033,17.468929],[106.605018,17.468916]]]]},"properties":{"group":"edu_health","tag":"amenity=school","name":null,"levels":null,"lat":17.46856032021716,"lng":106.60529712972215,"osm_type":"way","osm_id":1121977756}},{"type":"Feature","geometry":{"type":"MultiPolygon","coordinates":[[[[106.604219,17.482983],[106.604276,17.482698],[106.604321,17.482389],[106.604322,17.482376],[106.604328,17.482266],[106.604332,17.482092],[106.60434,17.481923],[106.605677,17.481952],[106.605761,17.480864],[106.606266,17.480844],[106.606276,17.480567],[106.606543,17.480526],[106.606573,17.480155],[106.606587,17.480051],[106.606616,17.480022],[106.606663,17.479997],[106.60771,17.480018],[106.608055,17.481219],[106.608022,17.481449],[106.608011,17.481713],[106.608008,17.481793],[106.608185,17.481924],[106.608184,17.48197],[106.608182,17.48231],[106.608174,17.483221],[106.608082,17.483306],[106.60603,17.483835],[106.605976,17.483784],[106.605946,17.483784],[106.605773,17.483785],[106.605727,17.483895],[106.605582,17.483879],[106.605573,17.483865],[106.605536,17.48354],[106.605518,17.483368],[106.605498,17.483179],[106.605495,17.48315],[106.605288,17.483155],[106.605263,17.483009],[106.604219,17.482983]]]]},"properties":{"group":"edu_health","tag":"amenity=university","name":"Trường Đại học Quảng Bình","levels":null,"lat":17.482089750715687,"lng":106.6065808843979,"osm_type":"way","osm_id":1123299136}},{"type":"Feature","geometry":{"type":"MultiPolygon","coordinates":[[[[106.609456,17.473225],[106.609465,17.472841],[106.609495,17.472386],[106.609571,17.471955],[106.609677,17.471631],[106.609925,17.471245],[106.610257,17.470776],[106.610493,17.470548],[106.610777,17.47035],[106.610957,17.470221],[106.611111,17.470093],[106.611222,17.469939],[106.611273,17.469813],[106.611289,17.469712],[106.611462,17.469711],[106.611444,17.469848],[106.611389,17.470014],[106.611232,17.470275],[106.610946,17.470638],[106.610724,17.470908],[106.610521,17.471186],[106.610339,17.471574],[106.610217,17.471994],[106.610176,17.472453],[106.610205,17.472832],[106.610311,17.473252],[106.61053,17.473707],[106.610841,17.474154],[106.610994,17.4744],[106.611111,17.474618],[106.611254,17.474977],[106.611359,17.475278],[106.611454,17.475776],[106.611499,17.476113],[106.611513,17.476407],[106.611506,17.476465],[106.611476,17.47649],[106.611415,17.476508],[106.610937,17.476485],[106.610953,17.476391],[106.610965,17.47617],[106.610921,17.475765],[106.610872,17.475563],[106.610792,17.475363],[106.610692,17.475177],[106.610583,17.475006],[106.610409,17.474817],[106.610179,17.474586],[106.609975,17.474333],[106.609788,17.474065],[106.609641,17.473796],[106.609521,17.473459],[106.609456,17.473225]]]]},"properties":{"group":"public","tag":"leisure=park","name":"Khu trữ nước tại công viên Cầu Rào","levels":null,"lat":17.47336081238278,"lng":106.61041007201128,"osm_type":"way","osm_id":1135866105}},{"type":"Feature","geometry":{"type":"MultiPolygon","coordinates":[[[[107.189151,16.752509],[107.189239,16.752483],[107.189392,16.752439],[107.189486,16.752754],[107.189347,16.752927],[107.189283,16.752944],[107.189151,16.752509]]]]},"properties":{"group":"public","tag":"leisure=garden","name":null,"levels":null,"lat":16.752673420220304,"lng":107.18932379908891,"osm_type":"way","osm_id":1137794053}},{"type":"Feature","geometry":{"type":"MultiPolygon","coordinates":[[[[106.433059,17.756589],[106.43375,17.756421],[106.43398,17.756408],[106.434353,17.756486],[106.434426,17.75652],[106.434458,17.756579],[106.434652,17.757527],[106.434583,17.757598],[106.434609,17.757723],[106.433609,17.757851],[106.433416,17.757838],[106.433381,17.757711],[106.433268,17.757721],[106.433257,17.75755],[106.433212,17.757281],[106.433123,17.756827],[106.433059,17.756589]]]]},"properties":{"group":"edu_health","tag":"amenity=hospital","name":"Bệnh viện Đa khoa khu vực Bắc Quảng Trị","levels":null,"lat":17.757127813973625,"lng":106.43386926103359,"osm_type":"way","osm_id":1161667141}},{"type":"Feature","geometry":{"type":"MultiPolygon","coordinates":[[[[106.300725,17.768685],[106.301055,17.768492],[106.30121,17.768811],[106.301588,17.768638],[106.301811,17.769096],[106.301811,17.769129],[106.301037,17.769417],[106.300725,17.768685]]]]},"properties":{"group":"edu_health","tag":"amenity=school","name":"Trường Tiểu học Phù Hóa","levels":null,"lat":17.76896667173113,"lng":106.30124527247017,"osm_type":"way","osm_id":1176858807}},{"type":"Feature","geometry":{"type":"MultiPolygon","coordinates":[[[[106.30029,17.768903],[106.300725,17.768685],[106.301037,17.769417],[106.300322,17.76967],[106.300338,17.769445],[106.30029,17.768903]]]]},"properties":{"group":"edu_health","tag":"amenity=school","name":"Trường Trung học cơ sở Phù Hóa","levels":null,"lat":17.769192366169023,"lng":106.3006109515678,"osm_type":"way","osm_id":1176858808}},{"type":"Feature","geometry":{"type":"MultiPolygon","coordinates":[[[[106.398269,17.79492],[106.398553,17.793651],[106.398679,17.793582],[106.400315,17.793957],[106.39997,17.795307],[106.398269,17.79492]]]]},"properties":{"group":"edu_health","tag":"amenity=school","name":"Trường Trung học phổ thông Nguyễn Bỉnh Khiêm","levels":null,"lat":17.794434432368814,"lng":106.39928354190204,"osm_type":"way","osm_id":1178098671}},{"type":"Feature","geometry":{"type":"MultiPolygon","coordinates":[[[[107.107191,16.790997],[107.107314,16.78852],[107.108215,16.788639],[107.108575,16.788731],[107.108784,16.788772],[107.108762,16.788957],[107.109626,16.789054],[107.109578,16.789465],[107.10969,16.789506],[107.10976,16.789393],[107.110141,16.789624],[107.11005,16.789799],[107.110522,16.790061],[107.110388,16.790261],[107.110538,16.790302],[107.110688,16.790267],[107.111155,16.789388],[107.111992,16.789789],[107.112045,16.789691],[107.11256,16.789963],[107.112126,16.790649],[107.111847,16.790803],[107.110854,16.79241],[107.11086,16.792708],[107.110742,16.792893],[107.110656,16.79295],[107.110522,16.792975],[107.110431,16.792975],[107.10733,16.791217],[107.10726,16.791161],[107.107207,16.791079],[107.107191,16.790997]]]]},"properties":{"group":"edu_health","tag":"amenity=hospital","name":"Bệnh viện Đa khoa tỉnh Quảng Trị","levels":null,"lat":16.790639816185386,"lng":107.10949771907958,"osm_type":"way","osm_id":1182412500}},{"type":"Feature","geometry":{"type":"MultiPolygon","coordinates":[[[[107.191008,16.755973],[107.192378,16.755711],[107.192641,16.756949],[107.191211,16.757226],[107.191008,16.755973]]]]},"properties":{"group":"edu_health","tag":"amenity=hospital","name":"Bệnh viện Đa khoa khu vực Triệu Hải","levels":null,"lat":16.75646927679024,"lng":107.19181005601453,"osm_type":"way","osm_id":1182412501}},{"type":"Feature","geometry":{"type":"MultiPolygon","coordinates":[[[[107.087425,16.817591],[107.087439,16.817479],[107.087831,16.81684],[107.087915,16.816812],[107.088,16.816654],[107.087983,16.8166],[107.088197,16.816245],[107.088435,16.816163],[107.088949,16.816337],[107.089254,16.816451],[107.089327,16.816637],[107.090334,16.817062],[107.090508,16.817002],[107.090981,16.817197],[107.091011,16.817278],[107.090939,16.81772],[107.090885,16.817846],[107.090756,16.818025],[107.090669,16.818029],[107.090268,16.818544],[107.090294,16.818611],[107.089372,16.819792],[107.089285,16.819801],[107.089131,16.819686],[107.089091,16.819463],[107.087802,16.818581],[107.087762,16.818533],[107.087766,16.818437],[107.087814,16.818249],[107.087792,16.818102],[107.08775,16.817977],[107.087667,16.817862],[107.087497,16.817718],[107.087448,16.817656],[107.087425,16.817591]]]]},"properties":{"group":"public","tag":"leisure=park","name":"Công viên Fidel","levels":null,"lat":16.817835701213497,"lng":107.08913014209338,"osm_type":"way","osm_id":1184773521}},{"type":"Feature","geometry":{"type":"MultiPolygon","coordinates":[[[[106.634567,17.373828],[106.634664,17.373398],[106.635078,17.373484],[106.63498,17.373914],[106.634567,17.373828]]]]},"properties":{"group":"public","tag":"leisure=playground","name":null,"levels":null,"lat":17.373655834107012,"lng":106.63482235693048,"osm_type":"way","osm_id":1204592848}},{"type":"Feature","geometry":{"type":"MultiPolygon","coordinates":[[[[106.691015,17.235117],[106.692217,17.234065],[106.692765,17.234543],[106.693089,17.23482],[106.691884,17.235929],[106.691015,17.235117]]]]},"properties":{"group":"edu_health","tag":"amenity=school","name":"Trường Trung học phổ thông Hoàng Hoa Thám","levels":null,"lat":17.23498807363561,"lng":106.69204925330257,"osm_type":"way","osm_id":1222878026}},{"type":"Feature","geometry":{"type":"MultiPolygon","coordinates":[[[[106.68881,17.229008],[106.689151,17.228278],[106.690025,17.228783],[106.689955,17.228883],[106.690065,17.228947],[106.689853,17.229377],[106.68881,17.229008]]]]},"properties":{"group":"edu_health","tag":"amenity=school","name":"Trường Trung học cơ sở Lệ Ninh","levels":null,"lat":17.22886312757759,"lng":106.68944851039271,"osm_type":"way","osm_id":1222878047}},{"type":"Feature","geometry":{"type":"MultiPolygon","coordinates":[[[[106.683185,17.227944],[106.683309,17.227401],[106.683676,17.227444],[106.684755,17.227664],[106.684545,17.228233],[106.683185,17.227944]]]]},"properties":{"group":"edu_health","tag":"amenity=school","name":"Trường Tiểu học Lệ Ninh","levels":null,"lat":17.227803457624407,"lng":106.68395687728254,"osm_type":"way","osm_id":1222878057}},{"type":"Feature","geometry":{"type":"MultiPolygon","coordinates":[[[[106.69454,17.231944],[106.694977,17.231306],[106.695331,17.231468],[106.695305,17.231606],[106.6949,17.232169],[106.694841,17.232167],[106.69454,17.231944]]]]},"properties":{"group":"edu_health","tag":"amenity=hospital","name":"Đơn nguyên Điều trị nội trú Lệ Ninh","levels":null,"lat":17.231735843267185,"lng":106.69494677770753,"osm_type":"way","osm_id":1222878063}},{"type":"Feature","geometry":{"type":"MultiPolygon","coordinates":[[[[106.785578,17.219269],[106.785613,17.2192],[106.78634,17.218937],[106.786511,17.219817],[106.786751,17.219785],[106.786846,17.220148],[106.786996,17.22057],[106.787202,17.220999],[106.78624,17.221405],[106.78558,17.219326],[106.785578,17.219269]]]]},"properties":{"group":"edu_health","tag":"amenity=hospital","name":"Bệnh viện Đa khoa khu vực Lệ Thuỷ","levels":null,"lat":17.220204392900378,"lng":106.78633683936575,"osm_type":"way","osm_id":1226460496}},{"type":"Feature","geometry":{"type":"MultiPolygon","coordinates":[[[[105.973291,17.801604],[105.973427,17.80105],[105.973516,17.800721],[105.974697,17.80083],[105.974281,17.801681],[105.973291,17.801604]]]]},"properties":{"group":"edu_health","tag":"amenity=hospital","name":"Bệnh viện Đa khoa khu vực Minh Hóa","levels":null,"lat":17.80119555601914,"lng":105.9739481656935,"osm_type":"way","osm_id":1226460499}},{"type":"Feature","geometry":{"type":"MultiPolygon","coordinates":[[[[106.032404,17.881276],[106.033222,17.880739],[106.03335,17.880832],[106.034152,17.881985],[106.033247,17.882592],[106.033177,17.882583],[106.033079,17.882436],[106.032637,17.881765],[106.032404,17.881276]]]]},"properties":{"group":"edu_health","tag":"amenity=hospital","name":"Bệnh viện Đa khoa khu vực Tuyên Hóa","levels":null,"lat":17.88166637985241,"lng":106.0332510909063,"osm_type":"way","osm_id":1226460500}},{"type":"Feature","geometry":{"type":"MultiPolygon","coordinates":[[[[106.518485,17.589751],[106.518499,17.58946],[106.518562,17.589285],[106.518776,17.589083],[106.519756,17.587985],[106.520207,17.588344],[106.519899,17.588665],[106.520099,17.588847],[106.520189,17.589152],[106.520252,17.589712],[106.520065,17.589804],[106.519641,17.590272],[106.519391,17.590457],[106.518485,17.589751]]]]},"properties":{"group":"edu_health","tag":"amenity=hospital","name":"Bệnh viện Đa khoa khu vực Bố Trạch","levels":null,"lat":17.58930881000032,"lng":106.51944922645193,"osm_type":"way","osm_id":1226460501}},{"type":"Feature","geometry":{"type":"MultiPolygon","coordinates":[[[[106.43253,17.858891],[106.432697,17.857777],[106.433244,17.857839],[106.434612,17.857987],[106.434901,17.858125],[106.434741,17.859095],[106.433834,17.859028],[106.433362,17.858921],[106.43253,17.858891]]]]},"properties":{"group":"edu_health","tag":"amenity=hospital","name":"Trung tâm Y tế khu vực Quảng Trạch","levels":null,"lat":17.858444146704915,"lng":106.43371549847114,"osm_type":"way","osm_id":1226466692}},{"type":"Feature","geometry":{"type":"MultiPolygon","coordinates":[[[[107.089197,16.791241],[107.089369,16.79074],[107.089425,16.790689],[107.089514,16.790665],[107.090962,16.790696],[107.091024,16.790717],[107.091072,16.79076],[107.091088,16.79083],[107.091072,16.791336],[107.090839,16.791423],[107.089382,16.791397],[107.089197,16.791241]]]]},"properties":{"group":"edu_health","tag":"amenity=hospital","name":"Bệnh viện Phổi tỉnh Quảng Trị","levels":null,"lat":16.791048032674134,"lng":107.09017785717587,"osm_type":"way","osm_id":1226535623}},{"type":"Feature","geometry":{"type":"MultiPolygon","coordinates":[[[[107.109976,16.795082],[107.110105,16.794815],[107.11065,16.795013],[107.110528,16.795227],[107.110105,16.795224],[107.11001,16.795167],[107.109976,16.795082]]]]},"properties":{"group":"edu_health","tag":"amenity=hospital","name":"Bệnh viện Mắt Nam Quảng Trị","levels":null,"lat":16.795056467885033,"lng":107.11028496443646,"osm_type":"way","osm_id":1226535624}},{"type":"Feature","geometry":{"type":"MultiPolygon","coordinates":[[[[107.108182,17.021685],[107.108225,17.021357],[107.108324,17.020959],[107.109343,17.021049],[107.109282,17.022252],[107.10826,17.02227],[107.108182,17.021685]]]]},"properties":{"group":"edu_health","tag":"amenity=hospital","name":"Bệnh viện Y học cổ truyền và Phục hồi chức năng Nam Quảng Trị","levels":null,"lat":17.02163056038545,"lng":107.10876412389149,"osm_type":"way","osm_id":1226535625}},{"type":"Feature","geometry":{"type":"MultiPolygon","coordinates":[[[[107.008305,17.07372],[107.008431,17.073563],[107.008426,17.073497],[107.008506,17.073425],[107.009287,17.07284],[107.009686,17.073515],[107.010242,17.07432],[107.009155,17.074976],[107.008305,17.07372]]]]},"properties":{"group":"edu_health","tag":"amenity=hospital","name":"Bệnh viện Đa khoa khu vực Vĩnh Linh","levels":null,"lat":17.073939787770403,"lng":107.00923725190542,"osm_type":"way","osm_id":1226535626}},{"type":"Feature","geometry":{"type":"MultiPolygon","coordinates":[[[[107.086614,16.92726],[107.086625,16.927076],[107.086721,16.926778],[107.086748,16.926485],[107.086732,16.926136],[107.08677,16.925967],[107.086855,16.92587],[107.087,16.925628],[107.08714,16.925623],[107.087826,16.925608],[107.087826,16.926383],[107.087944,16.926378],[107.088009,16.92706],[107.086614,16.92726]]]]},"properties":{"group":"edu_health","tag":"amenity=hospital","name":"Trung tâm Y tế khu vực Gio Linh","levels":null,"lat":16.9264490301127,"lng":107.08731206762221,"osm_type":"way","osm_id":1226535629}},{"type":"Feature","geometry":{"type":"MultiPolygon","coordinates":[[[[107.164695,16.765301],[107.165001,16.764764],[107.16575,16.765172],[107.165876,16.764967],[107.166404,16.765244],[107.16572,16.766087],[107.164695,16.765301]]]]},"properties":{"group":"edu_health","tag":"amenity=hospital","name":"Trung tâm Y tế khu vực Triệu Phong","levels":null,"lat":16.765385379850837,"lng":107.16552506136098,"osm_type":"way","osm_id":1226535631}},{"type":"Feature","geometry":{"type":"MultiPolygon","coordinates":[[[[107.252512,16.700848],[107.253472,16.700509],[107.253574,16.700612],[107.253864,16.700363],[107.254484,16.700917],[107.254489,16.700999],[107.253255,16.702124],[107.253121,16.702001],[107.252992,16.702032],[107.252512,16.700848]]]]},"properties":{"group":"edu_health","tag":"amenity=hospital","name":"Trung tâm Y tế khu vực Hải Lăng","levels":null,"lat":16.701171083413787,"lng":107.25345527084612,"osm_type":"way","osm_id":1226535632}},{"type":"Feature","geometry":{"type":"MultiPolygon","coordinates":[[[[106.879463,16.69779],[106.879592,16.697533],[106.879469,16.697459],[106.879589,16.697078],[106.881003,16.697441],[106.881223,16.69779],[106.881065,16.69835],[106.879793,16.698078],[106.879463,16.69779]]]]},"properties":{"group":"edu_health","tag":"amenity=hospital","name":"Trung tâm Y tế khu vực Đakrông","levels":null,"lat":16.697726206143336,"lng":106.8803324095677,"osm_type":"way","osm_id":1226535635}},{"type":"Feature","geometry":{"type":"MultiPolygon","coordinates":[[[[106.987453,16.39498],[106.988027,16.394635],[106.98836,16.395155],[106.987793,16.395479],[106.987453,16.39498]]]]},"properties":{"group":"edu_health","tag":"amenity=hospital","name":"Trung tâm Y tế huyện Đakrông - cơ sở 2","levels":null,"lat":16.395060445516094,"lng":106.98790849785533,"osm_type":"way","osm_id":1226537481}},{"type":"Feature","geometry":{"type":"MultiPolygon","coordinates":[[[[107.187342,16.840769],[107.187586,16.840178],[107.188082,16.840327],[107.187875,16.840897],[107.187765,16.840928],[107.187342,16.840769]]]]},"properties":{"group":"edu_health","tag":"amenity=hospital","name":"Trung tâm Y tế khu vực Triệu Phong - cơ sở 2","levels":null,"lat":16.84055889550185,"lng":107.18771558451823,"osm_type":"way","osm_id":1226537482}},{"type":"Feature","geometry":{"type":"MultiPolygon","coordinates":[[[[106.644963,17.455892],[106.645287,17.455472],[106.645946,17.455948],[106.646008,17.456242],[106.645949,17.45631],[106.645651,17.456345],[106.644963,17.455892]]]]},"properties":{"group":"public","tag":"leisure=park","name":"Công viên Angel Park","levels":null,"lat":17.455950027908617,"lng":106.64551268029824,"osm_type":"way","osm_id":1249903487}},{"type":"Feature","geometry":{"type":"MultiPolygon","coordinates":[[[[106.649137,17.453337],[106.6494,17.453019],[106.649534,17.452765],[106.649577,17.452478],[106.649527,17.452196],[106.649428,17.452002],[106.649263,17.451814],[106.649294,17.451783],[106.649495,17.451947],[106.649636,17.452165],[106.649705,17.452489],[106.649659,17.452789],[106.649512,17.453055],[106.649281,17.453344],[106.649195,17.453351],[106.649137,17.453337]]]]},"properties":{"group":"public","tag":"leisure=park","name":null,"levels":null,"lat":17.452625669060485,"lng":106.64950268030702,"osm_type":"way","osm_id":1249903488}},{"type":"Feature","geometry":{"type":"MultiPolygon","coordinates":[[[[106.64681,17.453632],[106.646886,17.453538],[106.647021,17.453636],[106.647232,17.453789],[106.647155,17.453881],[106.64681,17.453632]]]]},"properties":{"group":"public","tag":"leisure=park","name":null,"levels":null,"lat":17.45370972415282,"lng":106.64702057371133,"osm_type":"way","osm_id":1263002939}},{"type":"Feature","geometry":{"type":"MultiPolygon","coordinates":[[[[106.647368,17.452946],[106.647442,17.452856],[106.647574,17.452948],[106.647792,17.453108],[106.647715,17.4532],[106.647498,17.453041],[106.647368,17.452946]]]]},"properties":{"group":"public","tag":"leisure=park","name":null,"levels":null,"lat":17.453027712902536,"lng":106.64758042695765,"osm_type":"way","osm_id":1263002940}},{"type":"Feature","geometry":{"type":"MultiPolygon","coordinates":[[[[106.64622,17.454366],[106.646323,17.454229],[106.646466,17.45433],[106.646517,17.454265],[106.64657,17.454199],[106.646622,17.454134],[106.64668,17.454062],[106.646734,17.453995],[106.646788,17.453927],[106.646751,17.454098],[106.646719,17.454276],[106.64671,17.454419],[106.646735,17.454597],[106.646798,17.454702],[106.646749,17.45475],[106.646692,17.454708],[106.646636,17.454667],[106.646579,17.454626],[106.646525,17.454586],[106.646468,17.454543],[106.646412,17.454503],[106.646356,17.454464],[106.646299,17.454422],[106.64622,17.454366]]]]},"properties":{"group":"public","tag":"leisure=park","name":null,"levels":null,"lat":17.45438867275814,"lng":106.64656848662062,"osm_type":"way","osm_id":1263002973}},{"type":"Feature","geometry":{"type":"MultiPolygon","coordinates":[[[[106.645624,17.456512],[106.645948,17.45646],[106.646376,17.456751],[106.646231,17.456928],[106.645624,17.456512]]]]},"properties":{"group":"public","tag":"leisure=playground","name":"Regal Residence Signature","levels":null,"lat":17.456666465359348,"lng":106.64603832723472,"osm_type":"way","osm_id":1263002975}},{"type":"Feature","geometry":{"type":"MultiPolygon","coordinates":[[[[106.62429,17.463707],[106.624459,17.463198],[106.624494,17.4632],[106.624631,17.463451],[106.624623,17.463513],[106.624593,17.463566],[106.624314,17.463722],[106.62429,17.463707]]]]},"properties":{"group":"public","tag":"leisure=park","name":null,"levels":null,"lat":17.463474651954648,"lng":106.62446935336295,"osm_type":"way","osm_id":1263003033}},{"type":"Feature","geometry":{"type":"MultiPolygon","coordinates":[[[[106.576563,17.484795],[106.576802,17.484632],[106.576819,17.484973],[106.576563,17.484795]]]]},"properties":{"group":"public","tag":"leisure=park","name":null,"levels":null,"lat":17.484800166666666,"lng":106.576728,"osm_type":"way","osm_id":1263003133}},{"type":"Feature","geometry":{"type":"MultiPolygon","coordinates":[[[[106.60708,17.478634],[106.607124,17.478034],[106.607154,17.478002],[106.607206,17.47799],[106.607372,17.478002],[106.607403,17.478039],[106.607405,17.478093],[106.607354,17.478625],[106.607332,17.478684],[106.607286,17.478716],[106.607126,17.478702],[106.607083,17.478685],[106.60708,17.478634]]]]},"properties":{"group":"public","tag":"leisure=playground","name":null,"levels":null,"lat":17.47834867747989,"lng":106.60724001660566,"osm_type":"way","osm_id":1263148791}},{"type":"Feature","geometry":{"type":"MultiPolygon","coordinates":[[[[106.570616,17.484268],[106.570622,17.484131],[106.570676,17.484001],[106.570793,17.483868],[106.571068,17.483631],[106.571265,17.483809],[106.571411,17.483936],[106.571562,17.483999],[106.571706,17.483996],[106.571951,17.485536],[106.570857,17.485698],[106.570616,17.484268]]]]},"properties":{"group":"edu_health","tag":"amenity=hospital","name":"Trung Tâm Kiểm Soát Bệnh Tật tỉnh Quảng Trị","levels":null,"lat":17.484738044124466,"lng":106.57125072461477,"osm_type":"way","osm_id":1297097012}},{"type":"Feature","geometry":{"type":"MultiPolygon","coordinates":[[[[107.191237,16.7504],[107.192928,16.750051],[107.192849,16.750582],[107.19288,16.750587],[107.193004,16.751214],[107.193128,16.751198],[107.193016,16.751823],[107.192098,16.751988],[107.192078,16.75185],[107.191839,16.751883],[107.191529,16.75193],[107.191237,16.7504]]]]},"properties":{"group":"edu_health","tag":"amenity=school","name":"Trường Trung học phổ thông Quảng Trị","levels":null,"lat":16.75105482348207,"lng":107.19219816176901,"osm_type":"way","osm_id":1303840723}},{"type":"Feature","geometry":{"type":"MultiPolygon","coordinates":[[[[105.766456,17.677442],[105.766676,17.676868],[105.767128,17.677007],[105.767086,17.677057],[105.766915,17.677007],[105.766811,17.677176],[105.766971,17.677265],[105.766798,17.677555],[105.766774,17.677598],[105.766599,17.677578],[105.766622,17.677537],[105.76654,17.67749],[105.766456,17.677442]]]]},"properties":{"group":"public","tag":"leisure=park","name":null,"levels":null,"lat":17.677240613404127,"lng":105.76673234550887,"osm_type":"relation","osm_id":18063972}},{"type":"Feature","geometry":{"type":"MultiPolygon","coordinates":[[[[105.766969,17.677639],[105.767143,17.677349],[105.7673,17.677434],[105.767454,17.677518],[105.76728,17.677808],[105.766969,17.677639]]]]},"properties":{"group":"public","tag":"leisure=park","name":null,"levels":null,"lat":17.67757825434469,"lng":105.76721167722482,"osm_type":"way","osm_id":1316512519}},{"type":"Feature","geometry":{"type":"MultiPolygon","coordinates":[[[[105.766922,17.677752],[105.766969,17.677639],[105.76728,17.677808],[105.767339,17.677839],[105.7673,17.677902],[105.767243,17.677994],[105.767151,17.678122],[105.767112,17.6781],[105.767002,17.678027],[105.766937,17.677882],[105.766922,17.677752]]]]},"properties":{"group":"public","tag":"leisure=park","name":null,"levels":null,"lat":17.67787787748743,"lng":105.7671030164073,"osm_type":"way","osm_id":1316512528}},{"type":"Feature","geometry":{"type":"MultiPolygon","coordinates":[[[[105.765159,17.680122],[105.765327,17.679805],[105.765493,17.679695],[105.76568,17.679566],[105.765761,17.679638],[105.765829,17.679807],[105.766035,17.679717],[105.766022,17.67967],[105.766111,17.679562],[105.766107,17.679541],[105.76606,17.679449],[105.76623,17.679361],[105.766214,17.679418],[105.766197,17.679479],[105.766168,17.679594],[105.766225,17.679679],[105.766452,17.679712],[105.766529,17.679746],[105.766774,17.679631],[105.766358,17.67934],[105.766381,17.679317],[105.766753,17.679574],[105.767854,17.679739],[105.767908,17.679749],[105.76789,17.679844],[105.766796,17.679717],[105.766528,17.679852],[105.766339,17.679753],[105.766099,17.679765],[105.765873,17.679922],[105.765529,17.680199],[105.765208,17.680176],[105.765159,17.680122]]]]},"properties":{"group":"public","tag":"leisure=park","name":null,"levels":null,"lat":17.679805697474535,"lng":105.7661711991612,"osm_type":"way","osm_id":1316520070}},{"type":"Feature","geometry":{"type":"MultiPolygon","coordinates":[[[[106.607782,17.465304],[106.607784,17.464991],[106.607861,17.464694],[106.607967,17.464423],[106.608149,17.464166],[106.608324,17.463939],[106.60856,17.463771],[106.608802,17.463607],[106.608845,17.463592],[106.608958,17.463746],[106.60881,17.463839],[106.608653,17.463994],[106.608523,17.464155],[106.608415,17.464321],[106.608308,17.464517],[106.608209,17.464768],[106.608177,17.465015],[106.608172,17.465266],[106.608232,17.465515],[106.608329,17.465729],[106.608461,17.465929],[106.608636,17.466124],[106.608884,17.466348],[106.609204,17.46659],[106.609597,17.466813],[106.610337,17.467253],[106.610616,17.467454],[106.610858,17.467731],[106.611028,17.468022],[106.611097,17.4683],[106.61112,17.468615],[106.61112,17.468782],[106.610417,17.468546],[106.610467,17.468365],[106.610208,17.468279],[106.61011,17.468244],[106.610278,17.467803],[106.60883,17.466849],[106.608475,17.466605],[106.608205,17.466348],[106.608052,17.466131],[106.607917,17.46586],[106.607831,17.465578],[106.607782,17.465304]]]]},"properties":{"group":"public","tag":"leisure=park","name":null,"levels":null,"lat":17.46658580216061,"lng":106.60930926164876,"osm_type":"way","osm_id":1352664399}},{"type":"Feature","geometry":{"type":"MultiPolygon","coordinates":[[[[106.608931,17.463522],[106.610106,17.462995],[106.610747,17.462745],[106.611138,17.462629],[106.611673,17.462531],[106.612478,17.462402],[106.612913,17.462293],[106.6134,17.462096],[106.613844,17.461836],[106.614218,17.461537],[106.614528,17.461225],[106.614892,17.460831],[106.615329,17.460447],[106.615653,17.460184],[106.615852,17.460367],[106.615878,17.460417],[106.615252,17.460981],[106.614772,17.461408],[106.614224,17.461834],[106.613772,17.462173],[106.613583,17.462292],[106.613488,17.462352],[106.613194,17.462532],[106.612877,17.462691],[106.612516,17.462822],[106.612097,17.462899],[106.61147,17.462909],[106.611136,17.462941],[106.610805,17.463006],[106.610172,17.463204],[106.609541,17.463452],[106.609066,17.463688],[106.608931,17.463522]]]]},"properties":{"group":"public","tag":"leisure=park","name":null,"levels":null,"lat":17.462180706017445,"lng":106.61275110130074,"osm_type":"way","osm_id":1352664401}},{"type":"Feature","geometry":{"type":"MultiPolygon","coordinates":[[[[106.609366,17.463995],[106.609568,17.463824],[106.609909,17.463632],[106.61031,17.463459],[106.610882,17.463289],[106.611165,17.463232],[106.611503,17.463193],[106.612075,17.463192],[106.612464,17.463224],[106.61281,17.463273],[106.613062,17.463316],[106.613356,17.46339],[106.613608,17.463429],[106.613886,17.463414],[106.614156,17.463355],[106.614387,17.463241],[106.614566,17.46307],[106.614679,17.462859],[106.614739,17.462619],[106.614767,17.462337],[106.614849,17.46206],[106.614974,17.461797],[106.615199,17.46148],[106.615491,17.461166],[106.615926,17.460773],[106.616128,17.460606],[106.616304,17.460779],[106.616113,17.460948],[106.615718,17.461302],[106.615481,17.461598],[106.61528,17.461899],[106.615156,17.462133],[106.615066,17.46238],[106.614992,17.462658],[106.61494,17.462915],[106.614848,17.463173],[106.614661,17.463448],[106.614368,17.463639],[106.614088,17.463738],[106.613734,17.463757],[106.61345,17.463692],[106.613107,17.463551],[106.612696,17.463426],[106.612208,17.463352],[106.611563,17.46336],[106.61103,17.463474],[106.610684,17.463575],[106.610442,17.463596],[106.610255,17.463604],[106.610091,17.463707],[106.609969,17.463877],[106.609766,17.464224],[106.609366,17.463995]]]]},"properties":{"group":"public","tag":"leisure=park","name":null,"levels":null,"lat":17.462858114865753,"lng":106.61344942944645,"osm_type":"way","osm_id":1352664403}},{"type":"Feature","geometry":{"type":"MultiPolygon","coordinates":[[[[106.61586,17.460068],[106.61644,17.459738],[106.617111,17.459374],[106.617809,17.459012],[106.618351,17.458728],[106.618851,17.458545],[106.619603,17.458386],[106.62031,17.458191],[106.620838,17.458002],[106.621236,17.457861],[106.621315,17.457931],[106.621336,17.457999],[106.620429,17.458351],[106.619406,17.4587],[106.618361,17.459077],[106.617706,17.459339],[106.617162,17.459573],[106.616622,17.459893],[106.616073,17.460264],[106.61586,17.460068]]]]},"properties":{"group":"public","tag":"leisure=park","name":null,"levels":null,"lat":17.458957209219488,"lng":106.61847638698404,"osm_type":"way","osm_id":1352936632}},{"type":"Feature","geometry":{"type":"MultiPolygon","coordinates":[[[[106.616302,17.460469],[106.616867,17.460109],[106.617429,17.459804],[106.617885,17.459643],[106.618115,17.45956],[106.618281,17.459496],[106.618518,17.459456],[106.6186,17.459495],[106.618645,17.459566],[106.618669,17.459645],[106.617943,17.459891],[106.617362,17.460165],[106.616568,17.460648],[106.616486,17.460653],[106.616302,17.460469]]]]},"properties":{"group":"public","tag":"leisure=park","name":null,"levels":null,"lat":17.46001244548194,"lng":106.6174394528495,"osm_type":"way","osm_id":1352936633}},{"type":"Feature","geometry":{"type":"MultiPolygon","coordinates":[[[[106.618815,17.459484],[106.618824,17.459391],[106.618867,17.459331],[106.619017,17.45928],[106.619394,17.459195],[106.619799,17.459092],[106.620199,17.458938],[106.620606,17.458685],[106.621002,17.45849],[106.621446,17.45833],[106.621456,17.458368],[106.621422,17.458466],[106.621042,17.458587],[106.620647,17.458801],[106.620242,17.459014],[106.619832,17.459187],[106.619425,17.459345],[106.618843,17.459584],[106.618815,17.459484]]]]},"properties":{"group":"public","tag":"leisure=park","name":null,"levels":null,"lat":17.459019663910304,"lng":106.61998235931738,"osm_type":"way","osm_id":1352936636}},{"type":"Feature","geometry":{"type":"MultiPolygon","coordinates":[[[[106.609167,17.479024],[106.609219,17.4788],[106.609361,17.47854],[106.609498,17.478362],[106.609663,17.478214],[106.60991,17.478029],[106.610133,17.477888],[106.610349,17.477715],[106.610502,17.47755],[106.610656,17.477354],[106.61077,17.477162],[106.610875,17.476837],[106.610911,17.476632],[106.611349,17.476661],[106.611403,17.476732],[106.611406,17.476809],[106.611379,17.476956],[106.611339,17.477093],[106.611276,17.477149],[106.611203,17.477317],[106.611056,17.477535],[106.611043,17.477638],[106.610486,17.478126],[106.610191,17.478447],[106.610028,17.478705],[106.609974,17.478972],[106.609921,17.478995],[106.609861,17.479378],[106.609858,17.479659],[106.609932,17.479713],[106.609983,17.480179],[106.610039,17.480639],[106.610001,17.481076],[106.609843,17.481644],[106.609727,17.481999],[106.609366,17.482001],[106.609496,17.481571],[106.609571,17.480992],[106.60955,17.480439],[106.609413,17.479951],[106.60924,17.479456],[106.609174,17.479202],[106.609167,17.479024]]]]},"properties":{"group":"public","tag":"leisure=park","name":null,"levels":null,"lat":17.47912282387422,"lng":106.61000162904763,"osm_type":"way","osm_id":1352936640}},{"type":"Feature","geometry":{"type":"MultiPolygon","coordinates":[[[[106.60286,17.467431],[106.602909,17.467477],[106.602827,17.467557],[106.601853,17.468625],[106.601414,17.468956],[106.601302,17.468977],[106.6012,17.468981],[106.601117,17.468962],[106.601034,17.468894],[106.600929,17.468798],[106.600815,17.468692],[106.600806,17.468645],[106.600818,17.468575],[106.600848,17.468523],[106.6009,17.468421],[106.60095,17.468316],[106.601003,17.468212],[106.601141,17.468016],[106.601395,17.467674],[106.601509,17.467479],[106.601594,17.467268],[106.601677,17.467129],[106.601783,17.467012],[106.601828,17.466973],[106.601905,17.466943],[106.602056,17.466931],[106.602951,17.466913],[106.603069,17.46693],[106.603122,17.466982],[106.603154,17.467056],[106.603163,17.467134],[106.603134,17.467208],[106.603043,17.467308],[106.602909,17.467476],[106.60286,17.467431]],[[106.60286,17.467431],[106.602926,17.467361],[106.602971,17.467269],[106.602961,17.46723],[106.602923,17.467213],[106.602896,17.467186],[106.602892,17.46714],[106.60291,17.4671],[106.602941,17.467078],[106.602947,17.467037],[106.602907,17.466995],[106.602853,17.466963],[106.601992,17.466986],[106.601862,17.467026],[106.601773,17.467085],[106.60169,17.467206],[106.601615,17.467389],[106.601516,17.467594],[106.601394,17.467771],[106.601232,17.467966],[106.601095,17.46815],[106.600996,17.468352],[106.600957,17.468445],[106.600937,17.468506],[106.600948,17.468571],[106.600977,17.46862],[106.601007,17.468646],[106.601052,17.468656],[106.601112,17.468714],[106.601139,17.468755],[106.601148,17.468792],[106.601166,17.468832],[106.601214,17.468866],[106.601291,17.468883],[106.601391,17.468861],[106.60159,17.468745],[106.601835,17.468557],[106.601976,17.4684],[106.602082,17.468265],[106.602149,17.468073],[106.602251,17.467909],[106.602386,17.467803],[106.602645,17.467609],[106.602775,17.467517],[106.60286,17.467431]]]]},"properties":{"group":"public","tag":"leisure=park","name":null,"levels":null,"lat":17.467901487626587,"lng":106.60199149438917,"osm_type":"way","osm_id":1352955005}},{"type":"Feature","geometry":{"type":"MultiPolygon","coordinates":[[[[106.603005,17.469471],[106.603008,17.469364],[106.603319,17.469036],[106.603345,17.469037],[106.60334,17.469241],[106.603303,17.46924],[106.603305,17.469156],[106.603294,17.469145],[106.603274,17.469142],[106.603259,17.469148],[106.603108,17.469302],[106.603096,17.46932],[106.603098,17.469337],[106.603114,17.469348],[106.603151,17.469349],[106.603151,17.469384],[106.603041,17.46938],[106.603039,17.469472],[106.603005,17.469471]]],[[[106.603122,17.469317],[106.60327,17.469171],[106.603279,17.469171],[106.603275,17.46933],[106.603264,17.46933],[106.603122,17.469324],[106.603122,17.469317]]]]},"properties":{"group":"public","tag":"leisure=park","name":null,"levels":null,"lat":17.46924962888509,"lng":106.60319717531539,"osm_type":"relation","osm_id":18581805}},{"type":"Feature","geometry":{"type":"MultiPolygon","coordinates":[[[[106.608966,17.469073],[106.608987,17.468996],[106.609067,17.468784],[106.609118,17.468787],[106.609753,17.469018],[106.60903,17.469151],[106.608991,17.469139],[106.608968,17.46911],[106.608966,17.469073]]]]},"properties":{"group":"public","tag":"leisure=park","name":"Công viên Cá Heo","levels":null,"lat":17.468983006477632,"lng":106.60925699166731,"osm_type":"way","osm_id":1352958969}},{"type":"Feature","geometry":{"type":"MultiPolygon","coordinates":[[[[106.315498,17.614176],[106.315569,17.613971],[106.316215,17.614155],[106.316154,17.614353],[106.315498,17.614176]]]]},"properties":{"group":"edu_health","tag":"amenity=school","name":null,"levels":null,"lat":17.6141629353597,"lng":106.3158562920222,"osm_type":"way","osm_id":1373761249}},{"type":"Feature","geometry":{"type":"MultiPolygon","coordinates":[[[[106.795893,17.226221],[106.796058,17.226038],[106.79628,17.226149],[106.79641,17.226247],[106.79661,17.226455],[106.797344,17.227383],[106.79726,17.227477],[106.796058,17.226719],[106.796257,17.226462],[106.795893,17.226221]]]]},"properties":{"group":"public","tag":"leisure=park","name":null,"levels":null,"lat":17.226744477567472,"lng":106.7965718632609,"osm_type":"way","osm_id":1375879364}},{"type":"Feature","geometry":{"type":"MultiPolygon","coordinates":[[[[106.793683,17.224674],[106.79382,17.224561],[106.794645,17.223981],[106.796021,17.225703],[106.795978,17.225828],[106.795869,17.225831],[106.793683,17.224674]]]]},"properties":{"group":"public","tag":"leisure=park","name":null,"levels":null,"lat":17.22487951997683,"lng":106.79484516430126,"osm_type":"way","osm_id":1375879365}},{"type":"Feature","geometry":{"type":"MultiPolygon","coordinates":[[[[106.595115,17.415362],[106.59523,17.415151],[106.595327,17.414954],[106.595417,17.414754],[106.595524,17.414524],[106.595598,17.414355],[106.595677,17.414189],[106.595761,17.414025],[106.595868,17.413832],[106.595982,17.413644],[106.596104,17.413459],[106.59633,17.413602],[106.59656,17.413741],[106.596672,17.413807],[106.596785,17.413871],[106.596967,17.413966],[106.597153,17.414053],[106.597332,17.414135],[106.597509,17.414222],[106.597682,17.414311],[106.597853,17.414403],[106.598164,17.414568],[106.598477,17.414727],[106.598362,17.414901],[106.598258,17.415066],[106.598209,17.415039],[106.597493,17.416203],[106.595125,17.415597],[106.595115,17.415362]]]]},"properties":{"group":"edu_health","tag":"amenity=school","name":"Trường Trung cấp Nghề Bình Minh Quảng Bình","levels":null,"lat":17.414949784647092,"lng":106.59670164603551,"osm_type":"way","osm_id":1387988812}},{"type":"Feature","geometry":{"type":"MultiPolygon","coordinates":[[[[106.382934,17.715477],[106.382945,17.715431],[106.382956,17.715395],[106.38297,17.71536],[106.383179,17.715045],[106.383866,17.715713],[106.383483,17.716085],[106.382934,17.715477]]]]},"properties":{"group":"edu_health","tag":"amenity=school","name":"Trường Trung học Cơ sở Quảng Minh","levels":null,"lat":17.715576129988285,"lng":106.38337031539467,"osm_type":"way","osm_id":1387988866}},{"type":"Feature","geometry":{"type":"MultiPolygon","coordinates":[[[[106.383483,17.716085],[106.383866,17.715713],[106.384343,17.716177],[106.384008,17.716601],[106.383847,17.716453],[106.383758,17.716365],[106.383654,17.716267],[106.38355,17.716159],[106.383483,17.716085]]]]},"properties":{"group":"edu_health","tag":"amenity=school","name":"Trường Tiểu học Quảng Minh","levels":null,"lat":17.716149561990797,"lng":106.38392003301641,"osm_type":"way","osm_id":1387988867}},{"type":"Feature","geometry":{"type":"MultiPolygon","coordinates":[[[[106.401188,17.755712],[106.402111,17.755405],[106.402298,17.755934],[106.401416,17.756187],[106.401188,17.755712]]]]},"properties":{"group":"edu_health","tag":"amenity=school","name":"Trường Mầm non Quảng Phong","levels":null,"lat":17.755804941184955,"lng":106.4017574720302,"osm_type":"way","osm_id":1387988874}},{"type":"Feature","geometry":{"type":"MultiPolygon","coordinates":[[[[106.401191,17.753846],[106.401505,17.753748],[106.401613,17.754064],[106.401299,17.754161],[106.401191,17.753846]]]]},"properties":{"group":"public","tag":"amenity=community_centre","name":"Nhà văn hóa Tổ dân phố 4","levels":null,"lat":17.753954670077647,"lng":106.40140235661663,"osm_type":"way","osm_id":1387988875}},{"type":"Feature","geometry":{"type":"MultiPolygon","coordinates":[[[[106.397217,17.755537],[106.397505,17.755443],[106.397541,17.755461],[106.397623,17.755434],[106.397634,17.755408],[106.397701,17.755387],[106.397838,17.755745],[106.397606,17.755827],[106.397584,17.755777],[106.397363,17.755847],[106.397217,17.755537]]]]},"properties":{"group":"public","tag":"amenity=community_centre","name":"Nhà văn hóa Tổ dân phố 3","levels":null,"lat":17.75562903518334,"lng":106.39753621778138,"osm_type":"way","osm_id":1387988876}},{"type":"Feature","geometry":{"type":"MultiPolygon","coordinates":[[[[106.399041,17.753888],[106.399753,17.753625],[106.399855,17.753796],[106.400109,17.753709],[106.400391,17.754445],[106.399407,17.754756],[106.399041,17.753888]]]]},"properties":{"group":"edu_health","tag":"amenity=school","name":"Trường Tiểu học Quảng Phong","levels":null,"lat":17.754177325250666,"lng":106.39970933577804,"osm_type":"way","osm_id":1387988878}},{"type":"Feature","geometry":{"type":"MultiPolygon","coordinates":[[[[106.611116,17.478622],[106.611587,17.478093],[106.611567,17.478643],[106.611116,17.478622]]]]},"properties":{"group":"public","tag":"leisure=park","name":"Công viên Tam Giác - Bắc Trần Quang Khải","levels":null,"lat":17.4784528,"lng":106.6114233,"osm_type":"way","osm_id":1417141258}},{"type":"Feature","geometry":{"type":"MultiPolygon","coordinates":[[[[107.115194,16.786552],[107.115845,16.78554],[107.118827,16.787253],[107.118186,16.788302],[107.115194,16.786552]]]]},"properties":{"group":"edu_health","tag":"amenity=school","name":"iSchool Quảng Trị","levels":null,"lat":16.786915979628883,"lng":107.11701823839154,"osm_type":"way","osm_id":1419909163}},{"type":"Feature","geometry":{"type":"MultiPolygon","coordinates":[[[[107.003923,16.808352],[107.003972,16.806995],[107.005116,16.806924],[107.005165,16.808298],[107.004215,16.808417],[107.00421,16.808339],[107.003923,16.808352]]]]},"properties":{"group":"edu_health","tag":"amenity=hospital","name":"Trung tâm Y tế khu vực Cam Lộ","levels":null,"lat":16.807667037037987,"lng":107.00454531720366,"osm_type":"way","osm_id":1443663183}},{"type":"Feature","geometry":{"type":"MultiPolygon","coordinates":[[[[106.661744,17.302327],[106.662188,17.302478],[106.662164,17.302566],[106.661783,17.302588],[106.661744,17.302327]]]]},"properties":{"group":"edu_health","tag":"amenity=hospital","name":null,"levels":null,"lat":17.30248278035642,"lng":106.66193733961059,"osm_type":"way","osm_id":1445376798}},{"type":"Feature","geometry":{"type":"MultiPolygon","coordinates":[[[[106.661155,17.302877],[106.661172,17.302681],[106.661546,17.302796],[106.661556,17.302867],[106.661598,17.302883],[106.661383,17.302858],[106.661155,17.302877]]]]},"properties":{"group":"public","tag":"leisure=park","name":"ck","levels":null,"lat":17.30279983813928,"lng":106.66132850391372,"osm_type":"way","osm_id":1445376799}},{"type":"Feature","geometry":{"type":"Point","coordinates":[107.186315,16.912605]},"properties":{"group":"public","tag":"leisure=park","name":null,"levels":null,"lat":16.9126053,"lng":107.1863146,"osm_type":"node","osm_id":3782787072}},{"type":"Feature","geometry":{"type":"Point","coordinates":[106.319245,17.449729]},"properties":{"group":"public","tag":"amenity=community_centre","name":"Bản Đoòng","levels":null,"lat":17.449729,"lng":106.319245,"osm_type":"node","osm_id":4409014092}},{"type":"Feature","geometry":{"type":"Point","coordinates":[106.362338,17.593136]},"properties":{"group":"edu_health","tag":"amenity=school","name":null,"levels":null,"lat":17.5931361,"lng":106.3623381,"osm_type":"node","osm_id":5340139721}},{"type":"Feature","geometry":{"type":"Point","coordinates":[105.971824,17.708513]},"properties":{"group":"edu_health","tag":"amenity=school","name":null,"levels":null,"lat":17.708513,"lng":105.9718245,"osm_type":"node","osm_id":5342670321}},{"type":"Feature","geometry":{"type":"Point","coordinates":[106.460756,17.235787]},"properties":{"group":"edu_health","tag":"amenity=school","name":"Cóng Trung An Toàn Giao Thông","levels":null,"lat":17.2357866,"lng":106.4607563,"osm_type":"node","osm_id":5633972523}},{"type":"Feature","geometry":{"type":"Point","coordinates":[106.301267,17.552462]},"properties":{"group":"public","tag":"leisure=garden","name":"Vương thực vật","levels":null,"lat":17.5524617,"lng":106.3012671,"osm_type":"node","osm_id":5790021353}},{"type":"Feature","geometry":{"type":"Point","coordinates":[106.721511,17.374166]},"properties":{"group":"public","tag":"amenity=community_centre","name":"Nhà văn hóa thôn Tân Định","levels":null,"lat":17.3741658,"lng":106.7215111,"osm_type":"node","osm_id":10222989986}},{"type":"Feature","geometry":{"type":"Point","coordinates":[106.623998,17.467086]},"properties":{"group":"public","tag":"amenity=community_centre","name":"Cung thiếu nhi tỉnh Quảng Trị","levels":null,"lat":17.4670856,"lng":106.6239975,"osm_type":"node","osm_id":10756203754}},{"type":"Feature","geometry":{"type":"Point","coordinates":[106.451361,17.216236]},"properties":{"group":"edu_health","tag":"amenity=hospital","name":null,"levels":null,"lat":17.2162359,"lng":106.4513607,"osm_type":"node","osm_id":12382305872}},{"type":"Feature","geometry":{"type":"Point","coordinates":[106.300322,17.625768]},"properties":{"group":"edu_health","tag":"amenity=hospital","name":"Som trach","levels":null,"lat":17.6257685,"lng":106.3003224,"osm_type":"node","osm_id":12718096010}},{"type":"Feature","geometry":{"type":"Point","coordinates":[106.225164,17.797359]},"properties":{"group":"edu_health","tag":"amenity=school","name":"Trường tiểu học Châu Hóa","levels":null,"lat":17.7973585,"lng":106.2251642,"osm_type":"node","osm_id":12952786843}},{"type":"Feature","geometry":{"type":"Point","coordinates":[106.225839,17.797082]},"properties":{"group":"edu_health","tag":"amenity=school","name":"Trường Trung học cơ sở Châu Hóa","levels":null,"lat":17.7970818,"lng":106.2258388,"osm_type":"node","osm_id":12952786844}},{"type":"Feature","geometry":{"type":"Point","coordinates":[106.371461,17.71339]},"properties":{"group":"public","tag":"leisure=park","name":"Nhà văn hóa Thôn tây","levels":null,"lat":17.7133896,"lng":106.3714611,"osm_type":"node","osm_id":13155901021}}]}