{"type":"FeatureCollection","features":[{"type":"Feature","properties":{"kind":"boundary","province_code":"33","name":"Tỉnh Hưng Yên","source":"VNSDI","valid_from":"16/6/2025","simplify_tolerance_deg":0.0005},"geometry":{"type":"Polygon","coordinates":[[[106.06887,20.60367],[106.06057,20.60678],[106.0545,20.61141],[106.04543,20.62036],[106.03767,20.63006],[106.03405,20.63601],[106.03207,20.64234],[106.03689,20.66449],[106.03735,20.67214],[106.03637,20.67826],[106.03246,20.68546],[106.02287,20.69536],[106.01367,20.70154],[106.00646,20.7034],[105.9897,20.70404],[105.98727,20.70204],[105.98079,20.69938],[105.97378,20.69964],[105.96413,20.72518],[105.96918,20.7339],[105.96788,20.74098],[105.96792,20.7731],[105.9654,20.7764],[105.96001,20.77867],[105.95272,20.78095],[105.93066,20.78496],[105.92512,20.78875],[105.92144,20.79286],[105.91794,20.79954],[105.9135,20.81183],[105.91128,20.82317],[105.91186,20.83405],[105.91495,20.84037],[105.9207,20.84464],[105.93128,20.8502],[105.93603,20.85711],[105.93606,20.86201],[105.92875,20.87405],[105.92202,20.87969],[105.90965,20.88627],[105.89968,20.89011],[105.89552,20.89498],[105.89539,20.90104],[105.8989,20.90502],[105.91107,20.91381],[105.91237,20.91753],[105.91208,20.92232],[105.90892,20.92607],[105.91267,20.9342],[105.91244,20.93727],[105.90569,20.94794],[105.90497,20.95362],[105.91402,20.97373],[105.91535,20.97517],[105.91833,20.97595],[105.92395,20.97589],[105.92555,20.97475],[105.93246,20.97356],[105.9388,20.97016],[105.94443,20.96861],[105.95261,20.96768],[105.95687,20.96598],[105.96006,20.96371],[105.96428,20.9634],[105.96454,20.97373],[105.9637,20.98477],[105.96154,20.98766],[105.96215,20.98941],[105.96597,20.99172],[105.96912,20.98832],[105.97228,20.98977],[105.97241,20.99217],[105.971,20.99513],[105.97387,20.99672],[105.97849,20.99749],[105.98608,20.99691],[105.98925,20.99842],[105.99217,21.00108],[106.00329,21.00138],[106.00596,20.99854],[106.01086,20.99843],[106.01242,21.00188],[106.01566,21.00203],[106.01702,21.00177],[106.01817,20.99788],[106.02332,20.99548],[106.03113,20.99425],[106.03696,20.998],[106.04509,21.00504],[106.05026,21.00616],[106.05526,21.00599],[106.05888,21.00036],[106.06769,21.00087],[106.07001,21.00017],[106.07323,20.99762],[106.07987,20.99578],[106.08473,21.00538],[106.08572,21.00641],[106.08969,21.00684],[106.09999,20.99972],[106.10427,20.99801],[106.10824,20.99956],[106.10975,20.99916],[106.1154,20.99533],[106.11532,20.9842],[106.118,20.9835],[106.11911,20.98458],[106.11944,20.98762],[106.12036,20.98882],[106.12471,20.98936],[106.12549,20.9885],[106.12588,20.98333],[106.12805,20.98315],[106.13813,20.97528],[106.13398,20.96986],[106.13429,20.9628],[106.13524,20.96084],[106.15049,20.95815],[106.15479,20.95506],[106.15786,20.95136],[106.15769,20.94907],[106.15303,20.9448],[106.15209,20.93505],[106.14835,20.92869],[106.1496,20.92453],[106.15561,20.91974],[106.15264,20.91666],[106.14836,20.9143],[106.14124,20.90616],[106.13715,20.90434],[106.13664,20.90314],[106.13835,20.89375],[106.14417,20.89175],[106.1465,20.88961],[106.14728,20.88813],[106.14723,20.8839],[106.14274,20.86994],[106.14183,20.85799],[106.13832,20.8528],[106.13337,20.8403],[106.12872,20.83172],[106.13398,20.8251],[106.13891,20.82174],[106.14078,20.81692],[106.1405,20.8143],[106.13837,20.80984],[106.13298,20.80872],[106.13136,20.80648],[106.14077,20.79982],[106.14281,20.79263],[106.14858,20.78475],[106.15362,20.7807],[106.15911,20.77983],[106.16219,20.78419],[106.16528,20.78456],[106.16998,20.7803],[106.17285,20.77651],[106.18011,20.76395],[106.18147,20.76308],[106.1841,20.76292],[106.18787,20.76651],[106.19303,20.76554],[106.19783,20.75673],[106.19991,20.75442],[106.2047,20.75195],[106.21201,20.75115],[106.21543,20.74965],[106.21896,20.73819],[106.21861,20.73292],[106.21262,20.73218],[106.21162,20.73061],[106.21222,20.72942],[106.21794,20.72543],[106.2221,20.7197],[106.22708,20.70615],[106.24507,20.69556],[106.24942,20.68672],[106.25251,20.68579],[106.26941,20.68404],[106.26785,20.68749],[106.25477,20.68977],[106.24992,20.69307],[106.24908,20.6948],[106.25038,20.698],[106.26214,20.70383],[106.26646,20.70374],[106.27116,20.69676],[106.274,20.6937],[106.27643,20.69271],[106.28045,20.69222],[106.28424,20.69294],[106.28867,20.69494],[106.28778,20.6993],[106.28284,20.70416],[106.28304,20.70923],[106.28463,20.71142],[106.29081,20.70888],[106.29338,20.70666],[106.29375,20.69842],[106.29499,20.69557],[106.29934,20.69064],[106.30275,20.69016],[106.3093,20.69412],[106.32112,20.69943],[106.32455,20.70192],[106.33224,20.71007],[106.33384,20.7108],[106.34072,20.71018],[106.34566,20.70302],[106.34796,20.70151],[106.35392,20.70038],[106.35783,20.70103],[106.36187,20.70284],[106.3723,20.70993],[106.37597,20.71116],[106.38177,20.71163],[106.38816,20.7165],[106.3955,20.72383],[106.4018,20.72833],[106.40753,20.7284],[106.40885,20.72245],[106.42082,20.71363],[106.42118,20.70837],[106.42056,20.70756],[106.41609,20.7074],[106.41159,20.70476],[106.40288,20.69353],[106.40234,20.68999],[106.42233,20.67456],[106.42895,20.66523],[106.44096,20.65633],[106.44632,20.64878],[106.45467,20.63987],[106.45549,20.63537],[106.45474,20.63169],[106.45017,20.62088],[106.45157,20.61915],[106.4614,20.61682],[106.46594,20.61386],[106.46939,20.60733],[106.47028,20.59973],[106.47198,20.5978],[106.4793,20.59831],[106.48308,20.60019],[106.48914,20.60817],[106.49134,20.61432],[106.49216,20.61541],[106.49465,20.6161],[106.50987,20.61416],[106.51618,20.6108],[106.51793,20.60844],[106.52011,20.6025],[106.52925,20.60246],[106.53833,20.60669],[106.53997,20.60815],[106.54142,20.61142],[106.54189,20.62243],[106.54696,20.62678],[106.55184,20.6275],[106.5599,20.62604],[106.56623,20.61977],[106.56989,20.61979],[106.58504,20.62687],[106.59188,20.63541],[106.59449,20.63711],[106.60168,20.63948],[106.60627,20.6311],[106.60977,20.62791],[106.61383,20.62598],[106.62187,20.6251],[106.63122,20.62782],[106.63426,20.62785],[106.63754,20.62644],[106.65167,20.61724],[106.65012,20.61513],[106.65405,20.60928],[106.65455,20.60648],[106.65381,20.60147],[106.65204,20.60013],[106.63071,20.59151],[106.61125,20.58043],[106.59789,20.5627],[106.59089,20.55545],[106.5852,20.55157],[106.58989,20.53919],[106.58779,20.52995],[106.58724,20.52064],[106.58974,20.51505],[106.59438,20.50957],[106.60277,20.49366],[106.60556,20.48108],[106.60472,20.47309],[106.60374,20.47082],[106.60034,20.46727],[106.59982,20.46542],[106.60127,20.4528],[106.60214,20.45052],[106.60408,20.44883],[106.60989,20.44627],[106.61615,20.44466],[106.61911,20.44242],[106.61818,20.43848],[106.60499,20.41381],[106.60352,20.41239],[106.60193,20.4124],[106.59859,20.41428],[106.59573,20.41371],[106.589,20.40577],[106.58489,20.39421],[106.58128,20.37626],[106.57984,20.37186],[106.57724,20.36769],[106.57712,20.36608],[106.58232,20.35438],[106.58352,20.35329],[106.58738,20.35266],[106.58913,20.35067],[106.59608,20.33011],[106.6037,20.31941],[106.60431,20.31731],[106.60465,20.30769],[106.60371,20.30232],[106.6028,20.29976],[106.59891,20.29776],[106.5982,20.29645],[106.59918,20.2931],[106.60663,20.29076],[106.60814,20.28949],[106.60863,20.28775],[106.60655,20.27654],[106.60138,20.26009],[106.5978,20.2514],[106.59569,20.24915],[106.5931,20.24935],[106.58898,20.24326],[106.58182,20.26105],[106.57902,20.26509],[106.54158,20.3007],[106.53088,20.31424],[106.52837,20.31607],[106.52349,20.31507],[106.51483,20.30979],[106.51056,20.30839],[106.50022,20.30867],[106.49748,20.30802],[106.48183,20.29315],[106.47715,20.29118],[106.46375,20.28871],[106.45717,20.28886],[106.44837,20.29075],[106.4412,20.29358],[106.42801,20.30306],[106.41308,20.32221],[106.4087,20.32999],[106.40378,20.33519],[106.3937,20.34187],[106.39077,20.34299],[106.37497,20.34498],[106.36566,20.34716],[106.3591,20.35046],[106.35177,20.35836],[106.34289,20.37506],[106.34108,20.3767],[106.33835,20.37711],[106.3357,20.37626],[106.32097,20.36108],[106.30864,20.35304],[106.29025,20.33635],[106.28169,20.33116],[106.27538,20.32824],[106.2702,20.32675],[106.26594,20.32659],[106.2625,20.32738],[106.25756,20.33028],[106.25446,20.33499],[106.25248,20.34122],[106.25202,20.34696],[106.25401,20.3545],[106.25637,20.3585],[106.26168,20.36324],[106.27851,20.37497],[106.28556,20.3819],[106.28671,20.38591],[106.28665,20.39059],[106.28526,20.39481],[106.28186,20.40009],[106.27803,20.40318],[106.26724,20.40548],[106.239,20.40538],[106.2313,20.40658],[106.22513,20.40873],[106.21806,20.4126],[106.21203,20.41972],[106.20983,20.42384],[106.20966,20.42786],[106.2109,20.43091],[106.2195,20.44376],[106.22469,20.45472],[106.22606,20.4615],[106.22548,20.46523],[106.22339,20.47041],[106.21795,20.4758],[106.21269,20.47804],[106.20449,20.47982],[106.1914,20.47953],[106.18745,20.4807],[106.18262,20.48561],[106.17992,20.49089],[106.17844,20.49702],[106.17979,20.5146],[106.17334,20.54716],[106.16823,20.55551],[106.16521,20.55935],[106.16168,20.56225],[106.14224,20.56897],[106.13304,20.57439],[106.13124,20.57765],[106.12843,20.59651],[106.12342,20.60572],[106.1188,20.61225],[106.10948,20.61642],[106.0975,20.6165],[106.09333,20.61519],[106.08035,20.60456],[106.07405,20.60316],[106.06887,20.60367]]]}},{"type":"Feature","properties":{"kind":"buffer","province_code":"33","buffer_m":5000,"source":"derived","simplify_tolerance_deg":0.0005},"geometry":{"type":"Polygon","coordinates":[[[105.86075,20.9325],[105.85804,20.94255],[105.85705,20.95603],[105.8582,20.96376],[105.86075,20.97118],[105.87346,20.99789],[105.87905,21.00476],[105.88588,21.01086],[105.89383,21.01559],[105.9056,21.01955],[105.91889,21.02116],[105.92761,21.02075],[105.93622,21.02746],[105.94667,21.0341],[105.95724,21.03914],[105.97253,21.04215],[105.98544,21.04587],[106.01333,21.0472],[106.02558,21.04628],[106.03947,21.05022],[106.052,21.05135],[106.0664,21.04998],[106.06982,21.04886],[106.07509,21.05054],[106.09002,21.05206],[106.09924,21.05116],[106.10811,21.0486],[106.11762,21.04364],[106.13022,21.04006],[106.15408,21.02512],[106.16114,21.01879],[106.16653,21.01176],[106.1746,21.00467],[106.18001,20.99736],[106.18242,20.99215],[106.19257,20.98294],[106.2003,20.97247],[106.20361,20.96504],[106.2056,20.95611],[106.20593,20.94791],[106.20468,20.93979],[106.20189,20.93169],[106.20349,20.92272],[106.20316,20.91366],[106.20092,20.90485],[106.19484,20.89407],[106.1947,20.87679],[106.19287,20.86825],[106.1901,20.86196],[106.18944,20.85238],[106.18698,20.84268],[106.18405,20.83705],[106.18632,20.8315],[106.1877,20.82448],[106.19657,20.81919],[106.20735,20.80856],[106.21713,20.80464],[106.22429,20.79984],[106.23133,20.79259],[106.24266,20.78691],[106.25178,20.77917],[106.25889,20.76895],[106.26284,20.75947],[106.26479,20.7524],[106.26978,20.75441],[106.27825,20.75623],[106.28693,20.75658],[106.29869,20.75494],[106.31043,20.75028],[106.32077,20.75431],[106.33153,20.75602],[106.34249,20.75591],[106.35688,20.75275],[106.3593,20.75356],[106.37278,20.76435],[106.38248,20.76973],[106.39452,20.77305],[106.40553,20.77371],[106.41759,20.77261],[106.42637,20.76999],[106.43445,20.76584],[106.44154,20.76031],[106.44737,20.7536],[106.44918,20.75045],[106.45669,20.74367],[106.46335,20.73457],[106.46747,20.72422],[106.46922,20.71352],[106.46887,20.70331],[106.46695,20.69498],[106.4726,20.69033],[106.48084,20.68149],[106.48493,20.67573],[106.49028,20.67018],[106.49678,20.66099],[106.51366,20.65958],[106.51998,20.66418],[106.52639,20.66764],[106.53594,20.67087],[106.54293,20.6723],[106.55006,20.67274],[106.56327,20.67157],[106.56722,20.67431],[106.57863,20.67978],[106.58581,20.68215],[106.59534,20.6843],[106.60513,20.68458],[106.61477,20.68298],[106.62387,20.67957],[106.63355,20.67306],[106.64422,20.67209],[106.65745,20.66758],[106.67651,20.6562],[106.68759,20.64722],[106.69325,20.63981],[106.69721,20.63148],[106.70187,20.61402],[106.7024,20.60215],[106.70096,20.59272],[106.69676,20.5813],[106.69123,20.57316],[106.68222,20.56496],[106.67078,20.55849],[106.65346,20.55158],[106.64495,20.54662],[106.63764,20.5373],[106.63688,20.53016],[106.64628,20.51273],[106.64975,20.5029],[106.65254,20.49033],[106.65355,20.48064],[106.65327,20.47405],[106.65869,20.46798],[106.66336,20.45991],[106.6662,20.45112],[106.66708,20.44042],[106.66632,20.43285],[106.66331,20.42313],[106.64756,20.39294],[106.63932,20.38221],[106.6301,20.37427],[106.63531,20.36296],[106.63937,20.35007],[106.64719,20.33852],[106.64997,20.33139],[106.6522,20.32015],[106.65258,20.30599],[106.65501,20.29934],[106.65657,20.2897],[106.6559,20.27997],[106.65382,20.26876],[106.64739,20.24725],[106.64256,20.23507],[106.6388,20.22789],[106.63376,20.22145],[106.61607,20.20594],[106.60758,20.20158],[106.59833,20.19891],[106.58871,20.19805],[106.57909,20.19902],[106.56988,20.20178],[106.56144,20.20623],[106.55412,20.21219],[106.54822,20.2194],[106.54397,20.22758],[106.53957,20.23878],[106.51571,20.2611],[106.50848,20.25554],[106.50139,20.25185],[106.48874,20.2473],[106.47789,20.24497],[106.47079,20.24398],[106.456,20.24365],[106.43771,20.24666],[106.42265,20.25188],[106.41407,20.25628],[106.39722,20.26838],[106.38518,20.2811],[106.37143,20.29988],[106.35411,20.30327],[106.34305,20.30727],[106.33363,20.31251],[106.32174,20.30223],[106.30284,20.29056],[106.28941,20.28499],[106.27212,20.28156],[106.25458,20.28265],[106.24389,20.2857],[106.23217,20.29191],[106.2236,20.29833],[106.21369,20.31112],[106.20848,20.32203],[106.2065,20.32826],[106.20463,20.33781],[106.2042,20.35075],[106.20792,20.36657],[106.19394,20.37351],[106.18671,20.37837],[106.17453,20.39151],[106.16695,20.40355],[106.16337,20.41254],[106.16171,20.42604],[106.16231,20.4352],[106.16407,20.44133],[106.15839,20.44472],[106.14743,20.45486],[106.14297,20.46013],[106.13669,20.47125],[106.13312,20.48089],[106.13059,20.49361],[106.1316,20.51358],[106.12929,20.52539],[106.1161,20.5309],[106.10083,20.54086],[106.09476,20.54712],[106.08739,20.55967],[106.07708,20.55803],[106.06905,20.55819],[106.05115,20.56165],[106.03632,20.56776],[106.0243,20.57627],[106.00709,20.59316],[105.99933,20.60286],[105.99241,20.61354],[105.98804,20.62316],[105.98415,20.63977],[105.98563,20.6546],[105.97658,20.65406],[105.9651,20.65513],[105.95417,20.65837],[105.94578,20.66291],[105.93854,20.66895],[105.93272,20.67624],[105.92857,20.68447],[105.91892,20.71001],[105.91656,20.71924],[105.91629,20.72873],[105.91813,20.73806],[105.91943,20.741],[105.91061,20.74388],[105.90248,20.74836],[105.89694,20.75215],[105.88476,20.7637],[105.87842,20.77283],[105.87491,20.77952],[105.86661,20.80222],[105.86376,20.81687],[105.86333,20.82905],[105.86553,20.84585],[105.86939,20.85526],[105.86438,20.85932],[105.85446,20.87157],[105.84999,20.88067],[105.84746,20.89336],[105.84747,20.90345],[105.8491,20.91295],[105.85283,20.92191],[105.86075,20.9325]]]}}]}