{"type":"FeatureCollection","features":[{"type":"Feature","properties":{"kind":"boundary","province_code":"66","name":"Tỉnh Đắk Lắk","source":"VNSDI","valid_from":"16/6/2025","simplify_tolerance_deg":0.0005},"geometry":{"type":"MultiPolygon","coordinates":[[[[108.04477,12.2728],[108.04234,12.27892],[108.04068,12.28819],[108.03876,12.28893],[108.02781,12.2883],[108.02012,12.29055],[108.01907,12.292],[108.01811,12.29926],[108.01602,12.30237],[108.01433,12.30205],[108.00929,12.2979],[108.00484,12.29605],[108.00336,12.29688],[107.99948,12.30426],[107.99803,12.30446],[107.98718,12.30104],[107.98146,12.29756],[107.97659,12.29684],[107.97516,12.29938],[107.97432,12.30573],[107.97102,12.31114],[107.95524,12.31778],[107.94461,12.3264],[107.94366,12.32869],[107.94521,12.33339],[107.94313,12.33573],[107.93506,12.34123],[107.93127,12.35294],[107.93078,12.35566],[107.93375,12.36478],[107.9335,12.3734],[107.9303,12.37667],[107.92109,12.38083],[107.91282,12.39895],[107.9129,12.40244],[107.91571,12.40633],[107.92384,12.40918],[107.92627,12.41178],[107.92639,12.41496],[107.92275,12.42324],[107.9224,12.42612],[107.92315,12.42809],[107.92589,12.43085],[107.93895,12.43418],[107.94919,12.4405],[107.95242,12.44129],[107.95645,12.44027],[107.96323,12.437],[107.96603,12.43675],[107.98517,12.44666],[107.99107,12.45631],[107.99281,12.46537],[107.99659,12.47171],[108.00011,12.47423],[108.001,12.47711],[107.99956,12.48179],[107.99705,12.4857],[107.99228,12.48489],[107.99041,12.48638],[107.98623,12.49469],[107.98283,12.49653],[107.97845,12.50246],[107.95762,12.5194],[107.94978,12.52409],[107.9441,12.52673],[107.9363,12.52901],[107.92439,12.53054],[107.91535,12.52823],[107.91285,12.52562],[107.91003,12.52578],[107.90563,12.52745],[107.89589,12.53709],[107.88924,12.53978],[107.88814,12.54187],[107.88885,12.54809],[107.89595,12.55363],[107.89469,12.55983],[107.89494,12.56439],[107.90985,12.57599],[107.91924,12.57968],[107.92629,12.58031],[107.9318,12.5836],[107.93387,12.58714],[107.93497,12.59281],[107.93413,12.59596],[107.93002,12.60118],[107.92907,12.604],[107.9291,12.61483],[107.9281,12.61757],[107.92513,12.62148],[107.9226,12.62957],[107.92102,12.64245],[107.91916,12.64661],[107.90754,12.64619],[107.90465,12.64956],[107.90541,12.65293],[107.9075,12.65445],[107.91204,12.65571],[107.91452,12.65837],[107.91411,12.66341],[107.91297,12.66552],[107.9059,12.67083],[107.90547,12.67719],[107.90812,12.68502],[107.91035,12.68727],[107.9115,12.68995],[107.91217,12.6935],[107.896,12.7116],[107.89618,12.71538],[107.8966,12.71953],[107.89814,12.72278],[107.90018,12.72483],[107.90703,12.72799],[107.90932,12.73194],[107.91002,12.73835],[107.90314,12.7441],[107.89051,12.74988],[107.87672,12.75207],[107.87297,12.75114],[107.86853,12.75138],[107.86078,12.7562],[107.85686,12.76059],[107.85629,12.76378],[107.8567,12.77084],[107.85376,12.77919],[107.85445,12.78264],[107.86324,12.79446],[107.86315,12.79842],[107.85573,12.80785],[107.84886,12.81228],[107.84739,12.8124],[107.84497,12.81141],[107.8339,12.80343],[107.82954,12.80194],[107.82441,12.80169],[107.81945,12.7929],[107.80398,12.77893],[107.77885,12.77945],[107.73407,12.78338],[107.706,12.7893],[107.6673,12.79612],[107.63829,12.79907],[107.60954,12.79861],[107.56188,12.79344],[107.55609,12.80001],[107.55371,12.80399],[107.5527,12.80672],[107.55402,12.81701],[107.55312,12.82058],[107.54767,12.82885],[107.54162,12.83417],[107.52689,12.8406],[107.52387,12.84952],[107.52154,12.85367],[107.51938,12.85528],[107.5116,12.85682],[107.51097,12.85875],[107.51259,12.86235],[107.51285,12.86534],[107.51174,12.86861],[107.5021,12.87281],[107.49714,12.87932],[107.49178,12.89283],[107.49079,12.89849],[107.49543,12.90222],[107.49972,12.91294],[107.49967,12.91592],[107.4935,12.92226],[107.49261,12.93165],[107.49329,12.93704],[107.49143,12.93955],[107.48561,12.94186],[107.48419,12.94557],[107.48429,12.94975],[107.48574,12.95804],[107.48956,12.96376],[107.4897,12.9651],[107.48753,12.96731],[107.48713,12.96951],[107.49409,12.97349],[107.50194,12.97314],[107.50412,12.97457],[107.50429,12.97621],[107.49837,12.98168],[107.49722,12.98406],[107.49871,12.99588],[107.49815,12.99764],[107.49645,12.99909],[107.4915,13.00058],[107.49109,13.00152],[107.49099,13.00489],[107.49317,13.01079],[107.49175,13.01496],[107.49144,13.02024],[107.49306,13.02138],[107.49326,13.0225],[107.49485,13.02306],[107.49423,13.02665],[107.49545,13.0279],[107.49788,13.03386],[107.60683,13.30453],[107.61486,13.30822],[107.61544,13.3111],[107.61674,13.31218],[107.63772,13.32003],[107.64769,13.32473],[107.64935,13.32695],[107.65459,13.34142],[107.65919,13.34718],[107.66601,13.35235],[107.68005,13.36079],[107.69593,13.37234],[107.70444,13.37537],[107.70988,13.37017],[107.71997,13.36722],[107.74743,13.36363],[107.7601,13.36447],[107.76877,13.36662],[107.7858,13.37712],[107.79421,13.38373],[107.79665,13.38708],[107.79848,13.39157],[107.80148,13.39325],[107.80696,13.39418],[107.81952,13.39342],[107.83297,13.39732],[107.8389,13.40053],[107.85146,13.38952],[107.87522,13.39349],[107.87788,13.39283],[107.88353,13.3887],[107.88964,13.38621],[107.90799,13.38862],[107.92069,13.38588],[107.93339,13.37568],[107.94642,13.38239],[107.94931,13.38302],[107.96423,13.37995],[107.97981,13.38353],[107.98153,13.38457],[107.98032,13.39004],[107.98289,13.39272],[107.99746,13.39034],[108.0015,13.38592],[108.00805,13.38131],[108.01588,13.3842],[108.02009,13.38726],[108.02952,13.39819],[108.04269,13.40703],[108.05215,13.41216],[108.06285,13.41171],[108.06799,13.41005],[108.06941,13.40917],[108.07066,13.40288],[108.07284,13.40061],[108.07538,13.40006],[108.08064,13.40108],[108.08644,13.4065],[108.09032,13.40846],[108.1014,13.41049],[108.11151,13.41673],[108.11366,13.41637],[108.12415,13.40981],[108.14433,13.40647],[108.154,13.40054],[108.15967,13.39947],[108.16294,13.39785],[108.1669,13.39306],[108.17524,13.38945],[108.17747,13.3866],[108.17786,13.3845],[108.18423,13.38111],[108.19689,13.37721],[108.20261,13.37362],[108.20533,13.37355],[108.20921,13.37661],[108.21246,13.36945],[108.21394,13.36889],[108.22379,13.3725],[108.23232,13.37319],[108.23736,13.3731],[108.24116,13.36946],[108.24321,13.36848],[108.24862,13.36854],[108.25928,13.37017],[108.26349,13.3727],[108.28296,13.36055],[108.28978,13.35259],[108.29497,13.35171],[108.31139,13.34642],[108.32691,13.34299],[108.33398,13.33948],[108.34658,13.33918],[108.34788,13.33173],[108.35155,13.33054],[108.35376,13.3283],[108.35428,13.32104],[108.35542,13.31711],[108.35702,13.31533],[108.36387,13.31168],[108.37106,13.30424],[108.37015,13.29778],[108.37059,13.29254],[108.37356,13.2821],[108.37308,13.27234],[108.37415,13.26776],[108.37697,13.26464],[108.38897,13.2568],[108.39646,13.25522],[108.39905,13.256],[108.40486,13.25972],[108.40781,13.25802],[108.40919,13.25618],[108.40873,13.25466],[108.40971,13.24936],[108.41787,13.23779],[108.42062,13.22676],[108.41957,13.22311],[108.41731,13.21976],[108.41883,13.21234],[108.4262,13.19396],[108.43414,13.18361],[108.46178,13.16188],[108.46298,13.1594],[108.46383,13.15176],[108.4667,13.13898],[108.46575,13.13667],[108.45927,13.13252],[108.45758,13.12844],[108.45767,13.1268],[108.46171,13.1197],[108.46443,13.11732],[108.48786,13.11088],[108.49001,13.109],[108.50157,13.08673],[108.51112,13.07711],[108.52012,13.06568],[108.52034,13.0632],[108.51285,13.05127],[108.51098,13.04543],[108.5112,13.04257],[108.51295,13.03892],[108.51644,13.03686],[108.54075,13.03092],[108.56775,13.01948],[108.57798,13.0281],[108.5917,13.02925],[108.59778,13.02382],[108.60208,13.01678],[108.61714,13.00982],[108.62494,13.00797],[108.63209,13.01018],[108.63852,13.01067],[108.64204,13.00956],[108.6469,13.00644],[108.65177,13.00161],[108.65515,13.00006],[108.65837,12.99995],[108.66363,13.00214],[108.66722,13.0024],[108.67112,13.00141],[108.67388,12.99899],[108.67499,12.9962],[108.68125,12.99819],[108.68904,13.00863],[108.69288,13.01657],[108.71265,13.01723],[108.71911,13.01911],[108.74933,13.03081],[108.75534,13.03591],[108.75157,13.07624],[108.75189,13.07938],[108.75387,13.08363],[108.75369,13.0846],[108.7488,13.08817],[108.74808,13.09012],[108.74823,13.09236],[108.75518,13.1007],[108.7574,13.10052],[108.75719,13.10295],[108.76032,13.11216],[108.76152,13.11953],[108.76091,13.12249],[108.75953,13.12439],[108.76011,13.13032],[108.76303,13.13415],[108.77072,13.13528],[108.77671,13.1377],[108.77542,13.14501],[108.77723,13.14712],[108.78196,13.14701],[108.79052,13.14439],[108.79375,13.14114],[108.79574,13.14115],[108.79679,13.14221],[108.79741,13.14955],[108.79876,13.15121],[108.80914,13.15461],[108.81358,13.15744],[108.81663,13.15732],[108.82046,13.15526],[108.82352,13.15469],[108.82564,13.1559],[108.82787,13.16235],[108.83,13.16296],[108.83587,13.16198],[108.84059,13.16292],[108.84195,13.16502],[108.84274,13.17159],[108.84587,13.1788],[108.8528,13.18916],[108.85459,13.19395],[108.85426,13.19634],[108.84887,13.20287],[108.84885,13.20511],[108.84996,13.20753],[108.85223,13.20822],[108.84953,13.21716],[108.85727,13.22368],[108.86547,13.22577],[108.86786,13.23086],[108.87078,13.25009],[108.87074,13.25355],[108.86876,13.25822],[108.86866,13.26252],[108.87234,13.27861],[108.87214,13.28333],[108.8709,13.28547],[108.86819,13.28748],[108.86099,13.2873],[108.85925,13.28829],[108.85143,13.29957],[108.84137,13.32064],[108.82807,13.33831],[108.82055,13.34685],[108.81131,13.3555],[108.80868,13.36061],[108.80497,13.38015],[108.8071,13.39417],[108.80421,13.42685],[108.80536,13.43475],[108.80186,13.44333],[108.79668,13.44854],[108.79103,13.45208],[108.79002,13.45613],[108.79168,13.46117],[108.79482,13.46454],[108.79525,13.47148],[108.79369,13.47593],[108.78943,13.4699],[108.78573,13.46814],[108.77763,13.46693],[108.76894,13.4645],[108.76415,13.46397],[108.76094,13.46496],[108.75655,13.46492],[108.75304,13.46412],[108.7507,13.46267],[108.74684,13.45833],[108.74179,13.45725],[108.72728,13.46261],[108.71581,13.46259],[108.71327,13.46645],[108.71319,13.46843],[108.71457,13.47101],[108.71431,13.4728],[108.7127,13.47464],[108.70583,13.4784],[108.70454,13.48001],[108.70486,13.48738],[108.70793,13.49519],[108.71378,13.51608],[108.71687,13.51883],[108.72746,13.52047],[108.73037,13.52338],[108.73281,13.52764],[108.73421,13.54295],[108.73617,13.54903],[108.74157,13.55689],[108.74526,13.55543],[108.74733,13.55562],[108.74805,13.56619],[108.75888,13.56233],[108.7669,13.5613],[108.76891,13.56245],[108.77094,13.56633],[108.77462,13.57042],[108.78647,13.57725],[108.79136,13.57789],[108.81298,13.57702],[108.81442,13.57637],[108.82,13.56932],[108.82737,13.56499],[108.83685,13.56379],[108.84189,13.56399],[108.84894,13.56691],[108.85051,13.56904],[108.85598,13.56013],[108.85704,13.55058],[108.85887,13.54615],[108.86752,13.53504],[108.88779,13.53707],[108.89307,13.53823],[108.89339,13.54013],[108.8954,13.54117],[108.9041,13.53825],[108.90575,13.5388],[108.9068,13.54124],[108.91688,13.54134],[108.9205,13.54099],[108.93124,13.53545],[108.9438,13.52696],[108.97034,13.52619],[108.97537,13.52838],[108.98529,13.52861],[108.99176,13.52702],[108.99944,13.52275],[109.00723,13.52336],[109.02799,13.53045],[109.03227,13.5362],[109.03421,13.5423],[109.04098,13.54921],[109.05172,13.56756],[109.05542,13.56892],[109.08433,13.5671],[109.09465,13.57284],[109.10324,13.58349],[109.11143,13.58737],[109.1163,13.58435],[109.11775,13.58479],[109.11834,13.5865],[109.11421,13.59149],[109.11355,13.5943],[109.11586,13.61506],[109.11793,13.61809],[109.1264,13.62006],[109.12681,13.62178],[109.12542,13.6275],[109.11899,13.63693],[109.11996,13.64159],[109.1222,13.64434],[109.12627,13.64377],[109.13731,13.63531],[109.14443,13.63099],[109.14721,13.63102],[109.15217,13.6335],[109.15323,13.63578],[109.15362,13.64454],[109.15322,13.64847],[109.15081,13.6554],[109.15527,13.66336],[109.15669,13.67064],[109.15607,13.67759],[109.15724,13.67855],[109.16347,13.6781],[109.16545,13.67856],[109.16834,13.68082],[109.18092,13.68301],[109.19062,13.69354],[109.19227,13.69421],[109.2019,13.69455],[109.20291,13.69444],[109.20502,13.68587],[109.20828,13.68077],[109.21302,13.67912],[109.2156,13.68138],[109.21845,13.68157],[109.23099,13.67539],[109.23303,13.67121],[109.23137,13.6696],[109.23053,13.66588],[109.23281,13.65515],[109.22976,13.64668],[109.2287,13.63735],[109.23022,13.63134],[109.24022,13.61163],[109.25044,13.59728],[109.2594,13.58805],[109.27212,13.57682],[109.28169,13.57229],[109.28448,13.57217],[109.28989,13.57421],[109.29479,13.57373],[109.29622,13.57278],[109.29854,13.56905],[109.29757,13.56733],[109.29024,13.56856],[109.28883,13.56673],[109.28985,13.56214],[109.28907,13.5603],[109.2859,13.55754],[109.2796,13.55649],[109.27888,13.55491],[109.2789,13.53425],[109.28697,13.5293],[109.29552,13.52632],[109.30085,13.52167],[109.30186,13.51815],[109.30043,13.5112],[109.29427,13.50911],[109.28927,13.50544],[109.28741,13.50257],[109.28741,13.49617],[109.29072,13.4856],[109.29649,13.47474],[109.3024,13.46797],[109.30589,13.46549],[109.30933,13.46425],[109.31473,13.4651],[109.3174,13.46698],[109.32112,13.47314],[109.32441,13.4743],[109.32656,13.47335],[109.32899,13.47048],[109.33036,13.46455],[109.32975,13.46263],[109.32883,13.46218],[109.32062,13.46217],[109.31593,13.45845],[109.31513,13.45309],[109.31872,13.44753],[109.3196,13.44387],[109.31375,13.44183],[109.31071,13.43821],[109.3118,13.42515],[109.31112,13.41378],[109.30996,13.41333],[109.30409,13.41558],[109.30264,13.41529],[109.30061,13.41279],[109.29947,13.40951],[109.29984,13.40667],[109.29923,13.40574],[109.29694,13.40516],[109.29493,13.40571],[109.29357,13.40783],[109.29305,13.41069],[109.29359,13.41484],[109.29133,13.41694],[109.26791,13.41361],[109.26547,13.41539],[109.26456,13.42128],[109.25906,13.42614],[109.25935,13.42848],[109.26197,13.43228],[109.26525,13.4345],[109.27223,13.43322],[109.27459,13.43386],[109.27625,13.43537],[109.27862,13.44058],[109.28262,13.44568],[109.2887,13.44536],[109.29091,13.44664],[109.29264,13.45048],[109.29216,13.45619],[109.29009,13.46008],[109.2866,13.46293],[109.28453,13.46337],[109.28126,13.46172],[109.27802,13.46407],[109.27508,13.46995],[109.26659,13.47945],[109.25651,13.48177],[109.25177,13.48424],[109.24971,13.48747],[109.24691,13.49476],[109.24575,13.4952],[109.24124,13.49416],[109.23988,13.49285],[109.24013,13.48918],[109.23947,13.48796],[109.23376,13.48497],[109.22952,13.47993],[109.2308,13.47658],[109.23286,13.475],[109.23312,13.47136],[109.22949,13.46662],[109.22611,13.4603],[109.22399,13.45325],[109.22072,13.44939],[109.22052,13.44742],[109.22728,13.43222],[109.22925,13.43116],[109.23624,13.43134],[109.23797,13.43029],[109.23825,13.42912],[109.23728,13.42731],[109.23304,13.4245],[109.23169,13.42441],[109.22873,13.426],[109.22628,13.42547],[109.22395,13.42368],[109.21943,13.41777],[109.22007,13.41506],[109.22192,13.41431],[109.22841,13.41398],[109.23043,13.41247],[109.22775,13.39853],[109.2206,13.39622],[109.22031,13.39323],[109.2217,13.39114],[109.22522,13.39012],[109.23545,13.39182],[109.24338,13.38917],[109.24456,13.38677],[109.24683,13.37646],[109.25225,13.36634],[109.26125,13.35748],[109.26736,13.35467],[109.27051,13.36272],[109.27295,13.36525],[109.27548,13.36561],[109.27965,13.3639],[109.28362,13.36351],[109.28871,13.36559],[109.29123,13.36559],[109.29352,13.36397],[109.29572,13.3559],[109.29515,13.35494],[109.29075,13.35292],[109.29053,13.34932],[109.29133,13.34657],[109.29336,13.34383],[109.29819,13.34023],[109.29953,13.33638],[109.2991,13.33488],[109.29715,13.33316],[109.29392,13.33364],[109.28957,13.3363],[109.28635,13.33541],[109.28432,13.33296],[109.2823,13.32764],[109.28175,13.32275],[109.28297,13.31616],[109.28612,13.30671],[109.29073,13.29627],[109.29887,13.28398],[109.30831,13.27501],[109.31161,13.26825],[109.31521,13.25602],[109.31319,13.25329],[109.30499,13.25031],[109.30269,13.24826],[109.30167,13.24316],[109.30395,13.22834],[109.29768,13.22371],[109.29304,13.21693],[109.29308,13.21205],[109.29608,13.20034],[109.30335,13.1885],[109.29755,13.18044],[109.29322,13.16735],[109.29219,13.15248],[109.29462,13.14162],[109.30026,13.12713],[109.30311,13.12228],[109.32698,13.09089],[109.33432,13.0799],[109.34189,13.06455],[109.36918,13.01752],[109.40548,12.97127],[109.42229,12.95362],[109.42141,12.95172],[109.41767,12.94934],[109.41729,12.94531],[109.42499,12.94381],[109.42657,12.94486],[109.42722,12.94731],[109.42981,12.94692],[109.43153,12.94344],[109.43112,12.94177],[109.42886,12.93999],[109.42903,12.93769],[109.43746,12.92543],[109.44464,12.9169],[109.44927,12.9161],[109.45566,12.9129],[109.44919,12.89442],[109.45005,12.89399],[109.45554,12.89747],[109.45783,12.89749],[109.4583,12.89652],[109.45721,12.89273],[109.45412,12.88831],[109.45746,12.88356],[109.45571,12.88065],[109.4525,12.87946],[109.45136,12.87715],[109.45134,12.87118],[109.45331,12.86637],[109.45355,12.86304],[109.45343,12.8608],[109.45226,12.85925],[109.44995,12.85806],[109.43941,12.85699],[109.43205,12.85205],[109.43027,12.84848],[109.42797,12.847],[109.42009,12.84804],[109.42009,12.84974],[109.42407,12.85526],[109.42887,12.86051],[109.43244,12.86263],[109.43537,12.86561],[109.43754,12.86925],[109.43779,12.88027],[109.43654,12.88109],[109.42926,12.88096],[109.42324,12.877],[109.41895,12.872],[109.40082,12.86609],[109.40063,12.86495],[109.40311,12.86036],[109.40305,12.85874],[109.39997,12.85364],[109.39521,12.85246],[109.39273,12.85063],[109.39085,12.84738],[109.39113,12.84433],[109.38887,12.84254],[109.38027,12.84792],[109.37496,12.85506],[109.37015,12.86421],[109.36689,12.86749],[109.36527,12.86806],[109.36343,12.86723],[109.35913,12.86075],[109.35268,12.85949],[109.34034,12.84997],[109.32971,12.84972],[109.32702,12.84145],[109.32048,12.8357],[109.31865,12.83578],[109.31694,12.83699],[109.31403,12.84325],[109.30663,12.8407],[109.30142,12.84116],[109.29083,12.83532],[109.28281,12.8336],[109.27108,12.83383],[109.26173,12.83702],[109.25546,12.83784],[109.24942,12.83137],[109.23936,12.82356],[109.23221,12.81645],[109.2268,12.81326],[109.22205,12.81397],[109.22041,12.81505],[109.21709,12.82031],[109.21507,12.82598],[109.20942,12.8303],[109.20585,12.83108],[109.19688,12.83119],[109.16815,12.82703],[109.16489,12.82563],[109.16262,12.82366],[109.15574,12.81197],[109.14922,12.7953],[109.14711,12.7843],[109.14386,12.78095],[109.13971,12.78097],[109.13507,12.78507],[109.12908,12.78779],[109.12516,12.79539],[109.12228,12.7979],[109.11718,12.79884],[109.1152,12.79825],[109.11352,12.79583],[109.11271,12.78646],[109.11041,12.78145],[109.10474,12.77321],[109.10074,12.76851],[109.09282,12.76503],[109.09043,12.76289],[109.09128,12.75119],[109.08909,12.74738],[109.08595,12.74455],[109.08158,12.74297],[109.07842,12.74392],[109.07389,12.74698],[109.07017,12.75166],[109.06764,12.75348],[109.06597,12.75371],[109.05987,12.74493],[109.04992,12.74646],[109.04349,12.74619],[109.03913,12.74306],[109.03782,12.73834],[109.03631,12.73707],[109.03048,12.73553],[109.02492,12.73595],[109.02271,12.73467],[109.01568,12.72893],[109.01498,12.72135],[109.01353,12.71939],[108.99136,12.70495],[108.986,12.70332],[108.98658,12.69801],[108.98884,12.69235],[108.98834,12.69045],[108.98475,12.68915],[108.97891,12.68357],[108.97594,12.68283],[108.96883,12.68345],[108.95726,12.68651],[108.95492,12.68626],[108.95146,12.68115],[108.94649,12.67669],[108.9431,12.67081],[108.93778,12.65996],[108.93693,12.64991],[108.93342,12.64524],[108.92542,12.64011],[108.91877,12.63814],[108.91657,12.63827],[108.91339,12.63997],[108.91028,12.63937],[108.89792,12.62649],[108.89884,12.62506],[108.90546,12.62125],[108.90723,12.61902],[108.91638,12.60612],[108.918,12.59988],[108.90285,12.58475],[108.89956,12.58249],[108.89319,12.58033],[108.89182,12.57861],[108.8949,12.5676],[108.89435,12.56383],[108.89251,12.55963],[108.89274,12.55249],[108.89183,12.5487],[108.88953,12.54611],[108.88505,12.54392],[108.87888,12.53891],[108.87551,12.53506],[108.87253,12.52739],[108.8725,12.52362],[108.87394,12.51825],[108.87381,12.51257],[108.87233,12.50652],[108.87059,12.50442],[108.86246,12.49954],[108.86004,12.49631],[108.86017,12.4939],[108.86624,12.48763],[108.87669,12.48054],[108.87794,12.47872],[108.87697,12.47258],[108.87324,12.47195],[108.8704,12.46909],[108.87039,12.45715],[108.86901,12.45355],[108.86556,12.45286],[108.85692,12.45723],[108.84892,12.45851],[108.84267,12.46104],[108.82413,12.47377],[108.81807,12.47671],[108.81312,12.48174],[108.79921,12.48446],[108.79567,12.4884],[108.79485,12.49491],[108.79325,12.49871],[108.79022,12.50017],[108.78369,12.50155],[108.77773,12.50423],[108.76723,12.5029],[108.76308,12.49803],[108.75484,12.50035],[108.7529,12.49957],[108.75021,12.49549],[108.74823,12.48055],[108.74714,12.4797],[108.74281,12.47902],[108.73817,12.47497],[108.73491,12.47537],[108.72083,12.48204],[108.71532,12.48372],[108.71299,12.48336],[108.7013,12.47322],[108.69931,12.46887],[108.69871,12.46094],[108.69037,12.45398],[108.68655,12.44975],[108.68199,12.44147],[108.67234,12.43123],[108.67025,12.42806],[108.66897,12.42382],[108.67049,12.42082],[108.67267,12.41865],[108.67863,12.4164],[108.67981,12.41512],[108.67966,12.41218],[108.67718,12.40761],[108.67368,12.40331],[108.67344,12.40112],[108.67746,12.39251],[108.68065,12.39078],[108.68416,12.39027],[108.68629,12.38774],[108.68638,12.38624],[108.68242,12.37979],[108.68803,12.37686],[108.68924,12.37274],[108.68915,12.37012],[108.68634,12.36217],[108.68299,12.36085],[108.6801,12.35803],[108.67817,12.35357],[108.67719,12.34872],[108.67965,12.3401],[108.68495,12.33333],[108.68549,12.32975],[108.68473,12.32508],[108.67971,12.31884],[108.67996,12.31624],[108.67101,12.30336],[108.66726,12.29992],[108.66221,12.2976],[108.65006,12.29424],[108.63691,12.29351],[108.62743,12.28883],[108.62214,12.29048],[108.61562,12.28398],[108.61083,12.28352],[108.60348,12.27981],[108.59537,12.27759],[108.59177,12.27948],[108.5892,12.28249],[108.58913,12.28712],[108.58778,12.28862],[108.57778,12.2887],[108.56732,12.29205],[108.55008,12.29183],[108.54669,12.2937],[108.54464,12.29747],[108.54229,12.29759],[108.54018,12.29669],[108.5376,12.29301],[108.53763,12.28996],[108.53963,12.28574],[108.53906,12.28427],[108.53557,12.28156],[108.51448,12.27761],[108.50968,12.27736],[108.50278,12.28091],[108.49923,12.28435],[108.4986,12.28716],[108.49958,12.29225],[108.49126,12.30626],[108.48624,12.3089],[108.48287,12.30944],[108.4806,12.30551],[108.47958,12.30023],[108.47538,12.29672],[108.47131,12.29564],[108.46529,12.29685],[108.46456,12.2906],[108.46602,12.2824],[108.45951,12.2756],[108.44894,12.2733],[108.44672,12.27407],[108.44404,12.27796],[108.44292,12.27763],[108.44149,12.27492],[108.44051,12.26437],[108.43665,12.25761],[108.43989,12.2522],[108.43925,12.25038],[108.43721,12.24988],[108.4348,12.25266],[108.43188,12.2582],[108.42973,12.25912],[108.42784,12.25799],[108.42682,12.25149],[108.41914,12.24936],[108.41394,12.24507],[108.41104,12.24391],[108.40489,12.24381],[108.39152,12.24187],[108.38578,12.24251],[108.37929,12.24737],[108.36817,12.25375],[108.36209,12.25299],[108.35683,12.25485],[108.35086,12.2521],[108.3442,12.24575],[108.34159,12.24538],[108.33884,12.248],[108.33625,12.24817],[108.33441,12.24574],[108.3339,12.23754],[108.33946,12.23392],[108.34063,12.22921],[108.34017,12.22788],[108.33844,12.22731],[108.33293,12.23024],[108.33079,12.23043],[108.32146,12.22404],[108.32116,12.22273],[108.32221,12.21974],[108.31109,12.21621],[108.30625,12.2117],[108.30161,12.20873],[108.29798,12.20326],[108.29614,12.20189],[108.29495,12.2023],[108.29447,12.2076],[108.29334,12.20873],[108.27969,12.21371],[108.27695,12.21376],[108.27368,12.21007],[108.27193,12.20459],[108.26944,12.20343],[108.26546,12.20327],[108.25992,12.20025],[108.25997,12.19405],[108.2527,12.18817],[108.24868,12.17872],[108.24913,12.17676],[108.25373,12.17377],[108.25407,12.17217],[108.2498,12.16989],[108.24382,12.16252],[108.24095,12.1608],[108.23975,12.16155],[108.23897,12.16374],[108.2376,12.17338],[108.23495,12.17553],[108.23067,12.17732],[108.22751,12.18258],[108.22035,12.18362],[108.21698,12.18322],[108.21001,12.17886],[108.20891,12.17654],[108.20903,12.17253],[108.20491,12.17049],[108.1997,12.17042],[108.18771,12.1728],[108.18496,12.17458],[108.18051,12.18169],[108.17605,12.18524],[108.16268,12.19083],[108.15716,12.19006],[108.12958,12.17912],[108.12405,12.17604],[108.11967,12.17554],[108.1131,12.18545],[108.11319,12.19384],[108.11161,12.19772],[108.10509,12.20577],[108.09687,12.21123],[108.09192,12.21901],[108.08287,12.23813],[108.0808,12.24107],[108.07775,12.24429],[108.06618,12.25286],[108.0548,12.26259],[108.04477,12.2728]]],[[[109.39074,12.82858],[109.39326,12.83424],[109.39754,12.83237],[109.39776,12.8314],[109.39313,12.82682],[109.39165,12.82691],[109.39074,12.82858]]],[[[109.32079,13.16741],[109.32156,13.16877],[109.32351,13.16812],[109.32283,13.16703],[109.32079,13.16741]]],[[[109.31207,13.17368],[109.30914,13.17565],[109.30928,13.17777],[109.31078,13.17991],[109.31294,13.17993],[109.3124,13.17767],[109.31314,13.17413],[109.31207,13.17368]]],[[[109.33123,13.27643],[109.32853,13.28112],[109.32798,13.28418],[109.32858,13.28667],[109.33044,13.28845],[109.33495,13.28818],[109.34246,13.28149],[109.3416,13.27898],[109.34039,13.27803],[109.33486,13.27583],[109.33123,13.27643]]],[[[109.24197,13.39595],[109.24614,13.39743],[109.24671,13.39723],[109.24594,13.39618],[109.24135,13.39417],[109.24197,13.39595]]],[[[109.22775,13.41926],[109.22812,13.42013],[109.22933,13.41997],[109.22896,13.41746],[109.22775,13.41926]]],[[[109.27117,13.45856],[109.27144,13.46023],[109.27291,13.46072],[109.27383,13.46012],[109.27475,13.45717],[109.2737,13.45502],[109.27218,13.45526],[109.27117,13.45856]]]]}},{"type":"Feature","properties":{"kind":"buffer","province_code":"66","buffer_m":5000,"source":"derived","simplify_tolerance_deg":0.0005},"geometry":{"type":"Polygon","coordinates":[[[107.43821,12.95075],[107.44194,12.97835],[107.44441,12.98647],[107.4466,12.99061],[107.44503,13.00032],[107.44492,13.00631],[107.44572,13.01254],[107.44576,13.02622],[107.44773,13.03459],[107.45504,13.05054],[107.56406,13.32138],[107.56809,13.32903],[107.57353,13.3358],[107.5934,13.3512],[107.61204,13.35885],[107.61976,13.37167],[107.63108,13.38314],[107.64031,13.38988],[107.65394,13.39805],[107.66985,13.40962],[107.6802,13.41514],[107.69327,13.41924],[107.70197,13.42052],[107.71075,13.42016],[107.71931,13.41817],[107.72732,13.41462],[107.73225,13.4112],[107.75119,13.40884],[107.75828,13.41341],[107.7622,13.41944],[107.76834,13.42577],[107.77861,13.43251],[107.79233,13.43766],[107.80382,13.43929],[107.81465,13.43905],[107.82533,13.44375],[107.83461,13.44555],[107.84406,13.44547],[107.8533,13.44348],[107.86193,13.4397],[107.86471,13.43773],[107.87174,13.43858],[107.88232,13.43819],[107.89424,13.43512],[107.89802,13.43325],[107.90808,13.43385],[107.91619,13.43312],[107.93187,13.42989],[107.9389,13.42707],[107.95367,13.42805],[107.96336,13.43378],[107.97669,13.43753],[107.98717,13.43778],[108.00355,13.43555],[108.0204,13.44661],[108.02986,13.45174],[108.03945,13.45563],[108.04969,13.45731],[108.05978,13.45738],[108.06697,13.45675],[108.08246,13.45297],[108.08444,13.45333],[108.09254,13.45794],[108.10114,13.46079],[108.11015,13.46193],[108.1192,13.46131],[108.13024,13.45856],[108.14142,13.45263],[108.15816,13.4496],[108.16547,13.44665],[108.17185,13.44271],[108.18374,13.4382],[108.19034,13.43421],[108.2073,13.4217],[108.21571,13.42138],[108.227,13.41813],[108.23824,13.41831],[108.24596,13.41752],[108.25124,13.41608],[108.2569,13.41747],[108.26656,13.41782],[108.27431,13.41665],[108.28166,13.41426],[108.28849,13.41069],[108.30849,13.39819],[108.31482,13.39304],[108.34515,13.38425],[108.3526,13.38401],[108.36139,13.382],[108.36961,13.37835],[108.37695,13.37319],[108.38357,13.36617],[108.39245,13.35308],[108.39724,13.34309],[108.40421,13.33593],[108.41149,13.32593],[108.41479,13.31848],[108.41668,13.31057],[108.41706,13.30335],[108.42567,13.30032],[108.43259,13.29647],[108.43917,13.29115],[108.44628,13.28302],[108.45069,13.27584],[108.4539,13.26673],[108.45742,13.261],[108.46227,13.24991],[108.46589,13.23518],[108.4667,13.22617],[108.46577,13.21819],[108.46655,13.21613],[108.49154,13.1964],[108.4983,13.18945],[108.50341,13.18126],[108.50721,13.17207],[108.51129,13.14977],[108.51857,13.1446],[108.52657,13.13653],[108.53114,13.1294],[108.53941,13.11341],[108.54758,13.10476],[108.55658,13.09333],[108.56126,13.08606],[108.56444,13.07805],[108.56565,13.07159],[108.575,13.07365],[108.58762,13.07446],[108.59319,13.07444],[108.60433,13.07273],[108.61048,13.07054],[108.61762,13.06674],[108.62293,13.06282],[108.63072,13.05543],[108.64392,13.05558],[108.65268,13.0537],[108.66194,13.0499],[108.66802,13.05465],[108.67843,13.05951],[108.68737,13.06148],[108.70485,13.06218],[108.70655,13.06283],[108.70568,13.07233],[108.70245,13.08379],[108.70226,13.09543],[108.70387,13.10458],[108.70735,13.11321],[108.71363,13.12226],[108.71427,13.13499],[108.71623,13.14414],[108.722,13.15602],[108.72537,13.161],[108.73153,13.16751],[108.73932,13.17294],[108.74784,13.18195],[108.75462,13.18652],[108.76212,13.18984],[108.7701,13.19179],[108.77998,13.19229],[108.78836,13.1953],[108.79739,13.19978],[108.80291,13.20121],[108.80348,13.21918],[108.80565,13.23099],[108.80879,13.23831],[108.8132,13.24498],[108.82282,13.25441],[108.82253,13.26102],[108.81198,13.2762],[108.80142,13.2978],[108.79226,13.30982],[108.77389,13.32911],[108.76702,13.34127],[108.76458,13.3475],[108.75958,13.3723],[108.75911,13.38622],[108.76076,13.39768],[108.75927,13.41472],[108.75188,13.4127],[108.74186,13.41203],[108.72848,13.41396],[108.71881,13.41729],[108.71271,13.41748],[108.70318,13.41911],[108.69421,13.42265],[108.68619,13.42795],[108.67888,13.43499],[108.67408,13.44196],[108.67075,13.44927],[108.66382,13.45886],[108.66066,13.4662],[108.65887,13.47398],[108.65882,13.48931],[108.66128,13.50208],[108.67242,13.53601],[108.67695,13.54325],[108.68277,13.54953],[108.69,13.55525],[108.69222,13.56264],[108.69796,13.5743],[108.71089,13.59294],[108.7147,13.5974],[108.72275,13.60403],[108.73002,13.60789],[108.74274,13.61127],[108.75449,13.61119],[108.77055,13.61968],[108.78524,13.62271],[108.81413,13.62223],[108.82236,13.62129],[108.83029,13.61893],[108.84104,13.61306],[108.84497,13.61393],[108.85446,13.6141],[108.86378,13.61234],[108.87254,13.60876],[108.88037,13.60348],[108.88693,13.59674],[108.89402,13.58618],[108.92133,13.58634],[108.9337,13.58432],[108.94196,13.58101],[108.95882,13.57171],[108.96254,13.57162],[108.97428,13.57359],[108.98421,13.57382],[108.99936,13.5718],[109.00311,13.57588],[109.01276,13.59171],[109.01893,13.59933],[109.02663,13.60548],[109.03549,13.60988],[109.04819,13.61358],[109.05749,13.6141],[109.06878,13.61352],[109.06954,13.61425],[109.07011,13.62051],[109.07335,13.63229],[109.07293,13.63568],[109.07399,13.64714],[109.07564,13.65399],[109.0796,13.66348],[109.08738,13.67427],[109.09624,13.68171],[109.10408,13.68591],[109.11141,13.68826],[109.11421,13.69649],[109.1194,13.70498],[109.12636,13.71215],[109.13486,13.71808],[109.14303,13.72157],[109.1572,13.7247],[109.16843,13.73317],[109.17783,13.73716],[109.18912,13.73932],[109.20052,13.73975],[109.20809,13.73937],[109.2169,13.73752],[109.22518,13.73402],[109.2326,13.72902],[109.23941,13.7219],[109.25197,13.71588],[109.25978,13.7107],[109.26613,13.70465],[109.27106,13.69804],[109.27437,13.69154],[109.27835,13.67937],[109.2791,13.67035],[109.27813,13.66236],[109.27889,13.65548],[109.27651,13.64065],[109.27936,13.63562],[109.28621,13.62599],[109.29281,13.61938],[109.3041,13.61807],[109.31373,13.61495],[109.32214,13.61016],[109.32899,13.60457],[109.33461,13.59779],[109.33893,13.59087],[109.34331,13.57977],[109.34462,13.56936],[109.34354,13.5585],[109.33892,13.54692],[109.34403,13.53745],[109.34615,13.53085],[109.3479,13.52007],[109.34755,13.5136],[109.35872,13.50577],[109.36713,13.49585],[109.37064,13.48982],[109.3736,13.48245],[109.37635,13.46752],[109.37523,13.45414],[109.37145,13.44335],[109.36417,13.43285],[109.36118,13.42437],[109.3579,13.41923],[109.35718,13.40847],[109.35559,13.40136],[109.35286,13.39459],[109.3485,13.38733],[109.34349,13.38159],[109.33771,13.37686],[109.34103,13.36457],[109.3416,13.35569],[109.34495,13.34523],[109.34561,13.33669],[109.34499,13.33209],[109.34865,13.33135],[109.3571,13.32783],[109.36468,13.32273],[109.37661,13.31223],[109.38313,13.30275],[109.38651,13.29476],[109.38833,13.2858],[109.38849,13.27794],[109.38725,13.27017],[109.38376,13.26072],[109.37812,13.25139],[109.37037,13.24366],[109.35652,13.23553],[109.34966,13.22517],[109.34898,13.21875],[109.34629,13.2109],[109.35214,13.20323],[109.35618,13.20005],[109.3628,13.19175],[109.36723,13.18242],[109.36939,13.17235],[109.36916,13.16188],[109.36763,13.15494],[109.365,13.14831],[109.3564,13.13596],[109.35238,13.13249],[109.36331,13.11871],[109.37278,13.1048],[109.38288,13.08527],[109.4076,13.04275],[109.44132,12.9997],[109.45767,12.98259],[109.46377,12.97751],[109.46925,12.97089],[109.47398,12.96192],[109.47662,12.9533],[109.48242,12.95003],[109.49024,12.94281],[109.49639,12.93405],[109.50003,12.92514],[109.50166,12.91567],[109.50164,12.9115],[109.50428,12.89957],[109.50311,12.87737],[109.49952,12.8656],[109.49945,12.85844],[109.49811,12.84974],[109.49508,12.84146],[109.48931,12.83236],[109.48209,12.82479],[109.47303,12.8187],[109.4597,12.81399],[109.4513,12.80788],[109.44605,12.8054],[109.43252,12.802],[109.42794,12.79686],[109.41954,12.78975],[109.41211,12.78561],[109.40488,12.78309],[109.39591,12.78167],[109.38799,12.78172],[109.37984,12.7832],[109.37069,12.78664],[109.36249,12.79189],[109.35561,12.79873],[109.35271,12.80296],[109.3418,12.79561],[109.3289,12.79123],[109.3177,12.79033],[109.30542,12.79249],[109.29069,12.78905],[109.26913,12.78878],[109.25563,12.7773],[109.24691,12.77251],[109.23548,12.76885],[109.22377,12.76809],[109.21371,12.76941],[109.20342,12.77261],[109.19271,12.77914],[109.19085,12.77004],[109.18602,12.76006],[109.1799,12.75192],[109.17387,12.74653],[109.16272,12.73969],[109.15268,12.73656],[109.1425,12.73537],[109.13439,12.73601],[109.13157,12.72923],[109.12513,12.7192],[109.11718,12.71129],[109.10818,12.70494],[109.09705,12.69997],[109.08797,12.69815],[109.0754,12.69816],[109.06609,12.70033],[109.06188,12.69978],[109.05784,12.69708],[109.0524,12.69499],[109.04471,12.68609],[109.0326,12.67778],[109.02761,12.66679],[109.02254,12.66015],[109.01633,12.65453],[108.99874,12.64275],[108.99026,12.63975],[108.98143,12.6383],[108.979,12.63144],[108.97477,12.62353],[108.9676,12.61491],[108.96295,12.61088],[108.96408,12.60024],[108.96342,12.59224],[108.96133,12.58448],[108.95787,12.5772],[108.95307,12.57016],[108.93999,12.55732],[108.93759,12.54185],[108.93283,12.52806],[108.92711,12.51914],[108.91989,12.51207],[108.9184,12.50067],[108.92175,12.49278],[108.92372,12.48385],[108.92392,12.47574],[108.92291,12.46727],[108.9195,12.45517],[108.91528,12.44747],[108.91451,12.4439],[108.90978,12.43242],[108.90226,12.42225],[108.8936,12.41532],[108.88394,12.4105],[108.87353,12.40802],[108.864,12.40764],[108.85501,12.40884],[108.82452,12.41948],[108.81723,12.42334],[108.79228,12.43963],[108.78296,12.44215],[108.7771,12.44532],[108.77235,12.44167],[108.75971,12.43499],[108.75167,12.43173],[108.74169,12.42986],[108.73216,12.42981],[108.72505,12.42315],[108.72584,12.41095],[108.73038,12.40091],[108.73449,12.38127],[108.73529,12.37128],[108.73464,12.36256],[108.73219,12.35242],[108.7293,12.34554],[108.73153,12.33178],[108.73132,12.32439],[108.72988,12.31575],[108.72399,12.3014],[108.72,12.29385],[108.7094,12.27814],[108.70351,12.2713],[108.69742,12.26574],[108.68684,12.25899],[108.6756,12.25424],[108.66333,12.25094],[108.64914,12.2489],[108.62977,12.24095],[108.62428,12.23983],[108.61446,12.23569],[108.60128,12.23271],[108.58965,12.23273],[108.58023,12.23489],[108.5689,12.24014],[108.56254,12.2449],[108.55559,12.24083],[108.5492,12.23832],[108.53286,12.2348],[108.51393,12.23212],[108.5068,12.23223],[108.49815,12.23358],[108.48556,12.23845],[108.48378,12.23718],[108.47918,12.22735],[108.4707,12.21732],[108.4603,12.21016],[108.45054,12.20624],[108.44152,12.20467],[108.43442,12.20481],[108.42848,12.20205],[108.42029,12.19961],[108.39951,12.19733],[108.38626,12.19694],[108.37505,12.19873],[108.37143,12.19466],[108.3628,12.18849],[108.35443,12.18469],[108.34984,12.18363],[108.34201,12.17891],[108.33487,12.17633],[108.33113,12.17182],[108.3246,12.16605],[108.31708,12.16159],[108.30385,12.15731],[108.29733,12.15681],[108.2941,12.14976],[108.28856,12.14213],[108.27446,12.12874],[108.26738,12.12343],[108.25695,12.11837],[108.25067,12.11659],[108.24194,12.11559],[108.23318,12.11623],[108.22469,12.11848],[108.21562,12.12281],[108.21173,12.12578],[108.1979,12.12523],[108.18491,12.12697],[108.17587,12.1291],[108.16886,12.13154],[108.16234,12.13505],[108.1552,12.1404],[108.13794,12.13293],[108.12374,12.13029],[108.11588,12.13041],[108.10723,12.132],[108.10029,12.13451],[108.09411,12.13791],[108.08484,12.14581],[108.07608,12.15771],[108.07109,12.16686],[108.068,12.17626],[108.0635,12.18004],[108.05776,12.18731],[108.05064,12.19892],[108.04394,12.21266],[108.02231,12.23052],[108.0132,12.23955],[108.00756,12.24685],[107.99715,12.25155],[107.98997,12.25326],[107.97414,12.25168],[107.96492,12.25309],[107.95617,12.2563],[107.94826,12.26117],[107.94152,12.2675],[107.93483,12.2775],[107.92833,12.28107],[107.91855,12.28842],[107.90666,12.30074],[107.90138,12.31066],[107.89842,12.31381],[107.89242,12.32381],[107.88669,12.34148],[107.88513,12.3527],[107.87958,12.3612],[107.87057,12.3809],[107.8676,12.39023],[107.86675,12.39996],[107.86793,12.41235],[107.8708,12.42085],[107.87665,12.43045],[107.87994,12.44381],[107.88421,12.45227],[107.89017,12.45967],[107.89954,12.46795],[107.90712,12.47214],[107.91972,12.47588],[107.9313,12.48215],[107.92912,12.48349],[107.91848,12.48074],[107.90739,12.48064],[107.90028,12.48159],[107.8934,12.48361],[107.88207,12.48859],[107.87579,12.493],[107.86981,12.49899],[107.85961,12.50515],[107.85323,12.51157],[107.84716,12.5212],[107.84342,12.53098],[107.84206,12.54134],[107.84295,12.55357],[107.84691,12.56684],[107.84963,12.57129],[107.85033,12.57571],[107.85351,12.58419],[107.85835,12.59187],[107.86464,12.59846],[107.87968,12.61031],[107.86853,12.62111],[107.86442,12.62722],[107.86127,12.63419],[107.85948,12.64062],[107.85852,12.65028],[107.85911,12.65803],[107.86056,12.66426],[107.85949,12.67422],[107.86022,12.68308],[107.85367,12.69375],[107.85066,12.70351],[107.85022,12.71004],[107.83484,12.71882],[107.8262,12.7263],[107.81827,12.7361],[107.81178,12.73436],[107.803,12.73372],[107.77788,12.73424],[107.72997,12.73834],[107.66084,12.75132],[107.63629,12.75382],[107.61245,12.75343],[107.56694,12.7485],[107.55805,12.74838],[107.54929,12.74995],[107.54101,12.75313],[107.5335,12.75782],[107.52126,12.7704],[107.51633,12.77715],[107.51039,12.78857],[107.50737,12.79976],[107.50086,12.80328],[107.49408,12.80885],[107.4885,12.81558],[107.48659,12.8191],[107.48353,12.82096],[107.47679,12.82719],[107.47146,12.83461],[107.46767,12.84318],[107.46025,12.85222],[107.4542,12.86291],[107.44884,12.87642],[107.44537,12.89082],[107.44474,12.90033],[107.44616,12.90975],[107.44804,12.9147],[107.44248,12.92595],[107.43876,12.93798],[107.43821,12.95075]]]}}]}